{"type":"Feature","id":"bulk-99377448B83565880411195","bbox":[108.67730712900001,18.382080078,109.39770507800002,18.910705566],"properties":{"id":"bulk-99377448B83565880411195","name":"Ledong Li Autonomous County","nameEn":"Ledong Li Autonomous County","fullName":"Ledong Li Autonomous County","level":"city","boundaryRole":"administrative-extent","boundaryQuality":"generalized-source-2020","boundaryYearRepresented":"2020","bounds":[[108.67730712900001,18.382080078],[109.39770507800002,18.910705566]],"center":[109.03750610350002,18.646392822000003],"centerMethod":"bounding-box midpoint; camera framing only","license":"CC-BY-3.0-IGO","attribution":"geoBoundaries / HDX, China administrative boundaries (2020)","source":{"provider":"geoBoundaries gbHumanitarian / HDX","url":"https://github.com/wmgeolab/geoBoundaries/raw/9469f09/releaseData/gbHumanitarian/CHN/ADM2/geoBoundaries-CHN-ADM2.geojson","metadataUrl":"https://www.geoboundaries.org/api/current/gbHumanitarian/CHN/ADM2/","shapeID":"99377448B83565880411195","shapeName":"Ledong Li Autonomous County","boundaryID":"CHN-ADM2-99377448","commit":"9469f09"},"geometryCounts":{"coordinates":488,"components":2,"holes":0},"boundaryNotice":"geoBoundaries / HDX 2020 年行政区数据，海岸和边界经过源数据概化，并非当前测绘成果。"},"geometry":{"type":"MultiPolygon","coordinates":[[[[108.88189697300001,18.424926758],[108.88848877,18.426330566],[108.88348388700001,18.428894043],[108.86608886700002,18.432922363],[108.86651611300002,18.430725098],[108.86968994100002,18.428527832],[108.87628173800002,18.42767334],[108.88189697300001,18.424926758]]],[[[109.11627197300001,18.874328613],[109.11730957000002,18.869689941],[109.11389160200001,18.864074707],[109.11328125000001,18.862121582],[109.11187744100002,18.858093262],[109.10491943400001,18.854919434],[109.09649658200001,18.852478027],[109.08929443400001,18.845275879],[109.08227539100001,18.841125488],[109.07189941400001,18.828125],[109.07092285200001,18.819519043],[109.06872558600001,18.810119629],[109.06372070300002,18.805114746],[109.05487060500002,18.801086426],[109.04010009800001,18.805114746],[109.02587890600002,18.806274414],[109.01092529300001,18.806091309],[109.00091552700002,18.806518555],[108.99353027300002,18.798278809],[108.98651123000002,18.790100098],[108.98327636700002,18.787902832],[108.97430419900002,18.78692627],[108.96551513700001,18.788085937],[108.95751953100002,18.787475586],[108.94989013700001,18.788879395],[108.93487548800002,18.790100098],[108.92492675800001,18.792114258],[108.91308593700002,18.789306641],[108.90631103500002,18.78729248],[108.89770507800002,18.785095215],[108.89208984400001,18.782897949],[108.88610839800002,18.779724121],[108.88189697300001,18.776123047],[108.87207031200002,18.769714355],[108.86328125000001,18.761474609],[108.85150146500001,18.756530762],[108.84069824200002,18.752685547],[108.83087158200001,18.745117187],[108.82489013700001,18.740112305],[108.81567382800002,18.730285645],[108.80767822300001,18.721923828],[108.80029296900001,18.721923828],[108.79229736300002,18.723083496],[108.78570556600002,18.723876953],[108.78009033200001,18.722900391],[108.77392578100002,18.717529297],[108.77069091800001,18.719726562],[108.76531982400002,18.726318359],[108.75787353500002,18.733886719],[108.75207519500002,18.735717773],[108.74371337900001,18.732299805],[108.73431396500001,18.732116699],[108.72747802700002,18.731872559],[108.72088623000002,18.731323242],[108.71472168000001,18.731506348],[108.70947265600002,18.730285645],[108.69927978500002,18.723327637],[108.69787597700001,18.723083496],[108.69891357400002,18.721313477],[108.69787597700001,18.717895508],[108.69830322300001,18.717895508],[108.69830322300001,18.716918945],[108.69787597700001,18.716918945],[108.69787597700001,18.716674805],[108.69769287100002,18.716674805],[108.69769287100002,18.716308594],[108.69750976600001,18.716308594],[108.69628906200002,18.711486816],[108.69647216800001,18.711486816],[108.69647216800001,18.711303711],[108.69689941400001,18.711303711],[108.69689941400001,18.711120605],[108.69708252,18.710876465],[108.69708252,18.710510254],[108.69750976600001,18.710510254],[108.69750976600001,18.709716797],[108.69769287100002,18.709716797],[108.69769287100002,18.709106445],[108.69787597700001,18.709106445],[108.69787597700001,18.708496094],[108.69830322300001,18.708496094],[108.69830322300001,18.707275391],[108.69848632800002,18.707275391],[108.69848632800002,18.706115723],[108.69873046900001,18.706115723],[108.69873046900001,18.704711914],[108.69909668000001,18.704711914],[108.69909668000001,18.702880859],[108.69927978500002,18.702880859],[108.69927978500002,18.700683594],[108.69970703100002,18.700683594],[108.69970703100002,18.700500488],[108.69927978500002,18.700500488],[108.69927978500002,18.69909668],[108.69909668000001,18.69909668],[108.69909668000001,18.698303223],[108.69873046900001,18.698303223],[108.69873046900001,18.697875977],[108.69909668000001,18.697875977],[108.69909668000001,18.696472168],[108.69873046900001,18.696472168],[108.69873046900001,18.696289062],[108.69848632800002,18.696289062],[108.69848632800002,18.696105957],[108.69830322300001,18.696105957],[108.69830322300001,18.695495605],[108.69787597700001,18.695495605],[108.69787597700001,18.695129395],[108.69769287100002,18.695129395],[108.69769287100002,18.694885254],[108.69750976600001,18.694885254],[108.69750976600001,18.694702148],[108.69689941400001,18.694702148],[108.69689941400001,18.694274902],[108.69647216800001,18.694274902],[108.69647216800001,18.694091797],[108.69628906200002,18.694091797],[108.69628906200002,18.693725586],[108.69610595700001,18.693725586],[108.69610595700001,18.692871094],[108.69628906200002,18.692871094],[108.69628906200002,18.691894531],[108.69610595700001,18.691894531],[108.69610595700001,18.69128418],[108.69567871100001,18.69128418],[108.69567871100001,18.690673828],[108.703125,18.680480957],[108.70690918000001,18.659484863],[108.70611572300001,18.653930664],[108.70129394500002,18.644897461],[108.70190429700001,18.642883301],[108.70208740200002,18.642883301],[108.70208740200002,18.641906738],[108.70190429700001,18.641906738],[108.70190429700001,18.641479492],[108.70129394500002,18.641479492],[108.70111084000001,18.640686035],[108.70367431600002,18.629089355],[108.70227050800001,18.620483398],[108.69769287100002,18.610107422],[108.69769287100002,18.609924316],[108.69750976600001,18.60949707],[108.69750976600001,18.608886719],[108.69708252,18.608886719],[108.69708252,18.607910156],[108.69689941400001,18.607910156],[108.69689941400001,18.606872559],[108.69647216800001,18.606872559],[108.69647216800001,18.606079102],[108.69628906200002,18.606079102],[108.69628906200002,18.605285645],[108.69610595700001,18.605285645],[108.69610595700001,18.604309082],[108.69567871100001,18.604309082],[108.69567871100001,18.603515625],[108.69549560500002,18.603515625],[108.69549560500002,18.602722168],[108.695129395,18.602722168],[108.695129395,18.601928711],[108.69488525400001,18.601928711],[108.69488525400001,18.601074219],[108.69470214800002,18.601074219],[108.69470214800002,18.600524902],[108.69427490200002,18.600524902],[108.69427490200002,18.59967041],[108.69409179700001,18.59967041],[108.69409179700001,18.598876953],[108.69372558600001,18.598876953],[108.69372558600001,18.598327637],[108.69348144500002,18.598327637],[108.69348144500002,18.597473145],[108.69329834000001,18.597473145],[108.69329834000001,18.596923828],[108.69287109400001,18.596923828],[108.69287109400001,18.596313477],[108.69268798800002,18.596313477],[108.69268798800002,18.59552002],[108.69250488300001,18.59552002],[108.69250488300001,18.594909668],[108.69207763700001,18.594909668],[108.69207763700001,18.594116211],[108.69189453100002,18.594116211],[108.69189453100002,18.593505859],[108.69152832000002,18.593505859],[108.69152832000002,18.592895508],[108.69128418000001,18.593078613],[108.69128418000001,18.592102051],[108.69110107400002,18.592102051],[108.69110107400002,18.591674805],[108.69067382800002,18.591674805],[108.69067382800002,18.590881348],[108.69049072300001,18.590881348],[108.69049072300001,18.590515137],[108.69012451200001,18.590515137],[108.69012451200001,18.58972168],[108.68988037100002,18.58972168],[108.68988037100002,18.589111328],[108.68969726600001,18.589111328],[108.68969726600001,18.588500977],[108.68927002,18.588500977],[108.68927002,18.587890625],[108.68908691400001,18.58807373],[108.68908691400001,18.587280273],[108.68890380900001,18.587280273],[108.68890380900001,18.586914062],[108.68847656200002,18.586914062],[108.68847656200002,18.586486816],[108.68829345700001,18.586486816],[108.68829345700001,18.586303711],[108.68792724600002,18.586303711],[108.68792724600002,18.585693359],[108.68768310500002,18.585693359],[108.68768310500002,18.585510254],[108.6875,18.585510254],[108.6875,18.584289551],[108.68768310500002,18.584289551],[108.68768310500002,18.582885742],[108.6875,18.582885742],[108.6875,18.582275391],[108.68707275400001,18.582275391],[108.68707275400001,18.58190918],[108.68688964800002,18.58190918],[108.68688964800002,18.581298828],[108.68627929700001,18.581298828],[108.68627929700001,18.581115723],[108.68609619100002,18.581115723],[108.68609619100002,18.580688477],[108.68548584000001,18.580688477],[108.68548584000001,18.580505371],[108.68530273400002,18.580505371],[108.68511962900001,18.580505371],[108.68511962900001,18.580322266],[108.68511962900001,18.57989502],[108.68487548800002,18.57989502],[108.68487548800002,18.579711914],[108.68469238300001,18.579711914],[108.68469238300001,18.579101562],[108.68432617200001,18.579101562],[108.68432617200001,18.578491211],[108.68408203100002,18.578491211],[108.68408203100002,18.577880859],[108.68389892600001,18.577880859],[108.68389892600001,18.577270508],[108.68347168000001,18.577270508],[108.68347168000001,18.577087402],[108.68328857400002,18.577087402],[108.68328857400002,18.576721191],[108.68292236300002,18.575927734],[108.68292236300002,18.575683594],[108.67730712900001,18.559082031],[108.68792724600002,18.513916016],[108.69207763700001,18.506896973],[108.69909668000001,18.50012207],[108.70892334000001,18.496276855],[108.71130371100001,18.495910645],[108.71130371100001,18.49609375],[108.71228027300002,18.49609375],[108.71228027300002,18.495727539],[108.71252441400001,18.495727539],[108.71289062500001,18.495727539],[108.71551513700001,18.495300293],[108.74212646500001,18.49609375],[108.75488281200002,18.491882324],[108.75732421900001,18.491088867],[108.796875,18.484924316],[108.80371093700002,18.48248291],[108.82373046900001,18.470703125],[108.83312988300001,18.463317871],[108.83331298800002,18.46307373],[108.83349609400001,18.462890625],[108.83367919900002,18.46307373],[108.83367919900002,18.462890625],[108.83367919900002,18.46270752],[108.83392334000001,18.46270752],[108.83428955100001,18.46270752],[108.83447265600002,18.462280273],[108.83447265600002,18.462097168],[108.83471679700001,18.462097168],[108.83471679700001,18.461914062],[108.83489990200002,18.461914062],[108.83508300800001,18.461914062],[108.83508300800001,18.461486816],[108.83551025400001,18.461486816],[108.83551025400001,18.461303711],[108.83569335900002,18.461303711],[108.83587646500001,18.461120605],[108.83612060500002,18.460876465],[108.83630371100001,18.460693359],[108.83648681600002,18.460510254],[108.83691406200002,18.460510254],[108.83691406200002,18.460083008],[108.83728027300002,18.460083008],[108.83728027300002,18.459899902],[108.83770752,18.459899902],[108.83770752,18.459716797],[108.83789062500001,18.459716797],[108.83789062500001,18.459472656],[108.83807373000002,18.459289551],[108.83831787100002,18.459289551],[108.83831787100002,18.459106445],[108.83868408200001,18.459106445],[108.83868408200001,18.458679199],[108.83911132800002,18.458679199],[108.83911132800002,18.458496094],[108.83929443400001,18.458496094],[108.83929443400001,18.458312988],[108.83947753900001,18.458312988],[108.83972168000001,18.458312988],[108.83972168000001,18.457885742],[108.83990478500002,18.457885742],[108.84051513700001,18.457275391],[108.84112548800002,18.45690918],[108.84130859400001,18.456726074],[108.84149169900002,18.456481934],[108.84167480500001,18.456481934],[108.847473145,18.451721191],[108.85430908200001,18.443908691],[108.85772705100001,18.446472168],[108.86791992200001,18.439086914],[108.87847900400001,18.434082031],[108.89471435500002,18.430480957],[108.89532470700001,18.428527832],[108.89208984400001,18.424682617],[108.89367675800001,18.422912598],[108.91827392600001,18.42010498],[108.92871093700002,18.416687012],[108.94427490200002,18.409301758],[108.94671630900001,18.409484863],[108.95050048800002,18.413879395],[108.95471191400001,18.40612793],[108.95690918000001,18.40411377],[108.96228027300002,18.403320312],[108.96649169900002,18.398681641],[108.97387695300002,18.385314941],[108.97711181600002,18.382080078],[108.98632812500001,18.395324707],[108.99047851600001,18.395874023],[108.99468994100002,18.398071289],[108.99951171900001,18.402099609],[109.00311279300001,18.409484863],[109.00732421900001,18.416687012],[109.01550293000001,18.423522949],[109.02667236300002,18.428527832],[109.03991699200002,18.434875488],[109.04248046900001,18.435302734],[109.04949951200001,18.434692383],[109.05712890600002,18.437072754],[109.06848144500002,18.441101074],[109.07189941400001,18.441101074],[109.07592773400002,18.438903809],[109.08288574200002,18.43951416],[109.08428955100001,18.4453125],[109.08691406200002,18.452880859],[109.09588623000002,18.459899902],[109.10467529300001,18.463317871],[109.11730957000002,18.460876465],[109.12652587900001,18.460510254],[109.13488769500002,18.462890625],[109.14172363300001,18.464111328],[109.15032959000001,18.464904785],[109.15692138700001,18.461730957],[109.16369628900001,18.456115723],[109.16772460900002,18.454284668],[109.17730712900001,18.453308105],[109.18109130900001,18.454101562],[109.18487548800002,18.460876465],[109.18688964800002,18.471313477],[109.18768310500002,18.480285645],[109.18707275400001,18.488891602],[109.18347168000001,18.497070312],[109.18090820300002,18.49987793],[109.17810058600001,18.508300781],[109.17730712900001,18.516723633],[109.17968750000001,18.523925781],[109.18768310500002,18.532714844],[109.19049072300001,18.536071777],[109.19329834000001,18.540100098],[109.19409179700001,18.542480469],[109.195129395,18.546691895],[109.19671630900001,18.551879883],[109.19970703100002,18.556274414],[109.20849609400001,18.55847168],[109.21728515600002,18.556518555],[109.22308349600002,18.554321289],[109.22967529300001,18.553894043],[109.23413085900002,18.555908203],[109.24127197300001,18.55871582],[109.24951171900001,18.557495117],[109.25390625000001,18.553527832],[109.26251220700001,18.542297363],[109.27032470700001,18.535522461],[109.27728271500001,18.531494141],[109.28387451200001,18.528503418],[109.28808593700002,18.523681641],[109.29089355500001,18.521118164],[109.29528808600001,18.519104004],[109.30230712900001,18.522094727],[109.30847168000001,18.527709961],[109.31170654300001,18.531677246],[109.31188964800002,18.539306641],[109.31109619100002,18.546691895],[109.31091308600001,18.553283691],[109.31408691400001,18.558105469],[109.32110595700001,18.563720703],[109.32489013700001,18.568481445],[109.33007812500001,18.575683594],[109.33447265600002,18.578308105],[109.34387207000002,18.581115723],[109.35211181600002,18.585083008],[109.35949707000002,18.589111328],[109.36730957000002,18.593505859],[109.37567138700001,18.601318359],[109.38427734400001,18.612121582],[109.39727783200001,18.619689941],[109.39770507800002,18.627075195],[109.39630127,18.631530762],[109.39367675800001,18.637512207],[109.39312744100002,18.64251709],[109.39331054700001,18.649108887],[109.39392089800002,18.653686523],[109.39428710900002,18.656494141],[109.39367675800001,18.66027832],[109.39367675800001,18.664306641],[109.39093017600001,18.67010498],[109.37890625000001,18.679504395],[109.37188720700001,18.684326172],[109.36889648400002,18.687072754],[109.36450195300002,18.691894531],[109.35968017600001,18.697875977],[109.35809326200001,18.700317383],[109.35449218700002,18.706115723],[109.35150146500001,18.714477539],[109.35089111300002,18.717712402],[109.35009765600002,18.723876953],[109.35089111300002,18.728515625],[109.35192871100001,18.732299805],[109.35168457000002,18.736083984],[109.35052490200002,18.741088867],[109.34948730500001,18.745910645],[109.34991455100001,18.751098633],[109.35009765600002,18.755310059],[109.34710693400001,18.760681152],[109.34552002,18.764282227],[109.34649658200001,18.767272949],[109.34808349600002,18.77331543],[109.34948730500001,18.777099609],[109.35552978500002,18.783081055],[109.36169433600001,18.804321289],[109.36572265600002,18.828125],[109.363098145,18.84588623],[109.35412597700001,18.863708496],[109.34667968700002,18.873901367],[109.34051513700001,18.88470459],[109.33789062500001,18.893676758],[109.33032226600001,18.903076172],[109.31927490200002,18.907897949],[109.30651855500001,18.910095215],[109.28930664100001,18.910705566],[109.27429199200002,18.907287598],[109.25592041000002,18.903686523],[109.25531005900001,18.903076172],[109.25207519500002,18.900695801],[109.24951171900001,18.899475098],[109.24011230500001,18.897521973],[109.23229980500001,18.897521973],[109.22229003900001,18.895874023],[109.21191406200002,18.891723633],[109.20349121100001,18.893127441],[109.20092773400002,18.893676758],[109.19708252,18.895080566],[109.18432617200001,18.900085449],[109.18090820300002,18.906494141],[109.17028808600001,18.909912109],[109.15472412100002,18.904724121],[109.14331054700001,18.90411377],[109.13629150400001,18.897888184],[109.13287353500002,18.891479492],[109.12768554700001,18.882507324],[109.12292480500001,18.876098633],[109.11627197300001,18.874328613]]]]}}
