{"type":"Feature","id":"bulk-99377448B10162480041859","bbox":[105.75408935500002,37.083312988,107.63372802700002,38.367675781],"properties":{"id":"bulk-99377448B10162480041859","name":"Wuzhong","nameEn":"Wuzhong","fullName":"Wuzhong","level":"city","boundaryRole":"administrative-extent","boundaryQuality":"generalized-source-2020","boundaryYearRepresented":"2020","bounds":[[105.75408935500002,37.083312988],[107.63372802700002,38.367675781]],"center":[106.69390869100002,37.7254943845],"centerMethod":"bounding-box midpoint; camera framing only","license":"CC-BY-3.0-IGO","attribution":"geoBoundaries / HDX, China administrative boundaries (2020)","source":{"provider":"geoBoundaries gbHumanitarian / HDX","url":"https://github.com/wmgeolab/geoBoundaries/raw/9469f09/releaseData/gbHumanitarian/CHN/ADM2/geoBoundaries-CHN-ADM2.geojson","metadataUrl":"https://www.geoboundaries.org/api/current/gbHumanitarian/CHN/ADM2/","shapeID":"99377448B10162480041859","shapeName":"Wuzhong","boundaryID":"CHN-ADM2-99377448","commit":"9469f09"},"geometryCounts":{"coordinates":94,"components":1,"holes":0},"boundaryNotice":"geoBoundaries / HDX 2020 年行政区数据，海岸和边界经过源数据概化，并非当前测绘成果。"},"geometry":{"type":"Polygon","coordinates":[[[105.82171630900001,37.855102539],[106.24291992200001,37.649475098],[106.40887451200001,37.353271484],[106.61248779300001,37.108886719],[106.61889648400002,37.108276367],[106.67767334000001,37.101928711],[106.71032714800002,37.098876953],[106.72949218700002,37.106872559],[106.73529052700002,37.126281738],[106.74090576200001,37.145324707],[106.75347900400001,37.153076172],[106.77990722700001,37.14630127],[106.81347656200002,37.123718262],[106.84710693400001,37.10168457],[106.86651611300002,37.102111816],[106.878723145,37.121276855],[106.89807128900001,37.125488281],[106.92492675800001,37.110107422],[106.93188476600001,37.095275879],[106.95812988300001,37.092102051],[106.99047851600001,37.100280762],[107.01568603500002,37.120117187],[107.08709716800001,37.125488281],[107.16571044900002,37.115905762],[107.18572998000002,37.105102539],[107.22552490200002,37.083312988],[107.24511718700002,37.083679199],[107.25769043000001,37.095275879],[107.28369140600002,37.09588623],[107.29608154300001,37.111083984],[107.30212402300002,37.126281738],[107.30767822300001,37.153320312],[107.30047607400002,37.168273926],[107.25408935500002,37.194274902],[107.22052002,37.219909668],[107.21270752,37.254882812],[107.23828125000001,37.266906738],[107.25750732400002,37.278686523],[107.25671386700002,37.297485352],[107.22991943400001,37.316101074],[107.18890380900001,37.365478516],[107.20727539100001,37.401123047],[107.24212646500001,37.437927246],[107.30352783200001,37.49230957],[107.32672119100002,37.551086426],[107.27893066400001,37.566894531],[107.33349609400001,37.617492676],[107.36108398400002,37.68347168],[107.44927978500002,37.703918457],[107.45269775400001,37.741882324],[107.49267578100002,37.758728027],[107.58367919900002,37.765686035],[107.62408447300001,37.801879883],[107.63372802700002,37.876708984],[107.59027099600002,37.88067627],[107.554504395,37.880126953],[107.50567627,37.881896973],[107.45867919900002,37.904724121],[107.44128418000001,37.942504883],[107.41748046900001,37.99407959],[107.37188720700001,38.036499023],[107.30651855500001,38.113098145],[107.28747558600001,38.126708984],[107.23669433600001,38.149475098],[107.15270996100001,38.155700684],[107.07629394500002,38.122070312],[107.04510498000002,38.102111816],[107.01092529300001,38.101318359],[106.80712890600002,38.156677246],[106.58410644500002,38.259094238],[106.51831054700001,38.301086426],[106.46112060500002,38.319702148],[106.42852783200001,38.348083496],[106.40832519500002,38.367675781],[106.37652587900001,38.340515137],[106.33111572300001,38.272521973],[106.30548095700001,38.24810791],[106.27667236300002,38.217895508],[106.25592041000002,38.194885254],[106.22790527300002,38.135498047],[106.14752197300001,38.153686523],[106.09692382800002,38.168701172],[106.046875,38.18170166],[106.00329589800002,38.183898926],[105.96429443400001,38.196472168],[105.90991210900002,38.234313965],[105.863098145,38.251281738],[105.80133056600002,38.263305664],[105.75408935500002,38.160705566],[105.79132080100001,38.112915039],[105.85247802700002,38.054077148],[105.87170410200001,37.980895996],[105.86907959000001,37.919677734],[105.82171630900001,37.855102539]]]}}
