{"type":"Feature","id":"bulk-99377448B9556714876935","bbox":[98.63452148400002,26.884887695,100.39093017600001,29.22088623],"properties":{"id":"bulk-99377448B9556714876935","name":"Dêqên Tibetan Autonomous Prefecture","nameEn":"Dêqên Tibetan Autonomous Prefecture","fullName":"Dêqên Tibetan Autonomous Prefecture","level":"city","boundaryRole":"administrative-extent","boundaryQuality":"generalized-source-2020","boundaryYearRepresented":"2020","bounds":[[98.63452148400002,26.884887695],[100.39093017600001,29.22088623]],"center":[99.51272583000002,28.0528869625],"centerMethod":"bounding-box midpoint; camera framing only","license":"CC-BY-3.0-IGO","attribution":"geoBoundaries / HDX, China administrative boundaries (2020)","source":{"provider":"geoBoundaries gbHumanitarian / HDX","url":"https://github.com/wmgeolab/geoBoundaries/raw/9469f09/releaseData/gbHumanitarian/CHN/ADM2/geoBoundaries-CHN-ADM2.geojson","metadataUrl":"https://www.geoboundaries.org/api/current/gbHumanitarian/CHN/ADM2/","shapeID":"99377448B9556714876935","shapeName":"Dêqên Tibetan Autonomous Prefecture","boundaryID":"CHN-ADM2-99377448","commit":"9469f09"},"geometryCounts":{"coordinates":248,"components":1,"holes":0},"boundaryNotice":"geoBoundaries / HDX 2020 年行政区数据，海岸和边界经过源数据概化，并非当前测绘成果。"},"geometry":{"type":"Polygon","coordinates":[[[99.15270996100001,29.22088623],[99.07708740200002,29.203125],[99.04467773400002,29.200073242],[99.01208496100001,29.200500488],[98.98950195300002,29.184326172],[98.99688720700001,29.128723145],[99.01251220700001,29.102111816],[99.03149414100001,29.082702637],[99.03588867200001,29.047912598],[99.02252197300001,29.025512695],[98.97052002,28.985290527],[98.94049072300001,28.933288574],[98.94592285200001,28.891479492],[98.97729492200001,28.869873047],[98.97912597700001,28.855895996],[98.96490478500002,28.840515137],[98.89508056600002,28.812683105],[98.85388183600001,28.815673828],[98.84808349600002,28.829101562],[98.84027099600002,28.888305664],[98.82269287100002,28.960510254],[98.80407714800002,29.007873535],[98.77447509800001,29.015686035],[98.73327636700002,28.986877441],[98.68292236300002,28.967895508],[98.66851806600002,28.952514648],[98.68890380900001,28.922729492],[98.68872070300002,28.862915039],[98.69647216800001,28.835510254],[98.69030761700002,28.820678711],[98.67248535200001,28.801330566],[98.70568847700001,28.765930176],[98.71289062500001,28.741882324],[98.70367431600002,28.719909668],[98.69891357400002,28.694702148],[98.67651367200001,28.678527832],[98.63452148400002,28.66229248],[98.66687011700002,28.536499023],[98.71051025400001,28.452697754],[98.72967529300001,28.426086426],[98.75531005900001,28.390075684],[98.76489257800002,28.317077637],[98.72790527300002,28.22869873],[98.68811035200001,28.164123535],[98.71069335900002,28.120910645],[98.72052002,28.086914062],[98.74291992200001,28.066711426],[98.77227783200001,28.033325195],[98.78167724600002,28.004089355],[98.788085937,27.972106934],[98.79071044900002,27.942321777],[98.79290771500001,27.908081055],[98.79608154300001,27.874511719],[98.79632568400001,27.835083008],[98.79547119100002,27.795898437],[98.80688476600001,27.765686035],[98.846679687,27.740905762],[98.86529541000002,27.718078613],[98.85888671900001,27.687927246],[98.84069824200002,27.655517578],[98.85992431600002,27.62487793],[98.88970947300001,27.588317871],[98.90130615200002,27.558288574],[98.89868164100001,27.526123047],[98.88470459000001,27.48828125],[98.88452148400002,27.441711426],[98.887695312,27.413513184],[98.89129638700001,27.376708984],[98.90051269500002,27.33770752],[98.92669677700002,27.303283691],[98.97351074200002,27.279907227],[98.995910645,27.253723145],[98.979492187,27.225891113],[98.97509765600002,27.184082031],[98.96130371100001,27.156494141],[98.96807861300002,27.121704102],[98.97570800800001,27.083679199],[98.972473145,27.055297852],[98.95227050800001,27.003295898],[98.95532226600001,26.962097168],[98.99688720700001,26.941711426],[99.04449462900001,26.958312988],[99.07568359400001,26.96472168],[99.12609863300001,26.977111816],[99.15570068400001,26.985107422],[99.20288085900002,26.989685059],[99.24847412100002,27.002075195],[99.25927734400001,27.04309082],[99.296691895,27.024475098],[99.313476562,26.989318848],[99.33709716800001,26.955078125],[99.34509277300002,26.910888672],[99.37451171900001,26.887878418],[99.39788818400001,26.915710449],[99.41931152300002,26.938720703],[99.44671630900001,26.96307373],[99.42712402300002,27.002075195],[99.41290283200001,27.044677734],[99.41589355500001,27.077087402],[99.42468261700002,27.10748291],[99.39532470700001,27.136901855],[99.37689209000001,27.17767334],[99.39648437500001,27.200927734],[99.39508056600002,27.233520508],[99.39947509800001,27.264892578],[99.40570068400001,27.294921875],[99.40350341800001,27.331481934],[99.39807128900001,27.360290527],[99.39270019500002,27.397888184],[99.40209960900002,27.426879883],[99.43310546900001,27.437927246],[99.49371337900001,27.451293945],[99.52069091800001,27.471923828],[99.52770996100001,27.521118164],[99.54272460900002,27.545288086],[99.56292724600002,27.579528809],[99.58007812500001,27.546325684],[99.58990478500002,27.514099121],[99.60247802700002,27.480285645],[99.62890625000001,27.441711426],[99.63287353500002,27.414306641],[99.65112304700001,27.390930176],[99.67230224600002,27.361328125],[99.67492675800001,27.33190918],[99.68908691400001,27.307678223],[99.71710205100001,27.289489746],[99.76391601600001,27.255310059],[99.79449462900001,27.233276367],[99.83068847700001,27.20111084],[99.84588623,27.175292969],[99.863098145,27.146911621],[99.89190673800002,27.112487793],[99.91070556600002,27.090515137],[99.93090820300002,27.069702148],[99.96209716800001,27.032287598],[99.98211669900002,27.001098633],[99.97650146500001,26.971496582],[99.96710205100001,26.938903809],[99.97210693400001,26.909729004],[100.00152587900001,26.884887695],[100.02947998,26.895507812],[100.05151367200001,26.920288086],[100.06427002,26.954284668],[100.07891845700001,26.981079102],[100.09088134800001,27.01751709],[100.09729003900001,27.06048584],[100.09552002,27.092895508],[100.097473145,27.130493164],[100.09271240200002,27.170288086],[100.10607910200001,27.19909668],[100.13470459000001,27.225524902],[100.163879395,27.247070312],[100.19311523400002,27.261474609],[100.22290039100001,27.27532959],[100.25152587900001,27.305297852],[100.25610351600001,27.336914062],[100.24169921900001,27.371887207],[100.22912597700001,27.403686523],[100.22027587900001,27.43548584],[100.20208740200002,27.459899902],[100.19689941400001,27.487304687],[100.22052002,27.505493164],[100.23413085900002,27.530273437],[100.24407959000001,27.565490723],[100.27191162100002,27.58807373],[100.27929687500001,27.620483398],[100.29791259800001,27.649291992],[100.30908203100002,27.690917969],[100.33129882800002,27.71307373],[100.36047363300001,27.727111816],[100.39093017600001,27.752685547],[100.37231445300002,27.738525391],[100.33648681600002,27.747070312],[100.29809570300002,27.814880371],[100.32690429700001,27.841674805],[100.29107666000002,27.867492676],[100.22387695300002,27.882324219],[100.195495605,27.905090332],[100.20050048800002,27.943908691],[100.20092773400002,27.947875977],[100.14093017600001,27.996704102],[100.06707763700001,28.082885742],[100.05389404300001,28.1796875],[100.06127929700001,28.187683105],[100.10430908200001,28.189697266],[100.13952636700002,28.187316895],[100.16149902300002,28.220703125],[100.18988037100002,28.26171875],[100.17010498,28.271728516],[100.17047119100002,28.29510498],[100.17712402300002,28.300292969],[100.152526855,28.34387207],[100.14392089800002,28.356689453],[100.12451171900001,28.355102539],[100.10668945300002,28.356079102],[100.09112548800002,28.365722656],[100.097473145,28.39050293],[100.05249023400002,28.431518555],[100.03210449200002,28.46472168],[100.00787353500002,28.495117187],[100.00512695300002,28.528076172],[100.00531005900001,28.543273926],[99.98870849600002,28.561706543],[99.97271728500002,28.590515137],[99.94671630900001,28.637084961],[99.92492675800001,28.627929687],[99.879882812,28.580871582],[99.85607910200001,28.571472168],[99.87048339800002,28.615905762],[99.79309082000002,28.716918945],[99.75189209000001,28.74029541],[99.76409912100002,28.795288086],[99.75311279300001,28.817687988],[99.74169921900001,28.859680176],[99.70251464800002,28.840881348],[99.64129638700001,28.788696289],[99.64367675800001,28.735107422],[99.62689209000001,28.721313477],[99.60870361300002,28.706726074],[99.59307861300002,28.698913574],[99.578125,28.668884277],[99.56011962900001,28.612304687],[99.52307128900001,28.575683594],[99.46807861300002,28.542907715],[99.43670654300001,28.53729248],[99.40148925800001,28.513305664],[99.41210937500001,28.468322754],[99.41607666000002,28.395874023],[99.413879395,28.346130371],[99.41790771500001,28.288085937],[99.40869140600002,28.221496582],[99.38189697300001,28.178527832],[99.37670898400002,28.18170166],[99.35168457000002,28.19732666],[99.31927490200002,28.243713379],[99.24487304700001,28.36730957],[99.20849609400001,28.466491699],[99.22271728500002,28.543273926],[99.19531250000001,28.636901855],[99.16070556600002,28.745300293],[99.15228271500001,28.845092773],[99.15228271500001,28.872497559],[99.17028808600001,28.923278809],[99.16088867200001,28.96472168],[99.179870605,29.040527344],[99.15350341800001,29.118896484],[99.14410400400001,29.191894531],[99.15270996100001,29.22088623]]]}}
