{"type":"Feature","id":"bulk-99377448B22204622240045","bbox":[108.94128418000001,34.216491699,110.56091308600001,35.835510254],"properties":{"id":"bulk-99377448B22204622240045","name":"Weinan","nameEn":"Weinan","fullName":"Weinan","level":"city","boundaryRole":"administrative-extent","boundaryQuality":"generalized-source-2020","boundaryYearRepresented":"2020","bounds":[[108.94128418000001,34.216491699],[110.56091308600001,35.835510254]],"center":[109.75109863300001,35.0260009765],"centerMethod":"bounding-box midpoint; camera framing only","license":"CC-BY-3.0-IGO","attribution":"geoBoundaries / HDX, China administrative boundaries (2020)","source":{"provider":"geoBoundaries gbHumanitarian / HDX","url":"https://github.com/wmgeolab/geoBoundaries/raw/9469f09/releaseData/gbHumanitarian/CHN/ADM2/geoBoundaries-CHN-ADM2.geojson","metadataUrl":"https://www.geoboundaries.org/api/current/gbHumanitarian/CHN/ADM2/","shapeID":"99377448B22204622240045","shapeName":"Weinan","boundaryID":"CHN-ADM2-99377448","commit":"9469f09"},"geometryCounts":{"coordinates":145,"components":1,"holes":0},"boundaryNotice":"geoBoundaries / HDX 2020 年行政区数据，海岸和边界经过源数据概化，并非当前测绘成果。"},"geometry":{"type":"Polygon","coordinates":[[[110.52087402300002,35.835510254],[110.46649169900002,35.820922852],[110.42510986300002,35.805114746],[110.38208007800002,35.78729248],[110.34271240200002,35.767272949],[110.31567382800002,35.731079102],[110.28692627,35.715270996],[110.22229003900001,35.714477539],[110.15588378900001,35.703918457],[110.11767578100002,35.692077637],[110.12170410200001,35.657287598],[110.16088867200001,35.631286621],[110.20147705100001,35.605895996],[110.22967529300001,35.575683594],[110.24188232400002,35.545288086],[110.22509765600002,35.520080566],[110.19628906200002,35.493286133],[110.16949462900001,35.473083496],[110.14569091800001,35.453918457],[110.10571289100001,35.426330566],[110.04229736300002,35.397705078],[109.97149658200001,35.386291504],[109.921875,35.396911621],[109.87170410200001,35.405517578],[109.81610107400002,35.428527832],[109.77307128900001,35.435119629],[109.68927002,35.411499023],[109.64447021500001,35.413879395],[109.60809326200001,35.425720215],[109.56030273400002,35.436523437],[109.51727294900002,35.429321289],[109.46368408200001,35.389282227],[109.44708252,35.33190918],[109.40570068400001,35.310913086],[109.35552978500002,35.288085937],[109.32031250000001,35.272277832],[109.28631591800001,35.239685059],[109.29132080100001,35.207885742],[109.32049560500002,35.1796875],[109.36370849600002,35.166870117],[109.40728759800001,35.151672363],[109.39093017600001,35.099914551],[109.35632324200002,35.085083008],[109.30792236300002,35.086486816],[109.27532959000001,35.096496582],[109.24627685500002,35.08190918],[109.23651123000002,35.053283691],[109.20428466800001,35.003479004],[109.15808105500001,34.98828125],[109.11468505900001,34.975097656],[109.10107421900001,34.94732666],[109.08447265600002,34.917907715],[109.04412841800001,34.909118652],[108.99890136700002,34.90447998],[108.97650146500001,34.88067627],[108.97210693400001,34.846679687],[108.94128418000001,34.82208252],[108.98352050800001,34.815307617],[109.01947021500001,34.792297363],[109.03350830100001,34.76171875],[109.02569580100001,34.721496582],[109.02429199200002,34.693481445],[109.05548095700001,34.681091309],[109.11511230500001,34.686279297],[109.16308593700002,34.678283691],[109.21691894500002,34.691894531],[109.25488281200002,34.683288574],[109.29107666000002,34.68347168],[109.33050537100002,34.700500488],[109.37487793000001,34.732116699],[109.41070556600002,34.773498535],[109.41351318400001,34.710083008],[109.41748046900001,34.68347168],[109.42749023400002,34.621276855],[109.42327880900001,34.593078613],[109.40991210900002,34.561706543],[109.38769531200002,34.529724121],[109.38427734400001,34.49029541],[109.39428710900002,34.449279785],[109.43151855500001,34.420288086],[109.45611572300001,34.377685547],[109.43609619100002,34.343322754],[109.41931152300002,34.3203125],[109.45330810500002,34.297912598],[109.50292968700002,34.280273437],[109.55352783200001,34.258483887],[109.605285645,34.242492676],[109.68029785200001,34.257873535],[109.72210693400001,34.237304687],[109.76171875000001,34.232727051],[109.79388427700002,34.252502441],[109.80487060500002,34.278320312],[109.84729003900001,34.257873535],[109.87927246100001,34.232910156],[109.92309570300002,34.233886719],[109.95928955100001,34.216491699],[110.00347900400001,34.229125977],[110.00329589800002,34.264282227],[110.00152587900001,34.301086426],[109.99908447300001,34.336486816],[109.99792480500001,34.37512207],[110.02648925800001,34.393920898],[110.07489013700001,34.414672852],[110.15850830100001,34.440673828],[110.20989990200002,34.401672363],[110.25091552700002,34.392272949],[110.28833007800002,34.386474609],[110.34387207000002,34.391296387],[110.39227294900002,34.408325195],[110.35430908200001,34.447875977],[110.33850097700001,34.483276367],[110.33172607400002,34.508728027],[110.35369873000002,34.530090332],[110.36328125000001,34.562683105],[110.34027099600002,34.594726562],[110.26788330100001,34.607299805],[110.25848388700001,34.617492676],[110.23968505900001,34.637512207],[110.23669433600001,34.707885742],[110.23992919900002,34.737915039],[110.23052978500002,34.737915039],[110.24969482400002,34.830871582],[110.23730468700002,34.90612793],[110.24670410200001,34.951293945],[110.26568603500002,34.981323242],[110.28167724600002,35.00390625],[110.30389404300001,35.036499023],[110.31030273400002,35.071716309],[110.31347656200002,35.081726074],[110.31707763700001,35.169494629],[110.33630371100001,35.229675293],[110.36169433600001,35.272277832],[110.37127685500002,35.284729004],[110.40307617200001,35.309692383],[110.44787597700001,35.359680176],[110.47668457000002,35.432495117],[110.50250244100002,35.48248291],[110.52807617200001,35.51751709],[110.56030273400002,35.5625],[110.55749511700002,35.617675781],[110.56091308600001,35.662902832],[110.55151367200001,35.690490723],[110.53289794900002,35.763305664],[110.53308105500001,35.816101074],[110.52087402300002,35.835510254]]]}}
