{"type":"Feature","id":"bulk-99377448B955266466038","bbox":[119.45532226600001,32.58807373,120.89288330100001,34.492492676],"properties":{"id":"bulk-99377448B955266466038","name":"Yancheng","nameEn":"Yancheng","fullName":"Yancheng","level":"city","boundaryRole":"administrative-extent","boundaryQuality":"generalized-source-2020","boundaryYearRepresented":"2020","bounds":[[119.45532226600001,32.58807373],[120.89288330100001,34.492492676]],"center":[120.17410278350002,33.540283203],"centerMethod":"bounding-box midpoint; camera framing only","license":"CC-BY-3.0-IGO","attribution":"geoBoundaries / HDX, China administrative boundaries (2020)","source":{"provider":"geoBoundaries gbHumanitarian / HDX","url":"https://github.com/wmgeolab/geoBoundaries/raw/9469f09/releaseData/gbHumanitarian/CHN/ADM2/geoBoundaries-CHN-ADM2.geojson","metadataUrl":"https://www.geoboundaries.org/api/current/gbHumanitarian/CHN/ADM2/","shapeID":"99377448B955266466038","shapeName":"Yancheng","boundaryID":"CHN-ADM2-99377448","commit":"9469f09"},"geometryCounts":{"coordinates":301,"components":1,"holes":0},"boundaryNotice":"geoBoundaries / HDX 2020 年行政区数据，海岸和边界经过源数据概化，并非当前测绘成果。"},"geometry":{"type":"Polygon","coordinates":[[[119.55651855500001,33.414123535],[119.60272216800001,33.35369873],[119.61712646500001,33.327514648],[119.62951660200001,33.300476074],[119.66607666000002,33.299499512],[119.68011474600002,33.23651123],[119.69970703100002,33.208496094],[119.72552490200002,33.187072754],[119.73229980500001,33.158508301],[119.75189209000001,33.136291504],[119.78833007800002,33.134277344],[119.82727050800001,33.144714355],[119.87310791000002,33.159729004],[119.90911865200002,33.159729004],[119.94488525400001,33.156677246],[119.98052978500002,33.152099609],[120.01947021500001,33.171081543],[120.05767822300001,33.182312012],[120.10491943400001,33.170898437],[120.17828369100002,33.153686523],[120.24450683600001,33.13269043],[120.25653076200001,33.10748291],[120.25549316400001,33.079528809],[120.24749755900001,33.05267334],[120.25848388700001,33.024719238],[120.26947021500001,32.987304687],[120.26391601600001,32.953674316],[120.23547363300001,32.932678223],[120.19732666000002,32.93371582],[120.17028808600001,32.918701172],[120.17309570300002,32.889892578],[120.17810058600001,32.862121582],[120.17132568400001,32.826293945],[120.15350341800001,32.798095703],[120.19848632800002,32.763671875],[120.16467285200001,32.738708496],[120.14050293000001,32.716125488],[120.12030029300001,32.690490723],[120.09332275400001,32.633911133],[120.13012695300002,32.616088867],[120.17572021500001,32.627502441],[120.20471191400001,32.665710449],[120.24432373000002,32.681274414],[120.288879395,32.689880371],[120.32409668000001,32.700317383],[120.36572265600002,32.701904297],[120.39648437500001,32.679870605],[120.41809082000002,32.650085449],[120.45928955100001,32.635925293],[120.49987793000001,32.635681152],[120.54412841800001,32.640075684],[120.57727050800001,32.643676758],[120.61212158200001,32.627685547],[120.64648437500001,32.592102051],[120.687316895,32.597106934],[120.71929931600002,32.58807373],[120.75488281200002,32.597900391],[120.79791259800001,32.605895996],[120.83190918000001,32.623901367],[120.83209228500002,32.62689209],[120.84289550800001,32.63067627],[120.84472656200002,32.638671875],[120.84692382800002,32.640686035],[120.85107421900001,32.640930176],[120.84851074200002,32.647277832],[120.85571289100001,32.641296387],[120.87609863300001,32.642700195],[120.89288330100001,32.648681641],[120.89251709000001,32.653320312],[120.89007568400001,32.684082031],[120.88470459000001,32.6875],[120.88092041000002,32.715087891],[120.84692382800002,32.728271484],[120.84228515600002,32.730895996],[120.84008789100001,32.75012207],[120.81671142600001,32.754882812],[120.81652832000002,32.761901855],[120.80847168000001,32.788085937],[120.81610107400002,32.811706543],[120.82147216800001,32.819885254],[120.86248779300001,32.848876953],[120.86370849600002,32.857116699],[120.85791015600002,32.898925781],[120.85467529300001,32.906921387],[120.83947753900001,32.925109863],[120.83728027300002,32.930480957],[120.83868408200001,32.943725586],[120.83630371100001,32.959106445],[120.83673095700001,32.971130371],[120.83428955100001,32.97869873],[120.82788085900002,32.983886719],[120.81170654300001,32.991882324],[120.79968261700002,32.99407959],[120.78991699200002,33.000915527],[120.76928710900002,33.027709961],[120.78387451200001,33.034729004],[120.77728271500001,33.036499023],[120.77752685500002,33.05291748],[120.77209472700001,33.056091309],[120.74468994100002,33.08807373],[120.74072265600002,33.088928223],[120.73687744100002,33.092712402],[120.72869873000002,33.097900391],[120.72271728500002,33.104309082],[120.71948242200001,33.111877441],[120.71649169900002,33.11907959],[120.70147705100001,33.149475098],[120.69451904300001,33.167297363],[120.695129395,33.170471191],[120.70428466800001,33.176696777],[120.70788574200002,33.18170166],[120.71289062500001,33.185913086],[120.71447753900001,33.184875488],[120.72467041000002,33.186279297],[120.72851562500001,33.18951416],[120.72967529300001,33.195922852],[120.72869873000002,33.210876465],[120.72509765600002,33.234680176],[120.72369384800001,33.244689941],[120.72131347700001,33.249694824],[120.71130371100001,33.260070801],[120.69372558600001,33.270690918],[120.66772460900002,33.276489258],[120.66308593700002,33.266113281],[120.65051269500002,33.290710449],[120.64550781200002,33.33807373],[120.63867187500001,33.382080078],[120.63208007800002,33.395874023],[120.58831787100002,33.408325195],[120.59069824200002,33.418273926],[120.58850097700001,33.433288574],[120.58770752,33.470275879],[120.58172607400002,33.479125977],[120.58270263700001,33.503479004],[120.58392334000001,33.50970459],[120.56927490200002,33.508300781],[120.54730224600002,33.519897461],[120.53808593700002,33.522521973],[120.53588867200001,33.526123047],[120.54248046900001,33.539672852],[120.54290771500001,33.546081543],[120.538879395,33.557678223],[120.52807617200001,33.572509766],[120.51507568400001,33.585510254],[120.50329589800002,33.608093262],[120.49768066400001,33.61907959],[120.49792480500001,33.621704102],[120.50689697300001,33.620910645],[120.51251220700001,33.623291016],[120.52587890600002,33.622924805],[120.52429199200002,33.625915527],[120.51831054700001,33.649902344],[120.52087402300002,33.660522461],[120.51647949200002,33.663330078],[120.50708007800002,33.665283203],[120.50170898400002,33.669677734],[120.49670410200001,33.668518066],[120.48632812500001,33.655883789],[120.48168945300002,33.659301758],[120.48468017600001,33.660888672],[120.49707031200002,33.675476074],[120.50012207000002,33.682922363],[120.49932861300002,33.69128418],[120.49987793000001,33.694702148],[120.49011230500001,33.721313477],[120.48272705100001,33.735900879],[120.48168945300002,33.737915039],[120.480285645,33.739929199],[120.480285645,33.740478516],[120.47467041000002,33.750671387],[120.46807861300002,33.75390625],[120.46112060500002,33.752929687],[120.40588378900001,33.73248291],[120.40191650400001,33.732299805],[120.39770507800002,33.733520508],[120.39093017600001,33.739074707],[120.39471435500002,33.739501953],[120.41491699200002,33.744506836],[120.421875,33.750305176],[120.43487548800002,33.770507812],[120.44488525400001,33.786071777],[120.44708252,33.789123535],[120.44952392600001,33.80847168],[120.46630859400001,33.82611084],[120.46807861300002,33.835693359],[120.46710205100001,33.836486816],[120.45770263700001,33.851501465],[120.45330810500002,33.86151123],[120.429504395,33.88067627],[120.41467285200001,33.897277832],[120.40808105500001,33.915893555],[120.40551757800002,33.940490723],[120.39611816400001,33.96472168],[120.39312744100002,33.981506348],[120.39129638700001,33.982910156],[120.39190673800002,33.987670898],[120.39147949200002,33.990478516],[120.38330078100002,34.006530762],[120.37231445300002,34.03527832],[120.35748291000002,34.060913086],[120.33471679700001,34.086303711],[120.31671142600001,34.102478027],[120.30950927700002,34.102478027],[120.296691895,34.099121094],[120.28631591800001,34.097106934],[120.28247070300002,34.094482422],[120.27307128900001,34.092285156],[120.27050781200002,34.090087891],[120.26470947300001,34.090087891],[120.25311279300001,34.086303711],[120.24810791000002,34.08770752],[120.24987793000001,34.091491699],[120.26330566400001,34.097473145],[120.28570556600002,34.103881836],[120.31188964800002,34.109130859],[120.31292724600002,34.11328125],[120.31610107400002,34.126708984],[120.3125,34.142272949],[120.29748535200001,34.167114258],[120.28991699200002,34.178527832],[120.29010009800001,34.198303223],[120.28588867200001,34.218505859],[120.27667236300002,34.23651123],[120.25769043000001,34.246887207],[120.26452636700002,34.255493164],[120.25427246100001,34.282470703],[120.24127197300001,34.305297852],[120.22430419900002,34.322875977],[120.19311523400002,34.335327148],[120.14569091800001,34.354309082],[120.11132812500001,34.367919922],[120.10107421900001,34.370483398],[120.08648681600002,34.360473633],[120.07989502,34.367675781],[120.08331298800002,34.375305176],[120.07727050800001,34.37689209],[120.07189941400001,34.38092041],[120.04931640600002,34.397094727],[120.01629638700001,34.413330078],[119.99108886700002,34.428710937],[119.96032714800002,34.436523437],[119.92291259800001,34.443908691],[119.89788818400001,34.453125],[119.87927246100001,34.462097168],[119.87847900400001,34.462280273],[119.85888671900001,34.46472168],[119.84490966800001,34.466491699],[119.83251953100002,34.466491699],[119.81671142600001,34.470703125],[119.80548095700001,34.47052002],[119.79412841800001,34.475891113],[119.78771972700001,34.475097656],[119.78369140600002,34.47088623],[119.79412841800001,34.444519043],[119.788879395,34.423706055],[119.78271484400001,34.414489746],[119.77972412100002,34.417724609],[119.78448486300002,34.434326172],[119.78472900400001,34.44152832],[119.77752685500002,34.466674805],[119.78027343700002,34.475708008],[119.78131103500002,34.477111816],[119.77770996100001,34.47668457],[119.76849365200002,34.492492676],[119.74572753900001,34.440917969],[119.77331543000001,34.384277344],[119.74908447300001,34.356506348],[119.71868896500001,34.327087402],[119.71209716800001,34.29309082],[119.69128418000001,34.269104004],[119.64971923800002,34.251281738],[119.61547851600001,34.235473633],[119.58630371100001,34.220092773],[119.55267334000001,34.212524414],[119.51910400400001,34.209899902],[119.49108886700002,34.194274902],[119.48150634800001,34.162109375],[119.50408935500002,34.142089844],[119.50531005900001,34.112487793],[119.53552246100001,34.093322754],[119.55609130900001,34.0625],[119.54370117200001,34.030273437],[119.54949951200001,33.997680664],[119.57928466800001,33.965515137],[119.62750244100002,33.957885742],[119.61267089800002,33.933105469],[119.60729980500001,33.87689209],[119.56671142600001,33.85748291],[119.53869628900001,33.83972168],[119.51751709000001,33.807495117],[119.49932861300002,33.776306152],[119.48327636700002,33.749084473],[119.45812988300001,33.666503906],[119.45532226600001,33.643310547],[119.45648193400001,33.612915039],[119.45751953100002,33.581481934],[119.45727539100001,33.540527344],[119.50427246100001,33.480102539],[119.54187011700002,33.463684082],[119.56768798800002,33.443115234],[119.55651855500001,33.414123535]]]}}
