{"type":"Feature","id":"bulk-99377448B24865916951796","bbox":[110.35107421900001,35.531494141,112.56372070300002,36.924682617],"properties":{"id":"bulk-99377448B24865916951796","name":"Linfen","nameEn":"Linfen","fullName":"Linfen","level":"city","boundaryRole":"administrative-extent","boundaryQuality":"generalized-source-2020","boundaryYearRepresented":"2020","bounds":[[110.35107421900001,35.531494141],[112.56372070300002,36.924682617]],"center":[111.45739746100001,36.228088379],"centerMethod":"bounding-box midpoint; camera framing only","license":"CC-BY-3.0-IGO","attribution":"geoBoundaries / HDX, China administrative boundaries (2020)","source":{"provider":"geoBoundaries gbHumanitarian / HDX","url":"https://github.com/wmgeolab/geoBoundaries/raw/9469f09/releaseData/gbHumanitarian/CHN/ADM2/geoBoundaries-CHN-ADM2.geojson","metadataUrl":"https://www.geoboundaries.org/api/current/gbHumanitarian/CHN/ADM2/","shapeID":"99377448B24865916951796","shapeName":"Linfen","boundaryID":"CHN-ADM2-99377448","commit":"9469f09"},"geometryCounts":{"coordinates":160,"components":1,"holes":0},"boundaryNotice":"geoBoundaries / HDX 2020 年行政区数据，海岸和边界经过源数据概化，并非当前测绘成果。"},"geometry":{"type":"Polygon","coordinates":[[[111.99572753900001,36.680297852],[111.92791748000002,36.680297852],[111.88452148400002,36.686706543],[111.82788085900002,36.69128418],[111.77410888700001,36.695678711],[111.71929931600002,36.686889648],[111.66888427700002,36.666503906],[111.62487793000001,36.641723633],[111.58807373000002,36.679321289],[111.56970214800002,36.708496094],[111.55432128900001,36.73651123],[111.52770996100001,36.756286621],[111.48870849600002,36.762878418],[111.45227050800001,36.758300781],[111.39007568400001,36.78729248],[111.34851074200002,36.750671387],[111.31188964800002,36.718078613],[111.27807617200001,36.711914062],[111.23828125000001,36.74432373],[111.20172119100002,36.797729492],[111.17749023400002,36.830505371],[111.14208984400001,36.846496582],[111.10748291000002,36.858276367],[111.07751464800002,36.910522461],[111.00811767600001,36.895507812],[110.97808837900001,36.881286621],[110.92468261700002,36.883483887],[110.88867187500001,36.87109375],[110.84307861300002,36.842285156],[110.80432128900001,36.829711914],[110.77349853500002,36.841674805],[110.74450683600001,36.864685059],[110.71252441400001,36.905517578],[110.68548584000001,36.924682617],[110.63909912100002,36.922485352],[110.62072753900001,36.896911621],[110.60949707000002,36.867919922],[110.56292724600002,36.851074219],[110.52648925800001,36.850708008],[110.47991943400001,36.856323242],[110.43872070300002,36.864929199],[110.36950683600001,36.885070801],[110.35107421900001,36.856689453],[110.39129638700001,36.80267334],[110.35809326200001,36.760070801],[110.39093017600001,36.745727539],[110.40911865200002,36.72869873],[110.42010498000002,36.708679199],[110.41271972700001,36.680297852],[110.36132812500001,36.657714844],[110.36108398400002,36.640686035],[110.37951660200001,36.626525879],[110.41589355500001,36.595092773],[110.44848632800002,36.526672363],[110.45910644500002,36.466918945],[110.44067382800002,36.444274902],[110.42968750000001,36.424316406],[110.43328857400002,36.407287598],[110.44769287100002,36.375915527],[110.42907714800002,36.32208252],[110.43267822300001,36.304870605],[110.44268798800002,36.285522461],[110.45068359400001,36.267883301],[110.44689941400001,36.236694336],[110.41748046900001,36.182678223],[110.41748046900001,36.171325684],[110.43188476600001,36.128723145],[110.42810058600001,36.094482422],[110.43151855500001,36.068908691],[110.44610595700001,36.04888916],[110.453125,36.02331543],[110.48168945300002,35.955078125],[110.46691894500002,35.869689941],[110.48132324200002,35.84967041],[110.49212646500001,35.844116211],[110.52087402300002,35.835510254],[110.53308105500001,35.816101074],[110.53289794900002,35.763305664],[110.55151367200001,35.690490723],[110.62548828100002,35.714111328],[110.64428710900002,35.73828125],[110.70129394500002,35.72088623],[110.72827148400002,35.701293945],[110.76367187500001,35.692687988],[110.80670166000002,35.700317383],[110.91009521500001,35.689086914],[110.96228027300002,35.733276367],[111.00250244100002,35.695129395],[111.04107666000002,35.702880859],[111.03808593700002,35.740112305],[111.05432128900001,35.785888672],[111.11151123000002,35.80670166],[111.13690185500002,35.784912109],[111.16333007800002,35.757507324],[111.18371582000002,35.715515137],[111.20007324200002,35.6796875],[111.24932861300002,35.676086426],[111.29431152300002,35.671508789],[111.26849365200002,35.639709473],[111.22271728500002,35.605895996],[111.22229003900001,35.5625],[111.24353027300002,35.54107666],[111.30090332000002,35.531494141],[111.39532470700001,35.557678223],[111.42572021500001,35.575927734],[111.45788574200002,35.559509277],[111.51550293000001,35.565490723],[111.55230712900001,35.572875977],[111.57830810500002,35.603515625],[111.59448242200001,35.645080566],[111.64947509800001,35.624511719],[111.68988037100002,35.629272461],[111.73107910200001,35.589477539],[111.79431152300002,35.594726562],[111.83349609400001,35.584899902],[111.88647460900002,35.595703125],[111.92987060500002,35.598510742],[111.93988037100002,35.638305664],[111.95751953100002,35.664123535],[111.99450683600001,35.685913086],[112.00311279300001,35.72052002],[112.01391601600001,35.76348877],[112.01770019500002,35.803894043],[112.03991699200002,35.830871582],[112.08587646500001,35.843505859],[112.12030029300001,35.858093262],[112.11608886700002,35.904296875],[112.18927002,35.892272949],[112.23449707000002,35.883728027],[112.28192138700001,35.876098633],[112.32232666000002,35.879272461],[112.37908935500002,35.895080566],[112.44049072300001,35.908508301],[112.46771240200002,35.925109863],[112.50067138700001,35.956115723],[112.50109863300001,35.982727051],[112.47467041000002,36.01550293],[112.47467041000002,36.016479492],[112.47467041000002,36.052307129],[112.50769043000001,36.091125488],[112.53790283200001,36.15032959],[112.53289794900002,36.187683105],[112.56372070300002,36.228088379],[112.5625,36.255126953],[112.51947021500001,36.250305176],[112.47650146500001,36.250488281],[112.45190429700001,36.277709961],[112.41290283200001,36.326293945],[112.35809326200001,36.352478027],[112.30389404300001,36.36328125],[112.25268554700001,36.377075195],[112.20867919900002,36.400085449],[112.19049072300001,36.423278809],[112.15368652300002,36.472717285],[112.11291503900001,36.528930664],[112.07189941400001,36.554504395],[112.03009033200001,36.567871094],[112.00292968700002,36.593688965],[111.98229980500001,36.634887695],[111.99572753900001,36.680297852]]]}}
