{"type":"Feature","id":"bulk-99377448B70100783113546","bbox":[108.79272460900002,25.86529541,111.10449218700002,29.011901855],"properties":{"id":"bulk-99377448B70100783113546","name":"Huaihua","nameEn":"Huaihua","fullName":"Huaihua","level":"city","boundaryRole":"administrative-extent","boundaryQuality":"generalized-source-2020","boundaryYearRepresented":"2020","bounds":[[108.79272460900002,25.86529541],[111.10449218700002,29.011901855]],"center":[109.94860839800002,27.438598632500003],"centerMethod":"bounding-box midpoint; camera framing only","license":"CC-BY-3.0-IGO","attribution":"geoBoundaries / HDX, China administrative boundaries (2020)","source":{"provider":"geoBoundaries gbHumanitarian / HDX","url":"https://github.com/wmgeolab/geoBoundaries/raw/9469f09/releaseData/gbHumanitarian/CHN/ADM2/geoBoundaries-CHN-ADM2.geojson","metadataUrl":"https://www.geoboundaries.org/api/current/gbHumanitarian/CHN/ADM2/","shapeID":"99377448B70100783113546","shapeName":"Huaihua","boundaryID":"CHN-ADM2-99377448","commit":"9469f09"},"geometryCounts":{"coordinates":300,"components":1,"holes":0},"boundaryNotice":"geoBoundaries / HDX 2020 年行政区数据，海岸和边界经过源数据概化，并非当前测绘成果。"},"geometry":{"type":"Polygon","coordinates":[[[110.90972900400001,29.011901855],[110.88189697300001,28.995910645],[110.84490966800001,28.997070312],[110.82287597700001,28.95892334],[110.78167724600002,28.947875977],[110.76330566400001,28.917724609],[110.73608398400002,28.902526855],[110.71173095700001,28.921875],[110.68432617200001,28.907897949],[110.64892578100002,28.903076172],[110.63232421900001,28.936096191],[110.60467529300001,28.956481934],[110.57348632800002,28.975524902],[110.55072021500001,28.99432373],[110.51849365200002,28.967712402],[110.50347900400001,28.934326172],[110.52172851600001,28.90411377],[110.48547363300001,28.900695801],[110.46490478500002,28.880126953],[110.42492675800001,28.887329102],[110.36047363300001,28.887084961],[110.36212158200001,28.857910156],[110.35089111300002,28.825927734],[110.33190918000001,28.794128418],[110.32031250000001,28.765319824],[110.28228759800001,28.750671387],[110.25592041000002,28.72869873],[110.25311279300001,28.695922852],[110.23370361300002,28.651123047],[110.18890380900001,28.626525879],[110.21368408200001,28.596496582],[110.20452880900001,28.56628418],[110.17047119100002,28.559082031],[110.13189697300001,28.559875488],[110.13531494100002,28.515075684],[110.13372802700002,28.482727051],[110.10687255900001,28.458496094],[110.07849121100001,28.441711426],[110.10711669900002,28.401306152],[110.13470459000001,28.386108398],[110.16650390600002,28.370483398],[110.17791748000002,28.340881348],[110.16992187500001,28.305908203],[110.17651367200001,28.275878906],[110.19488525400001,28.249328613],[110.21807861300002,28.226928711],[110.22967529300001,28.202270508],[110.18768310500002,28.161071777],[110.16668701200001,28.133728027],[110.14550781200002,28.106323242],[110.10729980500001,28.02911377],[110.08551025400001,27.994689941],[110.05407714800002,27.977111816],[110.02368164100001,27.946289062],[109.98449707000002,27.934509277],[109.95111084000001,27.9453125],[109.92272949200002,27.959472656],[109.89569091800001,27.93347168],[109.85632324200002,27.950683594],[109.82171630900001,27.968078613],[109.79150390600002,27.987121582],[109.76788330100001,28.009094238],[109.70550537100002,27.989685059],[109.69152832000002,27.962097168],[109.65710449200002,27.930297852],[109.61529541000002,27.920898437],[109.59588623000002,27.899475098],[109.60949707000002,27.871276855],[109.63671875000001,27.848083496],[109.60430908200001,27.821289062],[109.56072998000002,27.805297852],[109.54010009800001,27.774475098],[109.51232910200001,27.785888672],[109.48968505900001,27.808288574],[109.46228027300002,27.788513184],[109.44207763700001,27.76348877],[109.41870117200001,27.740478516],[109.39709472700001,27.717102051],[109.40570068400001,27.711486816],[109.44451904300001,27.654907227],[109.44030761700002,27.598510742],[109.429504395,27.57611084],[109.42852783200001,27.57409668],[109.37207031200002,27.537719727],[109.34411621100001,27.519104004],[109.28369140600002,27.479125977],[109.25091552700002,27.444885254],[109.23687744100002,27.430297852],[109.18072509800001,27.441894531],[109.15008544900002,27.419311523],[109.11248779300001,27.391723633],[109.09027099600002,27.334899902],[109.04528808600001,27.299316406],[108.98767089800002,27.286682129],[108.94812011700002,27.243103027],[108.90191650400001,27.183288574],[108.870910645,27.161071777],[108.86187744100002,27.147277832],[108.83087158200001,27.099914551],[108.79272460900002,27.041503906],[108.93511962900001,27.060302734],[108.94012451200001,27.0625],[108.99731445300002,27.08807373],[109.08752441400001,27.137084961],[109.10211181600002,27.116699219],[109.15209960900002,27.101318359],[109.17669677700002,27.133117676],[109.24230957000002,27.15447998],[109.296875,27.15447998],[109.36749267600001,27.180480957],[109.37609863300001,27.175476074],[109.45251464800002,27.13067627],[109.43408203100002,27.090087891],[109.46490478500002,27.06451416],[109.47967529300001,27.05267334],[109.48529052700002,27.048095703],[109.50988769500002,27.028320312],[109.52728271500001,26.959472656],[109.51330566400001,26.949523926],[109.42608642600001,26.899291992],[109.48608398400002,26.878479004],[109.48547363300001,26.851501465],[109.50292968700002,26.783691406],[109.49688720700001,26.779724121],[109.48291015600002,26.770874023],[109.37847900400001,26.737304687],[109.34869384800001,26.716308594],[109.32989502,26.712524414],[109.28631591800001,26.703674316],[109.28289794900002,26.67590332],[109.33691406200002,26.639099121],[109.36968994100002,26.609924316],[109.36730957000002,26.57208252],[109.36688232400002,26.539916992],[109.34887695300002,26.47869873],[109.34411621100001,26.472900391],[109.30169677700002,26.423278809],[109.27532959000001,26.379882812],[109.25427246100001,26.327514648],[109.30371093700002,26.26348877],[109.33691406200002,26.25592041],[109.35650634800001,26.282287598],[109.36730957000002,26.301330566],[109.43408203100002,26.31829834],[109.44232177700002,26.302124023],[109.45812988300001,26.271118164],[109.41827392600001,26.250671387],[109.42327880900001,26.201477051],[109.46411132800002,26.153503418],[109.46252441400001,26.125671387],[109.44970703100002,26.060913086],[109.47290039100001,26.049499512],[109.48211669900002,26.042724609],[109.53472900400001,26.003479004],[109.56652832000002,26.017272949],[109.58532714800002,26.030273437],[109.63232421900001,26.03527832],[109.64947509800001,26.016479492],[109.68450927700002,26.023071289],[109.71588134800001,25.99029541],[109.67852783200001,25.953125],[109.64471435500002,25.938293457],[109.64392089800002,25.924926758],[109.65612793000001,25.90612793],[109.65447998000002,25.891723633],[109.69787597700001,25.86529541],[109.72387695300002,25.866516113],[109.75152587900001,25.883728027],[109.78228759800001,25.902893066],[109.78967285200001,25.944274902],[109.77807617200001,25.992675781],[109.80847168000001,26.034301758],[109.85150146500001,26.043701172],[109.87408447300001,26.069091797],[109.87689209000001,26.093322754],[109.87951660200001,26.127502441],[109.89111328100002,26.158081055],[109.93292236300002,26.184509277],[109.95690918000001,26.18548584],[109.96087646500001,26.18572998],[109.99670410200001,26.267089844],[109.99108886700002,26.294311523],[109.98828125000001,26.33392334],[109.99548339800002,26.39050293],[109.97387695300002,26.419921875],[109.94769287100002,26.446289062],[109.93029785200001,26.480529785],[109.90350341800001,26.504272461],[109.87371826200001,26.487670898],[109.85650634800001,26.514709473],[109.83312988300001,26.549316406],[109.83990478500002,26.580871582],[109.82910156200002,26.610717773],[109.81170654300001,26.642700195],[109.83227539100001,26.668701172],[109.87011718700002,26.688720703],[109.89929199200002,26.706115723],[109.91369628900001,26.730895996],[109.96173095700001,26.71307373],[110.00830078100002,26.70489502],[110.02587890600002,26.730712891],[110.04028320300002,26.764099121],[110.04107666000002,26.798095703],[110.03289794900002,26.842895508],[110.04888916000002,26.894104004],[110.06347656200002,26.927124023],[110.07629394500002,26.964477539],[110.11047363300001,27.006286621],[110.12072753900001,27.041687012],[110.14447021500001,27.064086914],[110.18090820300002,27.069091797],[110.18811035200001,27.115905762],[110.20147705100001,27.14831543],[110.23931884800001,27.163696289],[110.28527832000002,27.171875],[110.31488037100002,27.187927246],[110.33752441400001,27.221313477],[110.37591552700002,27.223083496],[110.40307617200001,27.20690918],[110.43371582000002,27.227905273],[110.44970703100002,27.268310547],[110.49627685500002,27.306518555],[110.54949951200001,27.276489258],[110.58447265600002,27.280700684],[110.59307861300002,27.307678223],[110.61267089800002,27.350708008],[110.63153076200001,27.385498047],[110.64270019500002,27.422729492],[110.64807128900001,27.469909668],[110.62030029300001,27.490722656],[110.59808349600002,27.511108398],[110.605285645,27.546508789],[110.628723145,27.585693359],[110.67047119100002,27.612121582],[110.70471191400001,27.603881836],[110.73211669900002,27.578674316],[110.77471923800002,27.544677734],[110.80249023400002,27.56628418],[110.82427978500002,27.597717285],[110.84649658200001,27.621704102],[110.84649658200001,27.656494141],[110.82989502,27.685913086],[110.80969238300001,27.714477539],[110.77709960900002,27.750915527],[110.74047851600001,27.782897949],[110.74932861300002,27.81652832],[110.78430175800001,27.835693359],[110.85107421900001,27.834472656],[110.89550781200002,27.844482422],[110.91851806600002,27.877502441],[110.94012451200001,27.913330078],[110.95611572300001,27.94152832],[110.94891357400002,27.975524902],[110.93609619100002,28.030273437],[110.89447021500001,27.998291016],[110.86267089800002,28.002929687],[110.85632324200002,28.035095215],[110.84149169900002,28.067687988],[110.82830810500002,28.10748291],[110.83569335900002,28.144470215],[110.82391357400002,28.173095703],[110.79711914100001,28.186706543],[110.79010009800001,28.214294434],[110.79107666000002,28.248718262],[110.75909423800002,28.266296387],[110.71307373000002,28.288879395],[110.73370361300002,28.319519043],[110.79309082000002,28.367919922],[110.82269287100002,28.386108398],[110.85308837900001,28.409118652],[110.86370849600002,28.437316895],[110.89489746100001,28.452880859],[110.92492675800001,28.469299316],[110.94671630900001,28.489685059],[110.97491455100001,28.506103516],[111.01452636700002,28.504089355],[111.04492187500001,28.516479492],[111.03570556600002,28.549682617],[111.00488281200002,28.575500488],[110.97271728500002,28.567077637],[110.94067382800002,28.548278809],[110.91247558600001,28.561096191],[110.92712402300002,28.59588623],[110.96868896500001,28.606506348],[111.01428222700001,28.618713379],[111.03228759800001,28.650085449],[111.05468750000001,28.674072266],[111.09167480500001,28.6875],[111.10449218700002,28.72088623],[111.09552002,28.758483887],[111.06872558600001,28.788879395],[111.05792236300002,28.816894531],[111.03790283200001,28.837524414],[111.01568603500002,28.857116699],[110.98413085900002,28.87487793],[110.95227050800001,28.89050293],[110.93310546900001,28.92388916],[110.93170166000002,28.952087402],[110.93487548800002,28.984680176],[110.90972900400001,29.011901855]]]}}
