{"type":"Feature","id":"bulk-99377448B74545092839940","bbox":[120.30267334000001,30.331726074,121.26110839800002,31.025512695],"properties":{"id":"bulk-99377448B74545092839940","name":"Jiaxing","nameEn":"Jiaxing","fullName":"Jiaxing","level":"city","boundaryRole":"administrative-extent","boundaryQuality":"generalized-source-2020","boundaryYearRepresented":"2020","bounds":[[120.30267334000001,30.331726074],[121.26110839800002,31.025512695]],"center":[120.78189086900002,30.6786193845],"centerMethod":"bounding-box midpoint; camera framing only","license":"CC-BY-3.0-IGO","attribution":"geoBoundaries / HDX, China administrative boundaries (2020)","source":{"provider":"geoBoundaries gbHumanitarian / HDX","url":"https://github.com/wmgeolab/geoBoundaries/raw/9469f09/releaseData/gbHumanitarian/CHN/ADM2/geoBoundaries-CHN-ADM2.geojson","metadataUrl":"https://www.geoboundaries.org/api/current/gbHumanitarian/CHN/ADM2/","shapeID":"99377448B74545092839940","shapeName":"Jiaxing","boundaryID":"CHN-ADM2-99377448","commit":"9469f09"},"geometryCounts":{"coordinates":139,"components":1,"holes":0},"boundaryNotice":"geoBoundaries / HDX 2020 年行政区数据，海岸和边界经过源数据概化，并非当前测绘成果。"},"geometry":{"type":"Polygon","coordinates":[[[120.90087890600002,31.024291992],[120.89270019500002,31.024108887],[120.86267089800002,31.014099121],[120.81671142600001,31.01348877],[120.77087402300002,31.003112793],[120.73449707000002,31.002685547],[120.70227050800001,30.991882324],[120.64172363300001,30.973083496],[120.64111328100002,30.968505859],[120.65032959000001,30.953918457],[120.66949462900001,30.933898926],[120.69128418000001,30.890686035],[120.68408203100002,30.877502441],[120.67749023400002,30.86907959],[120.63751220700001,30.854309082],[120.56689453100002,30.856079102],[120.53167724600002,30.836303711],[120.50549316400001,30.771118164],[120.46191406200002,30.760314941],[120.45288085900002,30.750915527],[120.47088623000002,30.721679687],[120.44232177700002,30.706481934],[120.42510986300002,30.683898926],[120.39807128900001,30.668518066],[120.36767578100002,30.66027832],[120.33428955100001,30.643676758],[120.30310058600001,30.579284668],[120.30267334000001,30.543701172],[120.33007812500001,30.507507324],[120.34149169900002,30.480895996],[120.33209228500002,30.446105957],[120.32128906200002,30.41607666],[120.33288574200002,30.382507324],[120.37249755900001,30.349487305],[120.38531494100002,30.376281738],[120.39068603500002,30.381286621],[120.39849853500002,30.385314941],[120.40850830100001,30.387695312],[120.42968750000001,30.388671875],[120.44030761700002,30.390930176],[120.45831298800002,30.394287109],[120.49407959000001,30.396728516],[120.55731201200001,30.396118164],[120.58508300800001,30.398681641],[120.58789062500001,30.399108887],[120.62390136700002,30.399475098],[120.64831543000001,30.397521973],[120.67108154300001,30.393127441],[120.67828369100002,30.390319824],[120.69189453100002,30.389526367],[120.72113037100002,30.378112793],[120.72509765600002,30.375305176],[120.73571777300002,30.367919922],[120.74090576200001,30.356872559],[120.74932861300002,30.352294922],[120.75250244100002,30.347290039],[120.76031494100002,30.346130371],[120.77069091800001,30.348083496],[120.77630615200002,30.346923828],[120.78387451200001,30.340515137],[120.78607177700002,30.331726074],[120.78991699200002,30.332275391],[120.79791259800001,30.341674805],[120.80432128900001,30.345275879],[120.8125,30.34588623],[120.81652832000002,30.348083496],[120.83288574200002,30.346130371],[120.83410644500002,30.346923828],[120.83673095700001,30.348876953],[120.83868408200001,30.355285645],[120.84509277300002,30.356506348],[120.85571289100001,30.365112305],[120.86151123000002,30.367492676],[120.870910645,30.365112305],[120.87329101600001,30.363891602],[120.88409423800002,30.372924805],[120.88751220700001,30.374084473],[120.88952636700002,30.374084473],[120.89349365200002,30.406311035],[120.90667724600002,30.412475586],[120.90771484400001,30.414123535],[120.91052246100001,30.41607666],[120.91412353500002,30.417724609],[120.91851806600002,30.417724609],[120.93688964800002,30.426086426],[120.92407226600001,30.46270752],[120.92492675800001,30.485290527],[120.93988037100002,30.49987793],[120.94012451200001,30.50012207],[120.94030761700002,30.500305176],[120.95367431600002,30.51348877],[120.95367431600002,30.518310547],[120.96447753900001,30.526672363],[120.97009277300002,30.533874512],[120.98388671900001,30.544677734],[120.99291992200001,30.554077148],[121.00451660200001,30.562072754],[121.00512695300002,30.562316895],[121.01129150400001,30.56829834],[121.01672363300001,30.573486328],[121.03472900400001,30.577514648],[121.06207275400001,30.588928223],[121.06872558600001,30.590087891],[121.070129395,30.590087891],[121.07708740200002,30.58972168],[121.08129882800002,30.591308594],[121.08770752,30.590270996],[121.09448242200001,30.586303711],[121.09967041000002,30.586730957],[121.10491943400001,30.588928223],[121.11352539100001,30.588317871],[121.11608886700002,30.589294434],[121.128723145,30.597900391],[121.14532470700001,30.627319336],[121.16247558600001,30.632873535],[121.16571044900002,30.637512207],[121.17572021500001,30.644897461],[121.17633056600002,30.645080566],[121.22888183600001,30.673278809],[121.24847412100002,30.68572998],[121.26110839800002,30.69128418],[121.25891113300001,30.692504883],[121.23327636700002,30.718688965],[121.21667480500001,30.75592041],[121.19812011700002,30.786071777],[121.12487793000001,30.778320312],[121.10247802700002,30.786499023],[121.10729980500001,30.834289551],[121.07891845700001,30.845703125],[121.04412841800001,30.83972168],[121.03649902300002,30.836730957],[121.01049804700001,30.826721191],[120.98449707000002,30.822692871],[120.96472168000001,30.879699707],[120.97729492200001,30.938476562],[120.97210693400001,30.958679199],[120.96411132800002,30.989501953],[120.95031738300001,31.025512695],[120.90087890600002,31.024291992]]]}}
