{"type":"Feature","id":"bulk-99377448B44451799348872","bbox":[112.48852539100001,30.059509277,112.98730468700002,30.639099121],"properties":{"id":"bulk-99377448B44451799348872","name":"Qianjiang","nameEn":"Qianjiang","fullName":"Qianjiang","level":"city","boundaryRole":"administrative-extent","boundaryQuality":"generalized-source-2020","boundaryYearRepresented":"2020","bounds":[[112.48852539100001,30.059509277],[112.98730468700002,30.639099121]],"center":[112.73791503900001,30.349304199000002],"centerMethod":"bounding-box midpoint; camera framing only","license":"CC-BY-3.0-IGO","attribution":"geoBoundaries / HDX, China administrative boundaries (2020)","source":{"provider":"geoBoundaries gbHumanitarian / HDX","url":"https://github.com/wmgeolab/geoBoundaries/raw/9469f09/releaseData/gbHumanitarian/CHN/ADM2/geoBoundaries-CHN-ADM2.geojson","metadataUrl":"https://www.geoboundaries.org/api/current/gbHumanitarian/CHN/ADM2/","shapeID":"99377448B44451799348872","shapeName":"Qianjiang","boundaryID":"CHN-ADM2-99377448","commit":"9469f09"},"geometryCounts":{"coordinates":63,"components":1,"holes":0},"boundaryNotice":"geoBoundaries / HDX 2020 年行政区数据，海岸和边界经过源数据概化，并非当前测绘成果。"},"geometry":{"type":"Polygon","coordinates":[[[112.49291992200001,30.417297363],[112.49627685500002,30.38067627],[112.49908447300001,30.345703125],[112.48852539100001,30.318481445],[112.49212646500001,30.287719727],[112.51568603500002,30.247070312],[112.53308105500001,30.224487305],[112.54888916000002,30.20111084],[112.55151367200001,30.163085937],[112.56671142600001,30.125488281],[112.59851074200002,30.108703613],[112.64788818400001,30.096923828],[112.68487548800002,30.086914062],[112.70867919900002,30.059509277],[112.74731445300002,30.062072754],[112.76892089800002,30.061523437],[112.79107666000002,30.088317871],[112.79211425800001,30.115722656],[112.81451416000002,30.14251709],[112.83648681600002,30.155700684],[112.87890625000001,30.140930176],[112.89990234400001,30.126708984],[112.92108154300001,30.112487793],[112.94250488300001,30.111877441],[112.98632812500001,30.138305664],[112.98730468700002,30.165527344],[112.96630859400001,30.29888916],[112.94470214800002,30.319885254],[112.92108154300001,30.34967041],[112.93432617200001,30.390686035],[112.95092773400002,30.422485352],[112.94970703100002,30.465698242],[112.92608642600001,30.49987793],[112.92388916000002,30.536682129],[112.88751220700001,30.555725098],[112.86547851600001,30.542724609],[112.86511230500001,30.528930664],[112.86450195300002,30.515319824],[112.88568115200002,30.501098633],[112.86370849600002,30.487915039],[112.84167480500001,30.474914551],[112.820129395,30.475280762],[112.79931640600002,30.503295898],[112.80029296900001,30.530517578],[112.77911377,30.544677734],[112.75750732400002,30.545288086],[112.73590087900001,30.545715332],[112.71392822300001,30.532470703],[112.69232177700002,30.533081055],[112.64868164100001,30.520507812],[112.671875,30.574523926],[112.69531250000001,30.628723145],[112.65209960900002,30.629699707],[112.60888671900001,30.63067627],[112.60150146500001,30.639099121],[112.59869384800001,30.589111328],[112.59930419900002,30.560302734],[112.60308837900001,30.528686523],[112.56732177700002,30.515686035],[112.55371093700002,30.489685059],[112.53967285200001,30.464111328],[112.51348877,30.438476562],[112.49291992200001,30.417297363]]]}}
