{"type":"Feature","id":"bulk-99377448B81485515896282","bbox":[108.65991210900002,18.874328613,109.28948974600002,19.506530762],"properties":{"id":"bulk-99377448B81485515896282","name":"Changjiang Li Autonomous County","nameEn":"Changjiang Li Autonomous County","fullName":"Changjiang Li Autonomous County","level":"city","boundaryRole":"administrative-extent","boundaryQuality":"generalized-source-2020","boundaryYearRepresented":"2020","bounds":[[108.65991210900002,18.874328613],[109.28948974600002,19.506530762]],"center":[108.97470092750001,19.1904296875],"centerMethod":"bounding-box midpoint; camera framing only","license":"CC-BY-3.0-IGO","attribution":"geoBoundaries / HDX, China administrative boundaries (2020)","source":{"provider":"geoBoundaries gbHumanitarian / HDX","url":"https://github.com/wmgeolab/geoBoundaries/raw/9469f09/releaseData/gbHumanitarian/CHN/ADM2/geoBoundaries-CHN-ADM2.geojson","metadataUrl":"https://www.geoboundaries.org/api/current/gbHumanitarian/CHN/ADM2/","shapeID":"99377448B81485515896282","shapeName":"Changjiang Li Autonomous County","boundaryID":"CHN-ADM2-99377448","commit":"9469f09"},"geometryCounts":{"coordinates":1524,"components":6,"holes":0},"boundaryNotice":"geoBoundaries / HDX 2020 年行政区数据，海岸和边界经过源数据概化，并非当前测绘成果。"},"geometry":{"type":"MultiPolygon","coordinates":[[[[109.04071044900002,19.432128906],[109.03552246100001,19.434326172],[109.03289794900002,19.43548584],[109.02911377,19.436889648],[109.02410888700001,19.434082031],[109.02130127,19.432678223],[109.01727294900002,19.429870605],[109.01269531200002,19.428527832],[109.00909423800002,19.428283691],[109.00628662100002,19.42791748],[109.00030517600001,19.428894043],[108.99627685500002,19.430480957],[108.99328613300001,19.43371582],[108.99029541000002,19.438476562],[108.98870849600002,19.442077637],[108.98687744100002,19.448913574],[108.98413085900002,19.455505371],[108.98132324200002,19.459472656],[108.97869873000002,19.463684082],[108.97570800800001,19.468322754],[108.97552490200002,19.472473145],[108.97332763700001,19.478515625],[108.97192382800002,19.479919434],[108.97131347700001,19.479919434],[108.97131347700001,19.479675293],[108.96911621100001,19.479675293],[108.96911621100001,19.479919434],[108.96868896500001,19.479919434],[108.96868896500001,19.480285645],[108.96832275400001,19.480285645],[108.96832275400001,19.480529785],[108.96789550800001,19.480529785],[108.96789550800001,19.480712891],[108.96771240200002,19.480712891],[108.96771240200002,19.481079102],[108.96710205100001,19.481079102],[108.96710205100001,19.481323242],[108.96691894500002,19.481323242],[108.96691894500002,19.481506348],[108.96667480500001,19.481506348],[108.96667480500001,19.481872559],[108.96588134800001,19.481872559],[108.96588134800001,19.482116699],[108.96569824200002,19.482116699],[108.96569824200002,19.48248291],[108.96508789100001,19.48248291],[108.96508789100001,19.482727051],[108.96490478500002,19.482727051],[108.96490478500002,19.482910156],[108.96429443400001,19.482910156],[108.96429443400001,19.483276367],[108.96411132800002,19.483276367],[108.96411132800002,19.483520508],[108.96350097700001,19.483520508],[108.96350097700001,19.483886719],[108.96331787100002,19.483886719],[108.96331787100002,19.484130859],[108.96289062500001,19.484130859],[108.96289062500001,19.484313965],[108.96270752,19.484313965],[108.96270752,19.484680176],[108.96209716800001,19.484680176],[108.96209716800001,19.484924316],[108.96069335900002,19.484924316],[108.96069335900002,19.485290527],[108.96051025400001,19.485290527],[108.96051025400001,19.485473633],[108.96008300800001,19.485473633],[108.96008300800001,19.485717773],[108.95989990200002,19.485717773],[108.95989990200002,19.486083984],[108.95971679700001,19.486083984],[108.95971679700001,19.486328125],[108.95928955100001,19.486328125],[108.95928955100001,19.48651123],[108.95910644500002,19.48651123],[108.95910644500002,19.486877441],[108.95867919900002,19.486877441],[108.95867919900002,19.487121582],[108.95849609400001,19.487121582],[108.95849609400001,19.487487793],[108.95831298800002,19.487487793],[108.95349121100001,19.489501953],[108.95111084000001,19.490478516],[108.94488525400001,19.492919922],[108.94287109400001,19.490722656],[108.93951416000002,19.483520508],[108.93151855500001,19.489318848],[108.93127441400001,19.491088867],[108.93109130900001,19.491088867],[108.93109130900001,19.491271973],[108.93072509800001,19.491271973],[108.93072509800001,19.491882324],[108.93048095700001,19.491882324],[108.93048095700001,19.492492676],[108.93011474600002,19.492492676],[108.92791748000002,19.496520996],[108.93048095700001,19.50592041],[108.93011474600002,19.506530762],[108.93011474600002,19.506286621],[108.92968750000001,19.506286621],[108.92968750000001,19.506103516],[108.92932128900001,19.506103516],[108.92932128900001,19.50567627],[108.92889404300001,19.50567627],[108.92889404300001,19.505493164],[108.92852783200001,19.505493164],[108.92852783200001,19.505126953],[108.92791748000002,19.505126953],[108.92791748000002,19.504882812],[108.92749023400002,19.504882812],[108.92749023400002,19.504699707],[108.92687988300001,19.504699707],[108.92687988300001,19.504272461],[108.92633056600002,19.504272461],[108.92633056600002,19.504089355],[108.92608642600001,19.504089355],[108.92608642600001,19.503723145],[108.92572021500001,19.503723145],[108.92572021500001,19.503295898],[108.92547607400002,19.503295898],[108.92547607400002,19.502929687],[108.92529296900001,19.502929687],[108.92529296900001,19.502685547],[108.92492675800001,19.502685547],[108.92492675800001,19.502075195],[108.92468261700002,19.502075195],[108.92468261700002,19.50189209],[108.92431640600002,19.50189209],[108.92431640600002,19.501525879],[108.92407226600001,19.501525879],[108.92407226600001,19.501098633],[108.92388916000002,19.501098633],[108.92388916000002,19.500671387],[108.92352294900002,19.500671387],[108.92352294900002,19.500488281],[108.92132568400001,19.500488281],[108.92132568400001,19.50012207],[108.92108154300001,19.50012207],[108.92108154300001,19.49987793],[108.92071533200001,19.49987793],[108.92071533200001,19.499694824],[108.92047119100002,19.499694824],[108.92047119100002,19.499328613],[108.92028808600001,19.499328613],[108.92028808600001,19.499084473],[108.91967773400002,19.499084473],[108.91967773400002,19.498901367],[108.91931152300002,19.498901367],[108.91931152300002,19.498474121],[108.91912841800001,19.498474121],[108.91912841800001,19.498291016],[108.91888427700002,19.498291016],[108.91888427700002,19.497924805],[108.91851806600002,19.497924805],[108.91851806600002,19.497680664],[108.91827392600001,19.497680664],[108.91827392600001,19.497497559],[108.91790771500001,19.497497559],[108.91790771500001,19.497070312],[108.91772460900002,19.497070312],[108.91772460900002,19.496887207],[108.91748046900001,19.496887207],[108.91748046900001,19.496520996],[108.91711425800001,19.496520996],[108.91711425800001,19.496276855],[108.91650390600002,19.496276855],[108.91650390600002,19.49609375],[108.91632080100001,19.49609375],[108.91632080100001,19.495727539],[108.91607666000002,19.495727539],[108.91607666000002,19.495483398],[108.91571044900002,19.495483398],[108.91571044900002,19.495117187],[108.91552734400001,19.495117187],[108.91552734400001,19.494873047],[108.91528320300002,19.494873047],[108.91528320300002,19.494689941],[108.91491699200002,19.494689941],[108.91491699200002,19.49432373],[108.91467285200001,19.49432373],[108.91467285200001,19.49407959],[108.91430664100001,19.49407959],[108.91430664100001,19.493896484],[108.91412353500002,19.493896484],[108.913879395,19.493286133],[108.913879395,19.492919922],[108.91351318400001,19.492919922],[108.91351318400001,19.492675781],[108.91333007800002,19.492675781],[108.91333007800002,19.492492676],[108.91290283200001,19.492492676],[108.91290283200001,19.492126465],[108.91271972700001,19.492126465],[108.91271972700001,19.491882324],[108.91210937500001,19.491882324],[108.91210937500001,19.491516113],[108.91192627,19.491516113],[108.91192627,19.491271973],[108.91131591800001,19.491271973],[108.91131591800001,19.491088867],[108.91088867200001,19.491088867],[108.91088867200001,19.490722656],[108.90887451200001,19.490722656],[108.90887451200001,19.490478516],[108.90850830100001,19.490478516],[108.90850830100001,19.490112305],[108.90832519500002,19.490112305],[108.90832519500002,19.489929199],[108.90789794900002,19.489929199],[108.90789794900002,19.489685059],[108.90771484400001,19.489685059],[108.90771484400001,19.489318848],[108.90728759800001,19.489318848],[108.90728759800001,19.489074707],[108.90710449200002,19.489074707],[108.90710449200002,19.488891602],[108.90692138700001,19.488891602],[108.90692138700001,19.488525391],[108.90649414100001,19.488525391],[108.90649414100001,19.487915039],[108.90631103500002,19.487915039],[108.90631103500002,19.487670898],[108.90612793000001,19.487670898],[108.90612793000001,19.487487793],[108.90570068400001,19.487487793],[108.90570068400001,19.487121582],[108.90551757800002,19.487121582],[108.90551757800002,19.486877441],[108.90527343700002,19.486877441],[108.90527343700002,19.48651123],[108.90490722700001,19.48651123],[108.90490722700001,19.486328125],[108.90472412100002,19.486328125],[108.90472412100002,19.486083984],[108.90429687500001,19.486083984],[108.90429687500001,19.485717773],[108.90411377,19.485717773],[108.90411377,19.485473633],[108.90368652300002,19.485473633],[108.90368652300002,19.485290527],[108.90332031200002,19.485290527],[108.90332031200002,19.484924316],[108.90289306600002,19.484924316],[108.90289306600002,19.484680176],[108.90270996100001,19.484680176],[108.90270996100001,19.484313965],[108.90228271500001,19.484313965],[108.90228271500001,19.484130859],[108.90209960900002,19.484130859],[108.90209960900002,19.483886719],[108.90148925800001,19.483886719],[108.90148925800001,19.483520508],[108.90130615200002,19.483520508],[108.90130615200002,19.483276367],[108.90112304700001,19.483276367],[108.90112304700001,19.482910156],[108.90069580100001,19.482910156],[108.90069580100001,19.482727051],[108.90051269500002,19.482727051],[108.90051269500002,19.48248291],[108.89990234400001,19.48248291],[108.89990234400001,19.482116699],[108.89971923800002,19.482116699],[108.89971923800002,19.481872559],[108.89947509800001,19.481872559],[108.89947509800001,19.481506348],[108.89910888700001,19.481506348],[108.89910888700001,19.481323242],[108.89849853500002,19.481323242],[108.89849853500002,19.481079102],[108.89831543000001,19.481079102],[108.89831543000001,19.480712891],[108.89788818400001,19.480712891],[108.89788818400001,19.480529785],[108.89770507800002,19.480529785],[108.89770507800002,19.480285645],[108.89727783200001,19.480285645],[108.89727783200001,19.479919434],[108.89691162100002,19.479919434],[108.89691162100002,19.479675293],[108.89648437500001,19.479675293],[108.89648437500001,19.479309082],[108.89630127,19.479309082],[108.89630127,19.478881836],[108.89611816400001,19.478881836],[108.89611816400001,19.478271484],[108.89550781200002,19.478271484],[108.89550781200002,19.477905273],[108.89508056600002,19.477905273],[108.89508056600002,19.477722168],[108.89471435500002,19.477722168],[108.89471435500002,19.477478027],[108.89428710900002,19.477478027],[108.89428710900002,19.477111816],[108.89367675800001,19.477111816],[108.89367675800001,19.476928711],[108.89331054700001,19.476928711],[108.89331054700001,19.476501465],[108.89288330100001,19.476501465],[108.89288330100001,19.476318359],[108.89227294900002,19.476318359],[108.89227294900002,19.476074219],[108.89208984400001,19.476074219],[108.89208984400001,19.475708008],[108.89190673800002,19.475708008],[108.89190673800002,19.475524902],[108.89147949200002,19.475524902],[108.89147949200002,19.475280762],[108.89129638700001,19.475280762],[108.89129638700001,19.474914551],[108.89111328100002,19.474914551],[108.89111328100002,19.47467041],[108.89068603500002,19.47467041],[108.89068603500002,19.474304199],[108.89050293000001,19.474304199],[108.89050293000001,19.474121094],[108.89007568400001,19.474121094],[108.89007568400001,19.473510742],[108.88989257800002,19.473510742],[108.88989257800002,19.473327637],[108.88970947300001,19.473327637],[108.88970947300001,19.472900391],[108.88928222700001,19.472900391],[108.88928222700001,19.472717285],[108.88909912100002,19.472717285],[108.88909912100002,19.472473145],[108.88867187500001,19.472473145],[108.88867187500001,19.472106934],[108.88848877,19.472106934],[108.88848877,19.471923828],[108.88830566400001,19.471923828],[108.88830566400001,19.471679687],[108.88787841800001,19.471679687],[108.88787841800001,19.471313477],[108.88769531200002,19.471313477],[108.88769531200002,19.47088623],[108.88732910200001,19.47088623],[108.88732910200001,19.470703125],[108.88690185500002,19.470703125],[108.88690185500002,19.47052002],[108.88647460900002,19.47052002],[108.88647460900002,19.469909668],[108.88629150400001,19.469909668],[108.88629150400001,19.469116211],[108.88610839800002,19.469116211],[108.88610839800002,19.468505859],[108.88549804700001,19.468505859],[108.88549804700001,19.468322754],[108.88507080100001,19.468322754],[108.88507080100001,19.467895508],[108.88470459000001,19.467895508],[108.88470459000001,19.467712402],[108.88427734400001,19.467712402],[108.88427734400001,19.467285156],[108.88372802700002,19.467285156],[108.88372802700002,19.467102051],[108.88330078100002,19.467102051],[108.88330078100002,19.466918945],[108.88287353500002,19.466918945],[108.88287353500002,19.466674805],[108.88250732400002,19.466674805],[108.88250732400002,19.466308594],[108.88128662100002,19.466308594],[108.88128662100002,19.465881348],[108.88110351600001,19.466125488],[108.88110351600001,19.465698242],[108.88067627,19.465698242],[108.88067627,19.465515137],[108.88049316400001,19.465515137],[108.88049316400001,19.465087891],[108.88012695300002,19.465087891],[108.88012695300002,19.464904785],[108.87988281200002,19.464904785],[108.87988281200002,19.46472168],[108.87969970700001,19.46472168],[108.87969970700001,19.464294434],[108.87927246100001,19.464294434],[108.87927246100001,19.464111328],[108.878723145,19.464111328],[108.878723145,19.463684082],[108.87847900400001,19.463684082],[108.87847900400001,19.463500977],[108.87792968700002,19.463500977],[108.87792968700002,19.463317871],[108.87768554700001,19.463317871],[108.87768554700001,19.462890625],[108.87707519500002,19.46307373],[108.87707519500002,19.46270752],[108.87689209000001,19.46270752],[108.87689209000001,19.462280273],[108.87652587900001,19.462280273],[108.87652587900001,19.462097168],[108.87628173800002,19.462097168],[108.87628173800002,19.461914062],[108.87609863300001,19.461914062],[108.87609863300001,19.461486816],[108.87567138700001,19.461486816],[108.87567138700001,19.461303711],[108.87487793000001,19.461303711],[108.87487793000001,19.461120605],[108.87432861300002,19.461120605],[108.87432861300002,19.460693359],[108.87347412100002,19.460693359],[108.87347412100002,19.460510254],[108.87329101600001,19.460510254],[108.87329101600001,19.459899902],[108.87292480500001,19.459899902],[108.87292480500001,19.459716797],[108.87268066400001,19.459716797],[108.87268066400001,19.459289551],[108.87207031200002,19.459289551],[108.87207031200002,19.459106445],[108.87152099600002,19.459106445],[108.87152099600002,19.458679199],[108.87109375000001,19.458679199],[108.87109375000001,19.458496094],[108.87048339800002,19.458496094],[108.87048339800002,19.458312988],[108.86987304700001,19.458312988],[108.86987304700001,19.457885742],[108.86932373000002,19.457885742],[108.86932373000002,19.457702637],[108.86907959000001,19.457702637],[108.86907959000001,19.457275391],[108.86853027300002,19.457275391],[108.86853027300002,19.457092285],[108.86791992200001,19.457092285],[108.86791992200001,19.45690918],[108.86749267600001,19.45690918],[108.86749267600001,19.456481934],[108.86688232400002,19.456481934],[108.86688232400002,19.456298828],[108.86627197300001,19.456298828],[108.86627197300001,19.456115723],[108.86608886700002,19.456115723],[108.86608886700002,19.455688477],[108.86547851600001,19.455688477],[108.86547851600001,19.455505371],[108.86511230500001,19.455505371],[108.86511230500001,19.455078125],[108.86468505900001,19.455078125],[108.86468505900001,19.45489502],[108.86389160200001,19.45489502],[108.86389160200001,19.454711914],[108.86328125000001,19.454711914],[108.86328125000001,19.454284668],[108.86248779300001,19.454284668],[108.86248779300001,19.454101562],[108.86187744100002,19.454101562],[108.86187744100002,19.453674316],[108.86108398400002,19.453674316],[108.86108398400002,19.453491211],[108.86071777300002,19.453491211],[108.86047363300001,19.453491211],[108.86047363300001,19.453308105],[108.86029052700002,19.453308105],[108.85968017600001,19.453308105],[108.85968017600001,19.452880859],[108.85913085900002,19.452880859],[108.85913085900002,19.452697754],[108.85571289100001,19.452697754],[108.85571289100001,19.452087402],[108.85552978500002,19.452087402],[108.85552978500002,19.451904297],[108.85491943400001,19.451904297],[108.85491943400001,19.451477051],[108.85430908200001,19.451477051],[108.85430908200001,19.451293945],[108.85351562500001,19.451293945],[108.85351562500001,19.45111084],[108.85272216800001,19.45111084],[108.85272216800001,19.450683594],[108.85211181600002,19.450683594],[108.85211181600002,19.450500488],[108.85131835900002,19.450500488],[108.85131835900002,19.450073242],[108.84967041000002,19.450073242],[108.84967041000002,19.449890137],[108.84832763700001,19.449890137],[108.84832763700001,19.449707031],[108.84667968700002,19.449707031],[108.84667968700002,19.449279785],[108.84490966800001,19.449279785],[108.84490966800001,19.44909668],[108.84088134800001,19.44909668],[108.84088134800001,19.448730469],[108.83691406200002,19.448730469],[108.83691406200002,19.448486328],[108.83630371100001,19.448486328],[108.83630371100001,19.448303223],[108.83569335900002,19.448303223],[108.83569335900002,19.447875977],[108.83489990200002,19.447875977],[108.83489990200002,19.447692871],[108.83428955100001,19.447692871],[108.83428955100001,19.447509766],[108.83367919900002,19.447509766],[108.83367919900002,19.44708252],[108.83331298800002,19.44708252],[108.83331298800002,19.446899414],[108.83227539100001,19.446899414],[108.83227539100001,19.446472168],[108.83190918000001,19.446472168],[108.83190918000001,19.446289062],[108.83129882800002,19.446289062],[108.83129882800002,19.446105957],[108.83111572300001,19.446105957],[108.83111572300001,19.445678711],[108.83050537100002,19.445678711],[108.83050537100002,19.445495605],[108.83007812500001,19.445495605],[108.83007812500001,19.445129395],[108.82971191400001,19.445129395],[108.82971191400001,19.444885254],[108.82928466800001,19.444885254],[108.82928466800001,19.444702148],[108.82867431600002,19.444702148],[108.82867431600002,19.444274902],[108.82830810500002,19.444274902],[108.82830810500002,19.444091797],[108.828125,19.444091797],[108.82788085900002,19.444091797],[108.82788085900002,19.443725586],[108.82751464800002,19.443725586],[108.82751464800002,19.443481445],[108.82708740200002,19.443481445],[108.82708740200002,19.44329834],[108.82647705100001,19.44329834],[108.82647705100001,19.442871094],[108.82568359400001,19.442871094],[108.82568359400001,19.442687988],[108.82470703100002,19.442687988],[108.82470703100002,19.442504883],[108.82391357400002,19.442504883],[108.82373046900001,19.442504883],[108.82373046900001,19.442321777],[108.82373046900001,19.442077637],[108.82348632800002,19.442077637],[108.82269287100002,19.442077637],[108.82269287100002,19.441894531],[108.82208252,19.441894531],[108.82208252,19.44152832],[108.82189941400001,19.44152832],[108.82189941400001,19.44128418],[108.82128906200002,19.44128418],[108.82128906200002,19.441101074],[108.82110595700001,19.441101074],[108.82110595700001,19.440673828],[108.82067871100001,19.440673828],[108.81768798800002,19.438293457],[108.81768798800002,19.437927246],[108.81750488300001,19.437927246],[108.81750488300001,19.4375],[108.81707763700001,19.4375],[108.81707763700001,19.437072754],[108.81707763700001,19.436889648],[108.81689453100002,19.436889648],[108.81689453100002,19.436279297],[108.81652832000002,19.436279297],[108.81652832000002,19.436096191],[108.81628418000001,19.436096191],[108.81628418000001,19.43548584],[108.81610107400002,19.43548584],[108.81610107400002,19.434875488],[108.81628418000001,19.434875488],[108.81628418000001,19.434326172],[108.81610107400002,19.434326172],[108.81610107400002,19.434082031],[108.81567382800002,19.434082031],[108.81567382800002,19.433898926],[108.81512451200001,19.433898926],[108.81512451200001,19.43347168],[108.81469726600001,19.43347168],[108.81469726600001,19.433288574],[108.81311035200001,19.433288574],[108.8125,19.433288574],[108.8125,19.432922363],[108.81207275400001,19.432922363],[108.81207275400001,19.432495117],[108.81188964800002,19.432495117],[108.81188964800002,19.431884766],[108.81170654300001,19.431884766],[108.81109619100002,19.431884766],[108.81109619100002,19.432128906],[108.81030273400002,19.432128906],[108.80987548800002,19.431884766],[108.80987548800002,19.431091309],[108.81011962900001,19.431091309],[108.81011962900001,19.430297852],[108.81011962900001,19.429077148],[108.80987548800002,19.429077148],[108.80987548800002,19.42791748],[108.80969238300001,19.42791748],[108.80969238300001,19.427124023],[108.80932617200001,19.427124023],[108.80932617200001,19.426330566],[108.80908203100002,19.426330566],[108.80908203100002,19.425476074],[108.80889892600001,19.425476074],[108.80889892600001,19.424926758],[108.80847168000001,19.424926758],[108.80847168000001,19.424682617],[108.80792236300002,19.424682617],[108.80792236300002,19.424316406],[108.80767822300001,19.424316406],[108.80767822300001,19.424072266],[108.80712890600002,19.424072266],[108.80712890600002,19.42388916],[108.80688476600001,19.42388916],[108.80688476600001,19.423522949],[108.80627441400001,19.423522949],[108.80627441400001,19.423278809],[108.80572509800001,19.423278809],[108.80572509800001,19.422912598],[108.80487060500002,19.422912598],[108.80487060500002,19.422729492],[108.80432128900001,19.422729492],[108.80432128900001,19.422485352],[108.80389404300001,19.422485352],[108.80389404300001,19.422119141],[108.80352783200001,19.422119141],[108.80352783200001,19.421508789],[108.80328369100002,19.421508789],[108.80328369100002,19.421325684],[108.80291748000002,19.421325684],[108.80291748000002,19.420715332],[108.80267334000001,19.420715332],[108.80267334000001,19.420471191],[108.80249023400002,19.420471191],[108.80249023400002,19.419921875],[108.80212402300002,19.419921875],[108.80212402300002,19.419677734],[108.80187988300001,19.419677734],[108.80187988300001,19.419311523],[108.80151367200001,19.419311523],[108.80151367200001,19.418884277],[108.80133056600002,19.418884277],[108.80133056600002,19.418518066],[108.80108642600001,19.418518066],[108.80108642600001,19.418273926],[108.80072021500001,19.418273926],[108.80072021500001,19.417724609],[108.80047607400002,19.417724609],[108.80047607400002,19.417480469],[108.80029296900001,19.417480469],[108.80029296900001,19.417114258],[108.79992675800001,19.417114258],[108.79992675800001,19.416870117],[108.79968261700002,19.416870117],[108.79968261700002,19.416503906],[108.79931640600002,19.416503906],[108.79931640600002,19.416320801],[108.79907226600001,19.416320801],[108.79907226600001,19.41607666],[108.79888916000002,19.41607666],[108.79888916000002,19.415710449],[108.79852294900002,19.415710449],[108.79852294900002,19.415527344],[108.79827880900001,19.415527344],[108.79827880900001,19.414123535],[108.79888916000002,19.414123535],[108.79888916000002,19.413879395],[108.79931640600002,19.413879395],[108.79931640600002,19.413513184],[108.79968261700002,19.413513184],[108.79968261700002,19.412902832],[108.79711914100001,19.412902832],[108.79711914100001,19.413330078],[108.796875,19.413330078],[108.796875,19.413513184],[108.79608154300001,19.413513184],[108.79608154300001,19.413330078],[108.79547119100002,19.413330078],[108.79547119100002,19.412902832],[108.79528808600001,19.412902832],[108.79528808600001,19.412719727],[108.79467773400002,19.412719727],[108.79467773400002,19.412475586],[108.79431152300002,19.412475586],[108.79431152300002,19.412109375],[108.79388427700002,19.412109375],[108.79388427700002,19.41192627],[108.79351806600002,19.41192627],[108.79351806600002,19.411682129],[108.79327392600001,19.411682129],[108.79327392600001,19.410888672],[108.79290771500001,19.410888672],[108.79290771500001,19.410705566],[108.79272460900002,19.410705566],[108.79272460900002,19.41027832],[108.79248046900001,19.41027832],[108.79248046900001,19.409729004],[108.79211425800001,19.409729004],[108.79211425800001,19.409301758],[108.79187011700002,19.409301758],[108.79187011700002,19.408874512],[108.79150390600002,19.408874512],[108.79150390600002,19.408508301],[108.79132080100001,19.408508301],[108.79132080100001,19.407897949],[108.79107666000002,19.407897949],[108.79107666000002,19.407714844],[108.79071044900002,19.407714844],[108.79071044900002,19.407104492],[108.79052734400001,19.407104492],[108.79052734400001,19.406921387],[108.79028320300002,19.406921387],[108.79028320300002,19.406311035],[108.78991699200002,19.406311035],[108.78991699200002,19.405700684],[108.78967285200001,19.405700684],[108.78967285200001,19.405517578],[108.78930664100001,19.405517578],[108.78930664100001,19.404907227],[108.78912353500002,19.404907227],[108.78912353500002,19.404724121],[108.788879395,19.404724121],[108.788879395,19.40411377],[108.78649902300002,19.40411377],[108.78649902300002,19.403686523],[108.78631591800001,19.403686523],[108.78631591800001,19.403503418],[108.78588867200001,19.403503418],[108.78588867200001,19.403320312],[108.78570556600002,19.403320312],[108.78570556600002,19.402893066],[108.78552246100001,19.402893066],[108.78552246100001,19.402282715],[108.78527832000002,19.402282715],[108.78527832000002,19.402099609],[108.78491210900002,19.402099609],[108.78491210900002,19.401916504],[108.78448486300002,19.401916504],[108.78448486300002,19.401489258],[108.78430175800001,19.401489258],[108.78430175800001,19.401306152],[108.78411865200002,19.401306152],[108.78411865200002,19.401123047],[108.78387451200001,19.401123047],[108.78387451200001,19.400695801],[108.78332519500002,19.400695801],[108.78332519500002,19.400512695],[108.78289794900002,19.400512695],[108.78289794900002,19.400085449],[108.78228759800001,19.400085449],[108.78228759800001,19.399902344],[108.78210449200002,19.399902344],[108.78210449200002,19.399291992],[108.78192138700001,19.399291992],[108.78192138700001,19.399108887],[108.78149414100001,19.399108887],[108.78149414100001,19.398498535],[108.78131103500002,19.398498535],[108.78131103500002,19.39831543],[108.78112793000001,19.39831543],[108.78112793000001,19.397705078],[108.78070068400001,19.397705078],[108.78070068400001,19.397277832],[108.78051757800002,19.397277832],[108.78051757800002,19.397094727],[108.77990722700001,19.397094727],[108.77990722700001,19.396911621],[108.77972412100002,19.396911621],[108.77972412100002,19.396484375],[108.77911377,19.396484375],[108.77911377,19.39630127],[108.77868652300002,19.39630127],[108.77868652300002,19.396118164],[108.77832031200002,19.396118164],[108.77832031200002,19.395690918],[108.77789306600002,19.395690918],[108.77789306600002,19.395507812],[108.77728271500001,19.395507812],[108.77728271500001,19.395080566],[108.77691650400001,19.395080566],[108.77691650400001,19.394897461],[108.77630615200002,19.394897461],[108.77630615200002,19.394714355],[108.77569580100001,19.394714355],[108.77569580100001,19.394287109],[108.77508544900002,19.394287109],[108.77508544900002,19.394104004],[108.77471923800002,19.394104004],[108.77471923800002,19.393676758],[108.77410888700001,19.393676758],[108.77410888700001,19.393493652],[108.77349853500002,19.393493652],[108.77349853500002,19.393310547],[108.77288818400001,19.393310547],[108.77288818400001,19.392883301],[108.77227783200001,19.392883301],[108.77227783200001,19.392700195],[108.77191162100002,19.392700195],[108.77191162100002,19.392272949],[108.77130127,19.392272949],[108.77130127,19.392089844],[108.77069091800001,19.392089844],[108.77069091800001,19.391906738],[108.77032470700001,19.391906738],[108.77008056600002,19.391906738],[108.77008056600002,19.391723633],[108.77008056600002,19.391479492],[108.76989746100001,19.391479492],[108.76928710900002,19.391479492],[108.76928710900002,19.391296387],[108.76867675800001,19.391296387],[108.76867675800001,19.391113281],[108.76831054700001,19.391113281],[108.76831054700001,19.390686035],[108.76751709000001,19.390686035],[108.76751709000001,19.39050293],[108.76690673800002,19.39050293],[108.76690673800002,19.390075684],[108.76629638700001,19.390075684],[108.76629638700001,19.389892578],[108.76550293000001,19.389892578],[108.76550293000001,19.389709473],[108.76489257800002,19.389709473],[108.76489257800002,19.389282227],[108.76428222700001,19.389282227],[108.76428222700001,19.389099121],[108.76348877,19.389099121],[108.76348877,19.388671875],[108.76287841800001,19.388671875],[108.76287841800001,19.38848877],[108.76208496100001,19.38848877],[108.76208496100001,19.388305664],[108.76147460900002,19.388305664],[108.76147460900002,19.387878418],[108.75970459000001,19.387878418],[108.75970459000001,19.387084961],[108.75927734400001,19.387084961],[108.75927734400001,19.386108398],[108.75909423800002,19.386108398],[108.75909423800002,19.385070801],[108.75872802700002,19.385070801],[108.75872802700002,19.384887695],[108.75830078100002,19.384887695],[108.75830078100002,19.38470459],[108.75769043000001,19.38470459],[108.75769043000001,19.384277344],[108.75708007800002,19.384277344],[108.75708007800002,19.384094238],[108.75689697300001,19.384094238],[108.75689697300001,19.383911133],[108.75628662100002,19.383728027],[108.75628662100002,19.383483887],[108.75567627,19.383483887],[108.75567627,19.383300781],[108.75512695300002,19.383300781],[108.75512695300002,19.382873535],[108.75427246100001,19.382873535],[108.75427246100001,19.38269043],[108.753723145,19.38269043],[108.753723145,19.382507324],[108.75329589800002,19.382507324],[108.75329589800002,19.382080078],[108.75268554700001,19.382080078],[108.75268554700001,19.381896973],[108.75189209000001,19.381896973],[108.75189209000001,19.381530762],[108.75128173800002,19.381530762],[108.75128173800002,19.381286621],[108.75109863300001,19.381286621],[108.75109863300001,19.381103516],[108.75067138700001,19.381103516],[108.75067138700001,19.38067627],[108.75048828100002,19.38067627],[108.75048828100002,19.380493164],[108.74890136700002,19.380493164],[108.74847412100002,19.380126953],[108.74432373000002,19.378479004],[108.74389648400002,19.378295898],[108.74353027300002,19.378295898],[108.74328613300001,19.378112793],[108.74328613300001,19.377929687],[108.74291992200001,19.377929687],[108.74267578100002,19.377929687],[108.74267578100002,19.377685547],[108.74212646500001,19.377685547],[108.74188232400002,19.377685547],[108.74188232400002,19.377502441],[108.74151611300002,19.377502441],[108.74127197300001,19.377319336],[108.74127197300001,19.377075195],[108.74072265600002,19.377075195],[108.74047851600001,19.377075195],[108.74047851600001,19.37487793],[108.74047851600001,19.374694824],[108.73992919900002,19.374694824],[108.73571777300002,19.374694824],[108.73571777300002,19.374328613],[108.73370361300002,19.374328613],[108.73327636700002,19.374084473],[108.72827148400002,19.372314453],[108.70910644500002,19.36907959],[108.70190429700001,19.370910645],[108.70190429700001,19.370727539],[108.70129394500002,19.370727539],[108.70129394500002,19.370483398],[108.70111084000001,19.370483398],[108.70111084000001,19.370300293],[108.70111084000001,19.370117187],[108.70050048800002,19.370117187],[108.70050048800002,19.369873047],[108.69970703100002,19.369873047],[108.69970703100002,19.369689941],[108.69909668000001,19.369689941],[108.69909668000001,19.36932373],[108.69830322300001,19.36932373],[108.69830322300001,19.36907959],[108.69769287100002,19.36907959],[108.69769287100002,19.368896484],[108.69708252,19.368896484],[108.69708252,19.368530273],[108.69647216800001,19.368530273],[108.69647216800001,19.369689941],[108.69628906200002,19.369689941],[108.69628906200002,19.370727539],[108.69610595700001,19.370727539],[108.69610595700001,19.37109375],[108.69567871100001,19.37109375],[108.69567871100001,19.371276855],[108.69549560500002,19.371276855],[108.69549560500002,19.371520996],[108.695129395,19.371520996],[108.695129395,19.371887207],[108.69488525400001,19.371887207],[108.69488525400001,19.372070312],[108.69470214800002,19.372070312],[108.69470214800002,19.372497559],[108.69427490200002,19.372497559],[108.69427490200002,19.372680664],[108.69372558600001,19.372680664],[108.69372558600001,19.372924805],[108.69348144500002,19.372924805],[108.69348144500002,19.373291016],[108.69329834000001,19.373291016],[108.69329834000001,19.373474121],[108.69311523400002,19.373474121],[108.69268798800002,19.373474121],[108.69268798800002,19.373901367],[108.69250488300001,19.373901367],[108.69232177700002,19.374084473],[108.69207763700001,19.374084473],[108.69207763700001,19.374328613],[108.69049072300001,19.375488281],[108.68847656200002,19.375488281],[108.68792724600002,19.375488281],[108.68792724600002,19.37512207],[108.68768310500002,19.37512207],[108.68768310500002,19.37487793],[108.68707275400001,19.37487793],[108.68707275400001,19.374694824],[108.68688964800002,19.374694824],[108.68688964800002,19.374328613],[108.68627929700001,19.374328613],[108.68627929700001,19.374084473],[108.68572998000002,19.374084473],[108.68572998000002,19.373901367],[108.68548584000001,19.373901367],[108.68548584000001,19.373474121],[108.68487548800002,19.373474121],[108.68487548800002,19.373291016],[108.68432617200001,19.373291016],[108.68432617200001,19.372924805],[108.68408203100002,19.372924805],[108.68408203100002,19.372680664],[108.68347168000001,19.372680664],[108.68347168000001,19.372497559],[108.68328857400002,19.372497559],[108.68328857400002,19.372070312],[108.68328857400002,19.371887207],[108.68310546900001,19.371887207],[108.68292236300002,19.371704102],[108.68292236300002,19.371520996],[108.68267822300001,19.371276855],[108.68188476600001,19.369506836],[108.68188476600001,19.36907959],[108.68170166000002,19.36907959],[108.68151855500001,19.368896484],[108.68151855500001,19.368286133],[108.68127441400001,19.368286133],[108.68127441400001,19.367126465],[108.68109130900001,19.367126465],[108.68109130900001,19.366271973],[108.68072509800001,19.366271973],[108.68072509800001,19.365112305],[108.68048095700001,19.365112305],[108.68048095700001,19.364318848],[108.68011474600002,19.364318848],[108.68011474600002,19.363891602],[108.67987060500002,19.363891602],[108.67987060500002,19.36328125],[108.67968750000001,19.36328125],[108.67968750000001,19.363098145],[108.679504395,19.362670898],[108.67687988300001,19.353088379],[108.67327880900001,19.348876953],[108.66607666000002,19.344116211],[108.66827392600001,19.338500977],[108.67010498000002,19.338500977],[108.67010498000002,19.337890625],[108.67047119100002,19.337890625],[108.67047119100002,19.337280273],[108.67071533200001,19.337280273],[108.67071533200001,19.336730957],[108.67407226600001,19.334289551],[108.67211914100001,19.329711914],[108.67352294900002,19.329711914],[108.67352294900002,19.329284668],[108.67388916000002,19.329284668],[108.67388916000002,19.329101562],[108.67407226600001,19.329101562],[108.67407226600001,19.328674316],[108.67651367200001,19.328674316],[108.67651367200001,19.328491211],[108.67712402300002,19.328491211],[108.67712402300002,19.328308105],[108.67767334000001,19.328308105],[108.67767334000001,19.327880859],[108.67828369100002,19.327880859],[108.67828369100002,19.327697754],[108.67889404300001,19.327697754],[108.67889404300001,19.327270508],[108.67932128900001,19.327270508],[108.67932128900001,19.327087402],[108.67987060500002,19.327087402],[108.67987060500002,19.326477051],[108.68011474600002,19.326477051],[108.68011474600002,19.32611084],[108.68048095700001,19.32611084],[108.68048095700001,19.325500488],[108.68212890600002,19.325500488],[108.68212890600002,19.324707031],[108.68249511700002,19.324707031],[108.68249511700002,19.323486328],[108.68267822300001,19.323486328],[108.68267822300001,19.322875977],[108.68292236300002,19.322875977],[108.68292236300002,19.322509766],[108.68328857400002,19.322509766],[108.68328857400002,19.321899414],[108.68347168000001,19.321899414],[108.68347168000001,19.321289062],[108.68389892600001,19.321289062],[108.68389892600001,19.320678711],[108.68408203100002,19.320678711],[108.68408203100002,19.320495605],[108.68389892600001,19.320495605],[108.68389892600001,19.320129395],[108.68347168000001,19.320129395],[108.68347168000001,19.319702148],[108.68328857400002,19.319702148],[108.68328857400002,19.319274902],[108.68292236300002,19.319274902],[108.68292236300002,19.319091797],[108.68267822300001,19.319091797],[108.68267822300001,19.317871094],[108.68328857400002,19.317871094],[108.68328857400002,19.317687988],[108.68347168000001,19.317687988],[108.68389892600001,19.317687988],[108.68389892600001,19.317504883],[108.68432617200001,19.317504883],[108.68432617200001,19.31652832],[108.68469238300001,19.31652832],[108.68469238300001,19.315490723],[108.68487548800002,19.315490723],[108.68487548800002,19.31427002],[108.68511962900001,19.31427002],[108.68511962900001,19.313293457],[108.68548584000001,19.313293457],[108.68548584000001,19.312072754],[108.68572998000002,19.312072754],[108.68572998000002,19.311096191],[108.68609619100002,19.311096191],[108.68609619100002,19.31048584],[108.68627929700001,19.31048584],[108.68627929700001,19.309875488],[108.68652343700002,19.309875488],[108.68652343700002,19.309326172],[108.68688964800002,19.309326172],[108.68688964800002,19.309082031],[108.68707275400001,19.309082031],[108.68707275400001,19.30847168],[108.6875,19.30847168],[108.6875,19.307922363],[108.68768310500002,19.307922363],[108.68768310500002,19.307128906],[108.68792724600002,19.307128906],[108.68792724600002,19.306274414],[108.68829345700001,19.306274414],[108.68829345700001,19.305725098],[108.68847656200002,19.305725098],[108.68847656200002,19.305480957],[108.68890380900001,19.305480957],[108.68890380900001,19.305114746],[108.68908691400001,19.305114746],[108.68908691400001,19.304870605],[108.69012451200001,19.304870605],[108.69012451200001,19.3046875],[108.69049072300001,19.3046875],[108.69049072300001,19.304321289],[108.69067382800002,19.304321289],[108.69067382800002,19.304077148],[108.69110107400002,19.304077148],[108.69110107400002,19.303894043],[108.69128418000001,19.303894043],[108.69128418000001,19.303527832],[108.69152832000002,19.303527832],[108.69152832000002,19.302490234],[108.69049072300001,19.302490234],[108.69049072300001,19.30267334],[108.68988037100002,19.30267334],[108.68988037100002,19.30291748],[108.68969726600001,19.30291748],[108.68969726600001,19.303283691],[108.68908691400001,19.303283691],[108.68908691400001,19.303527832],[108.68847656200002,19.303527832],[108.68847656200002,19.303894043],[108.68829345700001,19.303894043],[108.68829345700001,19.304077148],[108.68768310500002,19.304077148],[108.68768310500002,19.304321289],[108.6875,19.304321289],[108.6875,19.3046875],[108.68707275400001,19.3046875],[108.68707275400001,19.304870605],[108.68688964800002,19.304870605],[108.68688964800002,19.305114746],[108.68652343700002,19.305114746],[108.68652343700002,19.305480957],[108.68627929700001,19.305480957],[108.68627929700001,19.306091309],[108.68609619100002,19.306091309],[108.68609619100002,19.306274414],[108.68572998000002,19.306274414],[108.68572998000002,19.306518555],[108.68548584000001,19.306518555],[108.68548584000001,19.306884766],[108.68511962900001,19.306884766],[108.68511962900001,19.307128906],[108.68487548800002,19.307128906],[108.68487548800002,19.307495117],[108.68432617200001,19.307495117],[108.68432617200001,19.307678223],[108.68408203100002,19.307678223],[108.68408203100002,19.307922363],[108.68347168000001,19.307922363],[108.68347168000001,19.308288574],[108.68328857400002,19.308288574],[108.68328857400002,19.30847168],[108.68292236300002,19.30847168],[108.68292236300002,19.308898926],[108.68249511700002,19.308898926],[108.68249511700002,19.309082031],[108.68212890600002,19.309082031],[108.68212890600002,19.309326172],[108.68151855500001,19.309326172],[108.68151855500001,19.309692383],[108.68127441400001,19.309692383],[108.68127441400001,19.309875488],[108.68109130900001,19.309875488],[108.68109130900001,19.310119629],[108.68072509800001,19.310119629],[108.68072509800001,19.31048584],[108.68048095700001,19.31048584],[108.68048095700001,19.31072998],[108.68011474600002,19.31072998],[108.68011474600002,19.311279297],[108.67987060500002,19.311279297],[108.67987060500002,19.312072754],[108.67968750000001,19.312072754],[108.67968750000001,19.3125],[108.67968750000001,19.312927246],[108.67932128900001,19.312927246],[108.67932128900001,19.313720703],[108.67907714800002,19.313720703],[108.67907714800002,19.314697266],[108.67889404300001,19.314697266],[108.67889404300001,19.315490723],[108.67852783200001,19.315490723],[108.67852783200001,19.31628418],[108.67828369100002,19.31628418],[108.67828369100002,19.317077637],[108.67791748000002,19.317077637],[108.67791748000002,19.317687988],[108.67767334000001,19.317687988],[108.67767334000001,19.31829834],[108.67071533200001,19.32232666],[108.66412353500002,19.319702148],[108.66308593700002,19.318908691],[108.66290283200001,19.318481445],[108.66247558600001,19.31829834],[108.66271972700001,19.31829834],[108.66271972700001,19.317687988],[108.66290283200001,19.317687988],[108.66290283200001,19.317077637],[108.66333007800002,19.317077637],[108.66333007800002,19.316894531],[108.66351318400001,19.316894531],[108.66351318400001,19.31628418],[108.663879395,19.31628418],[108.663879395,19.315673828],[108.66412353500002,19.315673828],[108.66412353500002,19.315490723],[108.66430664100001,19.315490723],[108.66430664100001,19.314880371],[108.66467285200001,19.314880371],[108.66467285200001,19.31427002],[108.66491699200002,19.31427002],[108.66491699200002,19.312927246],[108.66467285200001,19.312927246],[108.66467285200001,19.312683105],[108.663879395,19.312683105],[108.66412353500002,19.3125],[108.66412353500002,19.311279297],[108.66528320300002,19.311279297],[108.66528320300002,19.311096191],[108.66552734400001,19.311096191],[108.66552734400001,19.31072998],[108.66571044900002,19.31072998],[108.66571044900002,19.31048584],[108.66607666000002,19.31048584],[108.66607666000002,19.310119629],[108.66632080100001,19.310119629],[108.66632080100001,19.309875488],[108.66650390600002,19.309875488],[108.66650390600002,19.309692383],[108.66687011700002,19.309692383],[108.66687011700002,19.309326172],[108.66711425800001,19.309326172],[108.66711425800001,19.309082031],[108.66748046900001,19.309082031],[108.66748046900001,19.308898926],[108.66772460900002,19.308898926],[108.66772460900002,19.307922363],[108.66711425800001,19.307922363],[108.66711425800001,19.307678223],[108.66571044900002,19.307678223],[108.66571044900002,19.308288574],[108.66552734400001,19.308288574],[108.66552734400001,19.308898926],[108.66528320300002,19.308898926],[108.66528320300002,19.309326172],[108.663879395,19.309326172],[108.663879395,19.307678223],[108.671875,19.300109863],[108.67352294900002,19.297302246],[108.67687988300001,19.294311523],[108.67492675800001,19.294921875],[108.67651367200001,19.292297363],[108.68048095700001,19.284484863],[108.67907714800002,19.283691406],[108.68109130900001,19.282104492],[108.68292236300002,19.279724121],[108.68811035200001,19.27331543],[108.69030761700002,19.269897461],[108.69470214800002,19.263916016],[108.70452880900001,19.260070801],[108.71228027300002,19.262084961],[108.722473145,19.260925293],[108.73107910200001,19.260314941],[108.73907470700001,19.256896973],[108.75512695300002,19.254516602],[108.76831054700001,19.250915527],[108.77209472700001,19.248901367],[108.77648925800001,19.247497559],[108.78088378900001,19.246520996],[108.78607177700002,19.245910645],[108.79431152300002,19.247924805],[108.80267334000001,19.252319336],[108.81072998000002,19.257873535],[108.81829834000001,19.262084961],[108.82647705100001,19.260681152],[108.83367919900002,19.259277344],[108.84149169900002,19.24810791],[108.85192871100001,19.245910645],[108.85791015600002,19.242126465],[108.86651611300002,19.236694336],[108.87408447300001,19.233886719],[108.88488769500002,19.231079102],[108.89227294900002,19.229125977],[108.90393066400001,19.219726562],[108.91168212900001,19.220275879],[108.921875,19.223510742],[108.93609619100002,19.227111816],[108.94531250000001,19.223327637],[108.94830322300001,19.22088623],[108.95428466800001,19.214477539],[108.96130371100001,19.208496094],[108.96728515600002,19.197692871],[108.96752929700001,19.187072754],[108.96752929700001,19.185119629],[108.96929931600002,19.172302246],[108.97027587900001,19.168273926],[108.97192382800002,19.162475586],[108.97570800800001,19.156677246],[108.98327636700002,19.154296875],[108.98968505900001,19.151672363],[108.99450683600001,19.146911621],[108.98388671900001,19.139892578],[108.98510742200001,19.13269043],[108.98852539100001,19.13092041],[108.99707031200002,19.130493164],[109.00732421900001,19.12890625],[109.01129150400001,19.124328613],[109.01452636700002,19.11328125],[109.00988769500002,19.105895996],[109.00531005900001,19.098510742],[109.00750732400002,19.090087891],[109.00848388700001,19.085083008],[109.00549316400001,19.078491211],[109.00567627,19.065307617],[109.003723145,19.057678223],[109.00488281200002,19.045471191],[109.01287841800001,19.048522949],[109.02087402300002,19.048522949],[109.02990722700001,19.047729492],[109.04107666000002,19.048706055],[109.05609130900001,19.04510498],[109.062316895,19.042297363],[109.06927490200002,19.039489746],[109.08148193400001,19.034912109],[109.09350585900002,19.028320312],[109.09912109400001,19.00592041],[109.10131835900002,18.997680664],[109.10131835900002,18.991516113],[109.10290527300002,18.979675293],[109.10449218700002,18.967285156],[109.10510253900001,18.955688477],[109.10192871100001,18.948120117],[109.09692382800002,18.940917969],[109.09350585900002,18.933105469],[109.08911132800002,18.923095703],[109.08770752,18.914489746],[109.08752441400001,18.910888672],[109.08789062500001,18.904907227],[109.08868408200001,18.900512695],[109.08947753900001,18.897521973],[109.09411621100001,18.890686035],[109.10131835900002,18.884887695],[109.10711669900002,18.88092041],[109.10913085900002,18.879699707],[109.11151123000002,18.877685547],[109.11627197300001,18.874328613],[109.12292480500001,18.876098633],[109.12768554700001,18.882507324],[109.13287353500002,18.891479492],[109.13629150400001,18.897888184],[109.14331054700001,18.90411377],[109.15472412100002,18.904724121],[109.17028808600001,18.909912109],[109.18090820300002,18.906494141],[109.18432617200001,18.900085449],[109.19708252,18.895080566],[109.20092773400002,18.893676758],[109.20349121100001,18.893127441],[109.21191406200002,18.891723633],[109.22229003900001,18.895874023],[109.23229980500001,18.897521973],[109.24011230500001,18.897521973],[109.24951171900001,18.899475098],[109.25207519500002,18.900695801],[109.25531005900001,18.903076172],[109.25592041000002,18.903686523],[109.25927734400001,18.909118652],[109.25952148400002,18.92010498],[109.26507568400001,18.92767334],[109.27209472700001,18.936706543],[109.27893066400001,18.942077637],[109.28308105500001,18.946105957],[109.28607177700002,18.946716309],[109.28771972700001,18.950500488],[109.28948974600002,18.959106445],[109.28308105500001,18.958496094],[109.27832031200002,18.961303711],[109.27807617200001,18.965698242],[109.27587890600002,18.975280762],[109.27551269500002,18.983520508],[109.28070068400001,18.989318848],[109.28228759800001,18.995300293],[109.28070068400001,19.004882812],[109.27868652300002,19.009094238],[109.27551269500002,19.015930176],[109.27569580100001,19.018920898],[109.27648925800001,19.02532959],[109.27648925800001,19.033081055],[109.27130127,19.046081543],[109.27288818400001,19.054077148],[109.27191162100002,19.062927246],[109.26788330100001,19.065917969],[109.26330566400001,19.065917969],[109.253723145,19.064697266],[109.24450683600001,19.071105957],[109.23712158200001,19.075500488],[109.22729492200001,19.076477051],[109.22271728500002,19.077087402],[109.21252441400001,19.08392334],[109.20849609400001,19.086486816],[109.20208740200002,19.090270996],[109.19329834000001,19.08972168],[109.18811035200001,19.08770752],[109.18292236300002,19.089294434],[109.17932128900001,19.090698242],[109.171691895,19.096923828],[109.16827392600001,19.102111816],[109.16729736300002,19.104919434],[109.16632080100001,19.110107422],[109.16088867200001,19.121887207],[109.15789794900002,19.126525879],[109.15649414100001,19.133483887],[109.15692138700001,19.135314941],[109.15808105500001,19.137329102],[109.15948486300002,19.143920898],[109.15747070300002,19.149719238],[109.15289306600002,19.15411377],[109.14428710900002,19.159484863],[109.14093017600001,19.16229248],[109.13067627,19.168518066],[109.12487793000001,19.175292969],[109.12072753900001,19.18347168],[109.11828613300001,19.189880371],[109.11590576200001,19.199279785],[109.11608886700002,19.205688477],[109.11987304700001,19.212524414],[109.12432861300002,19.220275879],[109.12792968700002,19.227478027],[109.13049316400001,19.235900879],[109.13153076200001,19.238098145],[109.13391113300001,19.245483398],[109.13690185500002,19.252075195],[109.13830566400001,19.258911133],[109.13867187500001,19.267272949],[109.13391113300001,19.275512695],[109.13012695300002,19.27911377],[109.12628173800002,19.284484863],[109.12292480500001,19.287902832],[109.11987304700001,19.290283203],[109.11730957000002,19.297302246],[109.11688232400002,19.299682617],[109.11547851600001,19.301513672],[109.11071777300002,19.301086426],[109.10888671900001,19.299926758],[109.10668945300002,19.29888916],[109.10070800800001,19.29888916],[109.09112548800002,19.3046875],[109.08807373000002,19.309326172],[109.08532714800002,19.315124512],[109.08288574200002,19.32409668],[109.07849121100001,19.330505371],[109.07110595700001,19.330688477],[109.06372070300002,19.330322266],[109.05468750000001,19.332885742],[109.04931640600002,19.335693359],[109.04431152300002,19.33972168],[109.03967285200001,19.344482422],[109.03649902300002,19.353881836],[109.03747558600001,19.362304687],[109.03912353500002,19.366271973],[109.04388427700002,19.370300293],[109.04827880900001,19.376281738],[109.04791259800001,19.386474609],[109.04510498000002,19.393127441],[109.04290771500001,19.398071289],[109.04132080100001,19.40447998],[109.04089355500001,19.413085937],[109.04028320300002,19.417297363],[109.03948974600002,19.421691895],[109.03948974600002,19.424926758],[109.04010009800001,19.42791748],[109.04071044900002,19.430908203],[109.04071044900002,19.432128906]]],[[[108.96948242200001,19.482116699],[108.96911621100001,19.48248291],[108.96911621100001,19.482116699],[108.96948242200001,19.482116699]]],[[[108.96429443400001,19.485290527],[108.96429443400001,19.484924316],[108.96411132800002,19.484924316],[108.96411132800002,19.484680176],[108.96429443400001,19.484680176],[108.96429443400001,19.484313965],[108.96490478500002,19.484313965],[108.96490478500002,19.484130859],[108.96508789100001,19.484130859],[108.96508789100001,19.483886719],[108.96569824200002,19.483886719],[108.96569824200002,19.483520508],[108.96588134800001,19.483520508],[108.96588134800001,19.483276367],[108.96667480500001,19.483276367],[108.96667480500001,19.482910156],[108.96771240200002,19.482910156],[108.96771240200002,19.482727051],[108.96832275400001,19.482727051],[108.96832275400001,19.48248291],[108.96911621100001,19.48248291],[108.96691894500002,19.484130859],[108.96429443400001,19.485290527]]],[[[108.65991210900002,19.299499512],[108.66009521500001,19.299316406],[108.66192627,19.299072266],[108.66131591800001,19.299316406],[108.65991210900002,19.299499512]]],[[[108.66351318400001,19.313293457],[108.66333007800002,19.313293457],[108.66333007800002,19.313476562],[108.66290283200001,19.313476562],[108.66290283200001,19.314086914],[108.66271972700001,19.314086914],[108.66271972700001,19.313476562],[108.66351318400001,19.312927246],[108.66351318400001,19.313293457]]],[[[108.67370605500001,19.326721191],[108.67608642600001,19.326293945],[108.67608642600001,19.326477051],[108.67572021500001,19.326477051],[108.67572021500001,19.326904297],[108.67352294900002,19.326904297],[108.67370605500001,19.326721191]]]]}}
