{"type":"Feature","id":"bulk-99377448B322097458253","bbox":[111.08007812500001,22.374694824,112.51269531200002,23.306091309],"properties":{"id":"bulk-99377448B322097458253","name":"Yunfu","nameEn":"Yunfu","fullName":"Yunfu","level":"city","boundaryRole":"administrative-extent","boundaryQuality":"generalized-source-2020","boundaryYearRepresented":"2020","bounds":[[111.08007812500001,22.374694824],[112.51269531200002,23.306091309]],"center":[111.79638671850002,22.8403930665],"centerMethod":"bounding-box midpoint; camera framing only","license":"CC-BY-3.0-IGO","attribution":"geoBoundaries / HDX, China administrative boundaries (2020)","source":{"provider":"geoBoundaries gbHumanitarian / HDX","url":"https://github.com/wmgeolab/geoBoundaries/raw/9469f09/releaseData/gbHumanitarian/CHN/ADM2/geoBoundaries-CHN-ADM2.geojson","metadataUrl":"https://www.geoboundaries.org/api/current/gbHumanitarian/CHN/ADM2/","shapeID":"99377448B322097458253","shapeName":"Yunfu","boundaryID":"CHN-ADM2-99377448","commit":"9469f09"},"geometryCounts":{"coordinates":138,"components":1,"holes":0},"boundaryNotice":"geoBoundaries / HDX 2020 年行政区数据，海岸和边界经过源数据概化，并非当前测绘成果。"},"geometry":{"type":"Polygon","coordinates":[[[112.37530517600001,22.781494141],[112.33190918000001,22.788513184],[112.30151367200001,22.794921875],[112.30828857400002,22.826293945],[112.27569580100001,22.84552002],[112.27429199200002,22.887695312],[112.26831054700001,22.924072266],[112.25292968700002,22.947692871],[112.25152587900001,22.983093262],[112.27349853500002,23.040710449],[112.28869628900001,23.075073242],[112.30090332000002,23.105102539],[112.28930664100001,23.139099121],[112.27630615200002,23.137695312],[112.21490478500002,23.084472656],[112.18151855500001,23.066101074],[112.13928222700001,23.05670166],[112.11090087900001,23.071289062],[112.07891845700001,23.074523926],[112.04791259800001,23.066894531],[112.00909423800002,23.055297852],[111.97192382800002,23.067077637],[111.96368408200001,23.103271484],[111.92889404300001,23.12890625],[111.87750244100002,23.124511719],[111.82232666000002,23.126281738],[111.77569580100001,23.11932373],[111.74188232400002,23.133911133],[111.71228027300002,23.147094727],[111.66430664100001,23.144714355],[111.62628173800002,23.170898437],[111.55029296900001,23.173095703],[111.53771972700001,23.249694824],[111.52929687500001,23.264526367],[111.51208496100001,23.306091309],[111.47570800800001,23.301513672],[111.43011474600002,23.292297363],[111.39428710900002,23.298095703],[111.35327148400002,23.293518066],[111.35510253900001,23.281494141],[111.37127685500002,23.224487305],[111.36730957000002,23.198120117],[111.37011718700002,23.166503906],[111.37487793000001,23.139282227],[111.38348388700001,23.116516113],[111.38928222700001,23.096496582],[111.39892578100002,23.082885742],[111.40472412100002,23.073730469],[111.40747070300002,23.065673828],[111.41229248000002,23.051086426],[111.40631103500002,23.030273437],[111.39172363300001,23.022277832],[111.37048339800002,23.006896973],[111.36511230500001,23.000671387],[111.35589599600002,22.989685059],[111.35028076200001,22.977722168],[111.34710693400001,22.970703125],[111.35852050800001,22.946105957],[111.35852050800001,22.929870605],[111.32550048800002,22.909118652],[111.30212402300002,22.883911133],[111.29052734400001,22.872070312],[111.27587890600002,22.850280762],[111.26330566400001,22.838684082],[111.25170898400002,22.80871582],[111.23608398400002,22.796081543],[111.22351074200002,22.788879395],[111.21087646500001,22.776306152],[111.16851806600002,22.755493164],[111.14727783200001,22.752929687],[111.11529541000002,22.751098633],[111.10748291000002,22.750305176],[111.08831787100002,22.749328613],[111.08007812500001,22.723510742],[111.10290527300002,22.705078125],[111.11853027300002,22.672912598],[111.12231445300002,22.640319824],[111.15332031200002,22.616882324],[111.19287109400001,22.610290527],[111.23907470700001,22.605102539],[111.28588867200001,22.598510742],[111.30010986300002,22.56451416],[111.27191162100002,22.515686035],[111.32147216800001,22.524475098],[111.35888671900001,22.530700684],[111.38427734400001,22.504272461],[111.38830566400001,22.468078613],[111.42388916000002,22.451293945],[111.44830322300001,22.466491699],[111.45111084000001,22.49407959],[111.45947265600002,22.530517578],[111.49047851600001,22.498901367],[111.52893066400001,22.516296387],[111.56927490200002,22.549926758],[111.60107421900001,22.541503906],[111.62530517600001,22.516479492],[111.66888427700002,22.519287109],[111.68627929700001,22.554321289],[111.71551513700001,22.586486816],[111.75311279300001,22.612487793],[111.77191162100002,22.633483887],[111.80792236300002,22.669677734],[111.84967041000002,22.704284668],[111.84991455100001,22.648498535],[111.83251953100002,22.622070312],[111.81848144500002,22.596679687],[111.85809326200001,22.585693359],[111.89569091800001,22.604309082],[111.93609619100002,22.640075684],[111.97070312500001,22.596923828],[111.95147705100001,22.557922363],[111.95672607400002,22.528320312],[111.97851562500001,22.503295898],[112.00292968700002,22.468688965],[112.04431152300002,22.431274414],[112.09271240200002,22.413879395],[112.12408447300001,22.404724121],[112.13732910200001,22.374694824],[112.16149902300002,22.392883301],[112.19848632800002,22.414123535],[112.21447753900001,22.444519043],[112.21990966800001,22.47668457],[112.24749755900001,22.519897461],[112.28411865200002,22.548278809],[112.32312011700002,22.558105469],[112.34649658200001,22.596679687],[112.35809326200001,22.624694824],[112.38909912100002,22.647705078],[112.41210937500001,22.625915527],[112.43371582000002,22.600708008],[112.47552490200002,22.600097656],[112.51269531200002,22.622497559],[112.49749755900001,22.645874023],[112.49328613300001,22.686096191],[112.41149902300002,22.687683105],[112.37969970700001,22.700500488],[112.37207031200002,22.741516113],[112.37530517600001,22.781494141]]]}}
