{"type":"Feature","id":"bulk-99377448B44119648922788","bbox":[125.61212158200001,42.558105469,127.84887695300002,44.652526855],"properties":{"id":"bulk-99377448B44119648922788","name":"Jilin","nameEn":"Jilin","fullName":"Jilin","level":"city","boundaryRole":"administrative-extent","boundaryQuality":"generalized-source-2020","boundaryYearRepresented":"2020","bounds":[[125.61212158200001,42.558105469],[127.84887695300002,44.652526855]],"center":[126.73049926750002,43.605316161999994],"centerMethod":"bounding-box midpoint; camera framing only","license":"CC-BY-3.0-IGO","attribution":"geoBoundaries / HDX, China administrative boundaries (2020)","source":{"provider":"geoBoundaries gbHumanitarian / HDX","url":"https://github.com/wmgeolab/geoBoundaries/raw/9469f09/releaseData/gbHumanitarian/CHN/ADM2/geoBoundaries-CHN-ADM2.geojson","metadataUrl":"https://www.geoboundaries.org/api/current/gbHumanitarian/CHN/ADM2/","shapeID":"99377448B44119648922788","shapeName":"Jilin","boundaryID":"CHN-ADM2-99377448","commit":"9469f09"},"geometryCounts":{"coordinates":220,"components":1,"holes":0},"boundaryNotice":"geoBoundaries / HDX 2020 年行政区数据，海岸和边界经过源数据概化，并非当前测绘成果。"},"geometry":{"type":"Polygon","coordinates":[[[127.663879395,42.824523926],[127.66467285200001,42.82611084],[127.65667724600002,42.858520508],[127.61871337900001,42.882080078],[127.58770752,42.901306152],[127.55889892600001,42.933898926],[127.52032470700001,42.953308105],[127.48370361300002,42.967712402],[127.43872070300002,42.988891602],[127.43811035200001,43.03112793],[127.45050048800002,43.057922363],[127.45172119100002,43.097106934],[127.46087646500001,43.126098633],[127.49969482400002,43.13671875],[127.54168701200001,43.150085449],[127.56610107400002,43.171691895],[127.58929443400001,43.197875977],[127.60589599600002,43.227905273],[127.60791015600002,43.262695312],[127.58367919900002,43.31628418],[127.62292480500001,43.343078613],[127.65393066400001,43.372497559],[127.66351318400001,43.402709961],[127.66491699200002,43.452087402],[127.68432617200001,43.492919922],[127.72528076200001,43.511291504],[127.74249267600001,43.547729492],[127.76568603500002,43.578674316],[127.80627441400001,43.595092773],[127.84887695300002,43.623901367],[127.84112548800002,43.650695801],[127.82727050800001,43.683105469],[127.81591796900001,43.718688965],[127.81347656200002,43.75012207],[127.80828857400002,43.77911377],[127.79992675800001,43.81072998],[127.78167724600002,43.848693848],[127.76989746100001,43.878723145],[127.79107666000002,43.902709961],[127.81768798800002,43.924682617],[127.79492187500001,43.953674316],[127.75988769500002,43.975891113],[127.74371337900001,44.009887695],[127.74407959000001,44.044921875],[127.74810791000002,44.06451416],[127.74450683600001,44.06427002],[127.72772216800001,44.065673828],[127.71350097700001,44.067077637],[127.71832275400001,44.096679687],[127.71807861300002,44.149291992],[127.71392822300001,44.176879883],[127.69189453100002,44.186279297],[127.67047119100002,44.172729492],[127.66088867200001,44.16027832],[127.59832763700001,44.171325684],[127.58587646500001,44.172912598],[127.56671142600001,44.202514648],[127.59631347700001,44.227722168],[127.54211425800001,44.275512695],[127.50268554700001,44.330505371],[127.47888183600001,44.368103027],[127.45788574200002,44.405273437],[127.40747070300002,44.464294434],[127.39910888700001,44.526123047],[127.47052002,44.523071289],[127.52990722700001,44.548095703],[127.51110839800002,44.566894531],[127.44708252,44.591308594],[127.41027832000002,44.612487793],[127.35351562500001,44.609680176],[127.29907226600001,44.616271973],[127.24548339800002,44.626281738],[127.22631835900002,44.605712891],[127.19451904300001,44.60949707],[127.16070556600002,44.623474121],[127.14648437500001,44.641723633],[127.13970947300001,44.652526855],[127.12530517600001,44.650878906],[127.10089111300002,44.627685547],[127.06732177700002,44.605529785],[127.02709960900002,44.59387207],[127.00390625000001,44.601074219],[126.95410156200002,44.577514648],[126.90948486300002,44.567871094],[126.86450195300002,44.56829834],[126.82690429700001,44.574279785],[126.78112793000001,44.549682617],[126.74230957000002,44.544311523],[126.69409179700001,44.552490234],[126.65032959000001,44.574279785],[126.61132812500001,44.58807373],[126.54852294900002,44.588500977],[126.50250244100002,44.586303711],[126.45007324200002,44.577514648],[126.35107421900001,44.559692383],[126.37072753900001,44.544311523],[126.38049316400001,44.506896973],[126.37530517600001,44.464904785],[126.39190673800002,44.436706543],[126.44110107400002,44.407897949],[126.42071533200001,44.361083984],[126.437316895,44.313110352],[126.43048095700001,44.274719238],[126.42712402300002,44.238708496],[126.39508056600002,44.220092773],[126.33227539100001,44.21307373],[126.28649902300002,44.218688965],[126.23468017600001,44.218322754],[126.18872070300002,44.210327148],[126.16131591800001,44.188720703],[126.12469482400002,44.202087402],[126.09588623000002,44.174926758],[126.07830810500002,44.146118164],[126.05249023400002,44.119506836],[126.01788330100001,44.090698242],[125.99310302700002,44.061279297],[125.97448730500001,44.032470703],[125.97570800800001,43.991271973],[125.98828125000001,43.957275391],[126.01910400400001,43.932495117],[126.01428222700001,43.898498535],[125.98767089800002,43.874328613],[125.94128418000001,43.843688965],[125.87792968700002,43.833679199],[125.83569335900002,43.83770752],[125.79028320300002,43.859130859],[125.76330566400001,43.813476562],[125.75988769500002,43.780273437],[125.76867675800001,43.752075195],[125.78851318400001,43.722473145],[125.81072998000002,43.694885254],[125.83612060500002,43.66229248],[125.85168457000002,43.625915527],[125.85351562500001,43.586914062],[125.83209228500002,43.55267334],[125.82550048800002,43.523498535],[125.82531738300001,43.49609375],[125.81707763700001,43.465698242],[125.84088134800001,43.442687988],[125.87567138700001,43.429504395],[125.96069335900002,43.384277344],[125.97888183600001,43.329711914],[125.94067382800002,43.309326172],[125.89288330100001,43.291870117],[125.84112548800002,43.285888672],[125.78930664100001,43.296508789],[125.74407959000001,43.287109375],[125.71392822300001,43.262512207],[125.671691895,43.257080078],[125.64587402300002,43.223876953],[125.61212158200001,43.192504883],[125.61767578100002,43.163879395],[125.65307617200001,43.13470459],[125.68872070300002,43.122314453],[125.72827148400002,43.105712891],[125.74188232400002,43.077514648],[125.72308349600002,43.047729492],[125.68011474600002,43.051696777],[125.63287353500002,43.056884766],[125.63787841800001,43.023681641],[125.671691895,43.003723145],[125.69171142600001,42.979675293],[125.76428222700001,42.98828125],[125.80548095700001,42.971130371],[125.82672119100002,42.945678711],[125.84429931600002,42.913085937],[125.85687255900001,42.878295898],[125.87908935500002,42.848876953],[125.90850830100001,42.805725098],[125.95172119100002,42.783325195],[126.00653076200001,42.774475098],[126.05230712900001,42.768676758],[126.09588623000002,42.765075684],[126.15051269500002,42.754272461],[126.19189453100002,42.747070312],[126.22528076200001,42.774108887],[126.26031494100002,42.78729248],[126.296691895,42.795288086],[126.33972168000001,42.785888672],[126.34887695300002,42.747924805],[126.35607910200001,42.709716797],[126.38208007800002,42.674072266],[126.41491699200002,42.657104492],[126.47229003900001,42.655700684],[126.51348877,42.663879395],[126.54907226600001,42.678894043],[126.57928466800001,42.702880859],[126.62011718700002,42.713317871],[126.68011474600002,42.684082031],[126.72149658200001,42.660705566],[126.74468994100002,42.693481445],[126.76190185500002,42.746887207],[126.78631591800001,42.77331543],[126.82391357400002,42.778503418],[126.86230468700002,42.78692627],[126.91552734400001,42.799926758],[126.92889404300001,42.798278809],[126.98052978500002,42.78527832],[127.04229736300002,42.777709961],[127.11987304700001,42.777893066],[127.15887451200001,42.769714355],[127.16967773400002,42.738891602],[127.21771240200002,42.693481445],[127.21472168000001,42.680725098],[127.17871093700002,42.626281738],[127.17407226600001,42.607299805],[127.18670654300001,42.602478027],[127.27893066400001,42.62689209],[127.30572509800001,42.587280273],[127.34948730500001,42.562072754],[127.40747070300002,42.558105469],[127.42230224600002,42.562683105],[127.45568847700001,42.623901367],[127.51251220700001,42.633117676],[127.52868652300002,42.644104004],[127.57147216800001,42.687683105],[127.60772705100001,42.742126465],[127.64410400400001,42.760314941],[127.64849853500002,42.795715332],[127.663879395,42.824523926]]]}}
