{"type":"Feature","id":"bulk-99377448B33727243192709","bbox":[123.67352294900002,41.202514648,125.43811035200001,42.456481934],"properties":{"id":"bulk-99377448B33727243192709","name":"Fushun","nameEn":"Fushun","fullName":"Fushun","level":"city","boundaryRole":"administrative-extent","boundaryQuality":"generalized-source-2020","boundaryYearRepresented":"2020","bounds":[[123.67352294900002,41.202514648],[125.43811035200001,42.456481934]],"center":[124.55581665050002,41.829498291],"centerMethod":"bounding-box midpoint; camera framing only","license":"CC-BY-3.0-IGO","attribution":"geoBoundaries / HDX, China administrative boundaries (2020)","source":{"provider":"geoBoundaries gbHumanitarian / HDX","url":"https://github.com/wmgeolab/geoBoundaries/raw/9469f09/releaseData/gbHumanitarian/CHN/ADM2/geoBoundaries-CHN-ADM2.geojson","metadataUrl":"https://www.geoboundaries.org/api/current/gbHumanitarian/CHN/ADM2/","shapeID":"99377448B33727243192709","shapeName":"Fushun","boundaryID":"CHN-ADM2-99377448","commit":"9469f09"},"geometryCounts":{"coordinates":149,"components":1,"holes":0},"boundaryNotice":"geoBoundaries / HDX 2020 年行政区数据，海岸和边界经过源数据概化，并非当前测绘成果。"},"geometry":{"type":"Polygon","coordinates":[[[125.43811035200001,41.557128906],[125.42749023400002,41.608520508],[125.41931152300002,41.674682617],[125.38208007800002,41.688720703],[125.28332519500002,41.686889648],[125.26208496100001,41.692504883],[125.28271484400001,41.768310547],[125.24108886700002,41.825317383],[125.25689697300001,41.87890625],[125.24511718700002,41.929077148],[125.21691894500002,41.917907715],[125.22589111300002,41.9453125],[125.29772949200002,41.974121094],[125.34527587900001,42.051330566],[125.38970947300001,42.101928711],[125.40728759800001,42.125915527],[125.39489746100001,42.140686035],[125.39050293000001,42.145874023],[125.33471679700001,42.146728516],[125.28167724600002,42.119506836],[125.26672363300001,42.124694824],[125.26452636700002,42.154724121],[125.25769043000001,42.180480957],[125.22930908200001,42.187316895],[125.22869873000002,42.213500977],[125.24169921900001,42.268493652],[125.21789550800001,42.293701172],[125.21130371100001,42.300720215],[125.12609863300001,42.30291748],[125.12829589800002,42.348510742],[125.11389160200001,42.409301758],[125.06628418000001,42.43347168],[125.04711914100001,42.405090332],[125.03192138700001,42.377502441],[125.00909423800002,42.347290039],[124.96350097700001,42.346130371],[124.93267822300001,42.370300293],[124.90112304700001,42.406311035],[124.87652587900001,42.427307129],[124.81427002,42.456481934],[124.80767822300001,42.414489746],[124.77288818400001,42.400085449],[124.73889160200001,42.37487793],[124.76708984400001,42.346679687],[124.74908447300001,42.317687988],[124.71887207000002,42.301879883],[124.66888427700002,42.288696289],[124.62811279300001,42.301330566],[124.59387207000002,42.327087402],[124.55029296900001,42.321105957],[124.53808593700002,42.283508301],[124.51727294900002,42.249694824],[124.48852539100001,42.221496582],[124.49890136700002,42.188110352],[124.50830078100002,42.159729004],[124.51611328100002,42.131713867],[124.51928710900002,42.104919434],[124.495910645,42.070922852],[124.44769287100002,42.047302246],[124.36950683600001,42.02532959],[124.31927490200002,42.009277344],[124.28771972700001,41.991088867],[124.25250244100002,42.000305176],[124.23327636700002,42.030273437],[124.18469238300001,42.031311035],[124.13891601600001,42.040710449],[124.09411621100001,42.054077148],[124.01428222700001,42.041687012],[123.98767089800002,42.01751709],[123.96307373000002,41.996887207],[123.92730712900001,41.981506348],[123.86871337900001,42.009887695],[123.81768798800002,42.004516602],[123.78570556600002,41.987121582],[123.75848388700001,41.968505859],[123.71490478500002,41.976074219],[123.71173095700001,41.944274902],[123.68371582000002,41.911315918],[123.67828369100002,41.881286621],[123.68127441400001,41.852294922],[123.68048095700001,41.823486328],[123.67608642600001,41.791870117],[123.67352294900002,41.756530762],[123.71868896500001,41.754272461],[123.76190185500002,41.736083984],[123.77532959000001,41.70489502],[123.76672363300001,41.664123535],[123.73852539100001,41.642700195],[123.72528076200001,41.610717773],[123.738098145,41.578674316],[123.73168945300002,41.552124023],[123.70092773400002,41.532714844],[123.69348144500002,41.502075195],[123.73870849600002,41.506713867],[123.74548339800002,41.469909668],[123.78247070300002,41.470703125],[123.81372070300002,41.491882324],[123.83392334000001,41.516479492],[123.87329101600001,41.526489258],[123.90728759800001,41.512878418],[123.93292236300002,41.536315918],[123.98150634800001,41.527526855],[124.01470947300001,41.503479004],[124.05432128900001,41.483520508],[124.09368896500001,41.483703613],[124.14709472700001,41.49609375],[124.195129395,41.502685547],[124.24572753900001,41.510314941],[124.27191162100002,41.491088867],[124.28149414100001,41.462524414],[124.30847168000001,41.441711426],[124.30609130900001,41.40032959],[124.33227539100001,41.372070312],[124.35412597700001,41.347290039],[124.36810302700002,41.316894531],[124.37829589800002,41.288879395],[124.41308593700002,41.298095703],[124.45648193400001,41.306091309],[124.48931884800001,41.289672852],[124.52148437500001,41.26171875],[124.56848144500002,41.246520996],[124.59368896500001,41.22668457],[124.61749267600001,41.202514648],[124.67852783200001,41.211486816],[124.71887207000002,41.216491699],[124.72027587900001,41.243713379],[124.76208496100001,41.265075684],[124.79730224600002,41.283691406],[124.82232666000002,41.303894043],[124.83148193400001,41.33807373],[124.82891845700001,41.366271973],[124.83068847700001,41.401306152],[124.84552002,41.43347168],[124.86987304700001,41.461120605],[124.89910888700001,41.479919434],[124.94268798800002,41.486328125],[124.98150634800001,41.471313477],[125.00549316400001,41.448913574],[125.04650878900001,41.45690918],[125.07592773400002,41.473876953],[125.11352539100001,41.471130371],[125.15551757800002,41.458129883],[125.19207763700001,41.442871094],[125.23608398400002,41.444519043],[125.27087402300002,41.462890625],[125.31152343700002,41.494689941],[125.34448242200001,41.516113281],[125.37768554700001,41.531921387],[125.43811035200001,41.557128906]]]}}
