{"type":"Feature","id":"bulk-99377448B99707683033648","bbox":[115.59832763700001,22.824523926,116.62048339800002,23.783874512],"properties":{"id":"bulk-99377448B99707683033648","name":"Jieyang","nameEn":"Jieyang","fullName":"Jieyang","level":"city","boundaryRole":"administrative-extent","boundaryQuality":"generalized-source-2020","boundaryYearRepresented":"2020","bounds":[[115.59832763700001,22.824523926],[116.62048339800002,23.783874512]],"center":[116.10940551750002,23.304199219],"centerMethod":"bounding-box midpoint; camera framing only","license":"CC-BY-3.0-IGO","attribution":"geoBoundaries / HDX, China administrative boundaries (2020)","source":{"provider":"geoBoundaries gbHumanitarian / HDX","url":"https://github.com/wmgeolab/geoBoundaries/raw/9469f09/releaseData/gbHumanitarian/CHN/ADM2/geoBoundaries-CHN-ADM2.geojson","metadataUrl":"https://www.geoboundaries.org/api/current/gbHumanitarian/CHN/ADM2/","shapeID":"99377448B99707683033648","shapeName":"Jieyang","boundaryID":"CHN-ADM2-99377448","commit":"9469f09"},"geometryCounts":{"coordinates":170,"components":1,"holes":0},"boundaryNotice":"geoBoundaries / HDX 2020 年行政区数据，海岸和边界经过源数据概化，并非当前测绘成果。"},"geometry":{"type":"Polygon","coordinates":[[[116.37847900400001,23.77532959],[116.34210205100001,23.772094727],[116.30151367200001,23.783874512],[116.26568603500002,23.769714355],[116.23651123000002,23.759887695],[116.21032714800002,23.74432373],[116.19012451200001,23.720092773],[116.18408203100002,23.68371582],[116.17987060500002,23.656494141],[116.15991210900002,23.632324219],[116.09088134800001,23.639099121],[116.01928710900002,23.645507812],[115.97692871100001,23.647277832],[115.94372558600001,23.647094727],[115.89990234400001,23.638916016],[115.86767578100002,23.637084961],[115.84667968700002,23.660888672],[115.81292724600002,23.650085449],[115.79492187500001,23.625671387],[115.78692627,23.597473145],[115.77868652300002,23.564697266],[115.76507568400001,23.536499023],[115.73309326200001,23.530517578],[115.703125,23.539123535],[115.67468261700002,23.548278809],[115.64508056600002,23.552307129],[115.62249755900001,23.532470703],[115.59832763700001,23.499511719],[115.65008544900002,23.466674805],[115.65509033200001,23.430908203],[115.64630127,23.404296875],[115.65570068400001,23.370117187],[115.69268798800002,23.371704102],[115.72729492200001,23.382507324],[115.76568603500002,23.381286621],[115.79211425800001,23.347900391],[115.77648925800001,23.323730469],[115.79290771500001,23.267272949],[115.73547363300001,23.257324219],[115.74072265600002,23.216308594],[115.75732421900001,23.182678223],[115.78228759800001,23.159729004],[115.81011962900001,23.141296387],[115.85308837900001,23.136291504],[115.88391113300001,23.129882812],[115.90588378900001,23.099121094],[115.93048095700001,23.082519531],[115.95208740200002,23.052307129],[115.93908691400001,23.020080566],[115.94750976600001,22.988891602],[115.97747802700002,22.962524414],[116.00128173800002,22.943908691],[116.03070068400001,22.93170166],[116.05187988300001,22.927490234],[116.07971191400001,22.914916992],[116.10168457000002,22.90447998],[116.12249755900001,22.904296875],[116.12670898400002,22.894714355],[116.11688232400002,22.878479004],[116.09649658200001,22.881530762],[116.08728027300002,22.860717773],[116.08068847700001,22.849121094],[116.08392334000001,22.828125],[116.08807373000002,22.825500488],[116.09667968700002,22.824523926],[116.09948730500001,22.828125],[116.10827636700002,22.83190918],[116.11248779300001,22.836120605],[116.12127685500002,22.836486816],[116.12951660200001,22.839904785],[116.13732910200001,22.846496582],[116.14447021500001,22.847473145],[116.14990234400001,22.85168457],[116.15289306600002,22.854492187],[116.17248535200001,22.871887207],[116.187316895,22.887695312],[116.19671630900001,22.897521973],[116.20227050800001,22.90612793],[116.21228027300002,22.914672852],[116.22387695300002,22.924499512],[116.230285645,22.930725098],[116.25653076200001,22.956115723],[116.26947021500001,22.952880859],[116.27612304700001,22.955322266],[116.26708984400001,22.965698242],[116.28192138700001,22.983276367],[116.30090332000002,22.973083496],[116.30969238300001,22.964477539],[116.31207275400001,22.964904785],[116.31750488300001,22.963500977],[116.32208252,22.959472656],[116.32611084000001,22.952697754],[116.34771728500002,22.939880371],[116.35870361300002,22.939086914],[116.36889648400002,22.934875488],[116.40332031200002,22.939086914],[116.40490722700001,22.939880371],[116.41088867200001,22.939880371],[116.44287109400001,22.943908691],[116.44451904300001,22.945678711],[116.45251464800002,22.950317383],[116.46527099600002,22.948120117],[116.47589111300002,22.950073242],[116.48852539100001,22.962524414],[116.50067138700001,22.984924316],[116.50830078100002,23.010314941],[116.52410888700001,23.004699707],[116.52752685500002,23.005310059],[116.53448486300002,23.004272461],[116.53729248000002,23.001708984],[116.55548095700001,23.025085449],[116.55249023400002,23.028686523],[116.54968261700002,23.039489746],[116.54229736300002,23.04888916],[116.54028320300002,23.061096191],[116.54492187500001,23.083129883],[116.54992675800001,23.086486816],[116.54968261700002,23.089294434],[116.54412841800001,23.094116211],[116.54229736300002,23.095703125],[116.53869628900001,23.100524902],[116.53247070300002,23.104125977],[116.52947998000002,23.107727051],[116.52868652300002,23.111694336],[116.53192138700001,23.131103516],[116.53369140600002,23.134094238],[116.48748779300001,23.119689941],[116.45947265600002,23.110290527],[116.429504395,23.094116211],[116.40771484400001,23.07232666],[116.378723145,23.064086914],[116.35107421900001,23.088317871],[116.31927490200002,23.116271973],[116.28570556600002,23.120727539],[116.24932861300002,23.145507812],[116.23730468700002,23.180480957],[116.26129150400001,23.217712402],[116.28167724600002,23.237487793],[116.29309082000002,23.284301758],[116.31048584000001,23.324523926],[116.33032226600001,23.346130371],[116.36810302700002,23.361877441],[116.37451171900001,23.397705078],[116.35009765600002,23.417114258],[116.33148193400001,23.454528809],[116.31372070300002,23.482727051],[116.34069824200002,23.495483398],[116.36248779300001,23.518310547],[116.38031005900001,23.54309082],[116.41467285200001,23.545471191],[116.40972900400001,23.501708984],[116.44708252,23.508483887],[116.45989990200002,23.470275879],[116.50891113300001,23.464904785],[116.53552246100001,23.450683594],[116.56689453100002,23.436279297],[116.62048339800002,23.457092285],[116.59790039100001,23.48248291],[116.56768798800002,23.491271973],[116.53967285200001,23.518127441],[116.54168701200001,23.560302734],[116.51171875000001,23.594909668],[116.52569580100001,23.632080078],[116.50872802700002,23.658081055],[116.47912597700001,23.649291992],[116.44268798800002,23.664672852],[116.43127441400001,23.694885254],[116.40667724600002,23.720275879],[116.36889648400002,23.737121582],[116.37847900400001,23.77532959]]]}}
