{"type":"Feature","id":"bulk-99377448B42742537050320","bbox":[80.18127441400001,42.268127441,84.95147705100001,44.710693359],"properties":{"id":"bulk-99377448B42742537050320","name":"Ili Kazak Autonomous Prefecture","nameEn":"Ili Kazak Autonomous Prefecture","fullName":"Ili Kazak Autonomous Prefecture","level":"city","boundaryRole":"administrative-extent","boundaryQuality":"generalized-source-2020","boundaryYearRepresented":"2020","bounds":[[80.18127441400001,42.268127441],[84.95147705100001,44.710693359]],"center":[82.5663757325,43.4894104],"centerMethod":"bounding-box midpoint; camera framing only","license":"CC-BY-3.0-IGO","attribution":"geoBoundaries / HDX, China administrative boundaries (2020)","source":{"provider":"geoBoundaries gbHumanitarian / HDX","url":"https://github.com/wmgeolab/geoBoundaries/raw/9469f09/releaseData/gbHumanitarian/CHN/ADM2/geoBoundaries-CHN-ADM2.geojson","metadataUrl":"https://www.geoboundaries.org/api/current/gbHumanitarian/CHN/ADM2/","shapeID":"99377448B42742537050320","shapeName":"Ili Kazak Autonomous Prefecture","boundaryID":"CHN-ADM2-99377448","commit":"9469f09"},"geometryCounts":{"coordinates":331,"components":1,"holes":0},"boundaryNotice":"geoBoundaries / HDX 2020 年行政区数据，海岸和边界经过源数据概化，并非当前测绘成果。"},"geometry":{"type":"Polygon","coordinates":[[[82.75811767600001,42.652709961],[82.75927734400001,42.683288574],[82.754882812,42.715087891],[82.74212646500001,42.753479004],[82.72412109400001,42.799682617],[82.71331787100002,42.828125],[82.702514648,42.856506348],[82.65551757800002,42.897888184],[82.61328125000001,42.920471191],[82.65191650400001,42.952880859],[82.69848632800002,42.944519043],[82.74267578100002,42.940490723],[82.784484863,42.939086914],[82.84088134800001,42.959716797],[82.88848877,42.985900879],[82.94287109400001,42.985107422],[82.987670898,42.989501953],[83.04772949200002,42.983093262],[83.09613037100002,42.976074219],[83.15612793000001,42.985900879],[83.193481445,42.988891602],[83.244689941,42.989929199],[83.30969238300001,43.005126953],[83.36468505900001,43.012512207],[83.40588378900001,43.025878906],[83.436096191,43.047485352],[83.470092773,43.069519043],[83.45068359400001,43.095275879],[83.42529296900001,43.120483398],[83.477478027,43.138671875],[83.55291748,43.144287109],[83.612670898,43.151123047],[83.68109130900001,43.151672363],[83.72888183600001,43.139526367],[83.76428222700001,43.12310791],[83.818115234,43.106079102],[83.877075195,43.108276367],[83.926696777,43.11730957],[83.95507812500001,43.140319824],[84.003295898,43.132507324],[84.042724609,43.125671387],[84.08972168000001,43.135681152],[84.12731933600001,43.142089844],[84.16949462900001,43.141479492],[84.20550537100002,43.149902344],[84.26049804700001,43.162902832],[84.29827880900001,43.165283203],[84.29870605500001,43.199279785],[84.27069091800001,43.222106934],[84.28869628900001,43.254516602],[84.34710693400001,43.253479004],[84.386474609,43.256896973],[84.442321777,43.272521973],[84.48669433600001,43.29510498],[84.51208496100001,43.321289062],[84.54028320300002,43.354675293],[84.57092285200001,43.384887695],[84.59210205100001,43.414306641],[84.61090087900001,43.446472168],[84.634887695,43.467102051],[84.67291259800001,43.477478027],[84.72052002,43.464294434],[84.77148437500001,43.447509766],[84.826721191,43.430725098],[84.87109375000001,43.419311523],[84.95147705100001,43.42010498],[84.94989013700001,43.452514648],[84.93127441400001,43.488525391],[84.89831543000001,43.512695312],[84.86132812500001,43.547302246],[84.82092285200001,43.557128906],[84.802124023,43.586303711],[84.74328613300001,43.61328125],[84.702514648,43.613708496],[84.66247558600001,43.635498047],[84.59729003900001,43.638305664],[84.58349609400001,43.667907715],[84.56628418000001,43.699279785],[84.510314941,43.727111816],[84.42547607400002,43.709472656],[84.36431884800001,43.714904785],[84.312683105,43.704101562],[84.29010009800001,43.725891113],[84.26171875000001,43.752502441],[84.22052002,43.747680664],[84.18109130900001,43.762695312],[84.14849853500002,43.783081055],[84.12249755900001,43.8046875],[84.09771728500002,43.833679199],[84.05090332,43.855102539],[84.004882812,43.864685059],[83.966918945,43.868530273],[83.92352294900002,43.891479492],[83.90008544900002,43.916320801],[83.86047363300001,43.920715332],[83.77508544900002,43.909301758],[83.73870849600002,43.923706055],[83.69830322300001,43.948486328],[83.67291259800001,43.983093262],[83.636108398,43.991882324],[83.58831787100002,44.002319336],[83.53088378900001,44.012084961],[83.487670898,44.01348877],[83.44708252,44.018493652],[83.39569091800001,43.980529785],[83.34069824200002,43.98248291],[83.27191162100002,43.994506836],[83.254882812,44.018676758],[83.23150634800001,44.047729492],[83.19152832,44.059326172],[83.15447998,44.065124512],[83.10729980500001,44.075317383],[83.05670166000002,44.069091797],[83.009887695,44.063293457],[82.961486816,44.059875488],[82.927490234,44.04510498],[82.892700195,44.032714844],[82.85009765600002,44.037902832],[82.81469726600001,44.050476074],[82.766906738,44.04888916],[82.725524902,44.047485352],[82.68231201200001,44.055297852],[82.63787841800001,44.064880371],[82.59869384800001,44.050109863],[82.57989502,44.076721191],[82.56390380900001,44.112121582],[82.51727294900002,44.128112793],[82.46887207,44.138671875],[82.428710937,44.161499023],[82.39031982400002,44.188720703],[82.35668945300002,44.21887207],[82.30932617200001,44.230102539],[82.260681152,44.220703125],[82.220092773,44.226318359],[82.15411377,44.240905762],[82.10748291000002,44.251281738],[82.02368164100001,44.25769043],[81.96789550800001,44.265686035],[81.929077148,44.274902344],[81.86407470700001,44.288330078],[81.79907226600001,44.306091309],[81.72491455100001,44.337890625],[81.71588134800001,44.367675781],[81.64788818400001,44.364929199],[81.615722656,44.380126953],[81.56872558600001,44.389709473],[81.52227783200001,44.391296387],[81.486083984,44.407714844],[81.450500488,44.416870117],[81.39447021500001,44.418884277],[81.352478027,44.408081055],[81.31091308600001,44.410888672],[81.261901855,44.421875],[81.18829345700001,44.440124512],[81.155273437,44.458129883],[81.11749267600001,44.467712402],[81.07427978500002,44.47088623],[81.03289794900002,44.482116699],[80.99127197300001,44.502929687],[80.946289062,44.504089355],[80.902893066,44.515686035],[80.85687255900001,44.53692627],[80.79968261700002,44.55847168],[80.743530273,44.569702148],[80.68872070300002,44.575073242],[80.684875488,44.607299805],[80.693481445,44.637512207],[80.678283691,44.665893555],[80.64947509800001,44.685302734],[80.60668945300002,44.702697754],[80.568115234,44.700927734],[80.509094238,44.70489502],[80.48931884800001,44.710693359],[80.48748779300001,44.706481934],[80.47991943400001,44.702087402],[80.46527099600002,44.701477051],[80.449707031,44.698486328],[80.43908691400001,44.694274902],[80.429870605,44.692321777],[80.40191650400001,44.68572998],[80.38812255900001,44.678100586],[80.37847900400001,44.667480469],[80.361083984,44.656494141],[80.360290527,44.65411377],[80.39147949200002,44.63067627],[80.410705566,44.609130859],[80.39630127,44.498718262],[80.38708496100001,44.440673828],[80.395507812,44.403686523],[80.41027832,44.364318848],[80.41369628900001,44.338500977],[80.40972900400001,44.311096191],[80.42370605500001,44.27331543],[80.42150878900001,44.238708496],[80.41870117200001,44.193481445],[80.408325195,44.169311523],[80.41192627,44.150085449],[80.41748046900001,44.129699707],[80.42810058600001,44.105102539],[80.44488525400001,44.079711914],[80.46307373,44.068725586],[80.48327636700002,44.038085937],[80.48229980500001,44.010314941],[80.48547363300001,43.98449707],[80.50848388700001,43.953491211],[80.51831054700001,43.925292969],[80.530273437,43.897705078],[80.53771972700001,43.856689453],[80.53991699200002,43.821472168],[80.54010009800001,43.821289062],[80.543884277,43.820678711],[80.57147216800001,43.79510498],[80.64068603500002,43.685302734],[80.741516113,43.545471191],[80.74969482400002,43.496276855],[80.76092529300001,43.470275879],[80.76672363300001,43.413879395],[80.74810791000002,43.377685547],[80.716918945,43.330322266],[80.74407959000001,43.304077148],[80.78930664100001,43.300720215],[80.809875488,43.216491699],[80.81707763700001,43.181091309],[80.80090332,43.151123047],[80.74688720700001,43.123291016],[80.717285156,43.13092041],[80.66333007800002,43.14251709],[80.64050293000001,43.13092041],[80.59570312500001,43.097290039],[80.53472900400001,43.070495605],[80.46588134800001,43.055297852],[80.413879395,43.026672363],[80.39367675800001,43.018310547],[80.417297363,42.988708496],[80.452880859,42.970092773],[80.503723145,42.944519043],[80.55651855500001,42.926330566],[80.56829834000001,42.924072266],[80.56951904300001,42.921875],[80.67547607400002,42.885314941],[80.61907959000001,42.872924805],[80.559875488,42.860717773],[80.500915527,42.859680176],[80.45391845700001,42.840881348],[80.408325195,42.81829834],[80.35589599600002,42.820678711],[80.335327148,42.826293945],[80.327087402,42.82409668],[80.325927734,42.826904297],[80.27172851600001,42.80847168],[80.27032470700001,42.760925293],[80.250488281,42.728088379],[80.21710205100001,42.695922852],[80.20452880900001,42.670288086],[80.19488525400001,42.641723633],[80.18127441400001,42.609313965],[80.19030761700002,42.580078125],[80.21429443400001,42.555297852],[80.24432373,42.525695801],[80.24487304700001,42.525695801],[80.266906738,42.52532959],[80.27349853500002,42.522888184],[80.277526855,42.515930176],[80.270874023,42.507324219],[80.27410888700001,42.505493164],[80.270080566,42.487487793],[80.24249267600001,42.478515625],[80.216918945,42.462280273],[80.23950195300002,42.386108398],[80.25811767600001,42.352478027],[80.26452636700002,42.334106445],[80.27148437500001,42.330688477],[80.27532959000001,42.326904297],[80.27508544900002,42.319519043],[80.36511230500001,42.327880859],[80.40612793000001,42.324523926],[80.46588134800001,42.332092285],[80.508300781,42.344116211],[80.55932617200001,42.345275879],[80.60571289100001,42.355529785],[80.66552734400001,42.379516602],[80.73010253900001,42.371887207],[80.77990722700001,42.37109375],[80.85192871100001,42.371276855],[80.91247558600001,42.374511719],[80.95611572300001,42.366882324],[80.98712158200001,42.332092285],[81.02069091800001,42.298095703],[81.05627441400001,42.27911377],[81.094299316,42.27130127],[81.143920898,42.268127441],[81.182128906,42.275085449],[81.20867919900002,42.306518555],[81.19171142600001,42.342529297],[81.219726562,42.373901367],[81.268127441,42.36730957],[81.31750488300001,42.364318848],[81.35650634800001,42.366516113],[81.39788818400001,42.363098145],[81.46252441400001,42.348083496],[81.54107666000002,42.353515625],[81.58752441400001,42.363891602],[81.62390136700002,42.373718262],[81.67767334000001,42.395324707],[81.709899902,42.41192627],[81.74188232400002,42.432312012],[81.750488281,42.459289551],[81.81451416000002,42.441711426],[81.87768554700001,42.435119629],[81.938476562,42.432922363],[82.00653076200001,42.432922363],[82.05688476600001,42.440124512],[82.09729003900001,42.435302734],[82.13867187500001,42.422119141],[82.13989257800002,42.452087402],[82.13787841800001,42.481689453],[82.178710937,42.493286133],[82.22027587900001,42.484313965],[82.26208496100001,42.482727051],[82.30389404300001,42.483886719],[82.347473145,42.499511719],[82.36151123,42.528076172],[82.38189697300001,42.555725098],[82.44451904300001,42.556274414],[82.51348877,42.558288574],[82.55267334000001,42.562927246],[82.59729003900001,42.570678711],[82.653686523,42.586914062],[82.69848632800002,42.601501465],[82.73748779300001,42.614685059],[82.75811767600001,42.652709961]]]}}
