{"type":"Feature","id":"bulk-99377448B59012333326084","bbox":[116.35632324200002,25.503479004,118.64752197300001,27.133300781],"properties":{"id":"bulk-99377448B59012333326084","name":"Sanming","nameEn":"Sanming","fullName":"Sanming","level":"city","boundaryRole":"administrative-extent","boundaryQuality":"generalized-source-2020","boundaryYearRepresented":"2020","bounds":[[116.35632324200002,25.503479004],[118.64752197300001,27.133300781]],"center":[117.5019226075,26.3183898925],"centerMethod":"bounding-box midpoint; camera framing only","license":"CC-BY-3.0-IGO","attribution":"geoBoundaries / HDX, China administrative boundaries (2020)","source":{"provider":"geoBoundaries gbHumanitarian / HDX","url":"https://github.com/wmgeolab/geoBoundaries/raw/9469f09/releaseData/gbHumanitarian/CHN/ADM2/geoBoundaries-CHN-ADM2.geojson","metadataUrl":"https://www.geoboundaries.org/api/current/gbHumanitarian/CHN/ADM2/","shapeID":"99377448B59012333326084","shapeName":"Sanming","boundaryID":"CHN-ADM2-99377448","commit":"9469f09"},"geometryCounts":{"coordinates":222,"components":1,"holes":0},"boundaryNotice":"geoBoundaries / HDX 2020 年行政区数据，海岸和边界经过源数据概化，并非当前测绘成果。"},"geometry":{"type":"Polygon","coordinates":[[[118.64392089800002,26.311096191],[118.59490966800001,26.314697266],[118.56872558600001,26.348876953],[118.53387451200001,26.362915039],[118.50292968700002,26.366271973],[118.46392822300001,26.36932373],[118.42767334000001,26.378112793],[118.40509033200001,26.406311035],[118.38507080100001,26.439086914],[118.34729003900001,26.432128906],[118.29730224600002,26.436523437],[118.27648925800001,26.465881348],[118.24987793000001,26.4453125],[118.21130371100001,26.446899414],[118.18530273400002,26.42791748],[118.17327880900001,26.402893066],[118.13531494100002,26.397888184],[118.10308837900001,26.406677246],[118.070129395,26.416870117],[118.04547119100002,26.441101074],[118.02947998000002,26.47467041],[118.02227783200001,26.501281738],[118.00408935500002,26.537719727],[117.97991943400001,26.563476562],[117.93450927700002,26.585510254],[117.88952636700002,26.585876465],[117.84490966800001,26.588928223],[117.83190918000001,26.613891602],[117.83111572300001,26.642700195],[117.82867431600002,26.689086914],[117.77111816400001,26.683288574],[117.72009277300002,26.682922363],[117.67749023400002,26.66607666],[117.64410400400001,26.656311035],[117.60772705100001,26.674072266],[117.59051513700001,26.696472168],[117.56848144500002,26.731689453],[117.59509277300002,26.755126953],[117.62768554700001,26.774719238],[117.63153076200001,26.809692383],[117.62908935500002,26.838500977],[117.60308837900001,26.864501953],[117.58209228500002,26.885681152],[117.55969238300001,26.917480469],[117.52691650400001,26.92767334],[117.49371337900001,26.938903809],[117.50732421900001,26.964904785],[117.53009033200001,27.010498047],[117.49389648400002,27.024291992],[117.46252441400001,27.018920898],[117.42468261700002,27.013671875],[117.38153076200001,27.054321289],[117.36370849600002,27.079284668],[117.36029052700002,27.107727051],[117.32208252,27.114318848],[117.29327392600001,27.124511719],[117.25732421900001,27.118286133],[117.25708007800002,27.089111328],[117.24951171900001,27.061279297],[117.21789550800001,27.042297363],[117.18688964800002,27.06652832],[117.15710449200002,27.09552002],[117.11828613300001,27.111083984],[117.08349609400001,27.105285645],[117.01068115200002,27.133300781],[117.00927734400001,27.131286621],[117.003723145,27.124511719],[116.97290039100001,27.086730957],[116.91870117200001,27.051879883],[116.85412597700001,27.04107666],[116.78448486300002,27.034118652],[116.72747802700002,27.013671875],[116.70892334000001,26.999084473],[116.69647216800001,26.989318848],[116.63610839800002,26.99432373],[116.61511230500001,26.952270508],[116.58270263700001,26.936889648],[116.56048584000001,26.907470703],[116.53491210900002,26.87109375],[116.53070068400001,26.864074707],[116.51812744100002,26.844116211],[116.51629638700001,26.815490723],[116.51531982400002,26.800292969],[116.51611328100002,26.75012207],[116.48510742200001,26.721923828],[116.480285645,26.709716797],[116.50048828100002,26.693481445],[116.52368164100001,26.678710937],[116.53649902300002,26.650085449],[116.53967285200001,26.642883301],[116.53051757800002,26.60748291],[116.53631591800001,26.573913574],[116.538879395,26.569885254],[116.55651855500001,26.540527344],[116.56970214800002,26.511108398],[116.59912109400001,26.497070312],[116.61468505900001,26.473876953],[116.57409668000001,26.40411377],[116.52008056600002,26.395080566],[116.50408935500002,26.413085937],[116.46630859400001,26.370910645],[116.43890380900001,26.335510254],[116.40911865200002,26.309082031],[116.38189697300001,26.274475098],[116.36730957000002,26.233886719],[116.37908935500002,26.180297852],[116.42272949200002,26.187072754],[116.45007324200002,26.191101074],[116.480285645,26.175109863],[116.47930908200001,26.142883301],[116.46411132800002,26.124694824],[116.43170166000002,26.104675293],[116.38348388700001,26.069519043],[116.35632324200002,26.04107666],[116.37011718700002,26.04309082],[116.41552734400001,26.006530762],[116.453125,25.986328125],[116.49029541000002,25.975891113],[116.50030517600001,26.006713867],[116.54089355500001,26.015930176],[116.56848144500002,26.00012207],[116.60028076200001,25.99987793],[116.62890625000001,26.011901855],[116.63812255900001,25.976928711],[116.65112304700001,25.946716309],[116.68212890600002,25.92791748],[116.72308349600002,25.913330078],[116.72113037100002,25.877929687],[116.76208496100001,25.856872559],[116.79168701200001,25.80267334],[116.82348632800002,25.788330078],[116.84613037100002,25.806884766],[116.85748291000002,25.841674805],[116.89349365200002,25.862304687],[116.92889404300001,25.875305176],[116.98132324200002,25.88269043],[117.01611328100002,25.858703613],[117.02972412100002,25.834289551],[117.04272460900002,25.805908203],[117.05249023400002,25.775695801],[117.05712890600002,25.732299805],[117.05249023400002,25.704528809],[117.07348632800002,25.679321289],[117.105285645,25.673522949],[117.12707519500002,25.646484375],[117.13372802700002,25.609680176],[117.16168212900001,25.583312988],[117.20648193400001,25.610290527],[117.20831298800002,25.640319824],[117.20989990200002,25.667907715],[117.21911621100001,25.707519531],[117.24029541000002,25.728271484],[117.27331543000001,25.752502441],[117.32629394500002,25.788085937],[117.35809326200001,25.809326172],[117.37890625000001,25.780883789],[117.39050293000001,25.747497559],[117.37969970700001,25.709289551],[117.41931152300002,25.694274902],[117.44787597700001,25.729675293],[117.50152587900001,25.765075684],[117.54547119100002,25.725280762],[117.56988525400001,25.696289062],[117.60131835900002,25.688476562],[117.63787841800001,25.698913574],[117.66552734400001,25.66607666],[117.67767334000001,25.630493164],[117.70050048800002,25.612304687],[117.70227050800001,25.578308105],[117.66192627,25.570678711],[117.65692138700001,25.535705566],[117.72589111300002,25.539672852],[117.74847412100002,25.51171875],[117.78009033200001,25.503479004],[117.79132080100001,25.532470703],[117.82330322300001,25.531494141],[117.85290527300002,25.526916504],[117.88348388700001,25.522705078],[117.91491699200002,25.538330078],[117.95349121100001,25.554504395],[118.00952148400002,25.58770752],[118.03387451200001,25.621887207],[118.03570556600002,25.650085449],[118.00292968700002,25.66027832],[117.97552490200002,25.645507812],[117.94549560500002,25.660888672],[117.91809082000002,25.686706543],[117.93572998000002,25.710083008],[117.97271728500002,25.717712402],[117.96807861300002,25.747680664],[117.96551513700001,25.782104492],[117.98309326200001,25.813720703],[117.98590087900001,25.842529297],[118.00592041000002,25.883911133],[118.06207275400001,25.873901367],[118.06591796900001,25.901123047],[118.09069824200002,25.918273926],[118.13128662100002,25.92767334],[118.16412353500002,25.928283691],[118.19750976600001,25.919677734],[118.23327636700002,25.922912598],[118.24987793000001,25.952697754],[118.27972412100002,25.956115723],[118.31011962900001,25.943725586],[118.34069824200002,25.931274414],[118.38970947300001,25.922485352],[118.42047119100002,25.92388916],[118.45367431600002,25.919494629],[118.48132324200002,25.940124512],[118.48907470700001,25.966308594],[118.49609375000001,26.016113281],[118.50811767600001,26.06072998],[118.54608154300001,26.080688477],[118.58209228500002,26.097290039],[118.59051513700001,26.131103516],[118.57049560500002,26.152893066],[118.55389404300001,26.18170166],[118.56311035200001,26.210510254],[118.59228515600002,26.224304199],[118.62628173800002,26.236328125],[118.64752197300001,26.283325195],[118.64392089800002,26.311096191]]]}}
