{"type":"Feature","id":"bulk-99377448B67615421412496","bbox":[117.86730957000002,24.423522949,118.43151855500001,24.937316895],"properties":{"id":"bulk-99377448B67615421412496","name":"Xiamen","nameEn":"Xiamen","fullName":"Xiamen","level":"city","boundaryRole":"administrative-extent","boundaryQuality":"generalized-source-2020","boundaryYearRepresented":"2020","bounds":[[117.86730957000002,24.423522949],[118.43151855500001,24.937316895]],"center":[118.14941406250001,24.680419922],"centerMethod":"bounding-box midpoint; camera framing only","license":"CC-BY-3.0-IGO","attribution":"geoBoundaries / HDX, China administrative boundaries (2020)","source":{"provider":"geoBoundaries gbHumanitarian / HDX","url":"https://github.com/wmgeolab/geoBoundaries/raw/9469f09/releaseData/gbHumanitarian/CHN/ADM2/geoBoundaries-CHN-ADM2.geojson","metadataUrl":"https://www.geoboundaries.org/api/current/gbHumanitarian/CHN/ADM2/","shapeID":"99377448B67615421412496","shapeName":"Xiamen","boundaryID":"CHN-ADM2-99377448","commit":"9469f09"},"geometryCounts":{"coordinates":290,"components":3,"holes":0},"boundaryNotice":"geoBoundaries / HDX 2020 年行政区数据，海岸和边界经过源数据概化，并非当前测绘成果。"},"geometry":{"type":"MultiPolygon","coordinates":[[[[118.07250976600001,24.485107422],[118.07330322300001,24.485290527],[118.07409668000001,24.49407959],[118.07348632800002,24.493103027],[118.07250976600001,24.485473633],[118.07250976600001,24.485107422]]],[[[118.13732910200001,24.54510498],[118.10552978500002,24.552490234],[118.10308837900001,24.550109863],[118.10668945300002,24.544677734],[118.10949707000002,24.545288086],[118.11090087900001,24.538513184],[118.11151123000002,24.537475586],[118.11132812500001,24.536682129],[118.11370849600002,24.524902344],[118.11248779300001,24.511108398],[118.10009765600002,24.505493164],[118.09771728500002,24.489074707],[118.09552002,24.486083984],[118.10247802700002,24.48828125],[118.10888671900001,24.495483398],[118.11132812500001,24.494873047],[118.11547851600001,24.486328125],[118.11407470700001,24.480102539],[118.10809326200001,24.478088379],[118.10430908200001,24.476928711],[118.09631347700001,24.469726562],[118.08947753900001,24.469116211],[118.08410644500002,24.464904785],[118.08209228500002,24.458129883],[118.08789062500001,24.443725586],[118.09130859400001,24.434692383],[118.09631347700001,24.434692383],[118.10668945300002,24.428100586],[118.11669921900001,24.428283691],[118.12530517600001,24.424926758],[118.13507080100001,24.423522949],[118.13952636700002,24.4296875],[118.14892578100002,24.432922363],[118.15527343700002,24.44128418],[118.163879395,24.445922852],[118.16809082000002,24.449707031],[118.17230224600002,24.453491211],[118.17749023400002,24.47088623],[118.18170166000002,24.473510742],[118.18591308600001,24.481323242],[118.19152832000002,24.481689453],[118.19311523400002,24.482910156],[118.19488525400001,24.488708496],[118.187316895,24.50390625],[118.16448974600002,24.507324219],[118.15588378900001,24.524475098],[118.14129638700001,24.529296875],[118.14007568400001,24.534729004],[118.13830566400001,24.534729004],[118.13952636700002,24.537902832],[118.13848877,24.542907715],[118.13732910200001,24.54510498]]],[[[117.90228271500001,24.91229248],[117.93072509800001,24.860290527],[117.93969726600001,24.830871582],[117.93707275400001,24.79888916],[117.93310546900001,24.759887695],[117.93707275400001,24.722473145],[117.94207763700001,24.689697266],[117.91809082000002,24.664672852],[117.88928222700001,24.639892578],[117.86730957000002,24.620483398],[117.89288330100001,24.593078613],[117.90490722700001,24.565673828],[117.91931152300002,24.536071777],[117.94268798800002,24.519104004],[117.94549560500002,24.469116211],[117.95111084000001,24.466308594],[117.96588134800001,24.464477539],[117.980285645,24.458679199],[117.98651123000002,24.45892334],[117.99389648400002,24.456115723],[117.99829101600001,24.450317383],[118.02349853500002,24.448303223],[118.02667236300002,24.443725586],[118.03649902300002,24.442871094],[118.04028320300002,24.444091797],[118.04388427700002,24.454711914],[118.04211425800001,24.455871582],[118.03167724600002,24.454101562],[118.02728271500001,24.463684082],[118.02447509800001,24.46472168],[118.02050781200002,24.462524414],[118.01629638700001,24.464904785],[118.01068115200002,24.464294434],[118.00830078100002,24.466674805],[118.01348877,24.471130371],[118.01690673800002,24.477111816],[118.02252197300001,24.479309082],[118.03210449200002,24.487670898],[118.03491210900002,24.48828125],[118.03649902300002,24.485900879],[118.03649902300002,24.480529785],[118.04028320300002,24.48248291],[118.04187011700002,24.487304687],[118.04449462900001,24.488098145],[118.04547119100002,24.493713379],[118.05847168000001,24.496276855],[118.06927490200002,24.508117676],[118.06048584000001,24.511901855],[118.05908203100002,24.51348877],[118.06152343700002,24.518127441],[118.05908203100002,24.521484375],[118.04968261700002,24.525695801],[118.02667236300002,24.527282715],[117.99487304700001,24.52947998],[117.96588134800001,24.544494629],[117.97827148400002,24.549926758],[117.97308349600002,24.55291748],[117.97192382800002,24.555480957],[117.97631835900002,24.558288574],[117.980285645,24.557922363],[117.99353027300002,24.556884766],[118.00708007800002,24.571289062],[118.00811767600001,24.575683594],[118.01147460900002,24.573303223],[118.01647949200002,24.561706543],[118.01928710900002,24.557922363],[118.02471923800002,24.55291748],[118.03387451200001,24.55291748],[118.03588867200001,24.563293457],[118.03729248000002,24.56427002],[118.04010009800001,24.561706543],[118.04290771500001,24.561706543],[118.04711914100001,24.55670166],[118.05151367200001,24.555725098],[118.05487060500002,24.558105469],[118.05969238300001,24.562927246],[118.06188964800002,24.5703125],[118.06152343700002,24.573303223],[118.06127929700001,24.575683594],[118.05310058600001,24.589294434],[118.05468750000001,24.592529297],[118.06072998000002,24.590881348],[118.06152343700002,24.592895508],[118.05908203100002,24.598327637],[118.05010986300002,24.609924316],[118.04492187500001,24.611877441],[118.04791259800001,24.615905762],[118.05047607400002,24.616882324],[118.054504395,24.616882324],[118.06347656200002,24.608093262],[118.06951904300001,24.607116699],[118.07232666000002,24.610717773],[118.07427978500002,24.610717773],[118.07629394500002,24.601074219],[118.07971191400001,24.602478027],[118.08288574200002,24.60168457],[118.08630371100001,24.595703125],[118.09252929700001,24.597717285],[118.09307861300002,24.589904785],[118.09228515600002,24.571899414],[118.09649658200001,24.567321777],[118.10308837900001,24.567871094],[118.10510253900001,24.580078125],[118.11853027300002,24.592285156],[118.12530517600001,24.603088379],[118.13189697300001,24.606689453],[118.13732910200001,24.622070312],[118.13891601600001,24.624328613],[118.14868164100001,24.650512695],[118.14587402300002,24.649902344],[118.13732910200001,24.654724121],[118.13647460900002,24.656494141],[118.13812255900001,24.658325195],[118.14831543000001,24.655273437],[118.15051269500002,24.656677246],[118.15252685500002,24.664672852],[118.15447998000002,24.665893555],[118.15472412100002,24.665710449],[118.15869140600002,24.676330566],[118.16333007800002,24.676330566],[118.16528320300002,24.683288574],[118.16912841800001,24.685119629],[118.17669677700002,24.688903809],[118.17932128900001,24.687927246],[118.17968750000001,24.684082031],[118.18792724600002,24.68347168],[118.19128418000001,24.680480957],[118.19567871100001,24.684326172],[118.19671630900001,24.681518555],[118.19287109400001,24.67767334],[118.19268798800002,24.676513672],[118.19390869100002,24.676513672],[118.19372558600001,24.666503906],[118.19427490200002,24.663513184],[118.19372558600001,24.663330078],[118.19372558600001,24.656677246],[118.20111084000001,24.654724121],[118.21191406200002,24.656677246],[118.21331787100002,24.653503418],[118.20989990200002,24.652282715],[118.20910644500002,24.651306152],[118.21588134800001,24.651916504],[118.21911621100001,24.64251709],[118.19171142600001,24.622497559],[118.19451904300001,24.621276855],[118.20251464800002,24.623474121],[118.20227050800001,24.628723145],[118.20410156200002,24.629882812],[118.20989990200002,24.626708984],[118.21710205100001,24.632507324],[118.21990966800001,24.628479004],[118.21270752,24.621704102],[118.21350097700001,24.620483398],[118.22589111300002,24.620727539],[118.22772216800001,24.62310791],[118.22949218700002,24.622924805],[118.22949218700002,24.611328125],[118.23229980500001,24.606079102],[118.22888183600001,24.602722168],[118.22387695300002,24.606872559],[118.21447753900001,24.589477539],[118.20727539100001,24.575073242],[118.20849609400001,24.564697266],[118.20947265600002,24.564086914],[118.21209716800001,24.559082031],[118.22052002,24.558105469],[118.22491455100001,24.554504395],[118.23132324200002,24.557312012],[118.23248291000002,24.555480957],[118.22772216800001,24.548522949],[118.22088623000002,24.550720215],[118.21972656200002,24.550292969],[118.22387695300002,24.546325684],[118.22668457000002,24.541320801],[118.23431396500001,24.535705566],[118.24749755900001,24.546691895],[118.25329589800002,24.556884766],[118.25952148400002,24.561523437],[118.26269531200002,24.567687988],[118.26971435500002,24.566101074],[118.27508544900002,24.566894531],[118.28527832000002,24.572692871],[118.28790283200001,24.579711914],[118.28649902300002,24.589477539],[118.27832031200002,24.589294434],[118.27172851600001,24.597473145],[118.26568603500002,24.601074219],[118.26452636700002,24.603088379],[118.26409912100002,24.604125977],[118.26672363300001,24.607727051],[118.27008056600002,24.607727051],[118.27807617200001,24.596923828],[118.29907226600001,24.594116211],[118.30987548800002,24.586730957],[118.31469726600001,24.586120605],[118.31671142600001,24.582885742],[118.33007812500001,24.584899902],[118.33532714800002,24.584289551],[118.34289550800001,24.579528809],[118.35089111300002,24.581726074],[118.36352539100001,24.57989502],[118.36590576200001,24.581115723],[118.38012695300002,24.592712402],[118.38671875000001,24.597900391],[118.39312744100002,24.601074219],[118.40087890600002,24.600891113],[118.41168212900001,24.605529785],[118.41912841800001,24.606079102],[118.42407226600001,24.61328125],[118.42749023400002,24.615112305],[118.43127441400001,24.622497559],[118.43151855500001,24.625671387],[118.42468261700002,24.632873535],[118.42608642600001,24.641479492],[118.42089843700002,24.655273437],[118.31549072300001,24.67767334],[118.31488037100002,24.705871582],[118.31628418000001,24.733886719],[118.31927490200002,24.77532959],[118.31530761700002,24.813110352],[118.28692627,24.845703125],[118.25329589800002,24.855285645],[118.21972656200002,24.856079102],[118.195129395,24.887084961],[118.18652343700002,24.913330078],[118.13409423800002,24.937316895],[118.07568359400001,24.888671875],[118.04028320300002,24.886108398],[118.01611328100002,24.916687012],[117.99151611300002,24.934509277],[117.95251464800002,24.891296387],[117.90228271500001,24.91229248]]]]}}
