{"type":"Feature","id":"bulk-99377448B77196617197636","bbox":[82.61328125000001,35.635681152,93.81848144500002,43.477478027],"properties":{"id":"bulk-99377448B77196617197636","name":"Bayingolin Mongolia Autonomous Prefecture","nameEn":"Bayingolin Mongolia Autonomous Prefecture","fullName":"Bayingolin Mongolia Autonomous Prefecture","level":"city","boundaryRole":"administrative-extent","boundaryQuality":"generalized-source-2020","boundaryYearRepresented":"2020","bounds":[[82.61328125000001,35.635681152],[93.81848144500002,43.477478027]],"center":[88.21588134750002,39.5565795895],"centerMethod":"bounding-box midpoint; camera framing only","license":"CC-BY-3.0-IGO","attribution":"geoBoundaries / HDX, China administrative boundaries (2020)","source":{"provider":"geoBoundaries gbHumanitarian / HDX","url":"https://github.com/wmgeolab/geoBoundaries/raw/9469f09/releaseData/gbHumanitarian/CHN/ADM2/geoBoundaries-CHN-ADM2.geojson","metadataUrl":"https://www.geoboundaries.org/api/current/gbHumanitarian/CHN/ADM2/","shapeID":"99377448B77196617197636","shapeName":"Bayingolin Mongolia Autonomous Prefecture","boundaryID":"CHN-ADM2-99377448","commit":"9469f09"},"geometryCounts":{"coordinates":720,"components":1,"holes":0},"boundaryNotice":"geoBoundaries / HDX 2020 年行政区数据，海岸和边界经过源数据概化，并非当前测绘成果。"},"geometry":{"type":"Polygon","coordinates":[[[89.68627929700001,36.097900391],[89.74371337900001,36.107727051],[89.80712890600002,36.117126465],[89.84869384800001,36.094909668],[89.92370605500001,36.103271484],[89.953674316,36.090087891],[89.977111816,36.092895508],[89.99670410200001,36.110473633],[89.98828125000001,36.14251709],[90.03948974600002,36.176879883],[90.04168701200001,36.245117187],[90.053283691,36.252319336],[90.16247558600001,36.243530273],[90.211486816,36.183288574],[90.29711914100001,36.175109863],[90.42449951200001,36.16809082],[90.50469970700001,36.157104492],[90.56311035200001,36.157897949],[90.72491455100001,36.155883789],[90.80731201200001,36.126098633],[90.84588623,36.06427002],[90.90570068400001,36.06451416],[90.94989013700001,36.071105957],[91.019714355,36.049316406],[91.01727294900002,36.077697754],[91.08911132800002,36.112915039],[91.143127441,36.117126465],[91.143920898,36.11932373],[91.14031982400002,36.157470703],[91.13751220700001,36.205688477],[91.12628173800002,36.251098633],[91.09832763700001,36.275695801],[91.11669921900001,36.332519531],[91.077514648,36.336486816],[91.07928466800001,36.408874512],[91.05987548800002,36.453674316],[91.05767822300001,36.509277344],[90.97967529300001,36.529907227],[90.87030029300001,36.560302734],[90.77392578100002,36.569885254],[90.76947021500001,36.62890625],[90.75909423800002,36.647094727],[90.738098145,36.697875977],[90.77209472700001,36.719482422],[90.72369384800001,36.777893066],[90.75592041000002,36.81072998],[90.80230712900001,36.829528809],[90.85308837900001,36.894897461],[90.97088623,36.91607666],[91.035705566,36.936706543],[91.05889892600001,36.936523437],[91.06329345700001,36.960693359],[91.11688232400002,36.951477051],[91.17889404300001,37.025085449],[91.26489257800002,37.011291504],[91.303283691,37.015075684],[91.30712890600002,37.061523437],[91.33929443400001,37.129272461],[91.27911377,37.18347168],[91.22912597700001,37.239318848],[91.17028808600001,37.297302246],[91.144287109,37.401489258],[91.120117187,37.448913574],[90.96472168000001,37.482116699],[90.91210937500001,37.504882812],[90.84832763700001,37.525085449],[90.88110351600001,37.575927734],[90.83227539100001,37.638122559],[90.78588867200001,37.641113281],[90.73071289100001,37.663513184],[90.62347412100002,37.705871582],[90.48071289100001,37.76171875],[90.40911865200002,37.787902832],[90.45489502,37.85168457],[90.41607666000002,37.905273437],[90.460327148,37.961730957],[90.48211669900002,38.027282715],[90.32952880900001,38.175476074],[90.28332519500002,38.211730957],[90.178710937,38.332885742],[90.19891357400002,38.426330566],[90.27307128900001,38.433105469],[90.34912109400001,38.460083008],[90.46508789100001,38.56048584],[90.48431396500001,38.573486328],[90.52508544900002,38.576904297],[90.594299316,38.639526367],[90.69592285200001,38.655700684],[90.74188232400002,38.648925781],[90.82348632800002,38.641113281],[90.91510009800001,38.655517578],[91.01751709000001,38.668701172],[91.13568115200002,38.676086426],[91.20007324200002,38.708679199],[91.29528808600001,38.713500977],[91.32891845700001,38.716674805],[91.40148925800001,38.763916016],[91.47210693400001,38.762329102],[91.57849121100001,38.813476562],[91.65411377,38.834899902],[91.737304687,38.840270996],[91.80670166000002,38.839111328],[91.89807128900001,38.86907959],[91.969726562,38.917724609],[92.02551269500002,38.942504883],[92.20611572300001,38.960083008],[92.25048828100002,38.998474121],[92.39031982400002,38.976928711],[92.429504395,39.052307129],[92.47412109400001,39.065490723],[92.54711914100001,39.124694824],[92.64111328100002,39.126281738],[92.747070312,39.132324219],[92.863098145,39.146728516],[92.92767334000001,39.166687012],[92.92431640600002,39.172912598],[92.92767334000001,39.284484863],[92.97149658200001,39.389892578],[92.93127441400001,39.46472168],[92.885314941,39.508117676],[92.85571289100001,39.522277832],[92.85467529300001,39.523925781],[92.81951904300001,39.58392334],[92.81628418000001,39.695129395],[92.79528808600001,39.830688477],[92.78869628900001,39.935119629],[92.90191650400001,40.069274902],[92.95092773400002,40.179870605],[92.89727783200001,40.25390625],[92.89172363300001,40.46270752],[92.89068603500002,40.503112793],[92.90008544900002,40.50970459],[93.05889892600001,40.50012207],[93.362304687,40.470275879],[93.46508789100001,40.503723145],[93.57470703100002,40.566711426],[93.655273437,40.608093262],[93.76470947300001,40.721923828],[93.80969238300001,40.819885254],[93.81848144500002,40.835083008],[93.70391845700001,40.834106445],[93.65270996100001,40.843322754],[93.61328125000001,40.848083496],[93.57208252,40.858276367],[93.54327392600001,40.887878418],[93.52893066400001,40.913879395],[93.49212646500001,40.950683594],[93.444702148,40.94732666],[93.40032959000001,40.94708252],[93.34869384800001,40.94732666],[93.26989746100001,40.960876465],[93.23071289100001,40.971130371],[93.18829345700001,40.992126465],[93.15148925800001,41.012695312],[93.11328125000001,41.034912109],[93.06427002,41.065917969],[93.02471923800002,41.092712402],[92.99230957000002,41.115112305],[92.95349121100001,41.13269043],[92.91827392600001,41.139892578],[92.88092041000002,41.143676758],[92.84271240200002,41.146118164],[92.77947998,41.148498535],[92.74188232400002,41.151672363],[92.70269775400001,41.153076172],[92.65411377,41.154907227],[92.587280273,41.159912109],[92.53552246100001,41.163085937],[92.48651123,41.164306641],[92.44488525400001,41.172302246],[92.40789794900002,41.185302734],[92.37231445300002,41.193725586],[92.33007812500001,41.19708252],[92.29229736300002,41.207702637],[92.25311279300001,41.218505859],[92.21667480500001,41.231079102],[92.18267822300001,41.251708984],[92.144287109,41.264526367],[92.01751709000001,41.276672363],[91.972473145,41.278076172],[91.92132568400001,41.28729248],[91.88708496100001,41.276672363],[91.84631347700001,41.269714355],[91.80767822300001,41.266723633],[91.76470947300001,41.264099121],[91.72808837900001,41.263122559],[91.66571044900002,41.259887695],[91.61828613300001,41.25592041],[91.57171630900001,41.252685547],[91.53228759800001,41.250488281],[91.48632812500001,41.247924805],[91.41491699200002,41.24407959],[91.34948730500001,41.240478516],[91.30828857400002,41.235473633],[91.26251220700001,41.221313477],[91.21490478500002,41.211486816],[91.15649414100001,41.210327148],[91.11468505900001,41.210510254],[91.03448486300002,41.207885742],[90.995910645,41.202697754],[90.94610595700001,41.199890137],[90.89691162100002,41.194885254],[90.84527587900001,41.196289062],[90.77270507800002,41.198486328],[90.730285645,41.199279785],[90.64648437500001,41.206115723],[90.58868408200001,41.210327148],[90.55187988300001,41.210876465],[90.48291015600002,41.212280273],[90.435302734,41.21472168],[90.38287353500002,41.216308594],[90.34167480500001,41.217529297],[90.29852294900002,41.222290039],[90.24572753900001,41.237670898],[90.20672607400002,41.254882812],[90.17492675800001,41.272705078],[90.13189697300001,41.284912109],[90.09228515600002,41.286315918],[90.02667236300002,41.301513672],[89.97650146500001,41.32208252],[89.90447998,41.346496582],[89.844726562,41.339111328],[89.78527832000002,41.329711914],[89.73071289100001,41.332519531],[89.63269043000001,41.331115723],[89.61370849600002,41.359924316],[89.56390380900001,41.336730957],[89.52447509800001,41.337524414],[89.48547363300001,41.344482422],[89.40588378900001,41.355285645],[89.34729003900001,41.361694336],[89.29632568400001,41.361877441],[89.25311279300001,41.35949707],[89.202087402,41.373291016],[89.143127441,41.362304687],[89.10827636700002,41.372924805],[89.06311035200001,41.382080078],[89.01171875000001,41.389709473],[88.95452880900001,41.383483887],[88.917724609,41.383117676],[88.88110351600001,41.381896973],[88.82287597700001,41.38067627],[88.78289794900002,41.405273437],[88.77032470700001,41.43170166],[88.73291015600002,41.452514648],[88.69049072300001,41.452270508],[88.629882812,41.453918457],[88.58007812500001,41.455505371],[88.50708007800002,41.448486328],[88.45587158200001,41.438720703],[88.37329101600001,41.455078125],[88.34228515600002,41.479125977],[88.34252929700001,41.516296387],[88.34368896500001,41.545288086],[88.34332275400001,41.587280273],[88.337280273,41.627075195],[88.33209228500002,41.659912109],[88.32611084000001,41.696472168],[88.32427978500002,41.733520508],[88.30871582000002,41.768676758],[88.280273437,41.80847168],[88.24670410200001,41.831115723],[88.221679687,41.853088379],[88.194274902,41.874694824],[88.17687988300001,41.898925781],[88.16210937500001,41.927490234],[88.14068603500002,41.966125488],[88.09729003900001,42.002502441],[88.04327392600001,42.028503418],[88.00567627,42.042297363],[87.962280273,42.063720703],[87.91210937500001,42.114501953],[87.909912109,42.144470215],[87.911071777,42.18951416],[87.92492675800001,42.251525879],[87.97509765600002,42.281494141],[88.028686523,42.300476074],[88.06628418000001,42.3125],[88.10968017600001,42.332092285],[88.13708496100001,42.356506348],[88.16552734400001,42.384521484],[88.19671630900001,42.421081543],[88.217712402,42.454711914],[88.22467041000002,42.483093262],[88.21209716800001,42.509887695],[88.18072509800001,42.531677246],[88.12567138700001,42.550292969],[88.07629394500002,42.570922852],[88.03668212900001,42.584472656],[87.99829101600001,42.599121094],[87.96209716800001,42.627075195],[87.928710937,42.659118652],[87.903686523,42.700317383],[87.88629150400001,42.725524902],[87.86572265600002,42.766723633],[87.868103027,42.798278809],[87.872070312,42.836303711],[87.85729980500001,42.872314453],[87.82507324200002,42.906677246],[87.79370117200001,42.921325684],[87.75830078100002,42.9453125],[87.71911621100001,42.957275391],[87.66528320300002,42.96887207],[87.62847900400001,42.990112305],[87.60351562500001,43.017089844],[87.577087402,43.050109863],[87.53448486300002,43.074523926],[87.49291992200001,43.087280273],[87.43389892600001,43.101074219],[87.394714355,43.107116699],[87.35388183600001,43.110473633],[87.304077148,43.133728027],[87.26007080100001,43.108886719],[87.21588134800001,43.086120605],[87.17407226600001,43.0625],[87.13311767600001,43.0703125],[87.085693359,43.078491211],[87.08807373,43.044921875],[87.04028320300002,43.026123047],[86.99029541000002,43.033874512],[86.93572998,43.053283691],[86.89672851600001,43.07208252],[86.85729980500001,43.086730957],[86.79449462900001,43.10949707],[86.75231933600001,43.113098145],[86.71307373,43.111083984],[86.66168212900001,43.102478027],[86.62072753900001,43.112121582],[86.56652832,43.120727539],[86.51647949200002,43.124511719],[86.45629882800002,43.155883789],[86.379089355,43.20111084],[86.32489013700001,43.223876953],[86.29211425800001,43.251281738],[86.27972412100002,43.297119141],[86.29510498,43.333679199],[86.318908691,43.361083984],[86.33807373,43.394287109],[86.34692382800002,43.440124512],[86.303710937,43.453308105],[86.25469970700001,43.433898926],[86.21832275400001,43.413085937],[86.16009521500001,43.374511719],[86.112304687,43.355102539],[86.045898437,43.332092285],[85.96868896500001,43.347900391],[85.91290283200001,43.363891602],[85.89172363300001,43.390686035],[85.860717773,43.408691406],[85.80651855500001,43.427124023],[85.75592041000002,43.418884277],[85.74047851600001,43.390319824],[85.72351074200002,43.365722656],[85.701721191,43.340698242],[85.67132568400001,43.312683105],[85.62249755900001,43.296691895],[85.584899902,43.297302246],[85.536499023,43.30291748],[85.47412109400001,43.312072754],[85.40429687500001,43.312927246],[85.35467529300001,43.306091309],[85.31707763700001,43.320922852],[85.303283691,43.351501465],[85.259887695,43.35168457],[85.21649169900002,43.333129883],[85.169677734,43.334472656],[85.145507812,43.356079102],[85.10388183600001,43.379699707],[85.05792236300002,43.397521973],[85.019287109,43.407897949],[84.95147705100001,43.42010498],[84.87109375000001,43.419311523],[84.826721191,43.430725098],[84.77148437500001,43.447509766],[84.72052002,43.464294434],[84.67291259800001,43.477478027],[84.634887695,43.467102051],[84.61090087900001,43.446472168],[84.59210205100001,43.414306641],[84.57092285200001,43.384887695],[84.54028320300002,43.354675293],[84.51208496100001,43.321289062],[84.48669433600001,43.29510498],[84.442321777,43.272521973],[84.386474609,43.256896973],[84.34710693400001,43.253479004],[84.28869628900001,43.254516602],[84.27069091800001,43.222106934],[84.29870605500001,43.199279785],[84.29827880900001,43.165283203],[84.26049804700001,43.162902832],[84.20550537100002,43.149902344],[84.16949462900001,43.141479492],[84.12731933600001,43.142089844],[84.08972168000001,43.135681152],[84.042724609,43.125671387],[84.003295898,43.132507324],[83.95507812500001,43.140319824],[83.926696777,43.11730957],[83.877075195,43.108276367],[83.818115234,43.106079102],[83.76428222700001,43.12310791],[83.72888183600001,43.139526367],[83.68109130900001,43.151672363],[83.612670898,43.151123047],[83.55291748,43.144287109],[83.477478027,43.138671875],[83.42529296900001,43.120483398],[83.45068359400001,43.095275879],[83.470092773,43.069519043],[83.436096191,43.047485352],[83.40588378900001,43.025878906],[83.36468505900001,43.012512207],[83.30969238300001,43.005126953],[83.244689941,42.989929199],[83.193481445,42.988891602],[83.15612793000001,42.985900879],[83.09613037100002,42.976074219],[83.04772949200002,42.983093262],[82.987670898,42.989501953],[82.94287109400001,42.985107422],[82.88848877,42.985900879],[82.84088134800001,42.959716797],[82.784484863,42.939086914],[82.74267578100002,42.940490723],[82.69848632800002,42.944519043],[82.65191650400001,42.952880859],[82.61328125000001,42.920471191],[82.65551757800002,42.897888184],[82.702514648,42.856506348],[82.71331787100002,42.828125],[82.72412109400001,42.799682617],[82.74212646500001,42.753479004],[82.754882812,42.715087891],[82.75927734400001,42.683288574],[82.75811767600001,42.652709961],[82.79931640600002,42.651123047],[82.83288574200002,42.623718262],[82.86132812500001,42.590881348],[82.90808105500001,42.599487305],[82.94287109400001,42.617919922],[83.00030517600001,42.596313477],[83.04089355500001,42.574279785],[83.07989502,42.56628418],[83.13031005900001,42.578125],[83.16711425800001,42.588928223],[83.20928955100001,42.590270996],[83.25848388700001,42.567077637],[83.31311035200001,42.571899414],[83.35272216800001,42.540100098],[83.39929199200002,42.518127441],[83.44128418000001,42.503295898],[83.49768066400001,42.481872559],[83.54528808600001,42.478881836],[83.59851074200002,42.495117187],[83.63092041000002,42.510498047],[83.67529296900001,42.52911377],[83.725524902,42.540710449],[83.796875,42.537902832],[83.83789062500001,42.537902832],[83.902099609,42.537475586],[83.94873046900001,42.537902832],[83.93188476600001,42.464904785],[83.93048095700001,42.437072754],[83.93231201200001,42.404724121],[83.944702148,42.35949707],[83.95391845700001,42.313476562],[83.966125488,42.272888184],[83.97888183600001,42.237304687],[83.97332763700001,42.207275391],[83.95928955100001,42.17388916],[83.95031738300001,42.13671875],[83.93829345700001,42.10949707],[83.92529296900001,42.072509766],[83.92407226600001,42.04510498],[83.92932128900001,42.014282227],[83.93951416000002,41.98828125],[83.952880859,41.955688477],[83.96649169900002,41.929077148],[83.97729492200001,41.900878906],[83.98229980500001,41.864501953],[83.98229980500001,41.830688477],[83.97509765600002,41.800292969],[83.94689941400001,41.772705078],[83.93432617200001,41.741088867],[83.92572021500001,41.694091797],[83.91687011700002,41.656494141],[83.91229248,41.623718262],[83.91632080100001,41.592895508],[83.93127441400001,41.55670166],[83.952880859,41.525512695],[83.97290039100001,41.50189209],[84.00268554700001,41.47467041],[84.020080566,41.446472168],[84.033325195,41.416320801],[84.042724609,41.371276855],[84.04650878900001,41.322692871],[84.04791259800001,41.291870117],[84.053283691,41.235473633],[84.04650878900001,41.156311035],[84.07147216800001,41.129882812],[84.09930419900002,41.062072754],[84.09552002,41.034301758],[84.094726562,40.988098145],[84.093505859,40.960693359],[84.086914062,40.889099121],[84.08709716800001,40.858703613],[84.08868408200001,40.804504395],[84.08990478500002,40.766113281],[84.09948730500001,40.709472656],[84.10168457,40.676086426],[84.09912109400001,40.644714355],[84.09851074200002,40.614501953],[84.09930419900002,40.57989502],[84.09808349600002,40.549682617],[84.09613037100002,40.516479492],[84.09729003900001,40.463317871],[84.09448242200001,40.419677734],[84.091125488,40.38067627],[84.09167480500001,40.319274902],[84.08551025400001,40.278686523],[84.068481445,40.220703125],[84.067687988,40.189086914],[84.062316895,40.146911621],[84.04632568400001,40.106689453],[84.035705566,40.073486328],[84.02850341800001,40.039123535],[84.01611328100002,39.999511719],[83.99108886700002,39.957275391],[83.96569824200002,39.931518555],[83.93188476600001,39.902893066],[83.89727783200001,39.864318848],[83.85607910200001,39.830322266],[83.809875488,39.792114258],[83.768493652,39.767272949],[83.73852539100001,39.745300293],[83.703674316,39.71472168],[83.658325195,39.676086426],[83.622070312,39.644104004],[83.59252929700001,39.614685059],[83.55572509800001,39.582702637],[83.51672363300001,39.546325684],[83.47509765600002,39.504089355],[83.444274902,39.485290527],[83.42767334000001,39.385070801],[83.425109863,39.325683594],[83.42651367200001,39.283508301],[83.42529296900001,39.240722656],[83.42150878900001,39.191711426],[83.41748046900001,39.141113281],[83.41333007800002,39.099487305],[83.41009521500001,39.059082031],[83.40588378900001,39.026123047],[83.402893066,38.984680176],[83.40008544900002,38.932495117],[83.39788818400001,38.900695801],[83.395507812,38.861877441],[83.395080566,38.815673828],[83.39093017600001,38.770507812],[83.38708496100001,38.728088379],[83.39129638700001,38.680908203],[83.393920898,38.622070312],[83.393920898,38.586914062],[83.394714355,38.551513672],[83.39410400400001,38.518493652],[83.39129638700001,38.472473145],[83.38751220700001,38.440673828],[83.38348388700001,38.413330078],[83.379089355,38.384887695],[83.37969970700001,38.339477539],[83.392700195,38.301330566],[83.41247558600001,38.278076172],[83.44207763700001,38.24987793],[83.50109863300001,38.233276367],[83.53833007800002,38.211730957],[83.56951904300001,38.195922852],[83.601318359,38.184509277],[83.635681152,38.168518066],[83.69451904300001,38.131713867],[83.73669433600001,38.100280762],[83.78289794900002,38.079711914],[83.81951904300001,38.042907715],[83.83990478500002,38.020690918],[83.87847900400001,37.968078613],[83.89672851600001,37.938903809],[83.925109863,37.891296387],[83.93511962900001,37.865722656],[83.93908691400001,37.839294434],[83.943908691,37.811523437],[83.953674316,37.757324219],[83.96130371100001,37.715515137],[83.96911621100001,37.687316895],[83.98010253900001,37.647888184],[83.98870849600002,37.61529541],[83.995910645,37.585083008],[83.99908447300001,37.539306641],[83.99871826200001,37.509094238],[83.98669433600001,37.478515625],[83.96630859400001,37.443725586],[83.93408203100002,37.411499023],[83.903320312,37.371887207],[83.88348388700001,37.331481934],[83.86932373,37.293273926],[83.861877441,37.267272949],[83.85888671900001,37.235900879],[83.84368896500001,37.183105469],[83.85772705100001,37.020874023],[83.834106445,36.966308594],[83.86248779300001,36.823730469],[83.99407959000001,36.75189209],[84.086914062,36.701477051],[84.12652587900001,36.684875488],[84.16571044900002,36.686279297],[84.20391845700001,36.681274414],[84.24407959000001,36.648681641],[84.277526855,36.615478516],[84.30072021500001,36.592895508],[84.32507324200002,36.569274902],[84.34692382800002,36.536071777],[84.36450195300002,36.49029541],[84.371276855,36.453674316],[84.384521484,36.428710937],[84.40808105500001,36.399475098],[84.43151855500001,36.365905762],[84.43908691400001,36.335327148],[84.44671630900001,36.305297852],[84.452880859,36.277282715],[84.47607421900001,36.254089355],[84.52770996100001,36.245117187],[84.58587646500001,36.228271484],[84.63952636700002,36.209716797],[84.67968750000001,36.184082031],[84.72912597700001,36.146484375],[84.77111816400001,36.114318848],[84.79992675800001,36.090087891],[84.827880859,36.067077637],[84.86090087900001,36.042724609],[84.88629150400001,36.024475098],[84.90393066400001,35.995117187],[84.918518066,35.958679199],[84.926330566,35.917480469],[84.93627929700001,35.877502441],[84.94488525400001,35.839294434],[84.952087402,35.809509277],[84.96130371100001,35.767089844],[84.96832275400001,35.74029541],[84.97052002,35.700927734],[84.97467041000002,35.673278809],[85.04168701200001,35.717285156],[85.16168212900001,35.720275879],[85.22131347700001,35.785095215],[85.30670166000002,35.770507812],[85.40808105500001,35.706115723],[85.49029541000002,35.701293945],[85.553283691,35.692687988],[85.55651855500001,35.682678223],[85.528320312,35.645507812],[85.53149414100001,35.635681152],[85.610290527,35.640686035],[85.62292480500001,35.664306641],[85.67028808600001,35.705078125],[85.72387695300002,35.726318359],[86.00531005900001,35.791687012],[86.03692627,35.818908691],[86.07489013700001,35.82611084],[86.09088134800001,35.83972168],[86.078125,35.874511719],[86.13848877,35.915283203],[86.13470459000001,35.949279785],[86.13348388700001,35.975280762],[86.201721191,36.04309082],[86.19769287100002,36.08972168],[86.20770263700001,36.131713867],[86.311889648,36.167114258],[86.42272949200002,36.180725098],[86.48931884800001,36.198730469],[86.53588867200001,36.232116699],[86.64208984400001,36.212890625],[86.711120605,36.253112793],[86.760681152,36.292297363],[86.836486816,36.303710937],[86.91687011700002,36.272094727],[86.952087402,36.264099121],[87.04791259800001,36.278076172],[87.14367675800001,36.314697266],[87.178710937,36.34552002],[87.30627441400001,36.377929687],[87.39691162100002,36.417907715],[87.41290283200001,36.422912598],[87.44952392600001,36.413879395],[87.45349121100001,36.377685547],[87.46569824200002,36.358886719],[87.61370849600002,36.361328125],[87.70648193400001,36.377929687],[87.80932617200001,36.364318848],[87.895507812,36.399475098],[87.96392822300001,36.424316406],[88.07989502,36.429077148],[88.219299316,36.457885742],[88.325927734,36.462890625],[88.37969970700001,36.49029541],[88.460693359,36.466918945],[88.52587890600002,36.446289062],[88.56469726600001,36.448486328],[88.57067871100001,36.444091797],[88.61468505900001,36.423522949],[88.62890625000001,36.381530762],[88.76232910200001,36.30267334],[88.90051269500002,36.351501465],[88.96252441400001,36.312072754],[88.98852539100001,36.276489258],[89.10388183600001,36.269470215],[89.17248535200001,36.225891113],[89.243896484,36.265686035],[89.32067871100001,36.216918945],[89.40051269500002,36.22088623],[89.45788574200002,36.153503418],[89.56427002,36.122924805],[89.67352294900002,36.102722168],[89.68627929700001,36.097900391]]]}}
