{"type":"Feature","id":"bulk-99377448B3866007536214","bbox":[108.02929687500001,31.69329834,110.14630127,33.856079102],"properties":{"id":"bulk-99377448B3866007536214","name":"Ankang","nameEn":"Ankang","fullName":"Ankang","level":"city","boundaryRole":"administrative-extent","boundaryQuality":"generalized-source-2020","boundaryYearRepresented":"2020","bounds":[[108.02929687500001,31.69329834],[110.14630127,33.856079102]],"center":[109.0877990725,32.774688721000004],"centerMethod":"bounding-box midpoint; camera framing only","license":"CC-BY-3.0-IGO","attribution":"geoBoundaries / HDX, China administrative boundaries (2020)","source":{"provider":"geoBoundaries gbHumanitarian / HDX","url":"https://github.com/wmgeolab/geoBoundaries/raw/9469f09/releaseData/gbHumanitarian/CHN/ADM2/geoBoundaries-CHN-ADM2.geojson","metadataUrl":"https://www.geoboundaries.org/api/current/gbHumanitarian/CHN/ADM2/","shapeID":"99377448B3866007536214","shapeName":"Ankang","boundaryID":"CHN-ADM2-99377448","commit":"9469f09"},"geometryCounts":{"coordinates":203,"components":1,"holes":0},"boundaryNotice":"geoBoundaries / HDX 2020 年行政区数据，海岸和边界经过源数据概化，并非当前测绘成果。"},"geometry":{"type":"Polygon","coordinates":[[[109.43450927700002,33.155883789],[109.36590576200001,33.134277344],[109.31408691400001,33.133117676],[109.28088378900001,33.166870117],[109.24230957000002,33.183288574],[109.19171142600001,33.187683105],[109.16168212900001,33.170288086],[109.14031982400002,33.144287109],[109.10070800800001,33.150878906],[109.07049560500002,33.198913574],[109.03588867200001,33.192321777],[109.00549316400001,33.175476074],[108.96551513700001,33.164672852],[108.95532226600001,33.133300781],[108.91729736300002,33.134887695],[108.87652587900001,33.157714844],[108.84307861300002,33.192321777],[108.81427002,33.231323242],[108.79309082000002,33.257080078],[108.75091552700002,33.272277832],[108.69329834000001,33.276489258],[108.66027832000002,33.292297363],[108.63592529300001,33.318908691],[108.58892822300001,33.311889648],[108.55267334000001,33.323913574],[108.55651855500001,33.352722168],[108.56970214800002,33.400695801],[108.58367919900002,33.454711914],[108.58929443400001,33.483093262],[108.61450195300002,33.530273437],[108.67047119100002,33.543701172],[108.71173095700001,33.548522949],[108.74627685500002,33.571289062],[108.77709960900002,33.596923828],[108.77929687500001,33.637329102],[108.82171630900001,33.647521973],[108.84552002,33.678283691],[108.88751220700001,33.689880371],[108.92907714800002,33.690917969],[108.93768310500002,33.722900391],[108.92291259800001,33.758117676],[108.89367675800001,33.771484375],[108.85589599600002,33.776306152],[108.82092285200001,33.820129395],[108.76129150400001,33.811889648],[108.73248291000002,33.83770752],[108.703125,33.856079102],[108.64251709000001,33.82208252],[108.61132812500001,33.80291748],[108.59069824200002,33.770324707],[108.55310058600001,33.760681152],[108.51971435500002,33.782897949],[108.47827148400002,33.797302246],[108.44647216800001,33.778930664],[108.42309570300002,33.75769043],[108.38269043000001,33.765686035],[108.36730957000002,33.794311523],[108.32373046900001,33.778503418],[108.27947998000002,33.762084961],[108.24029541000002,33.72869873],[108.19891357400002,33.710876465],[108.15887451200001,33.707702637],[108.09967041000002,33.714294434],[108.04052734400001,33.711914062],[108.05548095700001,33.668884277],[108.05749511700002,33.62310791],[108.05187988300001,33.58190918],[108.05328369100002,33.542907715],[108.06970214800002,33.506286621],[108.09112548800002,33.485107422],[108.11767578100002,33.466308594],[108.15270996100001,33.44152832],[108.15588378900001,33.411682129],[108.11187744100002,33.398071289],[108.08770752,33.378479004],[108.062316895,33.341308594],[108.03948974600002,33.313476562],[108.03570556600002,33.285522461],[108.02929687500001,33.25592041],[108.03967285200001,33.22869873],[108.07049560500002,33.20892334],[108.10211181600002,33.188476562],[108.09490966800001,33.147277832],[108.09552002,33.120117187],[108.09368896500001,33.077880859],[108.12329101600001,33.033874512],[108.13507080100001,32.99609375],[108.12231445300002,32.954101562],[108.10290527300002,32.92388916],[108.08007812500001,32.89251709],[108.09527587900001,32.839111328],[108.12109375000001,32.796081543],[108.17327880900001,32.780700684],[108.16528320300002,32.749511719],[108.22167968700002,32.732299805],[108.23968505900001,32.708129883],[108.25250244100002,32.670898437],[108.22448730500001,32.620727539],[108.19488525400001,32.597717285],[108.21972656200002,32.567871094],[108.23370361300002,32.53692627],[108.25970459000001,32.515930176],[108.27032470700001,32.479919434],[108.23992919900002,32.467895508],[108.20928955100001,32.444519043],[108.18127441400001,32.4296875],[108.13830566400001,32.437072754],[108.12207031200002,32.408874512],[108.13732910200001,32.383728027],[108.10388183600001,32.379089355],[108.10809326200001,32.342895508],[108.19232177700002,32.271484375],[108.19348144500002,32.276672363],[108.26531982400002,32.284484863],[108.29467773400002,32.242492676],[108.36871337900001,32.251281738],[108.45452880900001,32.26348877],[108.44812011700002,32.228881836],[108.50207519500002,32.202880859],[108.55950927700002,32.175292969],[108.62908935500002,32.144714355],[108.63952636700002,32.137512207],[108.70147705100001,32.093688965],[108.76812744100002,32.061279297],[108.85430908200001,32.00769043],[108.89788818400001,31.982727051],[108.96887207000002,31.97668457],[109.02429199200002,31.946472168],[109.04028320300002,31.935302734],[109.09527587900001,31.89630127],[109.15087890600002,31.850891113],[109.15307617200001,31.848876953],[109.18151855500001,31.82208252],[109.22528076200001,31.783691406],[109.24548339800002,31.730712891],[109.25708007800002,31.722717285],[109.29870605500001,31.69329834],[109.35607910200001,31.708312988],[109.39868164100001,31.728271484],[109.48413085900002,31.730285645],[109.53692627,31.711303711],[109.54608154300001,31.721679687],[109.538879395,31.722900391],[109.554504395,31.750488281],[109.597473145,31.797912598],[109.58612060500002,31.836914062],[109.56451416000002,31.852478027],[109.55688476600001,31.864929199],[109.58068847700001,31.966308594],[109.55688476600001,32.05291748],[109.58068847700001,32.102722168],[109.56329345700001,32.174316406],[109.56610107400002,32.195678711],[109.54388427700002,32.205322266],[109.50872802700002,32.220703125],[109.48107910200001,32.253112793],[109.44189453100002,32.342102051],[109.48968505900001,32.378112793],[109.52587890600002,32.403320312],[109.54492187500001,32.431884766],[109.51867675800001,32.483520508],[109.51812744100002,32.484680176],[109.53747558600001,32.549682617],[109.59790039100001,32.553894043],[109.66589355500001,32.555480957],[109.74047851600001,32.545288086],[109.80529785200001,32.55670166],[109.85711669900002,32.566894531],[109.88171386700002,32.582885742],[109.93908691400001,32.57989502],[109.99768066400001,32.557312012],[110.03112793000001,32.568115234],[110.054504395,32.598510742],[110.08032226600001,32.609313965],[110.11950683600001,32.595275879],[110.13671875000001,32.606079102],[110.14630127,32.612304687],[110.10430908200001,32.707702637],[110.12011718700002,32.733520508],[110.10711669900002,32.808288574],[110.10052490200002,32.808288574],[110.10229492200001,32.8125],[110.07312011700002,32.838684082],[110.02868652300002,32.838684082],[109.98431396500001,32.852294922],[109.93988037100002,32.865905762],[109.89532470700001,32.879516602],[109.85089111300002,32.865905762],[109.80651855500001,32.852294922],[109.78430175800001,32.852294922],[109.75830078100002,32.871520996],[109.73107910200001,32.890686035],[109.730285645,32.938476562],[109.74969482400002,32.960876465],[109.73571777300002,33.012878418],[109.76129150400001,33.056518555],[109.69451904300001,33.083312988],[109.63647460900002,33.104919434],[109.57312011700002,33.121887207],[109.50347900400001,33.122070312],[109.46191406200002,33.124328613],[109.43408203100002,33.153930664],[109.43450927700002,33.155883789]]]}}
