{"type":"Feature","id":"bulk-99377448B80102253971923","bbox":[109.03649902300002,18.937072754,109.69812011700002,19.489501953],"properties":{"id":"bulk-99377448B80102253971923","name":"Baisha Li Autonomous County","nameEn":"Baisha Li Autonomous County","fullName":"Baisha Li Autonomous County","level":"city","boundaryRole":"administrative-extent","boundaryQuality":"generalized-source-2020","boundaryYearRepresented":"2020","bounds":[[109.03649902300002,18.937072754],[109.69812011700002,19.489501953]],"center":[109.36730957000002,19.2132873535],"centerMethod":"bounding-box midpoint; camera framing only","license":"CC-BY-3.0-IGO","attribution":"geoBoundaries / HDX, China administrative boundaries (2020)","source":{"provider":"geoBoundaries gbHumanitarian / HDX","url":"https://github.com/wmgeolab/geoBoundaries/raw/9469f09/releaseData/gbHumanitarian/CHN/ADM2/geoBoundaries-CHN-ADM2.geojson","metadataUrl":"https://www.geoboundaries.org/api/current/gbHumanitarian/CHN/ADM2/","shapeID":"99377448B80102253971923","shapeName":"Baisha Li Autonomous County","boundaryID":"CHN-ADM2-99377448","commit":"9469f09"},"geometryCounts":{"coordinates":363,"components":1,"holes":0},"boundaryNotice":"geoBoundaries / HDX 2020 年行政区数据，海岸和边界经过源数据概化，并非当前测绘成果。"},"geometry":{"type":"Polygon","coordinates":[[[109.53710937500001,19.046325684],[109.54150390600002,19.057678223],[109.55432128900001,19.071716309],[109.56591796900001,19.072509766],[109.57550048800002,19.067687988],[109.58148193400001,19.063110352],[109.58807373000002,19.05670166],[109.59271240200002,19.054321289],[109.60107421900001,19.054870605],[109.60772705100001,19.06048584],[109.60949707000002,19.070678711],[109.60791015600002,19.079284668],[109.60949707000002,19.08770752],[109.61730957000002,19.093322754],[109.628723145,19.096923828],[109.64489746100001,19.101318359],[109.65087890600002,19.110473633],[109.65368652300002,19.120117187],[109.66070556600002,19.127929687],[109.67370605500001,19.127075195],[109.67968750000001,19.120483398],[109.68548584000001,19.11932373],[109.69171142600001,19.123901367],[109.69812011700002,19.132873535],[109.69812011700002,19.140930176],[109.69689941400001,19.147888184],[109.69549560500002,19.153320312],[109.69128418000001,19.156677246],[109.687316895,19.159484863],[109.68310546900001,19.166503906],[109.68127441400001,19.176086426],[109.68151855500001,19.180480957],[109.67791748000002,19.184082031],[109.67407226600001,19.18951416],[109.67047119100002,19.193908691],[109.66748046900001,19.202880859],[109.66333007800002,19.208679199],[109.66149902300002,19.209472656],[109.65472412100002,19.209472656],[109.64868164100001,19.208496094],[109.64050293000001,19.20489502],[109.63531494100002,19.202087402],[109.63012695300002,19.201721191],[109.62670898400002,19.203491211],[109.62329101600001,19.206298828],[109.61791992200001,19.212280273],[109.61468505900001,19.217102051],[109.61090087900001,19.225097656],[109.60748291000002,19.235473633],[109.605285645,19.246887207],[109.60247802700002,19.252502441],[109.59832763700001,19.252929687],[109.59448242200001,19.249694824],[109.58929443400001,19.244689941],[109.58288574200002,19.245483398],[109.57971191400001,19.24987793],[109.57507324200002,19.257873535],[109.57067871100001,19.263916016],[109.56427002,19.269897461],[109.55847168000001,19.274291992],[109.55352783200001,19.281494141],[109.54791259800001,19.292114258],[109.54327392600001,19.299072266],[109.54132080100001,19.30267334],[109.53729248000002,19.305908203],[109.53088378900001,19.310913086],[109.52368164100001,19.31048584],[109.52032470700001,19.307678223],[109.51489257800002,19.304504395],[109.50653076200001,19.302307129],[109.49792480500001,19.30267334],[109.49047851600001,19.303527832],[109.48388671900001,19.302307129],[109.47631835900002,19.301696777],[109.47412109400001,19.301086426],[109.46850585900002,19.300720215],[109.46508789100001,19.304504395],[109.46447753900001,19.30871582],[109.46490478500002,19.31628418],[109.46728515600002,19.319702148],[109.47210693400001,19.321289062],[109.47528076200001,19.32208252],[109.48107910200001,19.325683594],[109.48248291000002,19.329711914],[109.48431396500001,19.332885742],[109.488098145,19.336914062],[109.49169921900001,19.343078613],[109.49267578100002,19.34588623],[109.495910645,19.353088379],[109.49627685500002,19.358886719],[109.49530029300001,19.365478516],[109.49267578100002,19.370483398],[109.48687744100002,19.374328613],[109.48272705100001,19.378479004],[109.48071289100001,19.383483887],[109.47949218700002,19.388305664],[109.47631835900002,19.393676758],[109.46972656200002,19.398498535],[109.46411132800002,19.398071289],[109.45611572300001,19.397277832],[109.44927978500002,19.39630127],[109.44427490200002,19.392700195],[109.445129395,19.38848877],[109.44647216800001,19.383911133],[109.44567871100001,19.38092041],[109.43847656200002,19.372924805],[109.43328857400002,19.367675781],[109.42968750000001,19.364074707],[109.42687988300001,19.361877441],[109.421691895,19.357116699],[109.41528320300002,19.356079102],[109.41149902300002,19.356506348],[109.40270996100001,19.358520508],[109.39727783200001,19.357910156],[109.39270019500002,19.355285645],[109.38568115200002,19.353271484],[109.38012695300002,19.354309082],[109.37829589800002,19.354919434],[109.37707519500002,19.36151123],[109.37609863300001,19.366271973],[109.37451171900001,19.36932373],[109.36730957000002,19.37512207],[109.36370849600002,19.377075195],[109.36010742200001,19.37890625],[109.35711669900002,19.379272461],[109.35589599600002,19.372680664],[109.34930419900002,19.373291016],[109.34570312500001,19.374511719],[109.33972168000001,19.373474121],[109.33850097700001,19.375915527],[109.33691406200002,19.384521484],[109.33367919900002,19.388305664],[109.32849121100001,19.391479492],[109.32470703100002,19.392883301],[109.32128906200002,19.394287109],[109.31787109400001,19.394287109],[109.31427002,19.395874023],[109.30969238300001,19.390930176],[109.30468750000001,19.390319824],[109.30487060500002,19.397094727],[109.29449462900001,19.395507812],[109.29089355500001,19.397094727],[109.28692627,19.397888184],[109.28692627,19.392272949],[109.28552246100001,19.386901855],[109.28131103500002,19.387329102],[109.27709960900002,19.389709473],[109.27252197300001,19.386291504],[109.26928710900002,19.38269043],[109.26690673800002,19.377685547],[109.26647949200002,19.375305176],[109.26269531200002,19.372070312],[109.25811767600001,19.37310791],[109.25231933600001,19.376708984],[109.24652099600002,19.377685547],[109.24169921900001,19.381530762],[109.23687744100002,19.383483887],[109.23272705100001,19.388305664],[109.23052978500002,19.387084961],[109.22412109400001,19.385681152],[109.22192382800002,19.388122559],[109.21887207000002,19.392272949],[109.21667480500001,19.394104004],[109.21228027300002,19.395874023],[109.20611572300001,19.399291992],[109.203125,19.400695801],[109.19873046900001,19.402526855],[109.19427490200002,19.403320312],[109.18969726600001,19.402282715],[109.18548584000001,19.401306152],[109.18072509800001,19.400512695],[109.17767334000001,19.401123047],[109.17572021500001,19.403320312],[109.17510986300002,19.410095215],[109.17651367200001,19.413513184],[109.17871093700002,19.416687012],[109.18249511700002,19.419921875],[109.18688964800002,19.422302246],[109.19110107400002,19.424926758],[109.19189453100002,19.427124023],[109.18768310500002,19.43347168],[109.18328857400002,19.43371582],[109.17767334000001,19.432922363],[109.17327880900001,19.432678223],[109.16748046900001,19.433105469],[109.16247558600001,19.434082031],[109.15887451200001,19.436889648],[109.15588378900001,19.44329834],[109.15490722700001,19.446289062],[109.14947509800001,19.453125],[109.14587402300002,19.454528809],[109.14147949200002,19.456115723],[109.13848877,19.45892334],[109.13592529300001,19.462890625],[109.13507080100001,19.467529297],[109.12951660200001,19.477722168],[109.12628173800002,19.481323242],[109.12170410200001,19.480529785],[109.11907959000001,19.478515625],[109.11810302700002,19.472717285],[109.11450195300002,19.467712402],[109.11132812500001,19.464904785],[109.10650634800001,19.462280273],[109.09527587900001,19.464111328],[109.08929443400001,19.470275879],[109.07849121100001,19.479125977],[109.07348632800002,19.480529785],[109.06567382800002,19.485900879],[109.05987548800002,19.486083984],[109.05133056600002,19.489501953],[109.04730224600002,19.489501953],[109.04412841800001,19.485473633],[109.04290771500001,19.482299805],[109.04132080100001,19.47668457],[109.04132080100001,19.47052002],[109.04168701200001,19.466308594],[109.04248046900001,19.461914062],[109.04467773400002,19.458129883],[109.04772949200002,19.452880859],[109.04907226600001,19.450073242],[109.04968261700002,19.445495605],[109.04888916000002,19.441711426],[109.04730224600002,19.437072754],[109.04370117200001,19.434326172],[109.04071044900002,19.432128906],[109.04071044900002,19.430908203],[109.04010009800001,19.42791748],[109.03948974600002,19.424926758],[109.03948974600002,19.421691895],[109.04028320300002,19.417297363],[109.04089355500001,19.413085937],[109.04132080100001,19.40447998],[109.04290771500001,19.398071289],[109.04510498000002,19.393127441],[109.04791259800001,19.386474609],[109.04827880900001,19.376281738],[109.04388427700002,19.370300293],[109.03912353500002,19.366271973],[109.03747558600001,19.362304687],[109.03649902300002,19.353881836],[109.03967285200001,19.344482422],[109.04431152300002,19.33972168],[109.04931640600002,19.335693359],[109.05468750000001,19.332885742],[109.06372070300002,19.330322266],[109.07110595700001,19.330688477],[109.07849121100001,19.330505371],[109.08288574200002,19.32409668],[109.08532714800002,19.315124512],[109.08807373000002,19.309326172],[109.09112548800002,19.3046875],[109.10070800800001,19.29888916],[109.10668945300002,19.29888916],[109.10888671900001,19.299926758],[109.11071777300002,19.301086426],[109.11547851600001,19.301513672],[109.11688232400002,19.299682617],[109.11730957000002,19.297302246],[109.11987304700001,19.290283203],[109.12292480500001,19.287902832],[109.12628173800002,19.284484863],[109.13012695300002,19.27911377],[109.13391113300001,19.275512695],[109.13867187500001,19.267272949],[109.13830566400001,19.258911133],[109.13690185500002,19.252075195],[109.13391113300001,19.245483398],[109.13153076200001,19.238098145],[109.13049316400001,19.235900879],[109.12792968700002,19.227478027],[109.12432861300002,19.220275879],[109.11987304700001,19.212524414],[109.11608886700002,19.205688477],[109.11590576200001,19.199279785],[109.11828613300001,19.189880371],[109.12072753900001,19.18347168],[109.12487793000001,19.175292969],[109.13067627,19.168518066],[109.14093017600001,19.16229248],[109.14428710900002,19.159484863],[109.15289306600002,19.15411377],[109.15747070300002,19.149719238],[109.15948486300002,19.143920898],[109.15808105500001,19.137329102],[109.15692138700001,19.135314941],[109.15649414100001,19.133483887],[109.15789794900002,19.126525879],[109.16088867200001,19.121887207],[109.16632080100001,19.110107422],[109.16729736300002,19.104919434],[109.16827392600001,19.102111816],[109.171691895,19.096923828],[109.17932128900001,19.090698242],[109.18292236300002,19.089294434],[109.18811035200001,19.08770752],[109.19329834000001,19.08972168],[109.20208740200002,19.090270996],[109.20849609400001,19.086486816],[109.21252441400001,19.08392334],[109.22271728500002,19.077087402],[109.22729492200001,19.076477051],[109.23712158200001,19.075500488],[109.24450683600001,19.071105957],[109.253723145,19.064697266],[109.26330566400001,19.065917969],[109.26788330100001,19.065917969],[109.27191162100002,19.062927246],[109.27288818400001,19.054077148],[109.27130127,19.046081543],[109.27648925800001,19.033081055],[109.27648925800001,19.02532959],[109.27569580100001,19.018920898],[109.27551269500002,19.015930176],[109.27868652300002,19.009094238],[109.28070068400001,19.004882812],[109.28228759800001,18.995300293],[109.28070068400001,18.989318848],[109.27551269500002,18.983520508],[109.27587890600002,18.975280762],[109.27807617200001,18.965698242],[109.27832031200002,18.961303711],[109.28308105500001,18.958496094],[109.28948974600002,18.959106445],[109.29791259800001,18.960327148],[109.30627441400001,18.958129883],[109.312316895,18.95489502],[109.31750488300001,18.953125],[109.32391357400002,18.951477051],[109.33392334000001,18.949707031],[109.33990478500002,18.948730469],[109.34771728500002,18.944885254],[109.35168457000002,18.94152832],[109.35388183600001,18.93927002],[109.35772705100001,18.937072754],[109.36291503900001,18.937683105],[109.36651611300002,18.940673828],[109.37371826200001,18.945922852],[109.38232421900001,18.952270508],[109.38592529300001,18.954711914],[109.39068603500002,18.957275391],[109.39489746100001,18.958496094],[109.39788818400001,18.95892334],[109.40991210900002,18.976501465],[109.41467285200001,18.986083984],[109.42108154300001,18.989074707],[109.43847656200002,18.991088867],[109.44628906200002,18.992126465],[109.45288085900002,18.99810791],[109.45727539100001,19.006103516],[109.46008300800001,19.015319824],[109.45947265600002,19.025085449],[109.46173095700001,19.032897949],[109.46850585900002,19.033508301],[109.47308349600002,19.030883789],[109.47631835900002,19.028320312],[109.48468017600001,19.029907227],[109.49432373000002,19.031677246],[109.50152587900001,19.030090332],[109.51068115200002,19.030090332],[109.51751709000001,19.031494141],[109.52490234400001,19.033874512],[109.53112793000001,19.038513184],[109.53710937500001,19.046325684]]]}}
