{"type":"Feature","id":"bulk-99377448B64391853484358","bbox":[97.56048584000001,23.854919434,98.73248291000002,25.343322754],"properties":{"id":"bulk-99377448B64391853484358","name":"Dehong Dai and Jingpo Autonomous Prefecture","nameEn":"Dehong Dai and Jingpo Autonomous Prefecture","fullName":"Dehong Dai and Jingpo Autonomous Prefecture","level":"city","boundaryRole":"administrative-extent","boundaryQuality":"generalized-source-2020","boundaryYearRepresented":"2020","bounds":[[97.56048584000001,23.854919434],[98.73248291000002,25.343322754]],"center":[98.14648437500001,24.599121093999997],"centerMethod":"bounding-box midpoint; camera framing only","license":"CC-BY-3.0-IGO","attribution":"geoBoundaries / HDX, China administrative boundaries (2020)","source":{"provider":"geoBoundaries gbHumanitarian / HDX","url":"https://github.com/wmgeolab/geoBoundaries/raw/9469f09/releaseData/gbHumanitarian/CHN/ADM2/geoBoundaries-CHN-ADM2.geojson","metadataUrl":"https://www.geoboundaries.org/api/current/gbHumanitarian/CHN/ADM2/","shapeID":"99377448B64391853484358","shapeName":"Dehong Dai and Jingpo Autonomous Prefecture","boundaryID":"CHN-ADM2-99377448","commit":"9469f09"},"geometryCounts":{"coordinates":398,"components":1,"holes":0},"boundaryNotice":"geoBoundaries / HDX 2020 年行政区数据，海岸和边界经过源数据概化，并非当前测绘成果。"},"geometry":{"type":"Polygon","coordinates":[[[98.09088134800001,25.343322754],[98.09088134800001,25.341308594],[98.08911132800002,25.337890625],[98.08129882800002,25.334716797],[98.07989502,25.337097168],[98.07952880900001,25.337097168],[98.07232666000002,25.32208252],[98.07269287100002,25.321105957],[98.07067871100001,25.314880371],[98.05889892600001,25.308288574],[98.05187988300001,25.308105469],[98.04492187500001,25.307312012],[98.03967285200001,25.303894043],[98.03167724600002,25.306091309],[98.02392578100002,25.303710937],[98.01647949200002,25.276123047],[98.00512695300002,25.256286621],[97.98449707000002,25.230102539],[97.953125,25.221679687],[97.95050048800002,25.223510742],[97.94970703100002,25.222900391],[97.94427490200002,25.217712402],[97.93908691400001,25.217102051],[97.927124023,25.215515137],[97.91809082000002,25.213684082],[97.90447998,25.218078613],[97.89569091800001,25.235473633],[97.88928222700001,25.242126465],[97.88287353500002,25.247070312],[97.879089355,25.253723145],[97.87548828100002,25.26171875],[97.86968994100002,25.263916016],[97.86767578100002,25.258117676],[97.85852050800001,25.235900879],[97.83929443400001,25.200500488],[97.81732177700002,25.168273926],[97.80267334000001,25.142700195],[97.78833007800002,25.122497559],[97.76989746100001,25.101928711],[97.74908447300001,25.091674805],[97.747070312,25.085327148],[97.74432373,25.080688477],[97.73828125000001,25.079711914],[97.73651123,25.080078125],[97.745910645,25.056518555],[97.75250244100002,25.002685547],[97.74230957000002,24.982299805],[97.73931884800001,24.945922852],[97.74609375000001,24.912475586],[97.76348877,24.88848877],[97.76751709000001,24.886108398],[97.77429199200002,24.888671875],[97.77508544900002,24.887084961],[97.77429199200002,24.885925293],[97.77929687500001,24.881896973],[97.78387451200001,24.881530762],[97.788879395,24.87487793],[97.78930664100001,24.872314453],[97.79809570300002,24.866699219],[97.79730224600002,24.862487793],[97.79852294900002,24.861694336],[97.79772949200002,24.85168457],[97.79272460900002,24.847473145],[97.788085937,24.83807373],[97.79388427700002,24.832275391],[97.78790283200001,24.82409668],[97.778320312,24.8203125],[97.75427246100001,24.825683594],[97.73992919900002,24.831481934],[97.73907470700001,24.831115723],[97.73547363300001,24.829528809],[97.73211669900002,24.830078125],[97.73150634800001,24.831115723],[97.730285645,24.832885742],[97.71508789100001,24.835327148],[97.70770263700001,24.838500977],[97.70367431600002,24.846313477],[97.70031738300001,24.834716797],[97.65289306600002,24.796875],[97.65191650400001,24.795471191],[97.64428710900002,24.792297363],[97.64208984400001,24.792907715],[97.63092041000002,24.788879395],[97.62188720700001,24.783325195],[97.622070312,24.781494141],[97.61907959000001,24.779296875],[97.61608886700002,24.778503418],[97.60131835900002,24.776306152],[97.595092773,24.773498535],[97.58673095700001,24.758300781],[97.56829834000001,24.725708008],[97.59490966800001,24.694519043],[97.596679687,24.653076172],[97.59210205100001,24.622070312],[97.57672119100002,24.595275879],[97.58148193400001,24.527282715],[97.56408691400001,24.479919434],[97.56048584000001,24.43951416],[97.56311035200001,24.43951416],[97.56530761700002,24.43951416],[97.57568359400001,24.44152832],[97.57647705100001,24.443908691],[97.57769775400001,24.444091797],[97.59130859400001,24.438293457],[97.59387207000002,24.443115234],[97.60089111300002,24.44708252],[97.60430908200001,24.442077637],[97.60809326200001,24.440673828],[97.61407470700001,24.443481445],[97.620483398,24.442077637],[97.62567138700001,24.444885254],[97.64447021500001,24.449707031],[97.64807128900001,24.448303223],[97.66491699200002,24.453125],[97.66992187500001,24.456481934],[97.67572021500001,24.447875977],[97.67730712900001,24.445129395],[97.679077148,24.439697266],[97.67767334000001,24.438110352],[97.68090820300002,24.437316895],[97.687316895,24.424682617],[97.71087646500001,24.378723145],[97.71429443400001,24.377502441],[97.71667480500001,24.367492676],[97.73089599600002,24.339477539],[97.67730712900001,24.321105957],[97.69207763700001,24.294311523],[97.69848632800002,24.293701172],[97.70050048800002,24.294494629],[97.70129394500002,24.296691895],[97.719726562,24.301086426],[97.72589111300002,24.296325684],[97.72711181600002,24.293273926],[97.72991943400001,24.290893555],[97.73449707000002,24.292114258],[97.73852539100001,24.291870117],[97.74047851600001,24.291503906],[97.73950195300002,24.288696289],[97.74572753900001,24.284301758],[97.77508544900002,24.282714844],[97.76507568400001,24.265319824],[97.76928710900002,24.264526367],[97.76208496100001,24.258117676],[97.74731445300002,24.195129395],[97.77490234400001,24.177124023],[97.76788330100001,24.165710449],[97.75427246100001,24.144104004],[97.73828125000001,24.11529541],[97.71447753900001,24.099487305],[97.695495605,24.0703125],[97.66467285200001,24.053710937],[97.64428710900002,24.014282227],[97.57550048800002,23.96887207],[97.57208252,23.94909668],[97.58087158200001,23.9296875],[97.62109375000001,23.908508301],[97.65771484400001,23.868103027],[97.65771484400001,23.868713379],[97.65948486300002,23.870910645],[97.66290283200001,23.86907959],[97.66229248,23.866699219],[97.66351318400001,23.859313965],[97.66632080100001,23.854919434],[97.66992187500001,23.856689453],[97.67071533200001,23.86328125],[97.67590332000002,23.864318848],[97.67968750000001,23.862121582],[97.68267822300001,23.867492676],[97.68048095700001,23.87109375],[97.68347168000001,23.88067627],[97.68829345700001,23.882873535],[97.69268798800002,23.88092041],[97.68988037100002,23.875671387],[97.69067382800002,23.872497559],[97.69891357400002,23.868896484],[97.70751953100002,23.86907959],[97.71411132800002,23.871704102],[97.71630859400001,23.874511719],[97.71368408200001,23.877502441],[97.70532226600001,23.877075195],[97.70288085900002,23.880310059],[97.703125,23.88269043],[97.70892334000001,23.886108398],[97.72088623,23.882873535],[97.72412109400001,23.887878418],[97.72528076200001,23.890686035],[97.72467041000002,23.895080566],[97.72888183600001,23.899902344],[97.73791503900001,23.903503418],[97.74267578100002,23.903076172],[97.745117187,23.902099609],[97.74792480500001,23.904724121],[97.74890136700002,23.906677246],[97.75189209000001,23.911315918],[97.75769043000001,23.911682129],[97.76007080100001,23.910522461],[97.76507568400001,23.910888672],[97.76708984400001,23.914306641],[97.76690673800002,23.923278809],[97.76531982400002,23.931518555],[97.770507812,23.936096191],[97.77471923800002,23.938110352],[97.77807617200001,23.937683105],[97.79290771500001,23.944274902],[97.79492187500001,23.948913574],[97.79449462900001,23.957702637],[97.79949951200001,23.956726074],[97.804504395,23.952880859],[97.80712890600002,23.953308105],[97.80871582000002,23.955871582],[97.80792236300002,23.960327148],[97.81109619100002,23.962524414],[97.81512451200001,23.962280273],[97.81628418000001,23.961120605],[97.81530761700002,23.956115723],[97.81127929700001,23.954284668],[97.80987548800002,23.950927734],[97.811889648,23.944885254],[97.81408691400001,23.945495605],[97.81628418000001,23.947692871],[97.81488037100002,23.952087402],[97.81610107400002,23.953491211],[97.82629394500002,23.958129883],[97.828125,23.961120605],[97.82611084000001,23.965698242],[97.821289062,23.968078613],[97.820129395,23.97088623],[97.82110595700001,23.972106934],[97.82891845700001,23.972473145],[97.83032226600001,23.965087891],[97.83508300800001,23.962280273],[97.84112548800002,23.964294434],[97.83947753900001,23.97467041],[97.84332275400001,23.976074219],[97.845092773,23.976074219],[97.84588623,23.971923828],[97.84729003900001,23.971679687],[97.84808349600002,23.974487305],[97.85668945300002,23.980895996],[97.86132812500001,23.980895996],[97.86950683600001,23.976501465],[97.879882812,23.97467041],[97.88952636700002,23.974487305],[97.895507812,23.977111816],[97.89770507800002,23.979919434],[97.89752197300001,23.983703613],[97.89428710900002,23.983276367],[97.88928222700001,23.985290527],[97.88391113300001,23.996276855],[97.89447021500001,24.006103516],[97.895874023,24.011291504],[97.90069580100001,24.016723633],[97.92309570300002,24.02331543],[97.93988037100002,24.019897461],[97.95129394500002,24.025512695],[97.96173095700001,24.028320312],[97.96472168000001,24.030700684],[97.98468017600001,24.034729004],[97.98907470700001,24.039123535],[97.995117187,24.048706055],[98.00048828100002,24.051696777],[98.00567627,24.05090332],[98.01251220700001,24.054504395],[98.01947021500001,24.058288574],[98.030273437,24.068115234],[98.04071044900002,24.07409668],[98.04791259800001,24.076293945],[98.05187988300001,24.073486328],[98.05389404300001,24.074279785],[98.05651855500001,24.080078125],[98.06732177700002,24.082275391],[98.07208252,24.082275391],[98.07611084000001,24.078125],[98.08428955100001,24.083312988],[98.08868408200001,24.086914062],[98.09027099600002,24.088928223],[98.09832763700001,24.088500977],[98.10388183600001,24.090087891],[98.11151123,24.096313477],[98.12548828100002,24.094726562],[98.14147949200002,24.096496582],[98.14727783200001,24.09552002],[98.15008544900002,24.097290039],[98.163879395,24.101318359],[98.17248535200001,24.100097656],[98.16888427700002,24.102722168],[98.16790771500001,24.105895996],[98.19750976600001,24.10168457],[98.20428466800001,24.103515625],[98.20709228500002,24.109313965],[98.21069335900002,24.111328125],[98.21429443400001,24.112121582],[98.21630859400001,24.11529541],[98.22430419900002,24.117126465],[98.23168945300002,24.11328125],[98.24530029300001,24.111694336],[98.25567627,24.112121582],[98.26831054700001,24.109924316],[98.27429199200002,24.109924316],[98.27947998,24.10949707],[98.28588867200001,24.107727051],[98.28851318400001,24.105712891],[98.28747558600001,24.104125977],[98.29711914100001,24.102111816],[98.31787109400001,24.103271484],[98.328308105,24.105285645],[98.335327148,24.101928711],[98.34429931600002,24.100524902],[98.35272216800001,24.105712891],[98.35467529300001,24.104125977],[98.35308837900001,24.100708008],[98.35668945300002,24.098876953],[98.35968017600001,24.099121094],[98.36151123,24.102905273],[98.36169433600001,24.110473633],[98.37310791000002,24.11529541],[98.38989257800002,24.116271973],[98.40789794900002,24.12109375],[98.42211914100001,24.121704102],[98.42370605500001,24.123474121],[98.4375,24.12487793],[98.44970703100002,24.12689209],[98.461914062,24.128295898],[98.48187255900001,24.125305176],[98.49890136700002,24.124511719],[98.50231933600001,24.12487793],[98.50347900400001,24.128295898],[98.51171875000001,24.127929687],[98.53771972700001,24.12890625],[98.54052734400001,24.129516602],[98.54351806600002,24.131286621],[98.54711914100001,24.131103516],[98.54827880900001,24.130126953],[98.56671142600001,24.133117676],[98.60192871100001,24.116699219],[98.60607910200001,24.092102051],[98.61950683600001,24.091918945],[98.62072753900001,24.092529297],[98.63568115200002,24.103881836],[98.64947509800001,24.109313965],[98.66027832000002,24.108276367],[98.66949462900001,24.104309082],[98.68011474600002,24.102111816],[98.69128418000001,24.106872559],[98.69531250000001,24.10748291],[98.70251464800002,24.113098145],[98.71069335900002,24.126525879],[98.71691894500002,24.130493164],[98.72088623,24.13067627],[98.71173095700001,24.171508789],[98.71850585900002,24.200500488],[98.71929931600002,24.24407959],[98.71307373,24.27130127],[98.71008300800001,24.30267334],[98.730285645,24.33190918],[98.73248291000002,24.37512207],[98.71789550800001,24.406921387],[98.70129394500002,24.437072754],[98.69927978500002,24.464294434],[98.72888183600001,24.490722656],[98.72668457000002,24.522277832],[98.711914062,24.550109863],[98.69592285200001,24.593078613],[98.66107177700002,24.606506348],[98.62268066400001,24.604492187],[98.578125,24.598876953],[98.54052734400001,24.593322754],[98.50872802700002,24.598083496],[98.47912597700001,24.622924805],[98.46850585900002,24.681274414],[98.44873046900001,24.724487305],[98.42889404300001,24.77331543],[98.44451904300001,24.800292969],[98.48150634800001,24.818725586],[98.51647949200002,24.823913574],[98.55230712900001,24.844482422],[98.54028320300002,24.880126953],[98.51232910200001,24.908874512],[98.47772216800001,24.899291992],[98.44128418000001,24.915710449],[98.40991210900002,24.922119141],[98.36871337900001,24.930114746],[98.32867431600002,24.956298828],[98.28967285200001,24.948730469],[98.24908447300001,24.952880859],[98.23370361300002,24.990905762],[98.23229980500001,25.022521973],[98.25170898400002,25.057678223],[98.26129150400001,25.093505859],[98.26049804700001,25.133300781],[98.245117187,25.160888672],[98.21270752,25.172119141],[98.17749023400002,25.177307129],[98.17230224600002,25.206726074],[98.17529296900001,25.233703613],[98.16888427700002,25.274475098],[98.14227294900002,25.3125],[98.09088134800001,25.343322754]]]}}
