{"type":"Feature","id":"bulk-99377448B21771093414771","bbox":[117.57708740200002,24.516723633,119.00091552700002,25.956115723],"properties":{"id":"bulk-99377448B21771093414771","name":"Quanzhou","nameEn":"Quanzhou","fullName":"Quanzhou","level":"city","boundaryRole":"administrative-extent","boundaryQuality":"generalized-source-2020","boundaryYearRepresented":"2020","bounds":[[117.57708740200002,24.516723633],[119.00091552700002,25.956115723]],"center":[118.28900146450002,25.236419678],"centerMethod":"bounding-box midpoint; camera framing only","license":"CC-BY-3.0-IGO","attribution":"geoBoundaries / HDX, China administrative boundaries (2020)","source":{"provider":"geoBoundaries gbHumanitarian / HDX","url":"https://github.com/wmgeolab/geoBoundaries/raw/9469f09/releaseData/gbHumanitarian/CHN/ADM2/geoBoundaries-CHN-ADM2.geojson","metadataUrl":"https://www.geoboundaries.org/api/current/gbHumanitarian/CHN/ADM2/","shapeID":"99377448B21771093414771","shapeName":"Quanzhou","boundaryID":"CHN-ADM2-99377448","commit":"9469f09"},"geometryCounts":{"coordinates":568,"components":3,"holes":0},"boundaryNotice":"geoBoundaries / HDX 2020 年行政区数据，海岸和边界经过源数据概化，并非当前测绘成果。"},"geometry":{"type":"MultiPolygon","coordinates":[[[[118.82928466800001,24.853088379],[118.83508300800001,24.862487793],[118.83569335900002,24.862915039],[118.83270263700001,24.862915039],[118.83007812500001,24.865112305],[118.82891845700001,24.868530273],[118.82470703100002,24.866882324],[118.82373046900001,24.862670898],[118.82830810500002,24.853881836],[118.82928466800001,24.853088379]]],[[[118.92291259800001,25.194519043],[118.92791748000002,25.19909668],[118.92687988300001,25.199890137],[118.92352294900002,25.196472168],[118.92291259800001,25.194519043]]],[[[118.38970947300001,25.922485352],[118.34069824200002,25.931274414],[118.31011962900001,25.943725586],[118.27972412100002,25.956115723],[118.24987793000001,25.952697754],[118.23327636700002,25.922912598],[118.19750976600001,25.919677734],[118.16412353500002,25.928283691],[118.13128662100002,25.92767334],[118.09069824200002,25.918273926],[118.06591796900001,25.901123047],[118.06207275400001,25.873901367],[118.00592041000002,25.883911133],[117.98590087900001,25.842529297],[117.98309326200001,25.813720703],[117.96551513700001,25.782104492],[117.96807861300002,25.747680664],[117.97271728500002,25.717712402],[117.93572998000002,25.710083008],[117.91809082000002,25.686706543],[117.94549560500002,25.660888672],[117.97552490200002,25.645507812],[118.00292968700002,25.66027832],[118.03570556600002,25.650085449],[118.03387451200001,25.621887207],[118.00952148400002,25.58770752],[117.95349121100001,25.554504395],[117.91491699200002,25.538330078],[117.88348388700001,25.522705078],[117.85290527300002,25.526916504],[117.82330322300001,25.531494141],[117.79132080100001,25.532470703],[117.78009033200001,25.503479004],[117.74847412100002,25.51171875],[117.72589111300002,25.539672852],[117.68890380900001,25.504882812],[117.67889404300001,25.472473145],[117.66912841800001,25.444091797],[117.65948486300002,25.416503906],[117.66052246100001,25.386291504],[117.66729736300002,25.352478027],[117.62530517600001,25.340087891],[117.61108398400002,25.311889648],[117.63488769500002,25.295288086],[117.64630127,25.269104004],[117.60650634800001,25.262878418],[117.57708740200002,25.237487793],[117.59149169900002,25.194885254],[117.62847900400001,25.172912598],[117.65667724600002,25.148498535],[117.68432617200001,25.121887207],[117.70989990200002,25.099487305],[117.72332763700001,25.060913086],[117.71307373000002,25.031677246],[117.68969726600001,25.008300781],[117.65649414100001,24.999511719],[117.63812255900001,24.974121094],[117.60650634800001,24.968505859],[117.60870361300002,24.933105469],[117.60827636700002,24.881103516],[117.67712402300002,24.877502441],[117.69970703100002,24.896728516],[117.72448730500001,24.921691895],[117.75427246100001,24.907287598],[117.79187011700002,24.89831543],[117.82427978500002,24.923706055],[117.86889648400002,24.923522949],[117.90228271500001,24.91229248],[117.95251464800002,24.891296387],[117.99151611300002,24.934509277],[118.01611328100002,24.916687012],[118.04028320300002,24.886108398],[118.07568359400001,24.888671875],[118.13409423800002,24.937316895],[118.18652343700002,24.913330078],[118.195129395,24.887084961],[118.21972656200002,24.856079102],[118.25329589800002,24.855285645],[118.28692627,24.845703125],[118.31530761700002,24.813110352],[118.31927490200002,24.77532959],[118.31628418000001,24.733886719],[118.31488037100002,24.705871582],[118.31549072300001,24.67767334],[118.42089843700002,24.655273437],[118.41687011700002,24.66607666],[118.41748046900001,24.671081543],[118.42089843700002,24.677124023],[118.41748046900001,24.682495117],[118.42828369100002,24.680114746],[118.43292236300002,24.695129395],[118.43170166000002,24.699279785],[118.43432617200001,24.710327148],[118.43670654300001,24.719909668],[118.43829345700001,24.721679687],[118.44287109400001,24.721130371],[118.445129395,24.718322754],[118.44787597700001,24.708496094],[118.45947265600002,24.707275391],[118.46032714800002,24.706115723],[118.45648193400001,24.700683594],[118.46112060500002,24.700317383],[118.46112060500002,24.699279785],[118.46447753900001,24.698486328],[118.46087646500001,24.695678711],[118.46008300800001,24.676330566],[118.46710205100001,24.651916504],[118.46612548800002,24.631713867],[118.46887207000002,24.632080078],[118.49212646500001,24.627075195],[118.49871826200001,24.623291016],[118.50189209000001,24.617919922],[118.50830078100002,24.614929199],[118.51068115200002,24.611083984],[118.51190185500002,24.610290527],[118.52490234400001,24.611083984],[118.52667236300002,24.610107422],[118.52868652300002,24.608886719],[118.53912353500002,24.606079102],[118.54150390600002,24.604309082],[118.54327392600001,24.596130371],[118.54571533200001,24.593688965],[118.55609130900001,24.590270996],[118.56787109400001,24.579528809],[118.57031250000001,24.58190918],[118.57348632800002,24.580505371],[118.57769775400001,24.581298828],[118.58068847700001,24.580078125],[118.58807373000002,24.573303223],[118.58367919900002,24.569091797],[118.58489990200002,24.56072998],[118.58447265600002,24.560302734],[118.57452392600001,24.538085937],[118.57348632800002,24.516723633],[118.57427978500002,24.520324707],[118.58428955100001,24.528686523],[118.58752441400001,24.530273437],[118.59429931600002,24.52947998],[118.59887695300002,24.526123047],[118.60687255900001,24.52947998],[118.60949707000002,24.535095215],[118.61688232400002,24.538513184],[118.62207031200002,24.545471191],[118.63031005900001,24.547912598],[118.63330078100002,24.555480957],[118.63708496100001,24.558105469],[118.63830566400001,24.558105469],[118.64807128900001,24.558105469],[118.65289306600002,24.5546875],[118.65429687500001,24.556518555],[118.65368652300002,24.560302734],[118.64807128900001,24.565490723],[118.65051269500002,24.568908691],[118.65551757800002,24.57208252],[118.65692138700001,24.577697754],[118.66308593700002,24.575500488],[118.66772460900002,24.578674316],[118.67431640600002,24.600891113],[118.67932128900001,24.60369873],[118.679504395,24.604675293],[118.66809082000002,24.620300293],[118.66632080100001,24.621887207],[118.66552734400001,24.620910645],[118.66168212900001,24.620117187],[118.65808105500001,24.621887207],[118.65008544900002,24.631530762],[118.64410400400001,24.64630127],[118.64288330100001,24.653930664],[118.64648437500001,24.663513184],[118.64807128900001,24.677307129],[118.65307617200001,24.685302734],[118.65649414100001,24.687072754],[118.66192627,24.686523437],[118.66827392600001,24.690307617],[118.67407226600001,24.687927246],[118.67590332000002,24.674072266],[118.68170166000002,24.668518066],[118.68310546900001,24.66809082],[118.68908691400001,24.667480469],[118.69628906200002,24.666687012],[118.70251464800002,24.676879883],[118.70867919900002,24.67388916],[118.71191406200002,24.678283691],[118.71710205100001,24.679077148],[118.71948242200001,24.682678223],[118.71728515600002,24.687683105],[118.71911621100001,24.689086914],[118.72589111300002,24.689697266],[118.72888183600001,24.695129395],[118.73370361300002,24.697692871],[118.73571777300002,24.700683594],[118.73547363300001,24.702880859],[118.73187255900001,24.704101562],[118.73071289100001,24.706481934],[118.73547363300001,24.711120605],[118.73431396500001,24.720092773],[118.74230957000002,24.727478027],[118.74871826200001,24.72668457],[118.75347900400001,24.730285645],[118.75848388700001,24.729309082],[118.76428222700001,24.730285645],[118.76251220700001,24.73248291],[118.75952148400002,24.736328125],[118.76092529300001,24.740905762],[118.77587890600002,24.747924805],[118.77648925800001,24.762084961],[118.77832031200002,24.764526367],[118.76892089800002,24.767272949],[118.74169921900001,24.770080566],[118.74072265600002,24.767883301],[118.73388671900001,24.770324707],[118.72711181600002,24.776123047],[118.72027587900001,24.784484863],[118.71832275400001,24.787109375],[118.72113037100002,24.793518066],[118.71929931600002,24.794677734],[118.67791748000002,24.772277832],[118.66571044900002,24.78112793],[118.65850830100001,24.780700684],[118.65667724600002,24.781921387],[118.65612793000001,24.786682129],[118.65228271500001,24.78692627],[118.65087890600002,24.787109375],[118.64190673800002,24.77947998],[118.63488769500002,24.776672363],[118.63232421900001,24.777282715],[118.63189697300001,24.780273437],[118.62768554700001,24.785705566],[118.62768554700001,24.789672852],[118.63391113300001,24.80090332],[118.63348388700001,24.80291748],[118.63049316400001,24.805725098],[118.62451171900001,24.8046875],[118.62127685500002,24.806091309],[118.61889648400002,24.8125],[118.62011718700002,24.814697266],[118.62731933600001,24.8125],[118.62927246100001,24.816101074],[118.62847900400001,24.824279785],[118.62292480500001,24.827270508],[118.62152099600002,24.829711914],[118.62652587900001,24.834106445],[118.62988281200002,24.843078613],[118.63427734400001,24.842285156],[118.63409423800002,24.849121094],[118.64587402300002,24.857116699],[118.64947509800001,24.853088379],[118.65887451200001,24.85748291],[118.66351318400001,24.863891602],[118.66949462900001,24.864685059],[118.67749023400002,24.881103516],[118.67370605500001,24.887512207],[118.67309570300002,24.887329102],[118.66967773400002,24.889282227],[118.67089843700002,24.892089844],[118.66888427700002,24.895324707],[118.66650390600002,24.897888184],[118.66510009800001,24.898681641],[118.65747070300002,24.898681641],[118.64508056600002,24.903930664],[118.65332031200002,24.915100098],[118.65228271500001,24.917480469],[118.64392089800002,24.921325684],[118.64172363300001,24.92388916],[118.64428710900002,24.927307129],[118.64569091800001,24.929321289],[118.65087890600002,24.933288574],[118.65771484400001,24.932678223],[118.66009521500001,24.937072754],[118.66607666000002,24.933105469],[118.66729736300002,24.933288574],[118.66589355500001,24.940673828],[118.66967773400002,24.939697266],[118.67150878900001,24.95111084],[118.66912841800001,24.954711914],[118.66229248000002,24.95690918],[118.66070556600002,24.959472656],[118.66229248000002,24.963928223],[118.65612793000001,24.971130371],[118.65948486300002,24.977111816],[118.67089843700002,24.969726562],[118.67767334000001,24.960083008],[118.68707275400001,24.955078125],[118.69250488300001,24.949279785],[118.69592285200001,24.947875977],[118.69769287100002,24.945678711],[118.69567871100001,24.939880371],[118.69989013700001,24.936279297],[118.70690918000001,24.934082031],[118.70788574200002,24.932312012],[118.70550537100002,24.928710937],[118.69732666000002,24.926330566],[118.69390869100002,24.920715332],[118.70147705100001,24.901123047],[118.70172119100002,24.900085449],[118.70648193400001,24.903320312],[118.70349121100001,24.907470703],[118.703125,24.912719727],[118.70550537100002,24.916687012],[118.70971679700001,24.909912109],[118.71228027300002,24.909118652],[118.71490478500002,24.913085937],[118.71789550800001,24.9296875],[118.71667480500001,24.937072754],[118.72113037100002,24.940490723],[118.72668457000002,24.93951416],[118.72747802700002,24.937316895],[118.72528076200001,24.932495117],[118.72430419900002,24.919921875],[118.71612548800002,24.908081055],[118.71667480500001,24.90411377],[118.72131347700001,24.902282715],[118.72570800800001,24.903503418],[118.73107910200001,24.910888672],[118.73150634800001,24.915527344],[118.73931884800001,24.91229248],[118.74090576200001,24.906677246],[118.74407959000001,24.907287598],[118.74652099600002,24.905273437],[118.74749755900001,24.899475098],[118.74627685500002,24.893920898],[118.74291992200001,24.892700195],[118.738098145,24.886901855],[118.72430419900002,24.884521484],[118.71588134800001,24.887512207],[118.70989990200002,24.885498047],[118.70428466800001,24.885498047],[118.70489502,24.882080078],[118.70892334000001,24.88092041],[118.71411132800002,24.875671387],[118.70831298800002,24.871887207],[118.72271728500002,24.857299805],[118.71569824200002,24.84552002],[118.72290039100001,24.846313477],[118.72747802700002,24.845092773],[118.72790527300002,24.846923828],[118.72589111300002,24.849487305],[118.73272705100001,24.848876953],[118.73791503900001,24.852905273],[118.74090576200001,24.85168457],[118.73791503900001,24.846923828],[118.74127197300001,24.846313477],[118.74890136700002,24.852905273],[118.75567627,24.856323242],[118.76348877,24.855712891],[118.76727294900002,24.850280762],[118.77032470700001,24.850524902],[118.77929687500001,24.855529785],[118.78851318400001,24.856689453],[118.79852294900002,24.867492676],[118.81347656200002,24.870910645],[118.81292724600002,24.873718262],[118.81091308600001,24.876281738],[118.80651855500001,24.875915527],[118.79870605500001,24.871276855],[118.79510498000002,24.871520996],[118.78167724600002,24.877502441],[118.78210449200002,24.878723145],[118.80590820300002,24.89831543],[118.81188964800002,24.899108887],[118.81591796900001,24.897705078],[118.82708740200002,24.898681641],[118.82849121100001,24.895507812],[118.82751464800002,24.889526367],[118.83190918000001,24.883300781],[118.82928466800001,24.878479004],[118.83270263700001,24.876281738],[118.83331298800002,24.876281738],[118.84252929700001,24.87487793],[118.84790039100001,24.877319336],[118.85009765600002,24.882873535],[118.85852050800001,24.887512207],[118.870910645,24.891479492],[118.87628173800002,24.891479492],[118.88189697300001,24.889099121],[118.88732910200001,24.889892578],[118.89691162100002,24.887329102],[118.89849853500002,24.883300781],[118.90631103500002,24.876281738],[118.90771484400001,24.875671387],[118.92492675800001,24.877685547],[118.92767334000001,24.876098633],[118.93170166000002,24.868713379],[118.94769287100002,24.87689209],[118.96148681600002,24.873474121],[118.97088623000002,24.877929687],[118.97869873000002,24.87512207],[118.980285645,24.87487793],[118.97650146500001,24.878112793],[118.96252441400001,24.878295898],[118.94427490200002,24.87689209],[118.92852783200001,24.88092041],[118.91009521500001,24.899902344],[118.90350341800001,24.915893555],[118.89068603500002,24.919677734],[118.90808105500001,24.929077148],[118.90832519500002,24.930114746],[118.90728759800001,24.934082031],[118.91088867200001,24.939880371],[118.90930175800001,24.941101074],[118.90527343700002,24.940124512],[118.90191650400001,24.93371582],[118.89892578100002,24.932495117],[118.88989257800002,24.933898926],[118.88867187500001,24.938903809],[118.88488769500002,24.942077637],[118.88568115200002,24.944274902],[118.89508056600002,24.939880371],[118.90032959000001,24.93951416],[118.90307617200001,24.942871094],[118.90972900400001,24.94708252],[118.91467285200001,24.957519531],[118.92211914100001,24.957092285],[118.93127441400001,24.959472656],[118.93548584000001,24.95690918],[118.94787597700001,24.956298828],[118.95227050800001,24.962097168],[118.97210693400001,24.960510254],[118.97351074200002,24.963317871],[118.97772216800001,24.960510254],[118.98071289100001,24.955688477],[118.97912597700001,24.950073242],[118.98211669900002,24.945922852],[118.98791503900001,24.945922852],[118.98730468700002,24.940490723],[118.98992919900002,24.940124512],[118.99511718700002,24.943481445],[118.99871826200001,24.944274902],[119.00091552700002,24.944702148],[118.99212646500001,24.946716309],[118.98510742200001,24.957519531],[118.98529052700002,24.969116211],[118.98352050800001,24.97052002],[118.97808837900001,24.989929199],[118.98309326200001,25.00012207],[118.98608398400002,25.00592041],[118.98870849600002,25.004882812],[118.99432373000002,25.002929687],[118.99890136700002,25.005493164],[118.99768066400001,25.008911133],[119.00048828100002,25.013305664],[118.99951171900001,25.021728516],[118.98132324200002,25.019470215],[118.98052978500002,25.019104004],[118.97747802700002,25.015930176],[118.97570800800001,25.00769043],[118.96948242200001,25.005310059],[118.96691894500002,25.004882812],[118.96508789100001,25.003112793],[118.96691894500002,24.979125977],[118.96289062500001,24.969299316],[118.94592285200001,24.981689453],[118.94171142600001,25.000305176],[118.92510986300002,24.997070312],[118.89831543000001,25.023071289],[118.88049316400001,25.03729248],[118.86352539100001,25.050476074],[118.85229492200001,25.059692383],[118.85412597700001,25.068908691],[118.86389160200001,25.075500488],[118.86627197300001,25.076293945],[118.86370849600002,25.080322266],[118.85510253900001,25.08392334],[118.84869384800001,25.078918457],[118.83947753900001,25.076904297],[118.83190918000001,25.080078125],[118.83392334000001,25.082275391],[118.84368896500001,25.083496094],[118.84631347700001,25.08190918],[118.855285645,25.093322754],[118.85607910200001,25.098693848],[118.86712646500001,25.103515625],[118.86968994100002,25.10748291],[118.87487793000001,25.106079102],[118.87689209000001,25.108093262],[118.87628173800002,25.113708496],[118.88012695300002,25.114318848],[118.88848877,25.108886719],[118.89172363300001,25.114929199],[118.89471435500002,25.114318848],[118.89727783200001,25.105895996],[118.90551757800002,25.104675293],[118.90808105500001,25.106506348],[118.90808105500001,25.107727051],[118.90850830100001,25.111083984],[118.91967773400002,25.109924316],[118.93371582000002,25.114074707],[118.93670654300001,25.112487793],[118.94152832000002,25.106506348],[118.94427490200002,25.106079102],[118.95068359400001,25.112121582],[118.95208740200002,25.112670898],[118.94287109400001,25.121704102],[118.94873046900001,25.127685547],[118.94152832000002,25.135314941],[118.93792724600002,25.14251709],[118.94390869100002,25.147888184],[118.94769287100002,25.15447998],[118.95330810500002,25.157104492],[118.95587158200001,25.158325195],[118.95672607400002,25.162475586],[118.95928955100001,25.164916992],[118.96771240200002,25.168701172],[118.97772216800001,25.167480469],[118.97790527300002,25.167907715],[118.96148681600002,25.170715332],[118.93811035200001,25.168884277],[118.91790771500001,25.167724609],[118.91247558600001,25.184692383],[118.91571044900002,25.187683105],[118.91052246100001,25.192321777],[118.90972900400001,25.194885254],[118.91668701200001,25.201293945],[118.91809082000002,25.206298828],[118.91088867200001,25.211486816],[118.89910888700001,25.205078125],[118.88812255900001,25.205871582],[118.87451171900001,25.222717285],[118.87487793000001,25.223083496],[118.86468505900001,25.226928711],[118.82067871100001,25.257507324],[118.788879395,25.249511719],[118.75567627,25.223693848],[118.71850585900002,25.203674316],[118.68548584000001,25.20111084],[118.66308593700002,25.221313477],[118.65747070300002,25.248718262],[118.65527343700002,25.278686523],[118.64190673800002,25.314086914],[118.61132812500001,25.325317383],[118.56207275400001,25.30291748],[118.50091552700002,25.347473145],[118.50531005900001,25.38067627],[118.47088623000002,25.408325195],[118.46612548800002,25.442077637],[118.43408203100002,25.462280273],[118.44952392600001,25.488891602],[118.45489502,25.521118164],[118.45672607400002,25.56072998],[118.46887207000002,25.591674805],[118.48687744100002,25.614685059],[118.51751709000001,25.636901855],[118.52050781200002,25.670471191],[118.50030517600001,25.695495605],[118.47650146500001,25.71887207],[118.44207763700001,25.734680176],[118.41290283200001,25.747070312],[118.40332031200002,25.77331543],[118.38171386700002,25.802490234],[118.36187744100002,25.82611084],[118.35791015600002,25.86151123],[118.37390136700002,25.890319824],[118.38970947300001,25.922485352]]]]}}
