{"type":"Feature","id":"bulk-99377448B34590789066860","bbox":[112.92431640600002,22.632080078,114.06011962900001,23.943115234],"properties":{"id":"bulk-99377448B34590789066860","name":"Guangzhou","nameEn":"Guangzhou","fullName":"Guangzhou","level":"city","boundaryRole":"administrative-extent","boundaryQuality":"generalized-source-2020","boundaryYearRepresented":"2020","bounds":[[112.92431640600002,22.632080078],[114.06011962900001,23.943115234]],"center":[113.49221801750002,23.287597656000003],"centerMethod":"bounding-box midpoint; camera framing only","license":"CC-BY-3.0-IGO","attribution":"geoBoundaries / HDX, China administrative boundaries (2020)","source":{"provider":"geoBoundaries gbHumanitarian / HDX","url":"https://github.com/wmgeolab/geoBoundaries/raw/9469f09/releaseData/gbHumanitarian/CHN/ADM2/geoBoundaries-CHN-ADM2.geojson","metadataUrl":"https://www.geoboundaries.org/api/current/gbHumanitarian/CHN/ADM2/","shapeID":"99377448B34590789066860","shapeName":"Guangzhou","boundaryID":"CHN-ADM2-99377448","commit":"9469f09"},"geometryCounts":{"coordinates":219,"components":4,"holes":0},"boundaryNotice":"geoBoundaries / HDX 2020 年行政区数据，海岸和边界经过源数据概化，并非当前测绘成果。"},"geometry":{"type":"MultiPolygon","coordinates":[[[[113.59130859400001,22.632080078],[113.59967041000002,22.634277344],[113.60028076200001,22.635314941],[113.59869384800001,22.653503418],[113.58392334000001,22.6796875],[113.554504395,22.708312988],[113.54150390600002,22.729919434],[113.52227783200001,22.743286133],[113.51367187500001,22.741699219],[113.49652099600002,22.735107422],[113.47552490200002,22.725280762],[113.49371337900001,22.712890625],[113.51849365200002,22.689086914],[113.53710937500001,22.67010498],[113.53930664100001,22.668518066],[113.55651855500001,22.650878906],[113.57592773400002,22.635681152],[113.58612060500002,22.633483887],[113.58728027300002,22.634277344],[113.59130859400001,22.632080078]]],[[[113.47387695300002,22.729492187],[113.49389648400002,22.738098145],[113.50891113300001,22.744506836],[113.51770019500002,22.746520996],[113.50408935500002,22.756103516],[113.50048828100002,22.759887695],[113.48248291000002,22.757324219],[113.44927978500002,22.738525391],[113.45428466800001,22.734130859],[113.46789550800001,22.729919434],[113.47387695300002,22.729492187]]],[[[113.48529052700002,23.070129395],[113.48632812500001,23.07208252],[113.48388671900001,23.076904297],[113.47930908200001,23.081115723],[113.47631835900002,23.081726074],[113.47528076200001,23.079284668],[113.47692871100001,23.07611084],[113.48272705100001,23.070678711],[113.48529052700002,23.070129395]]],[[[113.76831054700001,23.130126953],[113.83471679700001,23.178710937],[113.84948730500001,23.202697754],[113.85772705100001,23.232299805],[113.86407470700001,23.270324707],[113.87030029300001,23.31072998],[113.87530517600001,23.340087891],[113.89868164100001,23.356323242],[113.93267822300001,23.357910156],[113.96868896500001,23.353088379],[113.98229980500001,23.414672852],[113.97192382800002,23.44708252],[113.93450927700002,23.456481934],[113.93151855500001,23.484313965],[113.90728759800001,23.502929687],[113.87792968700002,23.525512695],[113.85949707000002,23.55267334],[113.84729003900001,23.584716797],[113.83831787100002,23.621704102],[113.81347656200002,23.648925781],[113.82751464800002,23.682678223],[113.85327148400002,23.703491211],[113.88372802700002,23.722717285],[113.91510009800001,23.732727051],[113.94628906200002,23.74407959],[113.97827148400002,23.753112793],[114.00689697300001,23.764099121],[114.03387451200001,23.786315918],[114.04589843700002,23.815490723],[114.05328369100002,23.850524902],[114.06011962900001,23.888122559],[114.00830078100002,23.920288086],[113.96911621100001,23.93371582],[113.93371582000002,23.943115234],[113.89489746100001,23.93951416],[113.85650634800001,23.923522949],[113.81268310500002,23.909118652],[113.75927734400001,23.889892578],[113.71948242200001,23.872497559],[113.695129395,23.844726562],[113.66229248000002,23.822509766],[113.60748291000002,23.821105957],[113.59027099600002,23.789123535],[113.59368896500001,23.743896484],[113.58068847700001,23.696472168],[113.54949951200001,23.687072754],[113.52929687500001,23.708679199],[113.49328613300001,23.706481934],[113.45910644500002,23.703918457],[113.43450927700002,23.718688965],[113.40368652300002,23.74230957],[113.36907959000001,23.751098633],[113.35467529300001,23.72668457],[113.32049560500002,23.691101074],[113.30731201200001,23.662719727],[113.27630615200002,23.637695312],[113.21008300800001,23.603271484],[113.17651367200001,23.580688477],[113.16290283200001,23.542724609],[113.12768554700001,23.524108887],[113.09851074200002,23.533081055],[113.06048584000001,23.520080566],[113.02947998000002,23.496276855],[112.99908447300001,23.478515625],[112.92431640600002,23.487487793],[112.94812011700002,23.427490234],[112.96807861300002,23.388305664],[112.97790527300002,23.357299805],[112.99792480500001,23.32409668],[113.00567627,23.283081055],[113.04589843700002,23.287719727],[113.09008789100001,23.32989502],[113.13671875000001,23.287902832],[113.15991210900002,23.23828125],[113.16351318400001,23.190917969],[113.16247558600001,23.152526855],[113.16247558600001,23.118896484],[113.21630859400001,23.006530762],[113.23907470700001,22.980285645],[113.245910645,22.943908691],[113.24829101600001,22.908508301],[113.26348877,22.870483398],[113.28387451200001,22.842712402],[113.31768798800002,22.814880371],[113.31829834000001,22.816711426],[113.34509277300002,22.802124023],[113.34613037100002,22.8046875],[113.36608886700002,22.788085937],[113.37988281200002,22.778076172],[113.39172363300001,22.758911133],[113.41827392600001,22.745910645],[113.43652343700002,22.741699219],[113.45410156200002,22.747314453],[113.47790527300002,22.762878418],[113.47430419900002,22.763916016],[113.47070312500001,22.763916016],[113.45971679700001,22.76348877],[113.46069335900002,22.765319824],[113.46807861300002,22.767700195],[113.46990966800001,22.770874023],[113.47467041000002,22.769897461],[113.48669433600001,22.764282227],[113.49572753900001,22.763671875],[113.49688720700001,22.763916016],[113.47369384800001,22.789306641],[113.48431396500001,22.785888672],[113.47912597700001,22.788879395],[113.45330810500002,22.796081543],[113.42529296900001,22.803894043],[113.41467285200001,22.813903809],[113.41009521500001,22.821105957],[113.40850830100001,22.827880859],[113.40930175800001,22.833129883],[113.41247558600001,22.829711914],[113.42089843700002,22.813720703],[113.42633056600002,22.809326172],[113.43548584000001,22.804870605],[113.45172119100002,22.801086426],[113.46569824200002,22.800476074],[113.46032714800002,22.808898926],[113.47607421900001,22.799926758],[113.47711181600002,22.813110352],[113.48248291000002,22.824707031],[113.48547363300001,22.821105957],[113.48748779300001,22.813720703],[113.48327636700002,22.800109863],[113.48492431600002,22.793884277],[113.49108886700002,22.788085937],[113.50250244100002,22.780700684],[113.51110839800002,22.777893066],[113.51770019500002,22.778076172],[113.52148437500001,22.778076172],[113.52648925800001,22.775085449],[113.55328369100002,22.750488281],[113.57452392600001,22.739074707],[113.59808349600002,22.740722656],[113.60009765600002,22.751281738],[113.58312988300001,22.775878906],[113.56707763700001,22.795715332],[113.53991699200002,22.80291748],[113.52972412100002,22.820922852],[113.51348877,22.83972168],[113.49871826200001,22.869689941],[113.48370361300002,22.887695312],[113.46728515600002,22.897521973],[113.49212646500001,22.906921387],[113.48248291000002,22.945129395],[113.488098145,22.966125488],[113.49249267600001,22.980712891],[113.49432373000002,23.008300781],[113.49169921900001,23.044494629],[113.46551513700001,23.06048584],[113.47729492200001,23.062072754],[113.47113037100002,23.064880371],[113.44592285200001,23.074279785],[113.44091796900001,23.073730469],[113.43829345700001,23.081115723],[113.44873046900001,23.08190918],[113.453125,23.082092285],[113.45831298800002,23.081726074],[113.45812988300001,23.084289551],[113.45410156200002,23.085083008],[113.45031738300001,23.086914062],[113.44628906200002,23.086914062],[113.43988037100002,23.08770752],[113.43609619100002,23.086486816],[113.43292236300002,23.093322754],[113.46527099600002,23.090087891],[113.47589111300002,23.086120605],[113.48608398400002,23.080322266],[113.49072265600002,23.075683594],[113.49652099600002,23.063476562],[113.49810791000002,23.061889648],[113.49890136700002,23.061889648],[113.64270019500002,23.088684082],[113.68109130900001,23.115112305],[113.72290039100001,23.12689209],[113.75970459000001,23.134521484],[113.76831054700001,23.130126953]]]]}}
