{"type":"Feature","id":"bulk-99377448B95232655823573","bbox":[119.21148681600002,42.208496094,123.68707275400001,45.609313965],"properties":{"id":"bulk-99377448B95232655823573","name":"Tongliao","nameEn":"Tongliao","fullName":"Tongliao","level":"city","boundaryRole":"administrative-extent","boundaryQuality":"generalized-source-2020","boundaryYearRepresented":"2020","bounds":[[119.21148681600002,42.208496094],[123.68707275400001,45.609313965]],"center":[121.44927978500002,43.9089050295],"centerMethod":"bounding-box midpoint; camera framing only","license":"CC-BY-3.0-IGO","attribution":"geoBoundaries / HDX, China administrative boundaries (2020)","source":{"provider":"geoBoundaries gbHumanitarian / HDX","url":"https://github.com/wmgeolab/geoBoundaries/raw/9469f09/releaseData/gbHumanitarian/CHN/ADM2/geoBoundaries-CHN-ADM2.geojson","metadataUrl":"https://www.geoboundaries.org/api/current/gbHumanitarian/CHN/ADM2/","shapeID":"99377448B95232655823573","shapeName":"Tongliao","boundaryID":"CHN-ADM2-99377448","commit":"9469f09"},"geometryCounts":{"coordinates":343,"components":1,"holes":0},"boundaryNotice":"geoBoundaries / HDX 2020 年行政区数据，海岸和边界经过源数据概化，并非当前测绘成果。"},"geometry":{"type":"Polygon","coordinates":[[[120.82830810500002,42.246276855],[120.83349609400001,42.247680664],[120.89367675800001,42.269714355],[120.93627929700001,42.262878418],[120.98968505900001,42.208496094],[121.01989746100001,42.231079102],[121.05987548800002,42.257324219],[121.14447021500001,42.309326172],[121.18109130900001,42.336486816],[121.23352050800001,42.377929687],[121.27648925800001,42.422912598],[121.31512451200001,42.43927002],[121.33850097700001,42.473083496],[121.36212158200001,42.480712891],[121.46972656200002,42.478271484],[121.54589843700002,42.504272461],[121.56372070300002,42.502929687],[121.57629394500002,42.469299316],[121.58587646500001,42.445678711],[121.60711669900002,42.4375],[121.62487793000001,42.436096191],[121.663879395,42.455322266],[121.70031738300001,42.484680176],[121.72747802700002,42.485717773],[121.77947998000002,42.500671387],[121.82910156200002,42.528930664],[121.84332275400001,42.560119629],[121.88049316400001,42.647888184],[121.91912841800001,42.690124512],[121.95452880900001,42.712890625],[122.14770507800002,42.6796875],[122.16571044900002,42.683105469],[122.17071533200001,42.689697266],[122.27691650400001,42.65612793],[122.31268310500002,42.653930664],[122.33752441400001,42.668701172],[122.36547851600001,42.700073242],[122.43231201200001,42.747680664],[122.44171142600001,42.758483887],[122.40307617200001,42.765686035],[122.37792968700002,42.764282227],[122.32891845700001,42.783081055],[122.32171630900001,42.792724609],[122.33587646500001,42.81652832],[122.38751220700001,42.818908691],[122.53967285200001,42.803710937],[122.55310058600001,42.782470703],[122.61950683600001,42.770080566],[122.69671630900001,42.769897461],[122.74688720700001,42.763671875],[122.75128173800002,42.754272461],[122.78009033200001,42.713317871],[122.78649902300002,42.710693359],[122.81030273400002,42.701477051],[122.82788085900002,42.723083496],[122.83508300800001,42.748474121],[122.88311767600001,42.759094238],[122.93249511700002,42.756286621],[122.99987793000001,42.74987793],[123.02728271500001,42.770690918],[123.07269287100002,42.779724121],[123.12530517600001,42.78112793],[123.16149902300002,42.794677734],[123.16070556600002,42.829711914],[123.12768554700001,42.867675781],[123.12908935500002,42.901672363],[123.15393066400001,42.94152832],[123.18212890600002,42.971496582],[123.20910644500002,42.994873047],[123.25830078100002,42.990112305],[123.30468750000001,42.995483398],[123.35791015600002,43.013122559],[123.40710449200002,43.008300781],[123.45172119100002,43.00390625],[123.48229980500001,42.997680664],[123.50988769500002,42.975524902],[123.51727294900002,42.991088867],[123.53448486300002,43.008911133],[123.55889892600001,43.065124512],[123.57830810500002,43.095703125],[123.59008789100001,43.133728027],[123.62548828100002,43.17590332],[123.62670898400002,43.205078125],[123.61108398400002,43.242492676],[123.64227294900002,43.262084961],[123.64471435500002,43.275085449],[123.63232421900001,43.305480957],[123.67767334000001,43.304321289],[123.68707275400001,43.329528809],[123.66052246100001,43.381103516],[123.57092285200001,43.389892578],[123.53228759800001,43.403503418],[123.50732421900001,43.415710449],[123.48608398400002,43.424316406],[123.47711181600002,43.425109863],[123.47070312500001,43.41607666],[123.47729492200001,43.402282715],[123.48248291000002,43.382324219],[123.47949218700002,43.366088867],[123.45007324200002,43.37890625],[123.39587402300002,43.406921387],[123.30590820300002,43.438476562],[123.29547119100002,43.455688477],[123.3125,43.473693848],[123.31848144500002,43.50567627],[123.32147216800001,43.533325195],[123.34368896500001,43.542480469],[123.37530517600001,43.539306641],[123.42767334000001,43.550476074],[123.45629882800002,43.580505371],[123.49548339800002,43.641906738],[123.45471191400001,43.69152832],[123.39428710900002,43.73651123],[123.42010498000002,43.799316406],[123.41851806600002,43.838684082],[123.39849853500002,43.902526855],[123.35607910200001,43.945678711],[123.31872558600001,43.991699219],[123.30792236300002,44.031921387],[123.31951904300001,44.06652832],[123.32708740200002,44.072875977],[123.31390380900001,44.150512695],[123.27508544900002,44.181091309],[123.20751953100002,44.234313965],[123.18188476600001,44.294311523],[123.13348388700001,44.3203125],[123.08947753900001,44.378479004],[123.09490966800001,44.413879395],[123.11071777300002,44.457275391],[123.11987304700001,44.498718262],[123.07910156200002,44.512512207],[123.07568359400001,44.512084961],[122.98089599600002,44.500915527],[122.89447021500001,44.45489502],[122.81768798800002,44.405273437],[122.72930908200001,44.376525879],[122.68652343700002,44.35168457],[122.58569335900002,44.287902832],[122.52148437500001,44.256896973],[122.39569091800001,44.213928223],[122.28271484400001,44.223327637],[122.22692871100001,44.24609375],[122.22167968700002,44.251708984],[122.15051269500002,44.246276855],[122.09948730500001,44.248901367],[122.03692627,44.265686035],[121.95770263700001,44.288879395],[121.94329834000001,44.365478516],[121.92608642600001,44.389892578],[121.89007568400001,44.41027832],[121.84368896500001,44.424072266],[121.79028320300002,44.437072754],[121.75152587900001,44.450683594],[121.72790527300002,44.47467041],[121.71832275400001,44.505310059],[121.68847656200002,44.534484863],[121.65032959000001,44.566101074],[121.62347412100002,44.591918945],[121.59332275400001,44.619689941],[121.57147216800001,44.643920898],[121.53710937500001,44.661071777],[121.49047851600001,44.680725098],[121.45947265600002,44.708312988],[121.43988037100002,44.731689453],[121.40832519500002,44.763305664],[121.37908935500002,44.793884277],[121.35412597700001,44.819091797],[121.32867431600002,44.843688965],[121.28747558600001,44.874328613],[121.24230957000002,44.900085449],[121.20489502,44.918701172],[121.15612793000001,44.948303223],[121.11651611300002,44.973327637],[121.07470703100002,44.999084473],[121.03192138700001,45.024475098],[121.00109863300001,45.041320801],[120.96148681600002,45.069885254],[120.93969726600001,45.096679687],[120.92907714800002,45.12890625],[120.91412353500002,45.164672852],[120.89947509800001,45.195678711],[120.88250732400002,45.221923828],[120.85552978500002,45.24609375],[120.81347656200002,45.25567627],[120.75708007800002,45.255493164],[120.71667480500001,45.264099121],[120.66729736300002,45.286499023],[120.64251709000001,45.309326172],[120.61688232400002,45.33392334],[120.58331298800002,45.35168457],[120.55169677700002,45.36907959],[120.51770019500002,45.398925781],[120.48168945300002,45.42791748],[120.44549560500002,45.445495605],[120.40911865200002,45.458679199],[120.37072753900001,45.468505859],[120.34228515600002,45.490478516],[120.30688476600001,45.516906738],[120.26428222700001,45.545471191],[120.21191406200002,45.568115234],[120.16369628900001,45.577697754],[120.12432861300002,45.582885742],[120.05889892600001,45.595703125],[120.00750732400002,45.599121094],[119.96612548800002,45.600524902],[119.91687011700002,45.605285645],[119.82269287100002,45.609313965],[119.76251220700001,45.591918945],[119.70452880900001,45.58392334],[119.72290039100001,45.552490234],[119.687316895,45.526489258],[119.65631103500002,45.508728027],[119.64111328100002,45.478271484],[119.61187744100002,45.448486328],[119.57452392600001,45.441711426],[119.54730224600002,45.41192627],[119.51068115200002,45.38848877],[119.45330810500002,45.382080078],[119.38690185500002,45.38067627],[119.34228515600002,45.381530762],[119.27752685500002,45.385498047],[119.25512695300002,45.344299316],[119.23431396500001,45.321105957],[119.21148681600002,45.293884277],[119.22912597700001,45.265319824],[119.26831054700001,45.256103516],[119.31628418000001,45.247070312],[119.37030029300001,45.226074219],[119.41748046900001,45.210693359],[119.47229003900001,45.191101074],[119.51330566400001,45.178283691],[119.54632568400001,45.163879395],[119.58410644500002,45.134887695],[119.60650634800001,45.108093262],[119.63153076200001,45.080688477],[119.65393066400001,45.049682617],[119.67968750000001,45.011291504],[119.69989013700001,44.982116699],[119.72027587900001,44.955078125],[119.74688720700001,44.926086426],[119.77929687500001,44.904296875],[119.81829834000001,44.884094238],[119.84851074200002,44.864318848],[119.88671875000001,44.846923828],[119.92572021500001,44.819519043],[119.96173095700001,44.793273926],[119.98992919900002,44.769897461],[120.02551269500002,44.743896484],[120.05468750000001,44.718505859],[120.08673095700001,44.68951416],[120.11889648400002,44.660705566],[120.13989257800002,44.638305664],[120.16912841800001,44.608276367],[120.19030761700002,44.585876465],[120.22149658200001,44.550292969],[120.24249267600001,44.525695801],[120.26647949200002,44.496704102],[120.28991699200002,44.474121094],[120.31787109400001,44.432128906],[120.32727050800001,44.39831543],[120.34832763700001,44.366088867],[120.36791992200001,44.336120605],[120.39611816400001,44.292907715],[120.41888427700002,44.264099121],[120.46191406200002,44.258117676],[120.50811767600001,44.269470215],[120.56091308600001,44.266296387],[120.60729980500001,44.24609375],[120.63208007800002,44.218505859],[120.67089843700002,44.187316895],[120.70111084000001,44.141479492],[120.71588134800001,44.103515625],[120.72869873000002,44.063903809],[120.73651123000002,44.021484375],[120.72650146500001,43.986694336],[120.72149658200001,43.950927734],[120.74432373000002,43.92388916],[120.77130127,43.895080566],[120.78710937500001,43.864074707],[120.78833007800002,43.799499512],[120.80432128900001,43.733276367],[120.84051513700001,43.714294434],[120.87011718700002,43.695678711],[120.92712402300002,43.684326172],[120.95111084000001,43.670898437],[120.93829345700001,43.630126953],[120.89392089800002,43.596679687],[120.82952880900001,43.557678223],[120.79547119100002,43.548706055],[120.76092529300001,43.535095215],[120.69110107400002,43.503479004],[120.66949462900001,43.489074707],[120.64752197300001,43.472106934],[120.63012695300002,43.443481445],[120.60888671900001,43.431091309],[120.55468750000001,43.416687012],[120.50170898400002,43.409118652],[120.44830322300001,43.399291992],[120.42089843700002,43.389892578],[120.32147216800001,43.353271484],[120.36907959000001,43.345092773],[120.39508056600002,43.34552002],[120.40808105500001,43.346923828],[120.45568847700001,43.361694336],[120.54730224600002,43.366271973],[120.58068847700001,43.37310791],[120.64508056600002,43.391296387],[120.71270752,43.409301758],[120.75329589800002,43.419921875],[120.68792724600002,43.374084473],[120.62829589800002,43.323120117],[120.59552002,43.277099609],[120.54187011700002,43.22088623],[120.41632080100001,43.158874512],[120.40509033200001,43.127319336],[120.38867187500001,43.103088379],[120.32751464800002,43.082275391],[120.312316895,43.067077637],[120.30267334000001,43.044677734],[120.29748535200001,43.008117676],[120.32568359400001,42.968505859],[120.35552978500002,42.93170166],[120.37188720700001,42.900695801],[120.37011718700002,42.86328125],[120.38012695300002,42.834716797],[120.41247558600001,42.807495117],[120.42230224600002,42.78112793],[120.44012451200001,42.735290527],[120.45611572300001,42.685302734],[120.46789550800001,42.656921387],[120.48352050800001,42.625488281],[120.51007080100001,42.589111328],[120.53692627,42.553894043],[120.56188964800002,42.522521973],[120.59069824200002,42.471496582],[120.61047363300001,42.432312012],[120.63189697300001,42.410095215],[120.68768310500002,42.383483887],[120.73529052700002,42.370910645],[120.76489257800002,42.339111328],[120.78491210900002,42.30090332],[120.80187988300001,42.275878906],[120.82830810500002,42.246276855]]]}}
