{"type":"Feature","id":"bulk-99377448B39146975927235","bbox":[123.55572509800001,40.797302246,125.73132324200002,41.557128906],"properties":{"id":"bulk-99377448B39146975927235","name":"Benxi","nameEn":"Benxi","fullName":"Benxi","level":"city","boundaryRole":"administrative-extent","boundaryQuality":"generalized-source-2020","boundaryYearRepresented":"2020","bounds":[[123.55572509800001,40.797302246],[125.73132324200002,41.557128906]],"center":[124.64352417,41.177215576],"centerMethod":"bounding-box midpoint; camera framing only","license":"CC-BY-3.0-IGO","attribution":"geoBoundaries / HDX, China administrative boundaries (2020)","source":{"provider":"geoBoundaries gbHumanitarian / HDX","url":"https://github.com/wmgeolab/geoBoundaries/raw/9469f09/releaseData/gbHumanitarian/CHN/ADM2/geoBoundaries-CHN-ADM2.geojson","metadataUrl":"https://www.geoboundaries.org/api/current/gbHumanitarian/CHN/ADM2/","shapeID":"99377448B39146975927235","shapeName":"Benxi","boundaryID":"CHN-ADM2-99377448","commit":"9469f09"},"geometryCounts":{"coordinates":159,"components":1,"holes":0},"boundaryNotice":"geoBoundaries / HDX 2020 年行政区数据，海岸和边界经过源数据概化，并非当前测绘成果。"},"geometry":{"type":"Polygon","coordinates":[[[123.58068847700001,40.843688965],[123.60552978500002,40.811706543],[123.64208984400001,40.797302246],[123.67852783200001,40.803527832],[123.72528076200001,40.821899414],[123.77087402300002,40.837524414],[123.81610107400002,40.835693359],[123.84368896500001,40.815307617],[123.88287353500002,40.809875488],[123.92071533200001,40.829284668],[123.95629882800002,40.855712891],[124.00592041000002,40.851501465],[124.03668212900001,40.837280273],[124.08929443400001,40.830322266],[124.11572265600002,40.849914551],[124.12890625000001,40.891113281],[124.11151123000002,40.937683105],[124.097473145,40.962280273],[124.08007812500001,41.024108887],[124.12109375000001,41.018676758],[124.16430664100001,41.012695312],[124.17687988300001,41.038879395],[124.19470214800002,41.068908691],[124.25408935500002,41.070495605],[124.28649902300002,41.055114746],[124.31671142600001,41.035705566],[124.36932373000002,41.049072266],[124.41949462900001,41.040283203],[124.46228027300002,41.043273926],[124.503723145,41.061523437],[124.54107666000002,41.076477051],[124.58270263700001,41.080078125],[124.62030029300001,41.087524414],[124.66308593700002,41.105285645],[124.68432617200001,41.154296875],[124.75207519500002,41.130310059],[124.81451416000002,41.110290527],[124.90490722700001,41.087280273],[124.94348144500002,41.079284668],[124.99688720700001,41.080322266],[125.03668212900001,41.083679199],[125.08752441400001,41.069091797],[125.13647460900002,41.066894531],[125.17529296900001,41.068115234],[125.23107910200001,41.075073242],[125.27331543000001,41.052307129],[125.29907226600001,41.02532959],[125.31927490200002,40.999694824],[125.34112548800002,40.992919922],[125.38610839800002,41.017089844],[125.39910888700001,41.01550293],[125.41247558600001,40.974914551],[125.44628906200002,40.987304687],[125.47290039100001,40.987487793],[125.48510742200001,40.982910156],[125.46789550800001,40.922912598],[125.53552246100001,40.928100586],[125.57128906200002,40.946716309],[125.57708740200002,40.952514648],[125.62487793000001,40.981079102],[125.66668701200001,41.038879395],[125.65649414100001,41.070678711],[125.65911865200002,41.105285645],[125.73132324200002,41.122070312],[125.71368408200001,41.164489746],[125.69769287100002,41.181518555],[125.69250488300001,41.202880859],[125.69311523400002,41.222473145],[125.68908691400001,41.237304687],[125.64569091800001,41.252319336],[125.62969970700001,41.274719238],[125.57830810500002,41.297729492],[125.55670166000002,41.316711426],[125.57171630900001,41.35168457],[125.55627441400001,41.359924316],[125.51672363300001,41.377075195],[125.51330566400001,41.411071777],[125.47412109400001,41.48651123],[125.44287109400001,41.547485352],[125.43811035200001,41.557128906],[125.37768554700001,41.531921387],[125.34448242200001,41.516113281],[125.31152343700002,41.494689941],[125.27087402300002,41.462890625],[125.23608398400002,41.444519043],[125.19207763700001,41.442871094],[125.15551757800002,41.458129883],[125.11352539100001,41.471130371],[125.07592773400002,41.473876953],[125.04650878900001,41.45690918],[125.00549316400001,41.448913574],[124.98150634800001,41.471313477],[124.94268798800002,41.486328125],[124.89910888700001,41.479919434],[124.86987304700001,41.461120605],[124.84552002,41.43347168],[124.83068847700001,41.401306152],[124.82891845700001,41.366271973],[124.83148193400001,41.33807373],[124.82232666000002,41.303894043],[124.79730224600002,41.283691406],[124.76208496100001,41.265075684],[124.72027587900001,41.243713379],[124.71887207000002,41.216491699],[124.67852783200001,41.211486816],[124.61749267600001,41.202514648],[124.59368896500001,41.22668457],[124.56848144500002,41.246520996],[124.52148437500001,41.26171875],[124.48931884800001,41.289672852],[124.45648193400001,41.306091309],[124.41308593700002,41.298095703],[124.37829589800002,41.288879395],[124.36810302700002,41.316894531],[124.35412597700001,41.347290039],[124.33227539100001,41.372070312],[124.30609130900001,41.40032959],[124.30847168000001,41.441711426],[124.28149414100001,41.462524414],[124.27191162100002,41.491088867],[124.24572753900001,41.510314941],[124.195129395,41.502685547],[124.14709472700001,41.49609375],[124.09368896500001,41.483703613],[124.05432128900001,41.483520508],[124.01470947300001,41.503479004],[123.98150634800001,41.527526855],[123.93292236300002,41.536315918],[123.90728759800001,41.512878418],[123.87329101600001,41.526489258],[123.83392334000001,41.516479492],[123.81372070300002,41.491882324],[123.78247070300002,41.470703125],[123.74548339800002,41.469909668],[123.73870849600002,41.506713867],[123.69348144500002,41.502075195],[123.63732910200001,41.480529785],[123.60107421900001,41.477111816],[123.55572509800001,41.467712402],[123.59832763700001,41.438476562],[123.62927246100001,41.42388916],[123.61529541000002,41.383728027],[123.60870361300002,41.353271484],[123.60827636700002,41.313110352],[123.61029052700002,41.282287598],[123.61291503900001,41.245910645],[123.58868408200001,41.221679687],[123.56072998000002,41.194702148],[123.57287597700001,41.16607666],[123.60430908200001,41.145324707],[123.61889648400002,41.113098145],[123.63409423800002,41.078125],[123.65191650400001,41.051513672],[123.61029052700002,40.996276855],[123.60168457000002,40.965270996],[123.61267089800002,40.936889648],[123.59948730500001,40.90411377],[123.58532714800002,40.870910645],[123.58068847700001,40.843688965]]]}}
