{"type":"Feature","id":"bulk-99377448B64858547063329","bbox":[111.86932373000002,27.82208252,114.24688720700001,28.623901367],"properties":{"id":"bulk-99377448B64858547063329","name":"Changsha","nameEn":"Changsha","fullName":"Changsha","level":"city","boundaryRole":"administrative-extent","boundaryQuality":"generalized-source-2020","boundaryYearRepresented":"2020","bounds":[[111.86932373000002,27.82208252],[114.24688720700001,28.623901367]],"center":[113.05810546850002,28.2229919435],"centerMethod":"bounding-box midpoint; camera framing only","license":"CC-BY-3.0-IGO","attribution":"geoBoundaries / HDX, China administrative boundaries (2020)","source":{"provider":"geoBoundaries gbHumanitarian / HDX","url":"https://github.com/wmgeolab/geoBoundaries/raw/9469f09/releaseData/gbHumanitarian/CHN/ADM2/geoBoundaries-CHN-ADM2.geojson","metadataUrl":"https://www.geoboundaries.org/api/current/gbHumanitarian/CHN/ADM2/","shapeID":"99377448B64858547063329","shapeName":"Changsha","boundaryID":"CHN-ADM2-99377448","commit":"9469f09"},"geometryCounts":{"coordinates":176,"components":1,"holes":0},"boundaryNotice":"geoBoundaries / HDX 2020 年行政区数据，海岸和边界经过源数据概化，并非当前测绘成果。"},"geometry":{"type":"Polygon","coordinates":[[[113.83990478500002,27.996704102],[113.88610839800002,28.004882812],[113.89770507800002,28.017272949],[113.93267822300001,28.019897461],[113.98229980500001,28.033691406],[114.00549316400001,28.049072266],[114.02032470700001,28.06652832],[114.02307128900001,28.077087402],[114.02752685500002,28.093078613],[113.99169921900001,28.124511719],[113.97027587900001,28.162719727],[113.97192382800002,28.174316406],[114.05151367200001,28.193481445],[114.07287597700001,28.218688965],[114.09527587900001,28.238708496],[114.13507080100001,28.262512207],[114.19451904300001,28.284118652],[114.21728515600002,28.31652832],[114.24688720700001,28.362121582],[114.24127197300001,28.36907959],[114.21447753900001,28.40411377],[114.20550537100002,28.414123535],[114.171875,28.419677734],[114.15728759800001,28.44329834],[114.18347168000001,28.456726074],[114.20068359400001,28.478515625],[114.19952392600001,28.50012207],[114.14727783200001,28.509521484],[114.11108398400002,28.534729004],[114.10290527300002,28.539916992],[114.04327392600001,28.50769043],[114.00988769500002,28.513305664],[113.96887207000002,28.51550293],[113.93627929700001,28.48828125],[113.90527343700002,28.471679687],[113.86810302700002,28.46472168],[113.81970214800002,28.467529297],[113.77789306600002,28.448913574],[113.75891113300001,28.42388916],[113.72332763700001,28.412109375],[113.67492675800001,28.409912109],[113.62072753900001,28.42010498],[113.60589599600002,28.450683594],[113.59271240200002,28.481323242],[113.55529785200001,28.498291016],[113.51507568400001,28.498291016],[113.46789550800001,28.506103516],[113.45147705100001,28.533081055],[113.43347168000001,28.555908203],[113.37731933600001,28.57409668],[113.34967041000002,28.599121094],[113.28771972700001,28.587890625],[113.25091552700002,28.596923828],[113.21728515600002,28.596313477],[113.18072509800001,28.623901367],[113.14947509800001,28.577697754],[113.15069580100001,28.545288086],[113.15692138700001,28.512878418],[113.15112304700001,28.476928711],[113.11712646500001,28.447692871],[113.08850097700001,28.460876465],[113.05310058600001,28.481689453],[113.01788330100001,28.471679687],[112.98767089800002,28.452087402],[112.93969726600001,28.432312012],[112.91149902300002,28.494506836],[112.87408447300001,28.493286133],[112.84191894500002,28.481689453],[112.80371093700002,28.478515625],[112.77868652300002,28.502929687],[112.73712158200001,28.504882812],[112.71490478500002,28.486083984],[112.671691895,28.480102539],[112.64147949200002,28.489685059],[112.60729980500001,28.462524414],[112.57391357400002,28.414306641],[112.54907226600001,28.379272461],[112.54211425800001,28.349914551],[112.53430175800001,28.320922852],[112.50390625000001,28.300476074],[112.46350097700001,28.309326172],[112.43371582000002,28.301513672],[112.38690185500002,28.280090332],[112.34667968700002,28.261901855],[112.28149414100001,28.263305664],[112.24127197300001,28.220703125],[112.21569824200002,28.198486328],[112.18249511700002,28.188110352],[112.15069580100001,28.208679199],[112.12768554700001,28.243713379],[112.09289550800001,28.253112793],[112.05187988300001,28.247680664],[112.00671386700002,28.24609375],[111.96508789100001,28.227111816],[111.92968750000001,28.205688477],[111.89727783200001,28.177307129],[111.89489746100001,28.144714355],[111.89190673800002,28.116088867],[111.86932373000002,28.082092285],[111.88409423800002,28.047485352],[111.87432861300002,28.013122559],[111.90551757800002,27.969299316],[111.93572998000002,27.961730957],[111.95269775400001,27.934875488],[111.96490478500002,27.908081055],[111.97808837900001,27.872680664],[112.02252197300001,27.870727539],[112.05627441400001,27.871704102],[112.09088134800001,27.880493164],[112.12432861300002,27.90411377],[112.14367675800001,27.928710937],[112.18829345700001,27.949279785],[112.23071289100001,27.944702148],[112.27612304700001,27.939086914],[112.31909179700001,27.940673828],[112.36010742200001,27.949890137],[112.38067627,27.975708008],[112.38031005900001,28.007873535],[112.40490722700001,28.028320312],[112.44171142600001,28.028930664],[112.47692871100001,28.011291504],[112.48950195300002,27.982116699],[112.50927734400001,27.958679199],[112.53527832000002,27.943908691],[112.56890869100002,27.917724609],[112.58251953100002,27.893493652],[112.61352539100001,27.874511719],[112.63507080100001,27.896728516],[112.67089843700002,27.906311035],[112.70111084000001,27.915893555],[112.71929931600002,27.937683105],[112.72888183600001,27.993530273],[112.73571777300002,28.056091309],[112.78967285200001,28.049316406],[112.80847168000001,28.024108887],[112.82952880900001,27.980529785],[112.85992431600002,27.950317383],[112.89611816400001,27.951721191],[112.94427490200002,27.956115723],[112.97528076200001,27.945922852],[112.99768066400001,27.979309082],[113.02148437500001,28.034118652],[113.05932617200001,27.998291016],[113.06292724600002,27.968322754],[113.05590820300002,27.940124512],[113.08227539100001,27.918273926],[113.11450195300002,27.954284668],[113.11791992200001,27.98828125],[113.14068603500002,28.008911133],[113.16711425800001,28.029296875],[113.21368408200001,27.988891602],[113.23107910200001,27.966674805],[113.24969482400002,27.92767334],[113.25988769500002,27.878295898],[113.26409912100002,27.84387207],[113.29089355500001,27.828308105],[113.32128906200002,27.82208252],[113.35992431600002,27.839477539],[113.37988281200002,27.866882324],[113.40930175800001,27.889282227],[113.45971679700001,27.906677246],[113.495910645,27.924499512],[113.53192138700001,27.940124512],[113.57189941400001,27.93927002],[113.57507324200002,27.901672363],[113.59051513700001,27.878295898],[113.63208007800002,27.863708496],[113.67132568400001,27.86151123],[113.69732666000002,27.864501953],[113.70910644500002,27.917480469],[113.72308349600002,27.93951416],[113.72888183600001,27.957275391],[113.75988769500002,27.96887207],[113.78289794900002,27.981689453],[113.82531738300001,27.99407959],[113.83990478500002,27.996704102]]]}}
