{"type":"Feature","id":"bulk-99377448B3914993872907","bbox":[98.69171142600001,23.083679199,100.56512451200001,25.033691406],"properties":{"id":"bulk-99377448B3914993872907","name":"Lincang","nameEn":"Lincang","fullName":"Lincang","level":"city","boundaryRole":"administrative-extent","boundaryQuality":"generalized-source-2020","boundaryYearRepresented":"2020","bounds":[[98.69171142600001,23.083679199],[100.56512451200001,25.033691406]],"center":[99.62841796900001,24.0586853025],"centerMethod":"bounding-box midpoint; camera framing only","license":"CC-BY-3.0-IGO","attribution":"geoBoundaries / HDX, China administrative boundaries (2020)","source":{"provider":"geoBoundaries gbHumanitarian / HDX","url":"https://github.com/wmgeolab/geoBoundaries/raw/9469f09/releaseData/gbHumanitarian/CHN/ADM2/geoBoundaries-CHN-ADM2.geojson","metadataUrl":"https://www.geoboundaries.org/api/current/gbHumanitarian/CHN/ADM2/","shapeID":"99377448B3914993872907","shapeName":"Lincang","boundaryID":"CHN-ADM2-99377448","commit":"9469f09"},"geometryCounts":{"coordinates":328,"components":1,"holes":0},"boundaryNotice":"geoBoundaries / HDX 2020 年行政区数据，海岸和边界经过源数据概化，并非当前测绘成果。"},"geometry":{"type":"Polygon","coordinates":[[[98.88549804700001,24.145324707],[98.88732910200001,24.142883301],[98.88812255900001,24.138916016],[98.89428710900002,24.128112793],[98.89447021500001,24.115722656],[98.89532470700001,24.115722656],[98.89868164100001,24.110107422],[98.89770507800002,24.106323242],[98.894714355,24.102722168],[98.89508056600002,24.081115723],[98.87048339800002,24.046081543],[98.82373046900001,24.021484375],[98.80828857400002,24.017089844],[98.75891113300001,23.972717285],[98.71368408200001,23.965881348],[98.69171142600001,23.956481934],[98.69348144500002,23.956481934],[98.69812011700002,23.95489502],[98.69689941400001,23.946899414],[98.70471191400001,23.940673828],[98.70471191400001,23.937072754],[98.69567871100001,23.937072754],[98.69488525400001,23.936096191],[98.69671630900001,23.927124023],[98.71447753900001,23.905090332],[98.703308105,23.867675781],[98.70751953100002,23.827270508],[98.69610595700001,23.791687012],[98.70031738300001,23.786499023],[98.70629882800002,23.79107666],[98.71307373,23.79309082],[98.72192382800002,23.792480469],[98.72827148400002,23.790100098],[98.73590087900001,23.79107666],[98.74670410200001,23.784301758],[98.74871826200001,23.778503418],[98.75091552700002,23.776672363],[98.77087402300002,23.779907227],[98.77447509800001,23.780883789],[98.77569580100001,23.782897949],[98.78607177700002,23.784484863],[98.79290771500001,23.781311035],[98.79528808600001,23.776489258],[98.80828857400002,23.769470215],[98.80767822300001,23.767700195],[98.80651855500001,23.767089844],[98.81829834000001,23.757873535],[98.82391357400002,23.73651123],[98.82452392600001,23.734924316],[98.83068847700001,23.730102539],[98.82629394500002,23.727294922],[98.828308105,23.719116211],[98.82568359400001,23.699279785],[98.82952880900001,23.694274902],[98.83148193400001,23.693725586],[98.83990478500002,23.689086914],[98.84008789100001,23.679077148],[98.85632324200002,23.656311035],[98.86248779300001,23.629516602],[98.86431884800001,23.627929687],[98.87731933600001,23.62512207],[98.89093017600001,23.617492676],[98.89068603500002,23.606323242],[98.88470459000001,23.598083496],[98.90307617200001,23.585510254],[98.89331054700001,23.568725586],[98.87487793000001,23.563903809],[98.83868408200001,23.550720215],[98.82507324200002,23.540893555],[98.83190918000001,23.495300293],[98.83587646500001,23.478088379],[98.83648681600002,23.478088379],[98.84887695300002,23.481506348],[98.84771728500002,23.48248291],[98.84930419900002,23.484130859],[98.85552978500002,23.485717773],[98.86267089800002,23.48651123],[98.87408447300001,23.488891602],[98.87689209000001,23.489074707],[98.87707519500002,23.488891602],[98.87750244100002,23.489074707],[98.886901855,23.479919434],[98.89208984400001,23.474914551],[98.90667724600002,23.446716309],[98.92071533200001,23.420898437],[98.92108154300001,23.420898437],[98.92108154300001,23.420288086],[98.94427490200002,23.377502441],[98.94049072300001,23.366882324],[98.92132568400001,23.328491211],[98.92291259800001,23.328308105],[98.92791748,23.323486328],[98.92767334000001,23.323303223],[98.94171142600001,23.318908691],[98.95727539100001,23.305725098],[98.95428466800001,23.272888184],[98.94171142600001,23.239074707],[98.92028808600001,23.219116211],[98.90429687500001,23.18951416],[98.90472412100002,23.185302734],[98.90667724600002,23.188293457],[98.91131591800001,23.189086914],[98.91467285200001,23.186706543],[98.92248535200001,23.188476562],[98.92712402300002,23.1875],[98.93188476600001,23.18170166],[98.93627929700001,23.18170166],[98.93872070300002,23.18371582],[98.94128418000001,23.181884766],[98.95251464800002,23.180114746],[98.95452880900001,23.175720215],[98.96307373,23.171508789],[98.96710205100001,23.170715332],[98.96868896500001,23.170715332],[98.97729492200001,23.171508789],[98.98651123,23.167297363],[98.99371337900001,23.166320801],[99.05749511700002,23.168701172],[99.06091308600001,23.173706055],[99.06109619100002,23.168884277],[99.06848144500002,23.169128418],[99.07427978500002,23.146484375],[99.06988525400001,23.126708984],[99.07891845700001,23.10949707],[99.08587646500001,23.106079102],[99.09088134800001,23.105529785],[99.12072753900001,23.107910156],[99.15692138700001,23.110900879],[99.18249511700002,23.106872559],[99.18267822300001,23.106872559],[99.18310546900001,23.106872559],[99.18969726600001,23.105712891],[99.20007324200002,23.111694336],[99.20550537100002,23.10949707],[99.20831298800002,23.104675293],[99.20812988300001,23.102905273],[99.26068115200002,23.094726562],[99.26110839800002,23.096679687],[99.26452636700002,23.100708008],[99.27111816400001,23.100097656],[99.27508544900002,23.098083496],[99.27929687500001,23.106872559],[99.28967285200001,23.108886719],[99.29632568400001,23.107116699],[99.29772949200002,23.104309082],[99.30108642600001,23.102478027],[99.304870605,23.101501465],[99.30529785200001,23.103271484],[99.30987548800002,23.106689453],[99.32067871100001,23.110290527],[99.32391357400002,23.112487793],[99.32531738300001,23.116088867],[99.32208252,23.12109375],[99.32568359400001,23.126708984],[99.32867431600002,23.136108398],[99.33752441400001,23.13269043],[99.34570312500001,23.137512207],[99.34869384800001,23.137329102],[99.34869384800001,23.13269043],[99.35369873,23.131286621],[99.35852050800001,23.130126953],[99.36328125000001,23.126281738],[99.36407470700001,23.116271973],[99.36828613300001,23.116699219],[99.36932373,23.115478516],[99.36950683600001,23.115722656],[99.38171386700002,23.108276367],[99.38287353500002,23.108093262],[99.38311767600001,23.10748291],[99.39410400400001,23.100891113],[99.40447998,23.096923828],[99.40948486300002,23.097900391],[99.41412353500002,23.096923828],[99.42547607400002,23.092529297],[99.43029785200001,23.088684082],[99.43591308600001,23.087097168],[99.43951416000002,23.086303711],[99.461120605,23.085327148],[99.46691894500002,23.084899902],[99.47271728500002,23.083679199],[99.47430419900002,23.083679199],[99.47827148400002,23.086730957],[99.48107910200001,23.086914062],[99.48547363300001,23.08392334],[99.48828125000001,23.08392334],[99.53112793000001,23.13067627],[99.57611084000001,23.170471191],[99.62451171900001,23.184326172],[99.65667724600002,23.194091797],[99.68829345700001,23.243713379],[99.71710205100001,23.211303711],[99.74188232400002,23.19909668],[99.76348877,23.215698242],[99.80969238300001,23.220275879],[99.83288574200002,23.222473145],[99.85748291000002,23.210327148],[99.88067627,23.212524414],[99.90228271500001,23.229125977],[99.92388916000002,23.245727539],[99.94689941400001,23.247924805],[99.99487304700001,23.237915039],[100.02111816400001,23.211120605],[100.08447265600002,23.202514648],[100.11151123,23.223327637],[100.11529541000002,23.251281738],[100.10168457000002,23.288513184],[100.10772705100001,23.32989502],[100.12310791000002,23.354675293],[100.12768554700001,23.383117676],[100.12768554700001,23.410522461],[100.14868164100001,23.432922363],[100.17047119100002,23.46270752],[100.20947265600002,23.563720703],[100.19989013700001,23.609924316],[100.20648193400001,23.63848877],[100.22808837900001,23.665100098],[100.25830078100002,23.678710937],[100.29211425800001,23.671875],[100.32427978500002,23.658081055],[100.35968017600001,23.648681641],[100.39569091800001,23.642883301],[100.44171142600001,23.659729004],[100.44970703100002,23.693908691],[100.43048095700001,23.728881836],[100.40393066400001,23.741516113],[100.36468505900001,23.753112793],[100.36029052700002,23.780883789],[100.36730957000002,23.814880371],[100.37927246100001,23.847717285],[100.44348144500002,23.868530273],[100.41851806600002,23.989318848],[100.41027832000002,24.000915527],[100.39727783200001,24.033691406],[100.38128662100002,24.0625],[100.40832519500002,24.074890137],[100.44372558600001,24.071899414],[100.47827148400002,24.071289062],[100.50927734400001,24.079711914],[100.52868652300002,24.113525391],[100.53350830100001,24.141906738],[100.53991699200002,24.201293945],[100.53308105500001,24.244689941],[100.53833007800002,24.281494141],[100.53472900400001,24.309875488],[100.53167724600002,24.33807373],[100.52148437500001,24.38067627],[100.538879395,24.426696777],[100.56512451200001,24.442687988],[100.54992675800001,24.468322754],[100.53369140600002,24.503479004],[100.51751709000001,24.537109375],[100.504882812,24.562683105],[100.47607421900001,24.607727051],[100.45367431600002,24.628112793],[100.437683105,24.652282715],[100.43072509800001,24.678894043],[100.39630127,24.762329102],[100.37188720700001,24.736328125],[100.33428955100001,24.739929199],[100.29272460900002,24.73828125],[100.252929687,24.728088379],[100.21911621100001,24.731689453],[100.18908691400001,24.711303711],[100.16491699200002,24.682678223],[100.15289306600002,24.656494141],[100.11791992200001,24.655517578],[100.10571289100001,24.684082031],[100.11627197300001,24.709716797],[100.14147949200002,24.728881836],[100.171875,24.74810791],[100.18048095700001,24.79309082],[100.18707275400001,24.82232666],[100.20507812500001,24.862487793],[100.21667480500001,24.887878418],[100.22528076200001,24.917297363],[100.21948242200001,24.992919922],[100.195129395,25.022888184],[100.15991210900002,25.033691406],[100.15728759800001,25.003112793],[100.14331054700001,24.984924316],[100.12628173800002,24.966674805],[100.09210205100001,24.938110352],[100.04827880900001,24.888916016],[100.02288818400001,24.863525391],[100.00030517600001,24.83807373],[99.96807861300002,24.79888916],[99.92272949200002,24.759094238],[99.87530517600001,24.725891113],[99.84649658200001,24.709716797],[99.82647705100001,24.708312988],[99.77429199200002,24.68951416],[99.74468994100002,24.676513672],[99.71990966800001,24.655883789],[99.70007324200002,24.629272461],[99.671875,24.598693848],[99.66668701200001,24.5625],[99.66528320300002,24.524475098],[99.67449951200001,24.491516113],[99.68249511700002,24.459289551],[99.63732910200001,24.457702637],[99.61407470700001,24.422485352],[99.60229492200001,24.385681152],[99.56652832000002,24.364501953],[99.52429199200002,24.34552002],[99.50091552700002,24.319091797],[99.48089599600002,24.288085937],[99.45111084000001,24.260070801],[99.403320312,24.252929687],[99.37487793000001,24.288085937],[99.37170410200001,24.315124512],[99.37329101600001,24.343322754],[99.36352539100001,24.384887695],[99.344726562,24.423522949],[99.31970214800002,24.463684082],[99.28167724600002,24.454528809],[99.26391601600001,24.431091309],[99.23791503900001,24.385314941],[99.21429443400001,24.347290039],[99.18670654300001,24.312683105],[99.15948486300002,24.292907715],[99.12451171900001,24.274719238],[99.096679687,24.26348877],[99.04632568400001,24.245117187],[99.01647949200002,24.236083984],[98.98748779300001,24.22052002],[98.96228027300002,24.205688477],[98.92749023400002,24.18347168],[98.88549804700001,24.145324707]]]}}
