{"type":"Feature","id":"bulk-99377448B4754518859171","bbox":[100.82928466800001,33.122070312,104.74267578100002,35.531494141],"properties":{"id":"bulk-99377448B4754518859171","name":"Gannan Tibetan Autonomous Prefecture","nameEn":"Gannan Tibetan Autonomous Prefecture","fullName":"Gannan Tibetan Autonomous Prefecture","level":"city","boundaryRole":"administrative-extent","boundaryQuality":"generalized-source-2020","boundaryYearRepresented":"2020","bounds":[[100.82928466800001,33.122070312],[104.74267578100002,35.531494141]],"center":[102.78598022450001,34.3267822265],"centerMethod":"bounding-box midpoint; camera framing only","license":"CC-BY-3.0-IGO","attribution":"geoBoundaries / HDX, China administrative boundaries (2020)","source":{"provider":"geoBoundaries gbHumanitarian / HDX","url":"https://github.com/wmgeolab/geoBoundaries/raw/9469f09/releaseData/gbHumanitarian/CHN/ADM2/geoBoundaries-CHN-ADM2.geojson","metadataUrl":"https://www.geoboundaries.org/api/current/gbHumanitarian/CHN/ADM2/","shapeID":"99377448B4754518859171","shapeName":"Gannan Tibetan Autonomous Prefecture","boundaryID":"CHN-ADM2-99377448","commit":"9469f09"},"geometryCounts":{"coordinates":344,"components":1,"holes":0},"boundaryNotice":"geoBoundaries / HDX 2020 年行政区数据，海岸和边界经过源数据概化，并非当前测绘成果。"},"geometry":{"type":"Polygon","coordinates":[[[104.43627929700001,33.312072754],[104.46411132800002,33.303283691],[104.48651123000002,33.292480469],[104.50268554700001,33.275878906],[104.51031494100002,33.261474609],[104.52630615200002,33.245483398],[104.56091308600001,33.235107422],[104.60009765600002,33.221130371],[104.63470459000001,33.227111816],[104.65209960900002,33.256896973],[104.67309570300002,33.289672852],[104.72192382800002,33.298278809],[104.74267578100002,33.338684082],[104.72491455100001,33.379699707],[104.71667480500001,33.40612793],[104.70227050800001,33.430297852],[104.67327880900001,33.458679199],[104.64367675800001,33.483886719],[104.60748291000002,33.503479004],[104.57208252,33.520507812],[104.56628418000001,33.56072998],[104.53808593700002,33.605285645],[104.51910400400001,33.640319824],[104.503723145,33.684509277],[104.51452636700002,33.709899902],[104.52349853500002,33.743530273],[104.48968505900001,33.759887695],[104.45227050800001,33.777282715],[104.43328857400002,33.808105469],[104.39947509800001,33.840515137],[104.34930419900002,33.865722656],[104.31311035200001,33.882507324],[104.27227783200001,33.903686523],[104.22210693400001,33.930297852],[104.17791748000002,33.953308105],[104.12652587900001,33.979919434],[104.05828857400002,34.015686035],[104.04852294900002,34.05847168],[104.04290771500001,34.094726562],[104.02087402300002,34.143310547],[103.98492431600002,34.165893555],[103.95867919900002,34.187316895],[103.93450927700002,34.22088623],[103.91589355500001,34.247924805],[103.87847900400001,34.276489258],[103.83972168000001,34.280700684],[103.79711914100001,34.28112793],[103.75469970700001,34.276916504],[103.71569824200002,34.283691406],[103.73107910200001,34.316711426],[103.75769043000001,34.345703125],[103.78009033200001,34.386108398],[103.79772949200002,34.419128418],[103.81292724600002,34.457092285],[103.81549072300001,34.493896484],[103.81768798800002,34.521911621],[103.81951904300001,34.55090332],[103.82507324200002,34.579284668],[103.84051513700001,34.616271973],[103.85748291000002,34.652099609],[103.85968017600001,34.682922363],[103.862304687,34.72052002],[103.89630127,34.751098633],[103.93792724600002,34.736877441],[103.97827148400002,34.721130371],[104.02172851600001,34.756896973],[104.00311279300001,34.780273437],[103.98352050800001,34.814880371],[103.99108886700002,34.841674805],[104.02392578100002,34.873474121],[104.03808593700002,34.913085937],[103.97369384800001,34.911315918],[103.93768310500002,34.93347168],[103.91168212900001,34.962280273],[103.829101562,34.992126465],[103.81707763700001,34.959716797],[103.79089355500001,34.977111816],[103.73309326200001,34.955505371],[103.729492187,34.992675781],[103.71252441400001,35.03112793],[103.66851806600002,35.074707031],[103.60650634800001,35.088684082],[103.56390380900001,35.107910156],[103.52990722700001,35.135498047],[103.49908447300001,35.121520996],[103.45129394500002,35.116088867],[103.38330078100002,35.11932373],[103.33111572300001,35.146484375],[103.30810546900001,35.186706543],[103.278320312,35.218078613],[103.22747802700002,35.230895996],[103.17987060500002,35.229492187],[103.14093017600001,35.228515625],[103.09088134800001,35.254516602],[103.03332519500002,35.269470215],[103.00329589800002,35.253112793],[102.96868896500001,35.239074707],[102.96331787100002,35.267883301],[102.96612548800002,35.3046875],[102.96289062500001,35.338928223],[102.95910644500002,35.372680664],[102.95709228500002,35.401489258],[102.93267822300001,35.443115234],[102.89929199200002,35.46270752],[102.87048339800002,35.487487793],[102.81127929700001,35.493530273],[102.76507568400001,35.477111816],[102.71508789100001,35.514099121],[102.71350097700001,35.512878418],[102.58929443400001,35.531494141],[102.51251220700001,35.52331543],[102.44390869100002,35.418884277],[102.43908691400001,35.419494629],[102.31207275400001,35.434082031],[102.31689453100002,35.365112305],[102.29132080100001,35.282714844],[102.34649658200001,35.278930664],[102.34613037100002,35.261108398],[102.40368652300002,35.233520508],[102.43249511700002,35.190917969],[102.38128662100002,35.152282715],[102.31591796900001,35.111877441],[102.29467773400002,35.0546875],[102.26647949200002,35.057312012],[102.19750976600001,35.022094727],[102.11987304700001,34.984924316],[102.08648681600002,34.96887207],[102.03070068400001,34.96887207],[102.00671386700002,34.930908203],[101.93951416000002,34.878723145],[101.95587158200001,34.751708984],[101.90692138700001,34.730895996],[101.86468505900001,34.760925293],[101.83551025400001,34.74407959],[101.79351806600002,34.707275391],[101.76049804700001,34.690124512],[101.74407959000001,34.685302734],[101.72229003900001,34.671508789],[101.72351074200002,34.659118652],[101.75512695300002,34.617675781],[101.79229736300002,34.598327637],[101.80767822300001,34.599304199],[101.82232666000002,34.609680176],[101.854492187,34.643310547],[101.89611816400001,34.672302246],[101.93707275400001,34.67590332],[101.92907714800002,34.623901367],[101.96728515600002,34.553527832],[102.01727294900002,34.526916504],[102.028320312,34.520874023],[102.10809326200001,34.52331543],[102.18469238300001,34.489929199],[102.19647216800001,34.42767334],[102.22088623000002,34.369689941],[102.24450683600001,34.344482422],[102.17309570300002,34.327514648],[102.18591308600001,34.321289062],[102.19128418000001,34.278076172],[102.15887451200001,34.270690918],[102.08111572300001,34.283508301],[102.04791259800001,34.239501953],[102.03631591800001,34.190917969],[102.01312255900001,34.172912598],[102.00250244100002,34.164672852],[102.02709960900002,34.15032959],[102.01727294900002,34.105102539],[101.96868896500001,34.105529785],[101.93048095700001,34.143920898],[101.91809082000002,34.136108398],[101.87371826200001,34.071899414],[101.83789062500001,34.047729492],[101.79608154300001,34.038879395],[101.77630615200002,34.043701172],[101.73272705100001,34.090515137],[101.69708252,34.097473145],[101.66870117200001,34.111083984],[101.65032959000001,34.137878418],[101.63269043000001,34.158508301],[101.57171630900001,34.18548584],[101.50891113300001,34.193481445],[101.45892334000001,34.224487305],[101.36810302700002,34.239929199],[101.34411621100001,34.247497559],[101.31927490200002,34.261291504],[101.24230957000002,34.290100098],[101.21832275400001,34.332092285],[101.05468750000001,34.339904785],[101.01690673800002,34.366516113],[101.00988769500002,34.371276855],[100.93048095700001,34.358520508],[100.84051513700001,34.340270996],[100.84008789100001,34.263671875],[100.83990478500002,34.250488281],[100.82928466800001,34.160705566],[100.88128662100002,34.092285156],[100.91607666000002,34.022094727],[100.91729736300002,34.020690918],[100.98370361300002,33.951293945],[101.05889892600001,33.891906738],[101.16467285200001,33.833679199],[101.19732666000002,33.788879395],[101.20471191400001,33.749328613],[101.18389892600001,33.699707031],[101.17828369100002,33.660095215],[101.26171875000001,33.671508789],[101.30487060500002,33.659484863],[101.35772705100001,33.658691406],[101.42327880900001,33.661682129],[101.45751953100002,33.664123535],[101.46807861300002,33.674072266],[101.53448486300002,33.700683594],[101.56512451200001,33.702697754],[101.58972168000001,33.688903809],[101.59851074200002,33.657470703],[101.60491943400001,33.597473145],[101.61187744100002,33.571289062],[101.60308837900001,33.531494141],[101.63507080100001,33.497314453],[101.663879395,33.484924316],[101.71148681600002,33.500671387],[101.76208496100001,33.521911621],[101.796875,33.525085449],[101.80548095700001,33.575683594],[101.82452392600001,33.614501953],[101.84527587900001,33.637512207],[101.86267089800002,33.616882324],[101.89587402300002,33.594299316],[101.91528320300002,33.555114746],[101.921875,33.490112305],[101.94171142600001,33.444702148],[101.94329834000001,33.429321289],[101.94952392600001,33.367492676],[101.93072509800001,33.325683594],[101.905273437,33.274291992],[101.84631347700001,33.251708984],[101.82409668000001,33.243896484],[101.82611084000001,33.225280762],[101.86767578100002,33.190917969],[101.90289306600002,33.146484375],[101.92767334000001,33.129516602],[101.95892334000001,33.122070312],[101.98828125000001,33.133483887],[102.01312255900001,33.191101074],[102.05731201200001,33.209472656],[102.09490966800001,33.215087891],[102.11352539100001,33.259887695],[102.13330078100002,33.292297363],[102.15551757800002,33.299926758],[102.17230224600002,33.285522461],[102.19927978500002,33.243530273],[102.21447753900001,33.244506836],[102.22729492200001,33.270324707],[102.22772216800001,33.305297852],[102.24267578100002,33.349121094],[102.26251220700001,33.381530762],[102.30627441400001,33.405883789],[102.32928466800001,33.404296875],[102.36932373000002,33.388122559],[102.39208984400001,33.389526367],[102.44171142600001,33.433105469],[102.47131347700001,33.444274902],[102.47808837900001,33.453918457],[102.46612548800002,33.49987793],[102.48632812500001,33.52911377],[102.48492431600002,33.544677734],[102.39672851600001,33.582702637],[102.37152099600002,33.606079102],[102.35412597700001,33.626708984],[102.33807373000002,33.712890625],[102.31567382800002,33.705322266],[102.29187011700002,33.71307373],[102.29028320300002,33.728515625],[102.30969238300001,33.767089844],[102.30090332000002,33.778930664],[102.26910400400001,33.789489746],[102.26690673800002,33.811096191],[102.26428222700001,33.838928223],[102.262695312,33.854309082],[102.23950195300002,33.855895996],[102.222473145,33.870483398],[102.18792724600002,33.908691406],[102.15429687500001,33.937683105],[102.153320312,33.946899414],[102.18249511700002,33.964294434],[102.19708252,33.971496582],[102.26251220700001,34.00012207],[102.30468750000001,33.99987793],[102.33288574200002,34.015686035],[102.36907959000001,34.031311035],[102.40948486300002,34.069274902],[102.45587158200001,34.091674805],[102.47229003900001,34.082092285],[102.51348877,34.055297852],[102.57647705100001,34.088500977],[102.65850830100001,34.074707031],[102.65808105500001,34.103088379],[102.61987304700001,34.134521484],[102.72747802700002,34.211914062],[102.73529052700002,34.235473633],[102.77209472700001,34.268920898],[102.78228759800001,34.278320312],[102.87829589800002,34.255310059],[102.89611816400001,34.278686523],[102.90191650400001,34.301086426],[102.93988037100002,34.297119141],[102.96307373000002,34.274475098],[102.98229980500001,34.25592041],[103.00128173800002,34.192077637],[103.05352783200001,34.175476074],[103.08807373000002,34.173095703],[103.14129638700001,34.144897461],[103.18328857400002,34.078918457],[103.15368652300002,34.039916992],[103.16088867200001,34.020874023],[103.12310791000002,33.960876465],[103.19189453100002,33.915893555],[103.19012451200001,33.859924316],[103.17852783200001,33.815673828],[103.19287109400001,33.776489258],[103.32830810500002,33.76171875],[103.39111328100002,33.744689941],[103.45190429700001,33.781677246],[103.47711181600002,33.82208252],[103.51928710900002,33.831298828],[103.50848388700001,33.721496582],[103.53607177700002,33.676879883],[103.54168701200001,33.67791748],[103.627929687,33.695678711],[103.70489502,33.680297852],[103.78192138700001,33.664489746],[103.84167480500001,33.685302734],[103.90130615200002,33.681274414],[104.00592041000002,33.677490234],[104.02050781200002,33.687072754],[104.05151367200001,33.683288574],[104.05548095700001,33.679870605],[104.18151855500001,33.57208252],[104.18988037100002,33.51751709],[104.20007324200002,33.450500488],[104.22692871100001,33.399291992],[104.27691650400001,33.372314453],[104.328125,33.329528809],[104.38049316400001,33.330078125],[104.43627929700001,33.312072754]]]}}
