{"type":"Feature","id":"bulk-99377448B65600049547351","bbox":[118.76971435500002,40.577697754,121.29547119100002,42.366088867],"properties":{"id":"bulk-99377448B65600049547351","name":"Chaoyang","nameEn":"Chaoyang","fullName":"Chaoyang","level":"city","boundaryRole":"administrative-extent","boundaryQuality":"generalized-source-2020","boundaryYearRepresented":"2020","bounds":[[118.76971435500002,40.577697754],[121.29547119100002,42.366088867]],"center":[120.03259277300002,41.4718933105],"centerMethod":"bounding-box midpoint; camera framing only","license":"CC-BY-3.0-IGO","attribution":"geoBoundaries / HDX, China administrative boundaries (2020)","source":{"provider":"geoBoundaries gbHumanitarian / HDX","url":"https://github.com/wmgeolab/geoBoundaries/raw/9469f09/releaseData/gbHumanitarian/CHN/ADM2/geoBoundaries-CHN-ADM2.geojson","metadataUrl":"https://www.geoboundaries.org/api/current/gbHumanitarian/CHN/ADM2/","shapeID":"99377448B65600049547351","shapeName":"Chaoyang","boundaryID":"CHN-ADM2-99377448","commit":"9469f09"},"geometryCounts":{"coordinates":202,"components":1,"holes":0},"boundaryNotice":"geoBoundaries / HDX 2020 年行政区数据，海岸和边界经过源数据概化，并非当前测绘成果。"},"geometry":{"type":"Polygon","coordinates":[[[119.11352539100001,40.585693359],[119.15032959000001,40.580871582],[119.19647216800001,40.577697754],[119.25152587900001,40.58392334],[119.29388427700002,40.594299316],[119.35290527300002,40.61730957],[119.39288330100001,40.649108887],[119.41192627,40.678283691],[119.42248535200001,40.704284668],[119.45568847700001,40.748474121],[119.47668457000002,40.774475098],[119.49548339800002,40.801086426],[119.53527832000002,40.778503418],[119.56909179700001,40.800109863],[119.59167480500001,40.778930664],[119.63208007800002,40.752685547],[119.65447998000002,40.782470703],[119.67071533200001,40.818115234],[119.71270752,40.805908203],[119.74987793000001,40.809326172],[119.77807617200001,40.832275391],[119.78228759800001,40.87109375],[119.80889892600001,40.892883301],[119.85107421900001,40.887512207],[119.88989257800002,40.887084961],[119.94030761700002,40.905273437],[119.96331787100002,40.926513672],[119.97967529300001,40.956115723],[119.97729492200001,40.999084473],[119.98187255900001,41.031921387],[119.99792480500001,41.062927246],[120.00909423800002,41.093322754],[120.06292724600002,41.054504395],[120.09509277300002,41.038085937],[120.12548828100002,40.996276855],[120.14270019500002,40.972717285],[120.14270019500002,40.914489746],[120.14270019500002,40.881286621],[120.19152832000002,40.905273437],[120.22167968700002,40.92010498],[120.25408935500002,40.935913086],[120.29388427700002,40.953674316],[120.33050537100002,40.951293945],[120.36767578100002,40.933288574],[120.40570068400001,40.943481445],[120.43792724600002,40.968322754],[120.48272705100001,40.963317871],[120.51428222700001,40.97668457],[120.54467773400002,41.004516602],[120.56170654300001,41.033081055],[120.57751464800002,41.064880371],[120.59429931600002,41.090881348],[120.62927246100001,41.122070312],[120.67492675800001,41.134521484],[120.74407959000001,41.153076172],[120.73107910200001,41.194274902],[120.71752929700001,41.229125977],[120.71350097700001,41.270080566],[120.72589111300002,41.30267334],[120.74987793000001,41.33972168],[120.76647949200002,41.373291016],[120.82910156200002,41.37512207],[120.86108398400002,41.388916016],[120.87408447300001,41.417724609],[120.88568115200002,41.444274902],[120.89788818400001,41.47088623],[120.91668701200001,41.506103516],[120.95227050800001,41.533508301],[120.97790527300002,41.563903809],[121.01367187500001,41.577270508],[121.05548095700001,41.582275391],[121.09692382800002,41.59967041],[121.12548828100002,41.622497559],[121.16552734400001,41.653503418],[121.19189453100002,41.676330566],[121.20812988300001,41.701721191],[121.22790527300002,41.735900879],[121.25708007800002,41.78729248],[121.26971435500002,41.8125],[121.29547119100002,41.838317871],[121.28411865200002,41.866088867],[121.23767089800002,41.864501953],[121.20410156200002,41.887878418],[121.18292236300002,41.913513184],[121.15930175800001,41.935119629],[121.12329101600001,41.947509766],[121.06829834000001,41.950317383],[121.03430175800001,41.960327148],[120.98272705100001,41.991699219],[120.99310302700002,42.003479004],[121.01367187500001,42.023681641],[121.01788330100001,42.051879883],[121.02227783200001,42.07989502],[121.02447509800001,42.095275879],[121.01068115200002,42.118530273],[121.00592041000002,42.144104004],[121.00170898400002,42.172912598],[120.98968505900001,42.208496094],[120.93627929700001,42.262878418],[120.89367675800001,42.269714355],[120.83349609400001,42.247680664],[120.82830810500002,42.246276855],[120.74810791000002,42.222290039],[120.66070556600002,42.198913574],[120.60827636700002,42.169921875],[120.56927490200002,42.148681641],[120.52130127,42.148925781],[120.46948242200001,42.14050293],[120.43048095700001,42.100524902],[120.43530273400002,42.074279785],[120.43768310500002,42.031311035],[120.39227294900002,41.99029541],[120.36187744100002,41.966674805],[120.24810791000002,41.96270752],[120.21173095700001,41.93170166],[120.17907714800002,41.893127441],[120.17712402300002,41.889526367],[120.14508056600002,41.834899902],[120.10748291000002,41.784301758],[120.08892822300001,41.722290039],[120.08447265600002,41.69152832],[120.05987548800002,41.680908203],[120.02288818400001,41.694519043],[119.99688720700001,41.704284668],[119.98468017600001,41.765686035],[119.99487304700001,41.830871582],[119.97192382800002,41.894104004],[119.88891601600001,41.987487793],[119.81091308600001,42.072509766],[119.82989502,42.104125977],[119.80792236300002,42.194885254],[119.74188232400002,42.207519531],[119.64648437500001,42.204528809],[119.59191894500002,42.220703125],[119.55828857400002,42.273925781],[119.52990722700001,42.337524414],[119.48211669900002,42.366088867],[119.46649169900002,42.34552002],[119.41668701200001,42.324279785],[119.36987304700001,42.293273926],[119.30511474600002,42.288513184],[119.22790527300002,42.219482422],[119.21630859400001,42.195678711],[119.23309326200001,42.160522461],[119.28027343700002,42.129516602],[119.31909179700001,42.099121094],[119.35009765600002,42.075317383],[119.35571289100001,42.053283691],[119.30328369100002,41.976501465],[119.28967285200001,41.937316895],[119.29492187500001,41.878295898],[119.28247070300002,41.848327637],[119.26171875000001,41.784729004],[119.27368164100001,41.746887207],[119.27587890600002,41.69732666],[119.27770996100001,41.644714355],[119.30889892600001,41.624084473],[119.34051513700001,41.606506348],[119.33850097700001,41.591125488],[119.30572509800001,41.565673828],[119.30212402300002,41.538085937],[119.33172607400002,41.505126953],[119.34527587900001,41.479492187],[119.34210205100001,41.455078125],[119.32208252,41.439880371],[119.29351806600002,41.405090332],[119.26812744100002,41.387084961],[119.26367187500001,41.362487793],[119.26647949200002,41.318725586],[119.238098145,41.305480957],[119.20709228500002,41.320129395],[119.18688964800002,41.305725098],[119.19488525400001,41.305297852],[119.19787597700001,41.299682617],[119.17071533200001,41.285522461],[119.16888427700002,41.258911133],[119.14331054700001,41.193908691],[119.12469482400002,41.157714844],[119.09252929700001,41.129516602],[119.03491210900002,41.112670898],[119.02349853500002,41.098327637],[119.01867675800001,41.086914062],[118.94311523400002,41.06048584],[118.90008544900002,41.043518066],[118.87731933600001,41.024475098],[118.92633056600002,40.995727539],[118.95251464800002,40.981689453],[118.92633056600002,40.963928223],[118.86389160200001,40.933898926],[118.81488037100002,40.904907227],[118.76971435500002,40.855102539],[118.80169677700002,40.804504395],[118.80010986300002,40.768127441],[118.84210205100001,40.751525879],[118.85791015600002,40.745300293],[118.91052246100001,40.718078613],[118.96990966800001,40.655883789],[119.03607177700002,40.644104004],[119.09710693400001,40.661499023],[119.13812255900001,40.662475586],[119.10150146500001,40.615112305],[119.11352539100001,40.585693359]]]}}
