{"type":"Feature","id":"bulk-99377448B34762839454528","bbox":[107.48352050800001,21.506896973,108.55950927700002,22.38470459],"properties":{"id":"bulk-99377448B34762839454528","name":"Fangchenggang","nameEn":"Fangchenggang","fullName":"Fangchenggang","level":"city","boundaryRole":"administrative-extent","boundaryQuality":"generalized-source-2020","boundaryYearRepresented":"2020","bounds":[[107.48352050800001,21.506896973],[108.55950927700002,22.38470459]],"center":[108.02151489250002,21.945800781499997],"centerMethod":"bounding-box midpoint; camera framing only","license":"CC-BY-3.0-IGO","attribution":"geoBoundaries / HDX, China administrative boundaries (2020)","source":{"provider":"geoBoundaries gbHumanitarian / HDX","url":"https://github.com/wmgeolab/geoBoundaries/raw/9469f09/releaseData/gbHumanitarian/CHN/ADM2/geoBoundaries-CHN-ADM2.geojson","metadataUrl":"https://www.geoboundaries.org/api/current/gbHumanitarian/CHN/ADM2/","shapeID":"99377448B34762839454528","shapeName":"Fangchenggang","boundaryID":"CHN-ADM2-99377448","commit":"9469f09"},"geometryCounts":{"coordinates":544,"components":5,"holes":0},"boundaryNotice":"geoBoundaries / HDX 2020 年行政区数据，海岸和边界经过源数据概化，并非当前测绘成果。"},"geometry":{"type":"MultiPolygon","coordinates":[[[[108.128723145,21.522094727],[108.16308593700002,21.52947998],[108.17211914100001,21.536071777],[108.187316895,21.538085937],[108.18670654300001,21.538879395],[108.16290283200001,21.547485352],[108.15747070300002,21.543884277],[108.15270996100001,21.53692627],[108.14288330100001,21.529724121],[108.13250732400002,21.525878906],[108.12548828100002,21.523498535],[108.128723145,21.522094727]]],[[[108.37451171900001,21.668273926],[108.37127685500002,21.674072266],[108.36590576200001,21.677490234],[108.36572265600002,21.683288574],[108.36291503900001,21.679870605],[108.36871337900001,21.674682617],[108.36492919900002,21.663513184],[108.36328125000001,21.661071777],[108.36431884800001,21.660888672],[108.36431884800001,21.65612793],[108.35729980500001,21.646728516],[108.35510253900001,21.638305664],[108.35089111300002,21.637084961],[108.35589599600002,21.628723145],[108.36352539100001,21.638305664],[108.36712646500001,21.63848877],[108.37011718700002,21.647277832],[108.37768554700001,21.649108887],[108.38189697300001,21.653686523],[108.38330078100002,21.663085937],[108.38629150400001,21.666320801],[108.38427734400001,21.668884277],[108.37451171900001,21.668273926]]],[[[108.32867431600002,21.66192627],[108.33569335900002,21.675476074],[108.33569335900002,21.67767334],[108.33728027300002,21.683105469],[108.33508300800001,21.688720703],[108.33227539100001,21.690673828],[108.32427978500002,21.676879883],[108.32708740200002,21.663879395],[108.32867431600002,21.66192627]]],[[[108.46691894500002,21.883911133],[108.46069335900002,21.871520996],[108.46032714800002,21.866516113],[108.46209716800001,21.860107422],[108.46508789100001,21.856506348],[108.47808837900001,21.852478027],[108.48248291000002,21.85369873],[108.48547363300001,21.856506348],[108.48608398400002,21.863708496],[108.46691894500002,21.883911133]]],[[[107.48352050800001,21.653503418],[107.48828125000001,21.650878906],[107.51171875000001,21.621887207],[107.52087402300002,21.60168457],[107.53369140600002,21.601074219],[107.55310058600001,21.604675293],[107.55407714800002,21.605712891],[107.55847168000001,21.613525391],[107.56872558600001,21.611877441],[107.57348632800002,21.61730957],[107.57727050800001,21.618286133],[107.58227539100001,21.616882324],[107.58410644500002,21.613098145],[107.58947753900001,21.614685059],[107.60809326200001,21.608703613],[107.61871337900001,21.606323242],[107.62207031200002,21.606506348],[107.64367675800001,21.604125977],[107.65209960900002,21.604919434],[107.66247558600001,21.611877441],[107.66552734400001,21.613525391],[107.67492675800001,21.614318848],[107.67907714800002,21.61328125],[107.679504395,21.611083984],[107.6875,21.611328125],[107.68890380900001,21.611877441],[107.69030761700002,21.614501953],[107.69567871100001,21.616516113],[107.69812011700002,21.615478516],[107.70190429700001,21.616882324],[107.71789550800001,21.624694824],[107.71807861300002,21.625488281],[107.72192382800002,21.629089355],[107.72851562500001,21.629882812],[107.72949218700002,21.630493164],[107.74768066400001,21.643920898],[107.78027343700002,21.649719238],[107.78070068400001,21.653686523],[107.78747558600001,21.656677246],[107.79248046900001,21.655883789],[107.79431152300002,21.655273437],[107.80151367200001,21.659301758],[107.80230712900001,21.655090332],[107.80328369100002,21.655273437],[107.80407714800002,21.658508301],[107.80572509800001,21.658874512],[107.81768798800002,21.656494141],[107.82928466800001,21.651306152],[107.83312988300001,21.644104004],[107.83587646500001,21.643127441],[107.84167480500001,21.64251709],[107.84472656200002,21.642700195],[107.84509277300002,21.643127441],[107.84509277300002,21.648681641],[107.85430908200001,21.651672363],[107.85711669900002,21.655090332],[107.86749267600001,21.649475098],[107.87231445300002,21.646728516],[107.87188720700001,21.645324707],[107.88128662100002,21.647277832],[107.89807128900001,21.636474609],[107.90228271500001,21.621704102],[107.90869140600002,21.605102539],[107.90911865200002,21.590270996],[107.91308593700002,21.587280273],[107.91589355500001,21.585876465],[107.92291259800001,21.589477539],[107.92529296900001,21.588928223],[107.92572021500001,21.584106445],[107.93011474600002,21.578125],[107.94268798800002,21.569519043],[107.96490478500002,21.566711426],[107.99530029300001,21.559082031],[108.00787353500002,21.556518555],[108.01251220700001,21.548706055],[108.02368164100001,21.54888916],[108.02410888700001,21.551513672],[108.02752685500002,21.555114746],[108.02911377,21.556518555],[108.03790283200001,21.556884766],[108.05047607400002,21.555725098],[108.05047607400002,21.55267334],[108.05432128900001,21.547119141],[108.05767822300001,21.545471191],[108.07427978500002,21.540283203],[108.08447265600002,21.544677734],[108.08190918000001,21.548522949],[108.08288574200002,21.551879883],[108.07611084000001,21.559875488],[108.07910156200002,21.563476562],[108.07312011700002,21.571472168],[108.07550048800002,21.572692871],[108.08630371100001,21.565124512],[108.08868408200001,21.565673828],[108.08508300800001,21.572509766],[108.09088134800001,21.57208252],[108.09631347700001,21.57611084],[108.09887695300002,21.575683594],[108.10168457000002,21.57208252],[108.10949707000002,21.575317383],[108.11047363300001,21.573486328],[108.10552978500002,21.566894531],[108.10729980500001,21.565673828],[108.113098145,21.566894531],[108.12188720700001,21.580078125],[108.12609863300001,21.571472168],[108.12512207000002,21.566711426],[108.12731933600001,21.562072754],[108.12670898400002,21.556518555],[108.13330078100002,21.555297852],[108.13470459000001,21.551330566],[108.12811279300001,21.55090332],[108.12310791000002,21.550476074],[108.11889648400002,21.547302246],[108.12408447300001,21.543273926],[108.12347412100002,21.539489746],[108.11627197300001,21.542297363],[108.10968017600001,21.539672852],[108.10992431600002,21.535522461],[108.12469482400002,21.533874512],[108.12792968700002,21.537902832],[108.13287353500002,21.539916992],[108.13732910200001,21.547485352],[108.13769531200002,21.556274414],[108.14288330100001,21.569274902],[108.14007568400001,21.577270508],[108.13909912100002,21.578918457],[108.13970947300001,21.579101562],[108.14007568400001,21.583679199],[108.14428710900002,21.588317871],[108.14508056600002,21.586730957],[108.14752197300001,21.580688477],[108.15490722700001,21.582275391],[108.171875,21.586120605],[108.16827392600001,21.593505859],[108.16271972700001,21.605529785],[108.19750976600001,21.610473633],[108.20812988300001,21.611877441],[108.21087646500001,21.618286133],[108.22088623000002,21.640075684],[108.24749755900001,21.623901367],[108.25970459000001,21.606506348],[108.26409912100002,21.598693848],[108.26489257800002,21.599121094],[108.26788330100001,21.599121094],[108.26849365200002,21.597106934],[108.26751709000001,21.592895508],[108.27069091800001,21.587280273],[108.27111816400001,21.569702148],[108.25787353500002,21.55267334],[108.23431396500001,21.528076172],[108.21411132800002,21.506896973],[108.21508789100001,21.506896973],[108.23590087900001,21.514892578],[108.238098145,21.516479492],[108.25012207000002,21.522277832],[108.25787353500002,21.524108887],[108.25988769500002,21.531677246],[108.27368164100001,21.540527344],[108.27947998000002,21.542724609],[108.29028320300002,21.543884277],[108.29388427700002,21.545288086],[108.29071044900002,21.551879883],[108.29150390600002,21.556274414],[108.304504395,21.568115234],[108.30987548800002,21.575317383],[108.31268310500002,21.575683594],[108.31488037100002,21.575927734],[108.31567382800002,21.577270508],[108.31268310500002,21.584289551],[108.32049560500002,21.590087891],[108.32171630900001,21.593322754],[108.31848144500002,21.598327637],[108.31628418000001,21.596679687],[108.31091308600001,21.602478027],[108.30908203100002,21.597717285],[108.30651855500001,21.597900391],[108.30389404300001,21.59967041],[108.30310058600001,21.603088379],[108.31127929700001,21.618713379],[108.31610107400002,21.617126465],[108.31787109400001,21.61907959],[108.31549072300001,21.626525879],[108.32373046900001,21.638671875],[108.32110595700001,21.651916504],[108.31750488300001,21.655517578],[108.31408691400001,21.658874512],[108.31512451200001,21.663696289],[108.31207275400001,21.672119141],[108.33227539100001,21.695678711],[108.32708740200002,21.701293945],[108.32769775400001,21.715515137],[108.33007812500001,21.712890625],[108.33251953100002,21.713500977],[108.33789062500001,21.728881836],[108.34252929700001,21.735473633],[108.34967041000002,21.741699219],[108.35449218700002,21.754699707],[108.35772705100001,21.756713867],[108.35510253900001,21.742675781],[108.34368896500001,21.729309082],[108.33972168000001,21.719482422],[108.33508300800001,21.706481934],[108.33392334000001,21.69708252],[108.33752441400001,21.691711426],[108.34307861300002,21.690307617],[108.34588623000002,21.695495605],[108.35791015600002,21.684509277],[108.36151123000002,21.68548584],[108.36828613300001,21.691101074],[108.36968994100002,21.688293457],[108.36932373000002,21.684875488],[108.37329101600001,21.68170166],[108.37487793000001,21.676086426],[108.37792968700002,21.677307129],[108.38092041000002,21.671508789],[108.38287353500002,21.671508789],[108.38507080100001,21.674926758],[108.38787841800001,21.674072266],[108.39172363300001,21.666320801],[108.39648437500001,21.668518066],[108.40148925800001,21.667907715],[108.40991210900002,21.675292969],[108.40930175800001,21.677124023],[108.40130615200002,21.677124023],[108.40911865200002,21.687072754],[108.41308593700002,21.68951416],[108.41668701200001,21.678283691],[108.41827392600001,21.6796875],[108.42211914100001,21.692504883],[108.42987060500002,21.69732666],[108.43127441400001,21.698120117],[108.43487548800002,21.697692871],[108.43591308600001,21.694885254],[108.43310546900001,21.690307617],[108.42669677700002,21.684326172],[108.42407226600001,21.672729492],[108.42370605500001,21.672485352],[108.43652343700002,21.671325684],[108.43151855500001,21.665283203],[108.42547607400002,21.658081055],[108.42968750000001,21.660522461],[108.43530273400002,21.666320801],[108.43890380900001,21.666503906],[108.44067382800002,21.668273926],[108.44830322300001,21.667724609],[108.45611572300001,21.674072266],[108.46350097700001,21.676086426],[108.46807861300002,21.67590332],[108.47088623000002,21.673095703],[108.46667480500001,21.669921875],[108.46209716800001,21.666687012],[108.45690918000001,21.665710449],[108.45550537100002,21.662902832],[108.45989990200002,21.657714844],[108.45611572300001,21.656921387],[108.44610595700001,21.659729004],[108.44152832000002,21.657897949],[108.43969726600001,21.655090332],[108.46008300800001,21.656921387],[108.44311523400002,21.637084961],[108.43072509800001,21.627685547],[108.41131591800001,21.620910645],[108.41149902300002,21.618713379],[108.41369628900001,21.618713379],[108.41491699200002,21.61328125],[108.41851806600002,21.610473633],[108.42449951200001,21.612487793],[108.42968750000001,21.616088867],[108.43469238300001,21.619689941],[108.44207763700001,21.622924805],[108.44470214800002,21.622497559],[108.43988037100002,21.615722656],[108.44268798800002,21.611694336],[108.44049072300001,21.610107422],[108.43548584000001,21.611083984],[108.42889404300001,21.608276367],[108.42889404300001,21.606079102],[108.42968750000001,21.605285645],[108.43609619100002,21.605529785],[108.44671630900001,21.603881836],[108.44067382800002,21.59387207],[108.44128418000001,21.59387207],[108.43908691400001,21.589904785],[108.43927002,21.584289551],[108.43511962900001,21.584472656],[108.42810058600001,21.572875977],[108.40167236300002,21.578674316],[108.39331054700001,21.558105469],[108.39672851600001,21.55670166],[108.42468261700002,21.558105469],[108.42547607400002,21.558105469],[108.43890380900001,21.557128906],[108.44689941400001,21.562072754],[108.46990966800001,21.5625],[108.472473145,21.565490723],[108.47167968700002,21.567077637],[108.46527099600002,21.569274902],[108.45489502,21.567687988],[108.45367431600002,21.568481445],[108.45770263700001,21.574523926],[108.46008300800001,21.575073242],[108.46728515600002,21.57232666],[108.46948242200001,21.572875977],[108.47167968700002,21.579284668],[108.46948242200001,21.594482422],[108.47113037100002,21.600097656],[108.47430419900002,21.601501465],[108.47729492200001,21.60748291],[108.48089599600002,21.608886719],[108.48168945300002,21.609130859],[108.49108886700002,21.620117187],[108.49267578100002,21.615112305],[108.49969482400002,21.609924316],[108.50408935500002,21.610717773],[108.50512695300002,21.608093262],[108.50268554700001,21.605102539],[108.49932861300002,21.605285645],[108.49371337900001,21.609680176],[108.49011230500001,21.610107422],[108.48748779300001,21.608276367],[108.48010253900001,21.600280762],[108.47552490200002,21.590881348],[108.47607421900001,21.586486816],[108.48010253900001,21.584899902],[108.48492431600002,21.585876465],[108.48291015600002,21.594299316],[108.49230957000002,21.589477539],[108.50531005900001,21.596496582],[108.51507568400001,21.599914551],[108.51708984400001,21.601928711],[108.51770019500002,21.604309082],[108.51989746100001,21.61328125],[108.52929687500001,21.622680664],[108.52709960900002,21.627502441],[108.52929687500001,21.631530762],[108.52752685500002,21.633911133],[108.51727294900002,21.63671875],[108.51287841800001,21.640319824],[108.51367187500001,21.642089844],[108.52148437500001,21.640686035],[108.52429199200002,21.644104004],[108.52752685500002,21.642883301],[108.53131103500002,21.647094727],[108.53350830100001,21.644714355],[108.53088378900001,21.639099121],[108.53472900400001,21.638122559],[108.55548095700001,21.661682129],[108.55352783200001,21.664672852],[108.54827880900001,21.660095215],[108.54351806600002,21.655883789],[108.54052734400001,21.657287598],[108.54608154300001,21.665283203],[108.546875,21.673522949],[108.55792236300002,21.669677734],[108.55950927700002,21.669677734],[108.54571533200001,21.686279297],[108.54870605500001,21.692871094],[108.54730224600002,21.692504883],[108.54211425800001,21.682495117],[108.54107666000002,21.680297852],[108.538879395,21.679077148],[108.53771972700001,21.688293457],[108.53552246100001,21.69128418],[108.53228759800001,21.68371582],[108.52911377,21.680908203],[108.52850341800001,21.684082031],[108.53070068400001,21.688903809],[108.52471923800002,21.689086914],[108.52270507800002,21.691711426],[108.52471923800002,21.694885254],[108.52288818400001,21.697875977],[108.52947998000002,21.697692871],[108.53088378900001,21.699707031],[108.52990722700001,21.702880859],[108.53472900400001,21.704711914],[108.53088378900001,21.706481934],[108.51770019500002,21.694091797],[108.51049804700001,21.662475586],[108.50732421900001,21.672729492],[108.50732421900001,21.672912598],[108.50708007800002,21.672729492],[108.50408935500002,21.67791748],[108.50408935500002,21.678100586],[108.49627685500002,21.690917969],[108.49151611300002,21.695678711],[108.49090576200001,21.695678711],[108.49072265600002,21.696472168],[108.48492431600002,21.702270508],[108.48248291000002,21.69732666],[108.48089599600002,21.696716309],[108.48052978500002,21.700317383],[108.48712158200001,21.71307373],[108.48870849600002,21.709106445],[108.49768066400001,21.717895508],[108.50067138700001,21.720703125],[108.49987793000001,21.724487305],[108.49572753900001,21.72668457],[108.49548339800002,21.731872559],[108.49047851600001,21.736694336],[108.48327636700002,21.737121582],[108.47790527300002,21.735107422],[108.47308349600002,21.735107422],[108.47229003900001,21.736877441],[108.47448730500001,21.741516113],[108.47772216800001,21.743530273],[108.48712158200001,21.743896484],[108.48828125000001,21.743896484],[108.49572753900001,21.739074707],[108.49731445300002,21.762084961],[108.50067138700001,21.768493652],[108.50231933600001,21.762878418],[108.50347900400001,21.739929199],[108.50708007800002,21.731079102],[108.50970459000001,21.728881836],[108.51007080100001,21.729309082],[108.52130127,21.732116699],[108.52770996100001,21.74029541],[108.53210449200002,21.740478516],[108.53869628900001,21.736877441],[108.55212402300002,21.74407959],[108.55047607400002,21.748474121],[108.54388427700002,21.756713867],[108.52893066400001,21.756530762],[108.50567627,21.749511719],[108.50671386700002,21.758483887],[108.50732421900001,21.762512207],[108.51049804700001,21.790893555],[108.50927734400001,21.792907715],[108.50769043000001,21.80090332],[108.488098145,21.802124023],[108.47851562500001,21.80291748],[108.47692871100001,21.83770752],[108.46649169900002,21.850524902],[108.46173095700001,21.853271484],[108.45367431600002,21.87310791],[108.46331787100002,21.886474609],[108.46289062500001,21.888122559],[108.43029785200001,21.921691895],[108.39508056600002,21.929321289],[108.35229492200001,21.922485352],[108.32232666000002,21.915100098],[108.29449462900001,21.905883789],[108.25848388700001,21.908691406],[108.23291015600002,21.9296875],[108.21270752,21.954528809],[108.17230224600002,21.997070312],[108.19329834000001,22.035888672],[108.18450927700002,22.063476562],[108.17651367200001,22.108276367],[108.17767334000001,22.135681152],[108.18908691400001,22.1796875],[108.21331787100002,22.197509766],[108.25653076200001,22.21472168],[108.22448730500001,22.234680176],[108.19427490200002,22.259094238],[108.17767334000001,22.281677246],[108.14532470700001,22.29510498],[108.12249755900001,22.324890137],[108.11151123000002,22.357299805],[108.07928466800001,22.38470459],[108.05169677700002,22.375488281],[108.02551269500002,22.356506348],[107.98828125000001,22.325927734],[107.95947265600002,22.284301758],[107.93652343700002,22.257507324],[107.90869140600002,22.231506348],[107.88092041000002,22.22088623],[107.82751464800002,22.210693359],[107.78308105500001,22.209472656],[107.74468994100002,22.207519531],[107.69909668000001,22.205688477],[107.66351318400001,22.207092285],[107.60992431600002,22.202880859],[107.62249755900001,22.137512207],[107.64508056600002,22.104309082],[107.64208984400001,22.054077148],[107.61212158200001,22.019470215],[107.58489990200002,21.997497559],[107.56188964800002,21.964477539],[107.54547119100002,21.92791748],[107.53570556600002,21.900085449],[107.53210449200002,21.865722656],[107.53387451200001,21.826477051],[107.53527832000002,21.79510498],[107.54071044900002,21.76171875],[107.54571533200001,21.72668457],[107.52307128900001,21.696105957],[107.49652099600002,21.67590332],[107.48352050800001,21.653503418]]]]}}
