{"type":"Feature","id":"bulk-99377448B83426120134246","bbox":[103.46252441400001,34.143310547,105.63110351600001,36.034729004],"properties":{"id":"bulk-99377448B83426120134246","name":"Dingxi","nameEn":"Dingxi","fullName":"Dingxi","level":"city","boundaryRole":"administrative-extent","boundaryQuality":"generalized-source-2020","boundaryYearRepresented":"2020","bounds":[[103.46252441400001,34.143310547],[105.63110351600001,36.034729004]],"center":[104.54681396500001,35.0890197755],"centerMethod":"bounding-box midpoint; camera framing only","license":"CC-BY-3.0-IGO","attribution":"geoBoundaries / HDX, China administrative boundaries (2020)","source":{"provider":"geoBoundaries gbHumanitarian / HDX","url":"https://github.com/wmgeolab/geoBoundaries/raw/9469f09/releaseData/gbHumanitarian/CHN/ADM2/geoBoundaries-CHN-ADM2.geojson","metadataUrl":"https://www.geoboundaries.org/api/current/gbHumanitarian/CHN/ADM2/","shapeID":"99377448B83426120134246","shapeName":"Dingxi","boundaryID":"CHN-ADM2-99377448","commit":"9469f09"},"geometryCounts":{"coordinates":241,"components":1,"holes":0},"boundaryNotice":"geoBoundaries / HDX 2020 年行政区数据，海岸和边界经过源数据概化，并非当前测绘成果。"},"geometry":{"type":"Polygon","coordinates":[[[104.49548339800002,36.021911621],[104.45727539100001,35.955505371],[104.44628906200002,35.92590332],[104.44189453100002,35.88470459],[104.43609619100002,35.852905273],[104.41888427700002,35.818725586],[104.40692138700001,35.78729248],[104.39251709000001,35.762329102],[104.36407470700001,35.730285645],[104.33288574200002,35.706298828],[104.30249023400002,35.669494629],[104.27148437500001,35.635070801],[104.25531005900001,35.610900879],[104.24230957000002,35.574523926],[104.25091552700002,35.536682129],[104.20892334000001,35.532104492],[104.19348144500002,35.557128906],[104.15612793000001,35.54888916],[104.12548828100002,35.573120117],[104.120910645,35.59967041],[104.10308837900001,35.644714355],[104.07769775400001,35.680908203],[104.03350830100001,35.707519531],[103.99627685500002,35.71307373],[103.95507812500001,35.732910156],[103.91772460900002,35.753112793],[103.85351562500001,35.786499023],[103.83172607400002,35.814086914],[103.79931640600002,35.83392334],[103.78350830100001,35.867126465],[103.74548339800002,35.885498047],[103.71667480500001,35.901672363],[103.69390869100002,35.923706055],[103.64947509800001,35.921691895],[103.61047363300001,35.907104492],[103.59036888000001,35.909578923],[103.58270263700001,35.910522461],[103.56970214800002,35.912109375],[103.54028320300002,35.945678711],[103.49291992200001,35.917114258],[103.46252441400001,35.898498535],[103.52471923800002,35.81427002],[103.55871582000002,35.808288574],[103.57330322300001,35.795715332],[103.58190918000001,35.772277832],[103.596679687,35.757324219],[103.64208984400001,35.735717773],[103.65051269500002,35.715087891],[103.64929199200002,35.688476562],[103.65692138700001,35.678283691],[103.730285645,35.64251709],[103.75128173800002,35.632873535],[103.754882812,35.627685547],[103.76928710900002,35.61529541],[103.77508544900002,35.586486816],[103.78491210900002,35.547485352],[103.82049560500002,35.520080566],[103.83929443400001,35.494689941],[103.84191894500002,35.46307373],[103.81311035200001,35.424926758],[103.80047607400002,35.399902344],[103.77911377,35.360900879],[103.75628662100002,35.326904297],[103.73590087900001,35.287109375],[103.71752929700001,35.25592041],[103.70532226600001,35.222290039],[103.70330810500002,35.185913086],[103.71472168000001,35.148681641],[103.72552490200002,35.112670898],[103.75592041000002,35.075683594],[103.75347900400001,35.064880371],[103.78112793000001,35.010681152],[103.79528808600001,34.998291016],[103.829101562,34.992126465],[103.91168212900001,34.962280273],[103.93768310500002,34.93347168],[103.97369384800001,34.911315918],[104.03808593700002,34.913085937],[104.02392578100002,34.873474121],[103.99108886700002,34.841674805],[103.98352050800001,34.814880371],[104.00311279300001,34.780273437],[104.02172851600001,34.756896973],[103.97827148400002,34.721130371],[103.93792724600002,34.736877441],[103.89630127,34.751098633],[103.862304687,34.72052002],[103.85968017600001,34.682922363],[103.85748291000002,34.652099609],[103.84051513700001,34.616271973],[103.82507324200002,34.579284668],[103.81951904300001,34.55090332],[103.81768798800002,34.521911621],[103.81549072300001,34.493896484],[103.81292724600002,34.457092285],[103.79772949200002,34.419128418],[103.78009033200001,34.386108398],[103.75769043000001,34.345703125],[103.73107910200001,34.316711426],[103.71569824200002,34.283691406],[103.75469970700001,34.276916504],[103.79711914100001,34.28112793],[103.83972168000001,34.280700684],[103.87847900400001,34.276489258],[103.91589355500001,34.247924805],[103.93450927700002,34.22088623],[103.95867919900002,34.187316895],[103.98492431600002,34.165893555],[104.02087402300002,34.143310547],[104.06750488300001,34.156677246],[104.09210205100001,34.17590332],[104.12030029300001,34.194274902],[104.15332031200002,34.193725586],[104.187316895,34.20489502],[104.17132568400001,34.237121582],[104.15527343700002,34.272705078],[104.14428710900002,34.31048584],[104.17108154300001,34.347717285],[104.20092773400002,34.37310791],[104.23468017600001,34.371887207],[104.26330566400001,34.35369873],[104.30090332000002,34.358886719],[104.35052490200002,34.343688965],[104.37750244100002,34.325500488],[104.41369628900001,34.31652832],[104.42871093700002,34.274475098],[104.45190429700001,34.234130859],[104.48107910200001,34.213928223],[104.51507568400001,34.206726074],[104.56909179700001,34.204101562],[104.60327148400002,34.209716797],[104.63708496100001,34.221679687],[104.68127441400001,34.223693848],[104.71069335900002,34.238891602],[104.75390625000001,34.233520508],[104.80230712900001,34.23828125],[104.83392334000001,34.259094238],[104.85229492200001,34.299682617],[104.85772705100001,34.327697754],[104.85931396500001,34.35748291],[104.90649414100001,34.37109375],[104.94787597700001,34.376708984],[104.98651123000002,34.380310059],[105.01593017600001,34.398071289],[105.04589843700002,34.423706055],[104.99127197300001,34.440124512],[104.94592285200001,34.443481445],[104.91271972700001,34.439086914],[104.88208007800002,34.428894043],[104.84527587900001,34.41229248],[104.80712890600002,34.414489746],[104.78192138700001,34.469726562],[104.77691650400001,34.49987793],[104.74829101600001,34.536071777],[104.71209716800001,34.545715332],[104.70269775400001,34.58770752],[104.72149658200001,34.615905762],[104.72552490200002,34.651306152],[104.70208740200002,34.676086426],[104.65948486300002,34.67767334],[104.62548828100002,34.680908203],[104.60089111300002,34.709899902],[104.60308837900001,34.749328613],[104.59667968700002,34.782287598],[104.58990478500002,34.811096191],[104.59350585900002,34.84552002],[104.63427734400001,34.85748291],[104.67810058600001,34.860473633],[104.73168945300002,34.856323242],[104.77612304700001,34.856872559],[104.82232666000002,34.85949707],[104.86071777300002,34.860473633],[104.87792968700002,34.915100098],[104.87652587900001,34.950073242],[104.92510986300002,34.940307617],[104.97387695300002,34.945922852],[105.05670166000002,34.938903809],[105.11871337900001,34.925720215],[105.15612793000001,34.946899414],[105.21490478500002,34.933288574],[105.24890136700002,34.93371582],[105.26928710900002,34.971130371],[105.27752685500002,35.014282227],[105.29327392600001,35.039672852],[105.34771728500002,35.051086426],[105.41571044900002,35.050476074],[105.42749023400002,35.085327148],[105.44268798800002,35.112487793],[105.46807861300002,35.090270996],[105.48852539100001,35.068481445],[105.52307128900001,35.061523437],[105.53588867200001,35.099121094],[105.54327392600001,35.129882812],[105.58471679700001,35.133483887],[105.63110351600001,35.149475098],[105.58367919900002,35.197692871],[105.56652832000002,35.232727051],[105.56951904300001,35.265319824],[105.56127929700001,35.296508789],[105.54229736300002,35.325073242],[105.51171875000001,35.352905273],[105.47369384800001,35.354675293],[105.44067382800002,35.376525879],[105.40570068400001,35.433898926],[105.38409423800002,35.455078125],[105.36169433600001,35.492126465],[105.312316895,35.486083984],[105.28051757800002,35.476074219],[105.25488281200002,35.44329834],[105.20910644500002,35.455078125],[105.17309570300002,35.43927002],[105.13769531200002,35.41229248],[105.10028076200001,35.408691406],[105.062316895,35.430114746],[104.995910645,35.428894043],[104.97387695300002,35.471679687],[104.94769287100002,35.496520996],[104.94232177700002,35.531677246],[104.94909668000001,35.559692383],[104.96307373000002,35.584716797],[104.97747802700002,35.614685059],[104.99108886700002,35.641906738],[105.00512695300002,35.668518066],[105.00488281200002,35.705688477],[104.97412109400001,35.729492187],[104.94030761700002,35.730895996],[104.89849853500002,35.73828125],[104.86187744100002,35.761474609],[104.85772705100001,35.79309082],[104.847473145,35.828125],[104.82031250000001,35.853515625],[104.77551269500002,35.86932373],[104.76947021500001,35.903076172],[104.75408935500002,35.936279297],[104.71789550800001,35.965515137],[104.68408203100002,35.98248291],[104.65167236300002,36.009521484],[104.62969970700001,36.034729004],[104.59490966800001,36.027282715],[104.55847168000001,36.016296387],[104.49548339800002,36.021911621]]]}}
