{"type":"Feature","id":"bulk-99377448B62497497563696","bbox":[107.30548095700001,25.332885742,109.52728271500001,27.528320312],"properties":{"id":"bulk-99377448B62497497563696","name":"Qiandongnan Miao and Dong Autonomous Prefecture","nameEn":"Qiandongnan Miao and Dong Autonomous Prefecture","fullName":"Qiandongnan Miao and Dong Autonomous Prefecture","level":"city","boundaryRole":"administrative-extent","boundaryQuality":"generalized-source-2020","boundaryYearRepresented":"2020","bounds":[[107.30548095700001,25.332885742],[109.52728271500001,27.528320312]],"center":[108.41638183600001,26.430603027],"centerMethod":"bounding-box midpoint; camera framing only","license":"CC-BY-3.0-IGO","attribution":"geoBoundaries / HDX, China administrative boundaries (2020)","source":{"provider":"geoBoundaries gbHumanitarian / HDX","url":"https://github.com/wmgeolab/geoBoundaries/raw/9469f09/releaseData/gbHumanitarian/CHN/ADM2/geoBoundaries-CHN-ADM2.geojson","metadataUrl":"https://www.geoboundaries.org/api/current/gbHumanitarian/CHN/ADM2/","shapeID":"99377448B62497497563696","shapeName":"Qiandongnan Miao and Dong Autonomous Prefecture","boundaryID":"CHN-ADM2-99377448","commit":"9469f09"},"geometryCounts":{"coordinates":254,"components":1,"holes":0},"boundaryNotice":"geoBoundaries / HDX 2020 年行政区数据，海岸和边界经过源数据概化，并非当前测绘成果。"},"geometry":{"type":"Polygon","coordinates":[[[108.86187744100002,27.147277832],[108.83929443400001,27.151916504],[108.80987548800002,27.168273926],[108.77569580100001,27.186523437],[108.76867675800001,27.217712402],[108.79132080100001,27.248474121],[108.82708740200002,27.272705078],[108.83728027300002,27.301086426],[108.82751464800002,27.329711914],[108.82989502,27.364074707],[108.86987304700001,27.355285645],[108.89849853500002,27.365112305],[108.93188476600001,27.369506836],[108.96551513700001,27.365905762],[109.00671386700002,27.390686035],[109.00170898400002,27.448303223],[108.96771240200002,27.450500488],[108.93707275400001,27.468688965],[108.93988037100002,27.502319336],[108.90728759800001,27.502685547],[108.83551025400001,27.504089355],[108.79309082000002,27.483703613],[108.76129150400001,27.479309082],[108.71868896500001,27.500488281],[108.68627929700001,27.525695801],[108.65490722700001,27.522521973],[108.62310791000002,27.528320312],[108.59228515600002,27.519714355],[108.58111572300001,27.492919922],[108.55047607400002,27.493896484],[108.52508544900002,27.466674805],[108.50531005900001,27.443725586],[108.48571777300002,27.411499023],[108.45709228500002,27.400878906],[108.42089843700002,27.405883789],[108.378723145,27.402893066],[108.34631347700001,27.376281738],[108.31072998000002,27.364318848],[108.26727294900002,27.36932373],[108.23107910200001,27.383483887],[108.19989013700001,27.36907959],[108.18408203100002,27.341125488],[108.15710449200002,27.298522949],[108.11828613300001,27.326477051],[108.08087158200001,27.333312988],[108.04968261700002,27.328308105],[108.02008056600002,27.320922852],[107.96527099600002,27.328491211],[107.99108886700002,27.288513184],[108.00531005900001,27.243896484],[107.98052978500002,27.219299316],[107.93090820300002,27.203125],[107.89929199200002,27.19708252],[107.87371826200001,27.17791748],[107.83551025400001,27.171875],[107.77490234400001,27.187927246],[107.76129150400001,27.219726562],[107.73107910200001,27.232910156],[107.69970703100002,27.24432373],[107.66192627,27.258117676],[107.65289306600002,27.205688477],[107.66949462900001,27.169311523],[107.67633056600002,27.133300781],[107.66229248000002,27.099121094],[107.63891601600001,27.077697754],[107.61871337900001,27.045471191],[107.64770507800002,27.012512207],[107.66009521500001,26.976318359],[107.62768554700001,26.965087891],[107.59967041000002,26.950683594],[107.59307861300002,26.919128418],[107.61871337900001,26.892272949],[107.62371826200001,26.854675293],[107.65667724600002,26.840270996],[107.68231201200001,26.86328125],[107.70349121100001,26.885070801],[107.73291015600002,26.86328125],[107.73413085900002,26.816711426],[107.70989990200002,26.762512207],[107.69049072300001,26.735717773],[107.68029785200001,26.709716797],[107.68969726600001,26.669311523],[107.70568847700001,26.639282227],[107.70989990200002,26.60748291],[107.68310546900001,26.587280273],[107.65252685500002,26.604492187],[107.61132812500001,26.603881836],[107.57250976600001,26.601501465],[107.54772949200002,26.585327148],[107.52972412100002,26.562683105],[107.48632812500001,26.562316895],[107.45611572300001,26.57409668],[107.41528320300002,26.56451416],[107.37811279300001,26.562927246],[107.32208252,26.524902344],[107.33129882800002,26.494689941],[107.30548095700001,26.477905273],[107.32110595700001,26.449279785],[107.34368896500001,26.40447998],[107.40429687500001,26.396484375],[107.43048095700001,26.42590332],[107.47570800800001,26.436096191],[107.50427246100001,26.406311035],[107.51947021500001,26.381713867],[107.55432128900001,26.391113281],[107.59008789100001,26.386108398],[107.613098145,26.348876953],[107.63732910200001,26.317871094],[107.67291259800001,26.339477539],[107.70147705100001,26.348083496],[107.73931884800001,26.348693848],[107.76550293000001,26.301086426],[107.75512695300002,26.267272949],[107.74011230500001,26.243896484],[107.72772216800001,26.210693359],[107.72351074200002,26.181274414],[107.77349853500002,26.154296875],[107.80108642600001,26.13067627],[107.83068847700001,26.151916504],[107.86047363300001,26.14630127],[107.88909912100002,26.123901367],[107.92071533200001,26.112915039],[107.94610595700001,26.083679199],[107.99267578100002,26.081481934],[108.01788330100001,26.097717285],[108.05670166000002,26.107116699],[108.09167480500001,26.107910156],[108.12628173800002,26.11151123],[108.14270019500002,26.086730957],[108.17291259800001,26.068725586],[108.20288085900002,26.05871582],[108.20288085900002,26.022094727],[108.17889404300001,25.985717773],[108.15209960900002,25.959716797],[108.12927246100001,25.930114746],[108.10827636700002,25.896484375],[108.08892822300001,25.859130859],[108.07971191400001,25.829101562],[108.09051513700001,25.796508789],[108.10272216800001,25.769104004],[108.10009765600002,25.738891602],[108.09490966800001,25.696289062],[108.09631347700001,25.661682129],[108.14190673800002,25.633911133],[108.17468261700002,25.644470215],[108.22668457000002,25.653076172],[108.26232910200001,25.601074219],[108.27752685500002,25.567687988],[108.30389404300001,25.52331543],[108.31170654300001,25.528076172],[108.35931396500001,25.497680664],[108.42828369100002,25.455078125],[108.49108886700002,25.445678711],[108.52947998000002,25.424926758],[108.57208252,25.35748291],[108.60748291000002,25.332885742],[108.60571289100001,25.347473145],[108.59631347700001,25.42010498],[108.59948730500001,25.488525391],[108.66430664100001,25.518676758],[108.65948486300002,25.549072266],[108.68688964800002,25.608886719],[108.74212646500001,25.634277344],[108.76251220700001,25.618530273],[108.77929687500001,25.579284668],[108.76812744100002,25.550292969],[108.81512451200001,25.542297363],[108.878723145,25.546875],[108.92572021500001,25.540710449],[108.97668457000002,25.52532959],[109.01971435500002,25.52331543],[109.05291748000002,25.55090332],[109.02307128900001,25.594482422],[109.03192138700001,25.647705078],[109.03668212900001,25.709716797],[109.04229736300002,25.716674805],[109.05029296900001,25.726074219],[109.00830078100002,25.729125977],[108.95568847700001,25.707519531],[108.92211914100001,25.69708252],[108.87768554700001,25.72052002],[108.94891357400002,25.752319336],[109.00427246100001,25.773925781],[109.10308837900001,25.823303223],[109.11547851600001,25.80090332],[109.14709472700001,25.773681641],[109.15771484400001,25.771911621],[109.17211914100001,25.769470215],[109.21051025400001,25.741271973],[109.30249023400002,25.73449707],[109.33111572300001,25.754699707],[109.32348632800002,25.791503906],[109.31988525400001,25.813903809],[109.33630371100001,25.851928711],[109.35369873000002,25.888122559],[109.39111328100002,25.919921875],[109.41088867200001,25.983886719],[109.44427490200002,26.015930176],[109.48211669900002,26.042724609],[109.47290039100001,26.049499512],[109.44970703100002,26.060913086],[109.46252441400001,26.125671387],[109.46411132800002,26.153503418],[109.42327880900001,26.201477051],[109.41827392600001,26.250671387],[109.45812988300001,26.271118164],[109.44232177700002,26.302124023],[109.43408203100002,26.31829834],[109.36730957000002,26.301330566],[109.35650634800001,26.282287598],[109.33691406200002,26.25592041],[109.30371093700002,26.26348877],[109.25427246100001,26.327514648],[109.27532959000001,26.379882812],[109.30169677700002,26.423278809],[109.34411621100001,26.472900391],[109.34887695300002,26.47869873],[109.36688232400002,26.539916992],[109.36730957000002,26.57208252],[109.36968994100002,26.609924316],[109.33691406200002,26.639099121],[109.28289794900002,26.67590332],[109.28631591800001,26.703674316],[109.32989502,26.712524414],[109.34869384800001,26.716308594],[109.37847900400001,26.737304687],[109.48291015600002,26.770874023],[109.49688720700001,26.779724121],[109.50292968700002,26.783691406],[109.48547363300001,26.851501465],[109.48608398400002,26.878479004],[109.42608642600001,26.899291992],[109.51330566400001,26.949523926],[109.52728271500001,26.959472656],[109.50988769500002,27.028320312],[109.48529052700002,27.048095703],[109.47967529300001,27.05267334],[109.46490478500002,27.06451416],[109.43408203100002,27.090087891],[109.45251464800002,27.13067627],[109.37609863300001,27.175476074],[109.36749267600001,27.180480957],[109.296875,27.15447998],[109.24230957000002,27.15447998],[109.17669677700002,27.133117676],[109.15209960900002,27.101318359],[109.10211181600002,27.116699219],[109.08752441400001,27.137084961],[108.99731445300002,27.08807373],[108.94012451200001,27.0625],[108.93511962900001,27.060302734],[108.79272460900002,27.041503906],[108.83087158200001,27.099914551],[108.86187744100002,27.147277832]]]}}
