{"type":"Feature","id":"bulk-99377448B29775743260555","bbox":[103.03051757800002,30.09387207,104.90447998000002,31.460693359],"properties":{"id":"bulk-99377448B29775743260555","name":"Chengdu","nameEn":"Chengdu","fullName":"Chengdu","level":"city","boundaryRole":"administrative-extent","boundaryQuality":"generalized-source-2020","boundaryYearRepresented":"2020","bounds":[[103.03051757800002,30.09387207],[104.90447998000002,31.460693359]],"center":[103.96749877900001,30.7772827145],"centerMethod":"bounding-box midpoint; camera framing only","license":"CC-BY-3.0-IGO","attribution":"geoBoundaries / HDX, China administrative boundaries (2020)","source":{"provider":"geoBoundaries gbHumanitarian / HDX","url":"https://github.com/wmgeolab/geoBoundaries/raw/9469f09/releaseData/gbHumanitarian/CHN/ADM2/geoBoundaries-CHN-ADM2.geojson","metadataUrl":"https://www.geoboundaries.org/api/current/gbHumanitarian/CHN/ADM2/","shapeID":"99377448B29775743260555","shapeName":"Chengdu","boundaryID":"CHN-ADM2-99377448","commit":"9469f09"},"geometryCounts":{"coordinates":161,"components":1,"holes":0},"boundaryNotice":"geoBoundaries / HDX 2020 年行政区数据，海岸和边界经过源数据概化，并非当前测绘成果。"},"geometry":{"type":"Polygon","coordinates":[[[104.21228027300002,30.349121094],[104.22210693400001,30.375671387],[104.23907470700001,30.411499023],[104.26708984400001,30.440124512],[104.28167724600002,30.467285156],[104.29608154300001,30.494689941],[104.32769775400001,30.497070312],[104.35052490200002,30.475891113],[104.38708496100001,30.467895508],[104.41931152300002,30.48651123],[104.421691895,30.513305664],[104.41992187500001,30.543701172],[104.45428466800001,30.586303711],[104.52087402300002,30.595275879],[104.54711914100001,30.618286133],[104.58172607400002,30.634521484],[104.62207031200002,30.619506836],[104.65570068400001,30.605895996],[104.69012451200001,30.606323242],[104.69927978500002,30.575073242],[104.703125,30.541687012],[104.73571777300002,30.526489258],[104.75567627,30.505126953],[104.79071044900002,30.498291016],[104.83227539100001,30.500305176],[104.88708496100001,30.479919434],[104.90148925800001,30.514709473],[104.90447998000002,30.549682617],[104.88348388700001,30.572875977],[104.85809326200001,30.602111816],[104.82647705100001,30.593688965],[104.81768798800002,30.628723145],[104.82330322300001,30.670288086],[104.79351806600002,30.703918457],[104.76568603500002,30.735290527],[104.74810791000002,30.765930176],[104.71807861300002,30.789306641],[104.69732666000002,30.815307617],[104.66351318400001,30.833679199],[104.62750244100002,30.855102539],[104.58630371100001,30.869689941],[104.55108642600001,30.883300781],[104.53350830100001,30.907287598],[104.49987793000001,30.940490723],[104.45330810500002,30.93548584],[104.41290283200001,30.937072754],[104.38128662100002,30.929077148],[104.34631347700001,30.909912109],[104.30010986300002,30.897094727],[104.25988769500002,30.893920898],[104.21771240200002,30.892272949],[104.18090820300002,30.899719238],[104.16369628900001,30.926086426],[104.17407226600001,30.962280273],[104.16912841800001,30.992675781],[104.12347412100002,31.041870117],[104.09527587900001,31.061523437],[104.06207275400001,31.086486816],[104.04327392600001,31.114318848],[104.03070068400001,31.159484863],[104.01312255900001,31.190917969],[103.97851562500001,31.1953125],[103.94787597700001,31.206115723],[103.93988037100002,31.236877441],[103.92309570300002,31.260925293],[103.90887451200001,31.291320801],[103.92047119100002,31.325683594],[103.92907714800002,31.357116699],[103.92651367200001,31.384277344],[103.90289306600002,31.403076172],[103.85412597700001,31.411682129],[103.82330322300001,31.424682617],[103.80548095700001,31.460693359],[103.745910645,31.401489258],[103.65368652300002,31.353881836],[103.61108398400002,31.354309082],[103.57031250000001,31.34387207],[103.57788085900002,31.310119629],[103.58349609400001,31.278930664],[103.57550048800002,31.25012207],[103.58911132800002,31.211914062],[103.58410644500002,31.177124023],[103.56890869100002,31.139099121],[103.554504395,31.11328125],[103.54290771500001,31.083496094],[103.53051757800002,31.057495117],[103.52307128900001,31.030517578],[103.52471923800002,31.003295898],[103.50988769500002,30.969909668],[103.47747802700002,30.933105469],[103.45471191400001,30.906677246],[103.42248535200001,30.871704102],[103.38391113300001,30.857727051],[103.35229492200001,30.843505859],[103.31011962900001,30.823486328],[103.26788330100001,30.830871582],[103.23211669900002,30.839294434],[103.18267822300001,30.843322754],[103.15270996100001,30.824890137],[103.12628173800002,30.802490234],[103.09252929700001,30.812072754],[103.05590820300002,30.811889648],[103.03051757800002,30.788879395],[103.05847168000001,30.76171875],[103.08227539100001,30.738525391],[103.10131835900002,30.71472168],[103.120117187,30.682495117],[103.12768554700001,30.656494141],[103.12969970700001,30.618286133],[103.14392089800002,30.584899902],[103.17388916000002,30.57208252],[103.21490478500002,30.552490234],[103.211914062,30.52331543],[103.21148681600002,30.495117187],[103.19372558600001,30.466125488],[103.17132568400001,30.434875488],[103.14892578100002,30.402526855],[103.13012695300002,30.370483398],[103.11511230500001,30.341125488],[103.08172607400002,30.309692383],[103.05969238300001,30.272521973],[103.06848144500002,30.238708496],[103.08447265600002,30.206298828],[103.120910645,30.202880859],[103.145507812,30.220092773],[103.18768310500002,30.238891602],[103.21472168000001,30.212097168],[103.24432373000002,30.231323242],[103.25109863300001,30.260070801],[103.32232666000002,30.238708496],[103.370117187,30.228515625],[103.37670898400002,30.196289062],[103.37530517600001,30.162109375],[103.38232421900001,30.129516602],[103.36108398400002,30.09387207],[103.42791748000002,30.094726562],[103.50347900400001,30.118530273],[103.52410888700001,30.14630127],[103.54949951200001,30.171508789],[103.58532714800002,30.196289062],[103.61730957000002,30.211486816],[103.65032959000001,30.198913574],[103.65911865200002,30.231872559],[103.68090820300002,30.256286621],[103.71130371100001,30.276489258],[103.73852539100001,30.294311523],[103.762695312,30.315124512],[103.79229736300002,30.335327148],[103.82592773400002,30.349914551],[103.87487793000001,30.353881836],[103.91967773400002,30.347900391],[103.96368408200001,30.385925293],[103.98748779300001,30.337890625],[103.99291992200001,30.298278809],[103.99932861300002,30.262878418],[104.02868652300002,30.248474121],[104.06347656200002,30.247314453],[104.09887695300002,30.257324219],[104.14147949200002,30.276672363],[104.18170166000002,30.300109863],[104.21228027300002,30.349121094]]]}}
