{"type":"Feature","id":"bulk-99377448B5845461252187","bbox":[118.29748535200001,21.901916504,121.99169921900001,25.298278809],"properties":{"id":"bulk-99377448B5845461252187","name":"Taiwan province","nameEn":"Taiwan province","fullName":"Taiwan province","level":"province","boundaryRole":"administrative-extent","boundaryQuality":"generalized-source-2020","boundaryYearRepresented":"2020","bounds":[[118.29748535200001,21.901916504],[121.99169921900001,25.298278809]],"center":[120.14459228550001,23.600097656499997],"centerMethod":"bounding-box midpoint; camera framing only","license":"CC-BY-3.0-IGO","attribution":"geoBoundaries / HDX, China administrative boundaries (2020)","source":{"provider":"geoBoundaries gbHumanitarian / HDX","url":"https://github.com/wmgeolab/geoBoundaries/raw/9469f09/releaseData/gbHumanitarian/CHN/ADM2/geoBoundaries-CHN-ADM2.geojson","metadataUrl":"https://www.geoboundaries.org/api/current/gbHumanitarian/CHN/ADM2/","shapeID":"99377448B5845461252187","shapeName":"Taiwan province","boundaryID":"CHN-ADM2-99377448","commit":"9469f09"},"geometryCounts":{"coordinates":980,"components":4,"holes":0},"boundaryNotice":"geoBoundaries / HDX 2020 年行政区数据，海岸和边界经过源数据概化，并非当前测绘成果。"},"geometry":{"type":"MultiPolygon","coordinates":[[[[120.08489990200002,23.256530762],[120.08587646500001,23.257324219],[120.08648681600002,23.261901855],[120.08489990200002,23.256530762]]],[[[120.10949707000002,23.320922852],[120.11151123000002,23.321289062],[120.11328125000001,23.324279785],[120.11468505900001,23.341125488],[120.113098145,23.340698242],[120.11090087900001,23.334106445],[120.10949707000002,23.320922852]]],[[[118.44909668000001,24.493286133],[118.44812011700002,24.494873047],[118.44750976600001,24.495117187],[118.43432617200001,24.504516602],[118.42510986300002,24.51348877],[118.41070556600002,24.508911133],[118.40368652300002,24.500915527],[118.40490722700001,24.497497559],[118.40429687500001,24.495117187],[118.40252685500002,24.49407959],[118.40112304700001,24.49432373],[118.39947509800001,24.483093262],[118.37292480500001,24.454711914],[118.3125,24.473876953],[118.31347656200002,24.469482422],[118.31268310500002,24.464477539],[118.31127929700001,24.464111328],[118.31707763700001,24.458679199],[118.31469726600001,24.419311523],[118.29748535200001,24.406677246],[118.31451416000002,24.389892578],[118.31567382800002,24.390075684],[118.32208252,24.385498047],[118.32647705100001,24.385314941],[118.33032226600001,24.38848877],[118.33312988300001,24.393676758],[118.34069824200002,24.407287598],[118.35089111300002,24.417907715],[118.36712646500001,24.428100586],[118.37829589800002,24.431884766],[118.40148925800001,24.43371582],[118.41168212900001,24.427307129],[118.42108154300001,24.425476074],[118.42547607400002,24.421691895],[118.43127441400001,24.419677734],[118.43310546900001,24.416870117],[118.43212890600002,24.413696289],[118.44067382800002,24.409301758],[118.44268798800002,24.409484863],[118.45129394500002,24.414489746],[118.45550537100002,24.422302246],[118.46130371100001,24.42590332],[118.46270752,24.439697266],[118.47192382800002,24.438720703],[118.47308349600002,24.440917969],[118.46972656200002,24.450683594],[118.46667480500001,24.453125],[118.46087646500001,24.468078613],[118.46130371100001,24.471130371],[118.46667480500001,24.478881836],[118.46630859400001,24.480529785],[118.46008300800001,24.479675293],[118.45471191400001,24.481689453],[118.45288085900002,24.483520508],[118.45391845700001,24.485473633],[118.45629882800002,24.489074707],[118.44909668000001,24.493286133]]],[[[121.59509277300002,25.278503418],[121.57989502,25.292907715],[121.57891845700001,25.29309082],[121.57312011700002,25.297729492],[121.56732177700002,25.298278809],[121.55731201200001,25.292907715],[121.55029296900001,25.293884277],[121.54632568400001,25.292114258],[121.53210449200002,25.297119141],[121.52947998000002,25.296875],[121.52789306600002,25.293701172],[121.52850341800001,25.290710449],[121.52148437500001,25.28729248],[121.51428222700001,25.284912109],[121.50531005900001,25.288513184],[121.50250244100002,25.284729004],[121.47149658200001,25.270080566],[121.46990966800001,25.268676758],[121.46850585900002,25.264526367],[121.46691894500002,25.25970459],[121.45587158200001,25.249694824],[121.44989013700001,25.251281738],[121.44970703100002,25.251098633],[121.44067382800002,25.243286133],[121.437316895,25.236328125],[121.43768310500002,25.231506348],[121.43048095700001,25.217529297],[121.41967773400002,25.207885742],[121.41290283200001,25.192871094],[121.40570068400001,25.187927246],[121.40527343700002,25.181884766],[121.41088867200001,25.17767334],[121.40771484400001,25.169311523],[121.40631103500002,25.16809082],[121.40991210900002,25.158325195],[121.38348388700001,25.149719238],[121.37292480500001,25.143310547],[121.35211181600002,25.136291504],[121.35028076200001,25.135498047],[121.33929443400001,25.126708984],[121.32971191400001,25.12310791],[121.31170654300001,25.123901367],[121.28948974600002,25.122680664],[121.28430175800001,25.118286133],[121.27447509800001,25.118103027],[121.26989746100001,25.11907959],[121.25708007800002,25.116516113],[121.23291015600002,25.110717773],[121.22991943400001,25.110107422],[121.21990966800001,25.102722168],[121.19970703100002,25.093688965],[121.17810058600001,25.082092285],[121.15728759800001,25.077697754],[121.12811279300001,25.071289062],[121.10888671900001,25.063110352],[121.08367919900002,25.053527832],[121.06951904300001,25.037475586],[121.04589843700002,25.016723633],[121.01727294900002,24.987304687],[121.01550293000001,24.985107422],[121.00592041000002,24.964294434],[120.99951171900001,24.959289551],[120.99572753900001,24.953491211],[120.98931884800001,24.948913574],[120.98211669900002,24.939086914],[120.98352050800001,24.936279297],[120.97790527300002,24.933105469],[120.97290039100001,24.926086426],[120.96911621100001,24.921081543],[120.96307373000002,24.910095215],[120.97027587900001,24.907897949],[120.97290039100001,24.905883789],[120.97027587900001,24.903930664],[120.96228027300002,24.90447998],[120.95788574200002,24.900695801],[120.94348144500002,24.874694824],[120.94329834000001,24.874328613],[120.94348144500002,24.871704102],[120.93988037100002,24.863525391],[120.94372558600001,24.856079102],[120.94067382800002,24.852294922],[120.93469238300001,24.851074219],[120.93609619100002,24.846679687],[120.93511962900001,24.843322754],[120.92987060500002,24.843322754],[120.93011474600002,24.837280273],[120.91992187500001,24.836303711],[120.91192627,24.834716797],[120.91009521500001,24.830688477],[120.91107177700002,24.827087402],[120.91430664100001,24.825317383],[120.913879395,24.817687988],[120.91748046900001,24.80267334],[120.91369628900001,24.801330566],[120.91107177700002,24.798095703],[120.90490722700001,24.769714355],[120.90148925800001,24.765930176],[120.89587402300002,24.748901367],[120.89331054700001,24.745727539],[120.88848877,24.744873047],[120.88189697300001,24.740112305],[120.87829589800002,24.742126465],[120.87371826200001,24.740478516],[120.86230468700002,24.731872559],[120.86151123000002,24.731323242],[120.85809326200001,24.726074219],[120.85449218700002,24.707885742],[120.85150146500001,24.702880859],[120.83990478500002,24.69329834],[120.84008789100001,24.686279297],[120.83172607400002,24.674316406],[120.83190918000001,24.674072266],[120.83691406200002,24.675476074],[120.83972168000001,24.670898437],[120.84948730500001,24.670715332],[120.85351562500001,24.670471191],[120.86047363300001,24.668273926],[120.85791015600002,24.664123535],[120.84088134800001,24.663696289],[120.83831787100002,24.663696289],[120.82550048800002,24.669677734],[120.82507324200002,24.669494629],[120.79907226600001,24.661682129],[120.78747558600001,24.648071289],[120.76208496100001,24.637695312],[120.75610351600001,24.628112793],[120.75769043000001,24.621887207],[120.76531982400002,24.615905762],[120.76031494100002,24.614685059],[120.75488281200002,24.615478516],[120.74487304700001,24.609680176],[120.72491455100001,24.602478027],[120.70507812500001,24.591918945],[120.70251464800002,24.587524414],[120.70068359400001,24.579711914],[120.69390869100002,24.566711426],[120.69372558600001,24.565673828],[120.68371582000002,24.541687012],[120.68267822300001,24.535888672],[120.68267822300001,24.513305664],[120.67669677700002,24.495483398],[120.66809082000002,24.480529785],[120.64849853500002,24.466125488],[120.64788818400001,24.465087891],[120.64251709000001,24.460876465],[120.63269043000001,24.451721191],[120.62170410200001,24.434326172],[120.62011718700002,24.428894043],[120.61529541000002,24.413696289],[120.60729980500001,24.395080566],[120.59130859400001,24.368896484],[120.578125,24.348876953],[120.56768798800002,24.327697754],[120.55389404300001,24.312316895],[120.54071044900002,24.296691895],[120.54089355500001,24.294921875],[120.53692627,24.292480469],[120.53491210900002,24.290710449],[120.53088378900001,24.284484863],[120.52911377,24.28527832],[120.52227783200001,24.278930664],[120.51971435500002,24.271728516],[120.51989746100001,24.27130127],[120.52209472700001,24.264282227],[120.51568603500002,24.250915527],[120.51068115200002,24.244873047],[120.50311279300001,24.229919434],[120.50347900400001,24.22668457],[120.50189209000001,24.212097168],[120.49450683600001,24.198486328],[120.50610351600001,24.192871094],[120.51171875000001,24.188110352],[120.51788330100001,24.171691895],[120.51531982400002,24.171875],[120.51007080100001,24.181518555],[120.50787353500002,24.183288574],[120.50268554700001,24.18347168],[120.49407959000001,24.189880371],[120.48931884800001,24.189880371],[120.48889160200001,24.189086914],[120.47747802700002,24.171875],[120.43170166000002,24.118530273],[120.42687988300001,24.104309082],[120.42712402300002,24.098876953],[120.43188476600001,24.100708008],[120.43267822300001,24.098693848],[120.43011474600002,24.095275879],[120.42932128900001,24.08770752],[120.42669677700002,24.085693359],[120.41790771500001,24.081298828],[120.41009521500001,24.073303223],[120.40332031200002,24.0625],[120.39849853500002,24.05090332],[120.39367675800001,24.05267334],[120.38311767600001,24.044128418],[120.38092041000002,24.043518066],[120.37890625000001,24.038879395],[120.35931396500001,24.013916016],[120.34167480500001,23.989685059],[120.33673095700001,23.982116699],[120.33367919900002,23.974914551],[120.32489013700001,23.961914062],[120.31848144500002,23.947875977],[120.31652832000002,23.941101074],[120.32427978500002,23.921875],[120.29827880900001,23.913696289],[120.29388427700002,23.903503418],[120.28430175800001,23.890930176],[120.28112793000001,23.880126953],[120.27807617200001,23.875915527],[120.26751709000001,23.868530273],[120.26611328100002,23.866271973],[120.26110839800002,23.850891113],[120.26171875000001,23.848876953],[120.25927734400001,23.84588623],[120.25927734400001,23.845703125],[120.26812744100002,23.834716797],[120.28747558600001,23.830078125],[120.31207275400001,23.82611084],[120.30969238300001,23.823913574],[120.27691650400001,23.813476562],[120.25152587900001,23.809509277],[120.23272705100001,23.801086426],[120.21789550800001,23.796508789],[120.21850585900002,23.795898437],[120.21228027300002,23.793273926],[120.20788574200002,23.789489746],[120.19708252,23.775695801],[120.19128418000001,23.759094238],[120.19348144500002,23.759521484],[120.19409179700001,23.756896973],[120.19012451200001,23.752929687],[120.18627929700001,23.744506836],[120.18267822300001,23.729309082],[120.18267822300001,23.719909668],[120.17871093700002,23.709472656],[120.17889404300001,23.702697754],[120.19329834000001,23.687072754],[120.19488525400001,23.682678223],[120.18988037100002,23.687683105],[120.18328857400002,23.689086914],[120.17907714800002,23.6953125],[120.17327880900001,23.690673828],[120.17327880900001,23.693481445],[120.15948486300002,23.691101074],[120.15447998000002,23.68572998],[120.14849853500002,23.675109863],[120.12908935500002,23.624328613],[120.12829589800002,23.622070312],[120.13848877,23.545471191],[120.14251709000001,23.542724609],[120.14849853500002,23.544128418],[120.14587402300002,23.537719727],[120.13928222700001,23.538085937],[120.14007568400001,23.533081055],[120.14392089800002,23.52947998],[120.14111328100002,23.524719238],[120.14172363300001,23.519897461],[120.15411377,23.520690918],[120.15911865200002,23.516479492],[120.14227294900002,23.516113281],[120.14471435500002,23.497314453],[120.14892578100002,23.493286133],[120.15728759800001,23.490478516],[120.15588378900001,23.489074707],[120.14489746100001,23.488098145],[120.13909912100002,23.454284668],[120.14630127,23.45489502],[120.14788818400001,23.456298828],[120.15509033200001,23.453125],[120.15307617200001,23.447692871],[120.15032959000001,23.447875977],[120.14831543000001,23.446289062],[120.14349365200002,23.445495605],[120.13751220700001,23.434326172],[120.13751220700001,23.433898926],[120.14111328100002,23.428100586],[120.14587402300002,23.426513672],[120.14111328100002,23.418884277],[120.14208984400001,23.414672852],[120.14050293000001,23.411682129],[120.14147949200002,23.406677246],[120.14428710900002,23.404724121],[120.14990234400001,23.40447998],[120.15350341800001,23.393920898],[120.15411377,23.391479492],[120.14868164100001,23.376281738],[120.14910888700001,23.374511719],[120.14788818400001,23.372070312],[120.15051269500002,23.360900879],[120.15747070300002,23.347717285],[120.16571044900002,23.335327148],[120.14648437500001,23.350097656],[120.13391113300001,23.362304687],[120.13012695300002,23.367492676],[120.12609863300001,23.355102539],[120.11987304700001,23.343688965],[120.12048339800002,23.339294434],[120.12487793000001,23.335327148],[120.12652587900001,23.333679199],[120.13690185500002,23.321105957],[120.14428710900002,23.315490723],[120.14093017600001,23.315124512],[120.13092041000002,23.3203125],[120.128723145,23.319519043],[120.12207031200002,23.32232666],[120.11987304700001,23.320922852],[120.11669921900001,23.313476562],[120.11230468700002,23.311523437],[120.11047363300001,23.305297852],[120.11267089800002,23.299682617],[120.11749267600001,23.294677734],[120.11468505900001,23.292724609],[120.11389160200001,23.289489746],[120.11712646500001,23.282897949],[120.11651611300002,23.280517578],[120.10870361300002,23.276306152],[120.10607910200001,23.270324707],[120.10107421900001,23.266906738],[120.09869384800001,23.261108398],[120.10168457000002,23.254882812],[120.09527587900001,23.249084473],[120.09210205100001,23.248474121],[120.08630371100001,23.234313965],[120.08630371100001,23.232299805],[120.09051513700001,23.228515625],[120.11169433600001,23.229675293],[120.11810302700002,23.225524902],[120.08972168000001,23.221923828],[120.08807373000002,23.220703125],[120.08532714800002,23.213684082],[120.08331298800002,23.19732666],[120.07867431600002,23.19128418],[120.08288574200002,23.186096191],[120.08551025400001,23.176330566],[120.08587646500001,23.173522949],[120.08367919900002,23.171875],[120.06988525400001,23.170715332],[120.06890869100002,23.166687012],[120.07049560500002,23.145874023],[120.07049560500002,23.144104004],[120.07409668000001,23.144104004],[120.07690429700001,23.14050293],[120.078125,23.131530762],[120.08087158200001,23.12890625],[120.08789062500001,23.125488281],[120.08728027300002,23.116088867],[120.08068847700001,23.118713379],[120.08331298800002,23.114074707],[120.06408691400001,23.100280762],[120.06127929700001,23.098876953],[120.05908203100002,23.091308594],[120.06048584000001,23.084106445],[120.05987548800002,23.081298828],[120.05932617200001,23.071289062],[120.06048584000001,23.065917969],[120.07727050800001,23.069091797],[120.09307861300002,23.077514648],[120.09210205100001,23.072509766],[120.09130859400001,23.072509766],[120.08428955100001,23.067077637],[120.06671142600001,23.060913086],[120.06390380900001,23.059875488],[120.05987548800002,23.043884277],[120.06469726600001,23.042724609],[120.08209228500002,23.033874512],[120.09631347700001,23.020690918],[120.10852050800001,23.012084961],[120.11169433600001,23.012329102],[120.11450195300002,23.013122559],[120.11767578100002,23.004516602],[120.12908935500002,22.999328613],[120.13287353500002,22.995483398],[120.16271972700001,22.98449707],[120.17590332000002,22.976928711],[120.18048095700001,22.964294434],[120.18072509800001,22.957885742],[120.15148925800001,22.97467041],[120.15447998000002,22.970275879],[120.16192627,22.952087402],[120.16912841800001,22.928894043],[120.16851806600002,22.926513672],[120.16931152300002,22.924682617],[120.17047119100002,22.920471191],[120.17510986300002,22.903686523],[120.18249511700002,22.87890625],[120.18792724600002,22.864501953],[120.19812011700002,22.868103027],[120.21429443400001,22.844482422],[120.20611572300001,22.840515137],[120.19531250000001,22.833679199],[120.19769287100002,22.826293945],[120.20947265600002,22.801879883],[120.22888183600001,22.755493164],[120.24908447300001,22.716125488],[120.25067138700001,22.711303711],[120.25531005900001,22.707885742],[120.25769043000001,22.708312988],[120.25909423800002,22.709472656],[120.25988769500002,22.708679199],[120.27032470700001,22.710083008],[120.27868652300002,22.686279297],[120.26550293000001,22.682922363],[120.26593017600001,22.682312012],[120.26367187500001,22.679321289],[120.26068115200002,22.680480957],[120.26049804700001,22.68170166],[120.25732421900001,22.680725098],[120.25732421900001,22.676330566],[120.24688720700001,22.665527344],[120.24468994100002,22.661071777],[120.24432373000002,22.659729004],[120.24951171900001,22.64251709],[120.25408935500002,22.630126953],[120.26593017600001,22.620483398],[120.27850341800001,22.610107422],[120.29211425800001,22.597717285],[120.30352783200001,22.585510254],[120.32067871100001,22.569885254],[120.32611084000001,22.556274414],[120.27807617200001,22.586730957],[120.29528808600001,22.562683105],[120.30090332000002,22.558288574],[120.32330322300001,22.532287598],[120.34307861300002,22.51751709],[120.34570312500001,22.515319824],[120.35028076200001,22.509094238],[120.34991455100001,22.504516602],[120.35131835900002,22.501098633],[120.35809326200001,22.503479004],[120.37292480500001,22.49407959],[120.38348388700001,22.48449707],[120.40252685500002,22.474304199],[120.40411377,22.474487305],[120.40570068400001,22.475891113],[120.40350341800001,22.480102539],[120.38989257800002,22.488098145],[120.38708496100001,22.502075195],[120.38787841800001,22.503479004],[120.39550781200002,22.500488281],[120.39709472700001,22.49810791],[120.40692138700001,22.481689453],[120.40991210900002,22.479675293],[120.41210937500001,22.484130859],[120.41070556600002,22.494689941],[120.41467285200001,22.49029541],[120.41632080100001,22.489074707],[120.42047119100002,22.489929199],[120.42248535200001,22.481323242],[120.42590332000002,22.480895996],[120.42828369100002,22.485900879],[120.43188476600001,22.473510742],[120.43450927700002,22.46887207],[120.43872070300002,22.469482422],[120.437316895,22.464904785],[120.43627929700001,22.464477539],[120.453125,22.451904297],[120.45410156200002,22.452514648],[120.45867919900002,22.45111084],[120.46551513700001,22.453308105],[120.47412109400001,22.448303223],[120.48272705100001,22.440490723],[120.48388671900001,22.4375],[120.48187255900001,22.434082031],[120.47851562500001,22.433288574],[120.47552490200002,22.434875488],[120.49407959000001,22.421081543],[120.49407959000001,22.420898437],[120.50030517600001,22.417297363],[120.50311279300001,22.415710449],[120.50708007800002,22.414123535],[120.51251220700001,22.410095215],[120.51788330100001,22.408325195],[120.538879395,22.39831543],[120.55432128900001,22.387878418],[120.56909179700001,22.38067627],[120.58190918000001,22.369506836],[120.58728027300002,22.362670898],[120.59130859400001,22.355895996],[120.59448242200001,22.345092773],[120.60632324200002,22.336303711],[120.60791015600002,22.332885742],[120.61248779300001,22.331115723],[120.61968994100002,22.323486328],[120.63568115200002,22.301086426],[120.63568115200002,22.290283203],[120.63812255900001,22.28692627],[120.64428710900002,22.26751709],[120.64508056600002,22.255126953],[120.64508056600002,22.254272461],[120.64550781200002,22.253295898],[120.64831543000001,22.248718262],[120.66351318400001,22.23651123],[120.67211914100001,22.219299316],[120.67633056600002,22.214294434],[120.67791748000002,22.201904297],[120.68347168000001,22.197509766],[120.68267822300001,22.183898926],[120.68469238300001,22.178100586],[120.69372558600001,22.151306152],[120.69287109400001,22.145324707],[120.695129395,22.133728027],[120.70129394500002,22.127685547],[120.71069335900002,22.09588623],[120.70788574200002,22.092529297],[120.69848632800002,22.088684082],[120.69812011700002,22.08807373],[120.69628906200002,22.08190918],[120.70050048800002,22.074279785],[120.70092773400002,22.065307617],[120.69769287100002,22.059326172],[120.69128418000001,22.055480957],[120.68988037100002,22.050476074],[120.69189453100002,22.042907715],[120.68389892600001,22.035522461],[120.68328857400002,22.032897949],[120.68768310500002,22.019287109],[120.69531250000001,21.998291016],[120.69909668000001,21.994873047],[120.70611572300001,21.983886719],[120.70849609400001,21.976318359],[120.70867919900002,21.973083496],[120.71148681600002,21.966674805],[120.71252441400001,21.94909668],[120.71667480500001,21.93371582],[120.71630859400001,21.926086426],[120.72009277300002,21.921875],[120.72552490200002,21.919921875],[120.72991943400001,21.921508789],[120.73431396500001,21.926086426],[120.73870849600002,21.936279297],[120.74090576200001,21.948486328],[120.75451660200001,21.961120605],[120.75750732400002,21.961730957],[120.77569580100001,21.949279785],[120.78607177700002,21.948486328],[120.79132080100001,21.945678711],[120.79431152300002,21.93927002],[120.79650878900001,21.940307617],[120.79870605500001,21.944702148],[120.80590820300002,21.937927246],[120.81512451200001,21.937072754],[120.82067871100001,21.932678223],[120.83129882800002,21.920288086],[120.83850097700001,21.919677734],[120.84387207000002,21.90447998],[120.84790039100001,21.902099609],[120.85412597700001,21.901916504],[120.85571289100001,21.902526855],[120.85552978500002,21.907714844],[120.85510253900001,21.911682129],[120.85430908200001,21.913085937],[120.85467529300001,21.91607666],[120.85388183600001,21.922912598],[120.84869384800001,21.930480957],[120.84088134800001,21.94128418],[120.83612060500002,21.954101562],[120.83569335900002,21.96307373],[120.84008789100001,21.982727051],[120.84027099600002,21.99029541],[120.84307861300002,21.992126465],[120.85070800800001,21.993286133],[120.86749267600001,22.001525879],[120.86968994100002,22.004272461],[120.87030029300001,22.00592041],[120.87127685500002,22.006713867],[120.87231445300002,22.007873535],[120.87127685500002,22.012695312],[120.87268066400001,22.016113281],[120.87908935500002,22.018127441],[120.88049316400001,22.021911621],[120.88153076200001,22.036315918],[120.88592529300001,22.06048584],[120.88488769500002,22.085510254],[120.88568115200002,22.086914062],[120.89147949200002,22.098876953],[120.88592529300001,22.112304687],[120.88488769500002,22.116882324],[120.88128662100002,22.124084473],[120.88031005900001,22.129882812],[120.88128662100002,22.133911133],[120.87969970700001,22.143676758],[120.88031005900001,22.176086426],[120.88409423800002,22.202697754],[120.89227294900002,22.23248291],[120.89111328100002,22.23828125],[120.88531494100002,22.257507324],[120.87927246100001,22.274719238],[120.87908935500002,22.278930664],[120.87792968700002,22.296325684],[120.88232421900001,22.319091797],[120.88787841800001,22.329528809],[120.88848877,22.334289551],[120.89508056600002,22.353881836],[120.90032959000001,22.360473633],[120.91668701200001,22.403503418],[120.91827392600001,22.440124512],[120.93792724600002,22.455688477],[120.93829345700001,22.468688965],[120.94207763700001,22.493530273],[120.95330810500002,22.523925781],[120.95910644500002,22.540100098],[120.96710205100001,22.55871582],[120.98272705100001,22.584106445],[120.99932861300002,22.609313965],[121.00952148400002,22.61907959],[121.01110839800002,22.630310059],[121.01550293000001,22.644287109],[121.02532959000001,22.66192627],[121.03570556600002,22.670471191],[121.05047607400002,22.678710937],[121.05627441400001,22.686279297],[121.07330322300001,22.694885254],[121.08349609400001,22.702270508],[121.08807373000002,22.703918457],[121.09771728500002,22.711730957],[121.12548828100002,22.722900391],[121.13647460900002,22.730529785],[121.14752197300001,22.740722656],[121.14947509800001,22.742675781],[121.15069580100001,22.743713379],[121.15930175800001,22.751708984],[121.16912841800001,22.766723633],[121.17889404300001,22.779907227],[121.18090820300002,22.787719727],[121.18530273400002,22.792114258],[121.18872070300002,22.799926758],[121.18988037100002,22.817321777],[121.18389892600001,22.837280273],[121.18627929700001,22.848876953],[121.18908691400001,22.853271484],[121.20092773400002,22.861877441],[121.20947265600002,22.86529541],[121.21948242200001,22.868103027],[121.22308349600002,22.867675781],[121.22528076200001,22.868713379],[121.23107910200001,22.87310791],[121.23248291000002,22.877502441],[121.23828125000001,22.880493164],[121.24511718700002,22.895324707],[121.25012207000002,22.912475586],[121.26489257800002,22.929504395],[121.27648925800001,22.943725586],[121.27789306600002,22.946899414],[121.28387451200001,22.955322266],[121.29107666000002,22.956726074],[121.29870605500001,22.965087891],[121.30749511700002,22.97467041],[121.31732177700002,22.992919922],[121.31689453100002,23.00189209],[121.32049560500002,23.010681152],[121.32348632800002,23.013122559],[121.32470703100002,23.017883301],[121.32952880900001,23.021118164],[121.33172607400002,23.028076172],[121.33508300800001,23.032470703],[121.34210205100001,23.056091309],[121.34252929700001,23.064880371],[121.34429931600002,23.069519043],[121.35168457000002,23.076477051],[121.34991455100001,23.081298828],[121.35327148400002,23.08770752],[121.36669921900001,23.098083496],[121.37951660200001,23.097717285],[121.38409423800002,23.102905273],[121.39190673800002,23.116882324],[121.39727783200001,23.11529541],[121.39752197300001,23.132873535],[121.39727783200001,23.135925293],[121.39630127,23.137878418],[121.39691162100002,23.142883301],[121.39532470700001,23.146728516],[121.39648437500001,23.149719238],[121.39587402300002,23.160888672],[121.38690185500002,23.185913086],[121.38708496100001,23.196105957],[121.39630127,23.207885742],[121.39752197300001,23.210083008],[121.39831543000001,23.210693359],[121.40112304700001,23.214111328],[121.40911865200002,23.239318848],[121.41510009800001,23.257324219],[121.41632080100001,23.260070801],[121.41687011700002,23.263671875],[121.41870117200001,23.265930176],[121.42468261700002,23.28112793],[121.42547607400002,23.285095215],[121.42767334000001,23.287719727],[121.42871093700002,23.289123535],[121.43652343700002,23.304077148],[121.45489502,23.324523926],[121.46850585900002,23.375488281],[121.46911621100001,23.388671875],[121.47192382800002,23.39251709],[121.47552490200002,23.423278809],[121.48291015600002,23.442871094],[121.48431396500001,23.446472168],[121.49353027300002,23.465087891],[121.49768066400001,23.475708008],[121.495910645,23.493530273],[121.49609375000001,23.520324707],[121.49908447300001,23.537719727],[121.50512695300002,23.553710937],[121.51312255900001,23.571289062],[121.52111816400001,23.59552002],[121.52630615200002,23.606872559],[121.52648925800001,23.620483398],[121.53088378900001,23.640319824],[121.53289794900002,23.648071289],[121.53790283200001,23.65612793],[121.54290771500001,23.68572998],[121.54309082000002,23.687683105],[121.54528808600001,23.706726074],[121.54449462900001,23.708679199],[121.54467773400002,23.713684082],[121.546875,23.720275879],[121.54870605500001,23.722900391],[121.55328369100002,23.740478516],[121.55651855500001,23.766906738],[121.56109619100002,23.796081543],[121.56427002,23.805908203],[121.56909179700001,23.829528809],[121.57507324200002,23.854675293],[121.58410644500002,23.87890625],[121.58630371100001,23.906311035],[121.58770752,23.925720215],[121.58911132800002,23.944885254],[121.59228515600002,23.96307373],[121.60351562500001,23.982299805],[121.61572265600002,23.999511719],[121.62310791000002,24.010681152],[121.62249755900001,24.03112793],[121.62249755900001,24.032897949],[121.61047363300001,24.054321289],[121.60870361300002,24.059875488],[121.60748291000002,24.074279785],[121.60913085900002,24.080322266],[121.61950683600001,24.097106934],[121.62188720700001,24.098876953],[121.62207031200002,24.101501465],[121.62792968700002,24.116699219],[121.63488769500002,24.132507324],[121.65447998000002,24.160888672],[121.65509033200001,24.162475586],[121.64971923800002,24.175292969],[121.66308593700002,24.201293945],[121.67407226600001,24.212890625],[121.67687988300001,24.214294434],[121.68048095700001,24.216308594],[121.68328857400002,24.224487305],[121.69427490200002,24.232727051],[121.70812988300001,24.241271973],[121.70849609400001,24.242126465],[121.71148681600002,24.244506836],[121.71551513700001,24.250671387],[121.73187255900001,24.277709961],[121.74670410200001,24.300109863],[121.75292968700002,24.325317383],[121.75732421900001,24.345275879],[121.76672363300001,24.364501953],[121.77587890600002,24.382080078],[121.78387451200001,24.397705078],[121.78448486300002,24.40411377],[121.78808593700002,24.419921875],[121.79467773400002,24.434326172],[121.79650878900001,24.436096191],[121.80627441400001,24.446105957],[121.81207275400001,24.453308105],[121.81512451200001,24.462890625],[121.83349609400001,24.47668457],[121.83752441400001,24.478271484],[121.83209228500002,24.493530273],[121.83227539100001,24.507507324],[121.83172607400002,24.511474609],[121.83270263700001,24.519714355],[121.83569335900002,24.523925781],[121.85131835900002,24.530090332],[121.85589599600002,24.530883789],[121.85748291000002,24.544311523],[121.86407470700001,24.579711914],[121.86767578100002,24.587097168],[121.86407470700001,24.587890625],[121.86090087900001,24.585510254],[121.85711669900002,24.588500977],[121.85510253900001,24.591491699],[121.85388183600001,24.600891113],[121.85748291000002,24.606506348],[121.86187744100002,24.605895996],[121.86132812500001,24.606689453],[121.84149169900002,24.624511719],[121.83227539100001,24.640319824],[121.82611084000001,24.655700684],[121.82330322300001,24.681091309],[121.81988525400001,24.702514648],[121.80932617200001,24.722106934],[121.812316895,24.746704102],[121.81188964800002,24.764892578],[121.81152343700002,24.766296387],[121.81170654300001,24.770080566],[121.81152343700002,24.780090332],[121.80810546900001,24.809875488],[121.81048584000001,24.829101562],[121.82269287100002,24.85369873],[121.82891845700001,24.862121582],[121.83087158200001,24.865905762],[121.83728027300002,24.873291016],[121.84368896500001,24.88470459],[121.85607910200001,24.901916504],[121.87811279300001,24.925292969],[121.88067627,24.927490234],[121.88311767600001,24.933898926],[121.88690185500002,24.937072754],[121.89410400400001,24.93927002],[121.90509033200001,24.94909668],[121.90692138700001,24.949279785],[121.91430664100001,24.954528809],[121.91931152300002,24.963928223],[121.92510986300002,24.969116211],[121.945129395,24.977478027],[121.95648193400001,24.980895996],[121.96148681600002,24.982299805],[121.97149658200001,24.989685059],[121.97668457000002,24.991516113],[121.98510742200001,25.00012207],[121.98870849600002,25.003479004],[121.98968505900001,25.00390625],[121.99169921900001,25.007324219],[121.98968505900001,25.01751709],[121.98791503900001,25.015930176],[121.98510742200001,25.015686035],[121.98150634800001,25.022094727],[121.97167968700002,25.025085449],[121.96368408200001,25.027099609],[121.95330810500002,25.024291992],[121.94769287100002,25.024291992],[121.93768310500002,25.020690918],[121.93310546900001,25.022277832],[121.937316895,25.026306152],[121.93109130900001,25.030700684],[121.92889404300001,25.035522461],[121.92108154300001,25.040710449],[121.91772460900002,25.045715332],[121.913879395,25.063476562],[121.90728759800001,25.083679199],[121.91009521500001,25.097290039],[121.91308593700002,25.114929199],[121.91210937500001,25.114929199],[121.91027832000002,25.117675781],[121.88867187500001,25.121520996],[121.88751220700001,25.122070312],[121.88629150400001,25.121887207],[121.87811279300001,25.125488281],[121.86669921900001,25.126281738],[121.85931396500001,25.12487793],[121.85150146500001,25.129882812],[121.83770752,25.13269043],[121.83648681600002,25.13269043],[121.83251953100002,25.132324219],[121.82788085900002,25.129699707],[121.82427978500002,25.124694824],[121.81732177700002,25.12512207],[121.81530761700002,25.132080078],[121.81109619100002,25.131713867],[121.80529785200001,25.135925293],[121.80310058600001,25.135925293],[121.79968261700002,25.138671875],[121.79888916000002,25.140686035],[121.79132080100001,25.14630127],[121.79071044900002,25.142883301],[121.78833007800002,25.142089844],[121.78527832000002,25.143493652],[121.77551269500002,25.152709961],[121.76867675800001,25.154907227],[121.76611328100002,25.155273437],[121.75653076200001,25.156677246],[121.75628662100002,25.156494141],[121.75653076200001,25.155090332],[121.76092529300001,25.153686523],[121.75689697300001,25.150085449],[121.753723145,25.142700195],[121.74188232400002,25.138671875],[121.73492431600002,25.132873535],[121.73608398400002,25.144714355],[121.74072265600002,25.142089844],[121.74487304700001,25.143920898],[121.74572753900001,25.145874023],[121.74151611300002,25.150695801],[121.74291992200001,25.157470703],[121.73468017600001,25.158508301],[121.73248291000002,25.16027832],[121.72729492200001,25.161071777],[121.72692871100001,25.160888672],[121.72668457000002,25.161071777],[121.71667480500001,25.162719727],[121.70947265600002,25.16607666],[121.70788574200002,25.165893555],[121.70568847700001,25.167297363],[121.70568847700001,25.16809082],[121.69750976600001,25.172119141],[121.69091796900001,25.178283691],[121.6875,25.181518555],[121.67889404300001,25.193481445],[121.67468261700002,25.203918457],[121.67407226600001,25.203125],[121.66711425800001,25.203918457],[121.65527343700002,25.209472656],[121.65307617200001,25.21307373],[121.64587402300002,25.214294434],[121.628723145,25.229919434],[121.61932373000002,25.244689941],[121.61047363300001,25.264099121],[121.59509277300002,25.278503418]]]]}}
