{"type":"Feature","id":"bulk-99377448B72620215384363","bbox":[100.74609375000001,24.218322754,102.48413085900002,26.520874023],"properties":{"id":"bulk-99377448B72620215384363","name":"Chuxiong Yi Autonomous Prefecture","nameEn":"Chuxiong Yi Autonomous Prefecture","fullName":"Chuxiong Yi Autonomous Prefecture","level":"city","boundaryRole":"administrative-extent","boundaryQuality":"generalized-source-2020","boundaryYearRepresented":"2020","bounds":[[100.74609375000001,24.218322754],[102.48413085900002,26.520874023]],"center":[101.61511230450002,25.369598388500002],"centerMethod":"bounding-box midpoint; camera framing only","license":"CC-BY-3.0-IGO","attribution":"geoBoundaries / HDX, China administrative boundaries (2020)","source":{"provider":"geoBoundaries gbHumanitarian / HDX","url":"https://github.com/wmgeolab/geoBoundaries/raw/9469f09/releaseData/gbHumanitarian/CHN/ADM2/geoBoundaries-CHN-ADM2.geojson","metadataUrl":"https://www.geoboundaries.org/api/current/gbHumanitarian/CHN/ADM2/","shapeID":"99377448B72620215384363","shapeName":"Chuxiong Yi Autonomous Prefecture","boundaryID":"CHN-ADM2-99377448","commit":"9469f09"},"geometryCounts":{"coordinates":211,"components":1,"holes":0},"boundaryNotice":"geoBoundaries / HDX 2020 年行政区数据，海岸和边界经过源数据概化，并非当前测绘成果。"},"geometry":{"type":"Polygon","coordinates":[[[101.87670898400002,26.08972168],[101.82147216800001,26.082092285],[101.81451416000002,26.103088379],[101.81671142600001,26.155700684],[101.77148437500001,26.241699219],[101.66552734400001,26.213928223],[101.59552002,26.241088867],[101.605285645,26.316894531],[101.63671875000001,26.314697266],[101.68792724600002,26.338500977],[101.69329834000001,26.356079102],[101.63049316400001,26.434326172],[101.55712890600002,26.504516602],[101.471679687,26.520690918],[101.47052002,26.520874023],[101.47491455100001,26.475524902],[101.47552490200002,26.440307617],[101.45690918000001,26.418273926],[101.42730712900001,26.402893066],[101.37969970700001,26.394287109],[101.31872558600001,26.382324219],[101.28088378900001,26.373718262],[101.23413085900002,26.372924805],[101.19787597700001,26.384277344],[101.16729736300002,26.369689941],[101.14068603500002,26.355712891],[101.11090087900001,26.338928223],[101.07330322300001,26.3203125],[101.04089355500001,26.305480957],[101.00469970700001,26.282897949],[100.97729492200001,26.25567627],[100.95507812500001,26.232910156],[100.92510986300002,26.205078125],[100.93371582000002,26.148498535],[100.93048095700001,26.104309082],[100.938476562,26.077087402],[100.95532226600001,26.050292969],[100.97808837900001,26.011901855],[100.98590087900001,25.97869873],[100.97369384800001,25.945678711],[100.95031738300001,25.92767334],[100.92327880900001,25.902893066],[100.92687988300001,25.869689941],[100.88970947300001,25.855285645],[100.93469238300001,25.81427002],[100.96350097700001,25.796875],[100.96868896500001,25.745483398],[100.979492187,25.703918457],[100.99829101600001,25.676330566],[101.00708007800002,25.649475098],[100.99987793000001,25.622070312],[100.97387695300002,25.605529785],[100.94732666000002,25.577514648],[100.93908691400001,25.542724609],[100.94787597700001,25.508300781],[100.961914062,25.483520508],[100.98229980500001,25.455505371],[101.003723145,25.435913086],[101.02587890600002,25.416503906],[101.04388427700002,25.387878418],[101.00653076200001,25.375915527],[100.969726562,25.358276367],[100.97369384800001,25.329711914],[100.98388671900001,25.30267334],[100.96667480500001,25.27947998],[100.92889404300001,25.27532959],[100.89849853500002,25.295471191],[100.86871337900001,25.297912598],[100.84289550800001,25.280883789],[100.83312988300001,25.254882812],[100.78869628900001,25.246276855],[100.769714355,25.219482422],[100.76031494100002,25.174926758],[100.75708007800002,25.143310547],[100.75952148400002,25.111877441],[100.76928710900002,25.086120605],[100.77148437500001,25.055908203],[100.76507568400001,25.027526855],[100.754089355,25.00012207],[100.75207519500002,24.971923828],[100.754882812,24.940307617],[100.75872802700002,24.905883789],[100.76287841800001,24.876281738],[100.74609375000001,24.843322754],[100.75531005900001,24.812927246],[100.77990722700001,24.77911377],[100.81829834000001,24.768920898],[100.86187744100002,24.77331543],[100.92712402300002,24.767700195],[100.95867919900002,24.736328125],[100.96649169900002,24.708496094],[100.98687744100002,24.679321289],[101.00512695300002,24.652526855],[101.01409912100002,24.622070312],[101.03771972700001,24.602478027],[101.05987548800002,24.571289062],[101.06390380900001,24.541687012],[101.10211181600002,24.482299805],[101.12731933600001,24.457519531],[101.16009521500001,24.435913086],[101.18487548800002,24.405883789],[101.19873046900001,24.37689209],[101.22747802700002,24.357910156],[101.29309082000002,24.328918457],[101.32330322300001,24.303283691],[101.35070800800001,24.331481934],[101.37347412100002,24.364074707],[101.38787841800001,24.402709961],[101.421875,24.407897949],[101.44830322300001,24.392272949],[101.47192382800002,24.366882324],[101.46752929700001,24.332702637],[101.47912597700001,24.300720215],[101.49908447300001,24.272705078],[101.50671386700002,24.24432373],[101.520507812,24.218322754],[101.56170654300001,24.224487305],[101.60168457000002,24.245300293],[101.63110351600001,24.282104492],[101.64569091800001,24.31072998],[101.65509033200001,24.350280762],[101.69232177700002,24.364685059],[101.71612548800002,24.34588623],[101.74548339800002,24.330078125],[101.76751709000001,24.306274414],[101.79168701200001,24.278503418],[101.83911132800002,24.230285645],[101.92132568400001,24.243286133],[101.96148681600002,24.263305664],[101.99389648400002,24.269470215],[102.01831054700001,24.299926758],[102.03131103500002,24.333679199],[102.04388427700002,24.368103027],[102.01971435500002,24.40032959],[102.02728271500001,24.435119629],[102.01568603500002,24.512084961],[101.98950195300002,24.560302734],[101.96087646500001,24.597473145],[101.98352050800001,24.621704102],[101.99047851600001,24.652709961],[101.98468017600001,24.687683105],[101.96887207000002,24.727478027],[101.97509765600002,24.757873535],[101.995117187,24.778320312],[102.02032470700001,24.796875],[102.03790283200001,24.827087402],[102.004882812,24.905090332],[102.04772949200002,24.899108887],[102.09027099600002,24.895080566],[102.120910645,24.920898437],[102.13092041000002,24.952270508],[102.16790771500001,24.963317871],[102.19989013700001,24.938476562],[102.23211669900002,24.937683105],[102.25408935500002,24.964111328],[102.25689697300001,24.994689941],[102.22930908200001,25.029907227],[102.20251464800002,25.043701172],[102.17932128900001,25.06427002],[102.18707275400001,25.103088379],[102.22131347700001,25.122924805],[102.24468994100002,25.094116211],[102.27789306600002,25.086120605],[102.31427002,25.09387207],[102.35369873000002,25.107727051],[102.37432861300002,25.133483887],[102.38812255900001,25.172729492],[102.40087890600002,25.198303223],[102.41668701200001,25.245910645],[102.41571044900002,25.288696289],[102.38629150400001,25.321105957],[102.36370849600002,25.355285645],[102.35748291000002,25.385925293],[102.38592529300001,25.415710449],[102.43310546900001,25.401916504],[102.46051025400001,25.426086426],[102.48413085900002,25.480102539],[102.47650146500001,25.510681152],[102.46173095700001,25.551330566],[102.44592285200001,25.597106934],[102.44390869100002,25.644287109],[102.44451904300001,25.681091309],[102.43969726600001,25.725708008],[102.42291259800001,25.761901855],[102.387695312,25.791687012],[102.36968994100002,25.818725586],[102.39410400400001,25.852478027],[102.41088867200001,25.878295898],[102.40368652300002,25.908874512],[102.38427734400001,25.93927002],[102.36987304700001,25.967895508],[102.37268066400001,25.995483398],[102.39831543000001,26.033874512],[102.40411377,26.073730469],[102.37048339800002,26.086486816],[102.33709716800001,26.094482422],[102.30609130900001,26.111694336],[102.28430175800001,26.131103516],[102.26611328100002,26.159301758],[102.25152587900001,26.187683105],[102.21728515600002,26.16027832],[102.18572998000002,26.142700195],[102.15148925800001,26.110473633],[102.11932373000002,26.073730469],[102.11688232400002,26.070922852],[102.08050537100002,26.062072754],[102.03448486300002,26.103881836],[102.02551269500002,26.104125977],[101.96929931600002,26.114501953],[101.91967773400002,26.09552002],[101.87670898400002,26.08972168]]]}}
