{"type":"Feature","id":"bulk-99377448B91438316137644","bbox":[113.08288574200002,32.262084961,115.16668701200001,33.531494141],"properties":{"id":"bulk-99377448B91438316137644","name":"Zhumadian","nameEn":"Zhumadian","fullName":"Zhumadian","level":"city","boundaryRole":"administrative-extent","boundaryQuality":"generalized-source-2020","boundaryYearRepresented":"2020","bounds":[[113.08288574200002,32.262084961],[115.16668701200001,33.531494141]],"center":[114.12478637700002,32.896789551],"centerMethod":"bounding-box midpoint; camera framing only","license":"CC-BY-3.0-IGO","attribution":"geoBoundaries / HDX, China administrative boundaries (2020)","source":{"provider":"geoBoundaries gbHumanitarian / HDX","url":"https://github.com/wmgeolab/geoBoundaries/raw/9469f09/releaseData/gbHumanitarian/CHN/ADM2/geoBoundaries-CHN-ADM2.geojson","metadataUrl":"https://www.geoboundaries.org/api/current/gbHumanitarian/CHN/ADM2/","shapeID":"99377448B91438316137644","shapeName":"Zhumadian","boundaryID":"CHN-ADM2-99377448","commit":"9469f09"},"geometryCounts":{"coordinates":162,"components":1,"holes":0},"boundaryNotice":"geoBoundaries / HDX 2020 年行政区数据，海岸和边界经过源数据概化，并非当前测绘成果。"},"geometry":{"type":"Polygon","coordinates":[[[114.86047363300001,33.092529297],[114.84368896500001,33.080505371],[114.80950927700002,33.081298828],[114.77148437500001,33.092529297],[114.74572753900001,33.114501953],[114.71130371100001,33.16607666],[114.70812988300001,33.209106445],[114.72528076200001,33.238098145],[114.72790527300002,33.280517578],[114.71649169900002,33.306884766],[114.68652343700002,33.334106445],[114.63708496100001,33.339294434],[114.59832763700001,33.346679687],[114.58648681600002,33.394104004],[114.57128906200002,33.430114746],[114.54248046900001,33.443908691],[114.50909423800002,33.460693359],[114.45452880900001,33.472900391],[114.41412353500002,33.462890625],[114.38269043000001,33.45111084],[114.34332275400001,33.452087402],[114.28588867200001,33.487670898],[114.24627685500002,33.455505371],[114.21087646500001,33.440673828],[114.16009521500001,33.469116211],[114.13092041000002,33.49609375],[114.09448242200001,33.521484375],[114.05847168000001,33.531494141],[113.96087646500001,33.522521973],[113.93548584000001,33.493530273],[113.90252685500002,33.475708008],[113.86328125000001,33.474304199],[113.81988525400001,33.469116211],[113.77069091800001,33.459716797],[113.73388671900001,33.443908691],[113.69970703100002,33.436523437],[113.65808105500001,33.413879395],[113.63751220700001,33.37109375],[113.61688232400002,33.328918457],[113.59790039100001,33.302490234],[113.58087158200001,33.273681641],[113.57708740200002,33.245300293],[113.61853027300002,33.221496582],[113.59490966800001,33.197875977],[113.58807373000002,33.163879395],[113.54711914100001,33.16607666],[113.49908447300001,33.16229248],[113.45770263700001,33.159118652],[113.39971923800002,33.161071777],[113.35748291000002,33.171325684],[113.35992431600002,33.114929199],[113.31689453100002,33.073120117],[113.27587890600002,33.083129883],[113.22271728500002,33.088928223],[113.17529296900001,33.083679199],[113.15252685500002,33.113525391],[113.10687255900001,33.073486328],[113.08569335900002,33.043273926],[113.08288574200002,33.007324219],[113.09851074200002,32.965698242],[113.13348388700001,32.932922363],[113.16192627,32.916320801],[113.16571044900002,32.878479004],[113.13867187500001,32.862915039],[113.15832519500002,32.81072998],[113.16687011700002,32.775085449],[113.18572998000002,32.730712891],[113.21752929700001,32.712524414],[113.16271972700001,32.67010498],[113.15570068400001,32.637878418],[113.20269775400001,32.602722168],[113.24108886700002,32.60748291],[113.28350830100001,32.598876953],[113.31707763700001,32.583496094],[113.35632324200002,32.596496582],[113.38067627,32.620910645],[113.41931152300002,32.602478027],[113.45251464800002,32.578125],[113.49029541000002,32.580688477],[113.51489257800002,32.602722168],[113.53967285200001,32.636901855],[113.57250976600001,32.683105469],[113.59368896500001,32.705871582],[113.63092041000002,32.722473145],[113.69427490200002,32.693908691],[113.73510742200001,32.671325684],[113.74707031200002,32.645324707],[113.77429199200002,32.613891602],[113.8125,32.624511719],[113.83770752,32.646118164],[113.87628173800002,32.634521484],[113.89910888700001,32.614318848],[113.921875,32.576477051],[113.96087646500001,32.553527832],[114.02667236300002,32.529724121],[114.06829834000001,32.52911377],[114.08673095700001,32.49987793],[114.09112548800002,32.472106934],[114.10870361300002,32.438720703],[114.15289306600002,32.43572998],[114.19171142600001,32.454101562],[114.20349121100001,32.511108398],[114.23889160200001,32.495727539],[114.26892089800002,32.43548584],[114.27911377,32.417114258],[114.29827880900001,32.361694336],[114.29730224600002,32.343688965],[114.31768798800002,32.311096191],[114.31732177700002,32.301879883],[114.36047363300001,32.282287598],[114.38171386700002,32.267700195],[114.41448974600002,32.262084961],[114.44830322300001,32.274475098],[114.47088623000002,32.282714844],[114.47052002,32.278076172],[114.48168945300002,32.277709961],[114.50311279300001,32.267883301],[114.54888916000002,32.297912598],[114.59851074200002,32.29309082],[114.64587402300002,32.374328613],[114.64312744100002,32.401123047],[114.62487793000001,32.426879883],[114.60247802700002,32.450927734],[114.59069824200002,32.477294922],[114.58691406200002,32.504089355],[114.60571289100001,32.528076172],[114.64288330100001,32.528076172],[114.67687988300001,32.534484863],[114.69311523400002,32.558105469],[114.74572753900001,32.543884277],[114.78967285200001,32.545471191],[114.82550048800002,32.582275391],[114.81652832000002,32.609313965],[114.86047363300001,32.652099609],[114.87628173800002,32.678100586],[114.95648193400001,32.678283691],[115.01269531200002,32.684692383],[115.05670166000002,32.671325684],[115.08447265600002,32.644287109],[115.16668701200001,32.636901855],[115.14129638700001,32.641479492],[115.12249755900001,32.679504395],[115.15710449200002,32.741088867],[115.15850830100001,32.765930176],[115.13848877,32.818908691],[115.12310791000002,32.85748291],[115.11547851600001,32.879882812],[115.08569335900002,32.89251709],[114.99810791000002,32.878723145],[114.98413085900002,32.901306152],[114.98687744100002,32.916320801],[114.97991943400001,32.927124023],[114.95812988300001,32.926086426],[114.91210937500001,32.917114258],[114.87408447300001,32.940490723],[114.85748291000002,32.955078125],[114.85748291000002,32.967712402],[114.85748291000002,33.004699707],[114.87188720700001,33.02911377],[114.87152099600002,33.06628418],[114.86572265600002,33.080688477],[114.86047363300001,33.092529297]]]}}
