{"type":"Feature","id":"bulk-99377448B77545378496480","bbox":[114.08349609400001,33.069274902,115.64251709000001,34.330688477],"properties":{"id":"bulk-99377448B77545378496480","name":"Zhoukou","nameEn":"Zhoukou","fullName":"Zhoukou","level":"city","boundaryRole":"administrative-extent","boundaryQuality":"generalized-source-2020","boundaryYearRepresented":"2020","bounds":[[114.08349609400001,33.069274902],[115.64251709000001,34.330688477]],"center":[114.863006592,33.6999816895],"centerMethod":"bounding-box midpoint; camera framing only","license":"CC-BY-3.0-IGO","attribution":"geoBoundaries / HDX, China administrative boundaries (2020)","source":{"provider":"geoBoundaries gbHumanitarian / HDX","url":"https://github.com/wmgeolab/geoBoundaries/raw/9469f09/releaseData/gbHumanitarian/CHN/ADM2/geoBoundaries-CHN-ADM2.geojson","metadataUrl":"https://www.geoboundaries.org/api/current/gbHumanitarian/CHN/ADM2/","shapeID":"99377448B77545378496480","shapeName":"Zhoukou","boundaryID":"CHN-ADM2-99377448","commit":"9469f09"},"geometryCounts":{"coordinates":141,"components":1,"holes":0},"boundaryNotice":"geoBoundaries / HDX 2020 年行政区数据，海岸和边界经过源数据概化，并非当前测绘成果。"},"geometry":{"type":"Polygon","coordinates":[[[115.64251709000001,34.057495117],[115.61291503900001,34.077087402],[115.56970214800002,34.083679199],[115.53668212900001,34.075683594],[115.53448486300002,34.048278809],[115.52410888700001,34.018676758],[115.49511718700002,33.993286133],[115.45727539100001,33.973327637],[115.40728759800001,33.989929199],[115.37152099600002,33.997314453],[115.31427002,33.99810791],[115.27990722700001,33.996276855],[115.24450683600001,33.993103027],[115.17987060500002,33.976928711],[115.13153076200001,33.96887207],[115.07592773400002,33.948913574],[115.06170654300001,34.002929687],[115.09008789100001,34.03112793],[115.11608886700002,34.063720703],[115.11492919900002,34.102905273],[115.11071777300002,34.138916016],[115.09667968700002,34.181274414],[115.08807373000002,34.217102051],[115.05529785200001,34.239929199],[115.01312255900001,34.254516602],[114.96008300800001,34.268676758],[114.90191650400001,34.276123047],[114.85748291000002,34.282104492],[114.80627441400001,34.26171875],[114.74847412100002,34.239929199],[114.70227050800001,34.250488281],[114.62829589800002,34.248901367],[114.55291748000002,34.290710449],[114.50067138700001,34.315490723],[114.47070312500001,34.330688477],[114.40393066400001,34.321716309],[114.37408447300001,34.267883301],[114.33209228500002,34.270324707],[114.30010986300002,34.280517578],[114.26507568400001,34.286071777],[114.25268554700001,34.244506836],[114.24969482400002,34.202087402],[114.24810791000002,34.165893555],[114.25250244100002,34.135925293],[114.25872802700002,34.092102051],[114.26232910200001,34.051086426],[114.27508544900002,34.014709473],[114.28350830100001,33.970275879],[114.29150390600002,33.93927002],[114.30328369100002,33.888305664],[114.288879395,33.884277344],[114.28228759800001,33.856079102],[114.27569580100001,33.816894531],[114.20989990200002,33.819885254],[114.16870117200001,33.829528809],[114.12792968700002,33.835876465],[114.09350585900002,33.8046875],[114.10052490200002,33.744689941],[114.08349609400001,33.718688965],[114.09631347700001,33.67010498],[114.13592529300001,33.66192627],[114.16467285200001,33.675720215],[114.19348144500002,33.689086914],[114.20111084000001,33.710327148],[114.24871826200001,33.667907715],[114.26171875000001,33.627319336],[114.28771972700001,33.59552002],[114.30749511700002,33.558288574],[114.30950927700002,33.516906738],[114.28588867200001,33.487670898],[114.34332275400001,33.452087402],[114.38269043000001,33.45111084],[114.41412353500002,33.462890625],[114.45452880900001,33.472900391],[114.50909423800002,33.460693359],[114.54248046900001,33.443908691],[114.57128906200002,33.430114746],[114.58648681600002,33.394104004],[114.59832763700001,33.346679687],[114.63708496100001,33.339294434],[114.68652343700002,33.334106445],[114.71649169900002,33.306884766],[114.72790527300002,33.280517578],[114.72528076200001,33.238098145],[114.70812988300001,33.209106445],[114.71130371100001,33.16607666],[114.74572753900001,33.114501953],[114.77148437500001,33.092529297],[114.80950927700002,33.081298828],[114.84368896500001,33.080505371],[114.86047363300001,33.092529297],[114.84588623000002,33.125488281],[114.87347412100002,33.13269043],[114.89807128900001,33.123901367],[114.90209960900002,33.121520996],[114.95007324200002,33.092895508],[115.01971435500002,33.069274902],[115.12750244100002,33.092102051],[115.14971923800002,33.101074219],[115.17767334000001,33.09387207],[115.22528076200001,33.090515137],[115.25628662100002,33.120483398],[115.26672363300001,33.13067627],[115.27111816400001,33.211914062],[115.27349853500002,33.257080078],[115.31591796900001,33.295288086],[115.28552246100001,33.33807373],[115.27630615200002,33.389709473],[115.31091308600001,33.425720215],[115.30767822300001,33.438720703],[115.30187988300001,33.460510254],[115.31890869100002,33.491882324],[115.34167480500001,33.48828125],[115.39172363300001,33.503295898],[115.38171386700002,33.539916992],[115.40393066400001,33.563110352],[115.46148681600002,33.555480957],[115.52490234400001,33.554870605],[115.55590820300002,33.560913086],[115.56927490200002,33.573486328],[115.56671142600001,33.581726074],[115.562316895,33.593322754],[115.54370117200001,33.61529541],[115.55651855500001,33.629089355],[115.55047607400002,33.656677246],[115.57830810500002,33.682128906],[115.53228759800001,33.722106934],[115.53271484400001,33.727478027],[115.53570556600002,33.76171875],[115.56848144500002,33.780883789],[115.56768798800002,33.803100586],[115.56890869100002,33.825073242],[115.53228759800001,33.83807373],[115.51708984400001,33.86151123],[115.52752685500002,33.88848877],[115.53472900400001,33.919311523],[115.52868652300002,33.969116211],[115.54211425800001,34.010070801],[115.56091308600001,34.028930664],[115.61389160200001,34.049072266],[115.64251709000001,34.057495117]]]}}
