{"type":"Feature","id":"bulk-99377448B25137517710256","bbox":[125.65368652300002,44.0625,130.203125,46.667907715],"properties":{"id":"bulk-99377448B25137517710256","name":"Harbin","nameEn":"Harbin","fullName":"Harbin","level":"city","boundaryRole":"administrative-extent","boundaryQuality":"generalized-source-2020","boundaryYearRepresented":"2020","bounds":[[125.65368652300002,44.0625],[130.203125,46.667907715]],"center":[127.92840576150002,45.3652038575],"centerMethod":"bounding-box midpoint; camera framing only","license":"CC-BY-3.0-IGO","attribution":"geoBoundaries / HDX, China administrative boundaries (2020)","source":{"provider":"geoBoundaries gbHumanitarian / HDX","url":"https://github.com/wmgeolab/geoBoundaries/raw/9469f09/releaseData/gbHumanitarian/CHN/ADM2/geoBoundaries-CHN-ADM2.geojson","metadataUrl":"https://www.geoboundaries.org/api/current/gbHumanitarian/CHN/ADM2/","shapeID":"99377448B25137517710256","shapeName":"Harbin","boundaryID":"CHN-ADM2-99377448","commit":"9469f09"},"geometryCounts":{"coordinates":349,"components":1,"holes":0},"boundaryNotice":"geoBoundaries / HDX 2020 年行政区数据，海岸和边界经过源数据概化，并非当前测绘成果。"},"geometry":{"type":"Polygon","coordinates":[[[127.00390625000001,44.601074219],[127.02709960900002,44.59387207],[127.06732177700002,44.605529785],[127.10089111300002,44.627685547],[127.12530517600001,44.650878906],[127.13970947300001,44.652526855],[127.14648437500001,44.641723633],[127.16070556600002,44.623474121],[127.19451904300001,44.60949707],[127.22631835900002,44.605712891],[127.24548339800002,44.626281738],[127.29907226600001,44.616271973],[127.35351562500001,44.609680176],[127.41027832000002,44.612487793],[127.44708252,44.591308594],[127.51110839800002,44.566894531],[127.52990722700001,44.548095703],[127.47052002,44.523071289],[127.39910888700001,44.526123047],[127.40747070300002,44.464294434],[127.45788574200002,44.405273437],[127.47888183600001,44.368103027],[127.50268554700001,44.330505371],[127.54211425800001,44.275512695],[127.59631347700001,44.227722168],[127.56671142600001,44.202514648],[127.58587646500001,44.172912598],[127.59832763700001,44.171325684],[127.66088867200001,44.16027832],[127.67047119100002,44.172729492],[127.69189453100002,44.186279297],[127.71392822300001,44.176879883],[127.71807861300002,44.149291992],[127.71832275400001,44.096679687],[127.71350097700001,44.067077637],[127.72772216800001,44.065673828],[127.74450683600001,44.06427002],[127.74810791000002,44.06451416],[127.78167724600002,44.067504883],[127.79730224600002,44.0625],[127.80187988300001,44.062927246],[127.83007812500001,44.065490723],[127.88232421900001,44.078491211],[127.92712402300002,44.087890625],[128.009521484,44.156677246],[127.99047851600001,44.176513672],[127.97528076200001,44.192077637],[127.99047851600001,44.205505371],[127.99407959000001,44.22869873],[127.98748779300001,44.261291504],[127.99468994100002,44.273925781],[127.99987793000001,44.288696289],[127.99047851600001,44.320678711],[127.972473145,44.353881836],[127.98327636700002,44.360717773],[128.00610351600002,44.364074707],[128.02349853500002,44.359313965],[128.02648925800003,44.358520508],[128.05847168000003,44.338928223],[128.068115234,44.340881348],[128.10607910200002,44.348876953],[128.14709472700002,44.39050293],[128.18029785200002,44.437072754],[128.180725098,44.4375],[128.163879395,44.444519043],[128.13568115200002,44.456115723],[128.11987304700003,44.487121582],[128.12268066400003,44.52532959],[128.144104004,44.554870605],[128.175720215,44.570922852],[128.22052002,44.58392334],[128.274108887,44.60949707],[128.29229736300002,44.634887695],[128.308898926,44.659118652],[128.33172607400002,44.694519043],[128.372497559,44.706298828],[128.42669677700002,44.706298828],[128.47308349600002,44.709289551],[128.524291992,44.697509766],[128.530700684,44.695922852],[128.543273926,44.693115234],[128.57287597700002,44.685302734],[128.590881348,44.680480957],[128.65032959,44.689086914],[128.69287109400003,44.704711914],[128.724914551,44.732116699],[128.72448730500003,44.759521484],[128.76031494100002,44.782287598],[128.804504395,44.813476562],[128.844726562,44.841491699],[128.859313965,44.86932373],[128.886291504,44.89251709],[128.93627929700003,44.912902832],[128.983276367,44.914916992],[129.01812744100002,44.936279297],[128.99230957,44.965881348],[128.99670410200002,44.997924805],[129.00750732400002,45.033874512],[128.97448730500003,45.051696777],[128.97467041000002,45.078918457],[129.01409912100002,45.083496094],[129.06927490200002,45.08190918],[129.096679687,45.100708008],[129.08612060500002,45.128723145],[129.08489990200002,45.157897949],[129.12890625000003,45.180480957],[129.164916992,45.209106445],[129.180725098,45.239929199],[129.14251709,45.268493652],[129.100280762,45.290100098],[129.07373046900003,45.310119629],[129.062072754,45.347290039],[129.101318359,45.355285645],[129.14367675800003,45.366088867],[129.167907715,45.396484375],[129.141479492,45.421081543],[129.09930419900002,45.433288574],[129.10107421900003,45.476074219],[129.10107421900003,45.519714355],[129.08489990200002,45.544921875],[129.08172607400002,45.57232666],[129.070129395,45.601928711],[129.09771728500002,45.610107422],[129.12188720700001,45.592895508],[129.14068603500002,45.588500977],[129.15930175800003,45.584106445],[129.210876465,45.590270996],[129.243530273,45.611877441],[129.263122559,45.637878418],[129.29229736300002,45.664916992],[129.30511474600002,45.692321777],[129.30810546900003,45.719726562],[129.35168457,45.715881348],[129.359680176,45.742675781],[129.39190673800002,45.767883301],[129.437072754,45.764709473],[129.47570800800003,45.791687012],[129.49572753900003,45.827087402],[129.527282715,45.877075195],[129.58648681600002,45.879882812],[129.65167236300002,45.875915527],[129.69287109400003,45.872314453],[129.73370361300002,45.875488281],[129.74468994100002,45.906311035],[129.740722656,45.934509277],[129.758300781,45.959899902],[129.79351806600002,45.971679687],[129.809082031,45.965881348],[129.8125,45.967102051],[129.85168457,45.952880859],[129.894104004,45.916503906],[129.94592285200002,45.899719238],[129.975097656,45.894897461],[130.01831054700003,45.900695801],[130.05871582,45.906311035],[130.07708740200002,45.905090332],[130.07269287100002,45.930480957],[130.06768798800002,45.970703125],[130.073303223,45.999511719],[130.085327148,46.02532959],[130.12512207,46.06652832],[130.157470703,46.085510254],[130.203125,46.116882324],[130.15588378900003,46.133300781],[130.14709472700002,46.139282227],[130.136474609,46.150512695],[130.10552978500002,46.210083008],[130.07690429700003,46.231079102],[130.03289794900002,46.246887207],[130.017700195,46.265686035],[129.991088867,46.317687988],[129.96911621100003,46.337524414],[129.93371582,46.347290039],[129.851318359,46.363708496],[129.87890625000003,46.374328613],[129.932495117,46.378723145],[130.00549316400003,46.366088867],[130.04309082,46.375305176],[130.07611084,46.404296875],[130.127929687,46.425720215],[130.133483887,46.454711914],[130.114685059,46.48651123],[130.12731933600003,46.515686035],[130.15008544900002,46.547119141],[130.14227294900002,46.577270508],[130.077880859,46.589477539],[130.044677734,46.568908691],[130.02148437500003,46.540283203],[129.959289551,46.538513184],[129.92211914100002,46.563293457],[129.83990478500002,46.598510742],[129.79351806600002,46.571289062],[129.712097168,46.520080566],[129.671081543,46.511291504],[129.63067627,46.516906738],[129.60870361300002,46.536682129],[129.58312988300003,46.581115723],[129.536682129,46.601928711],[129.474914551,46.609313965],[129.451477051,46.587097168],[129.39532470700001,46.587280273],[129.35089111300002,46.60748291],[129.30133056600002,46.624694824],[129.22290039100002,46.598876953],[129.190307617,46.583496094],[129.165283203,46.553710937],[129.158874512,46.517089844],[129.069519043,46.520324707],[129.02508544900002,46.521911621],[129.00469970700001,46.487304687],[128.96612548800002,46.471313477],[128.923095703,46.47668457],[128.86810302700002,46.480285645],[128.83172607400002,46.462097168],[128.78552246100003,46.459716797],[128.71472168000003,46.449279785],[128.666320801,46.456726074],[128.66229248000002,46.49029541],[128.66369628900003,46.524291992],[128.628295898,46.545715332],[128.576293945,46.552307129],[128.525878906,46.568481445],[128.48071289100002,46.588500977],[128.43591308600003,46.592712402],[128.39508056600002,46.58392334],[128.364318848,46.549499512],[128.31268310500002,46.536071777],[128.256896973,46.53729248],[128.201293945,46.549499512],[128.17547607400002,46.515686035],[128.137695312,46.492675781],[128.094909668,46.472900391],[128.053894043,46.461120605],[128.01208496100003,46.480895996],[127.980285645,46.497497559],[127.94873046900001,46.516296387],[127.921875,46.542114258],[127.89007568400001,46.560119629],[127.85028076200001,46.562927246],[127.80572509800001,46.557312012],[127.77288818400001,46.574523926],[127.72509765600002,46.562072754],[127.68432617200001,46.534912109],[127.60729980500001,46.513671875],[127.56427002,46.50592041],[127.503723145,46.513305664],[127.46508789100001,46.52532959],[127.45568847700001,46.543273926],[127.44592285200001,46.599487305],[127.42150878900001,46.626281738],[127.36608886700002,46.654724121],[127.33392334000001,46.665710449],[127.29608154300001,46.667907715],[127.24530029300001,46.659729004],[127.18127441400001,46.641113281],[127.12371826200001,46.61932373],[127.08148193400001,46.590881348],[127.03027343700002,46.580078125],[126.96612548800002,46.532897949],[126.93292236300002,46.524902344],[126.86407470700001,46.499511719],[126.79968261700002,46.449707031],[126.77032470700001,46.429321289],[126.69769287100002,46.416320801],[126.64691162100002,46.364929199],[126.60308837900001,46.341308594],[126.58673095700001,46.316894531],[126.57147216800001,46.254089355],[126.54449462900001,46.22869873],[126.52587890600002,46.223693848],[126.48107910200001,46.195495605],[126.44128418000001,46.159484863],[126.43188476600001,46.134277344],[126.42010498000002,46.099914551],[126.41107177700002,46.062683105],[126.39648437500001,46.059692383],[126.34912109400001,46.062683105],[126.31549072300001,46.06652832],[126.28692627,46.062683105],[126.24389648400002,46.055725098],[126.21209716800001,46.06652832],[126.18408203100002,46.064880371],[126.16510009800001,46.043273926],[126.12829589800002,46.033081055],[126.18011474600002,45.996520996],[126.23150634800001,45.96307373],[126.28247070300002,45.944519043],[126.3125,45.917297363],[126.35150146500001,45.886901855],[126.36450195300002,45.824890137],[126.36389160200001,45.779724121],[126.35009765600002,45.721679687],[126.33392334000001,45.69732666],[126.27612304700001,45.713500977],[126.24151611300002,45.698486328],[126.20831298800002,45.687927246],[126.13269043000001,45.687072754],[126.08831787100002,45.630126953],[126.06732177700002,45.627685547],[126.02392578100002,45.63269043],[126.00268554700001,45.630310059],[125.95092773400002,45.58392334],[125.87109375000001,45.56427002],[125.80828857400002,45.514282227],[125.76507568400001,45.518310547],[125.69671630900001,45.524902344],[125.66607666000002,45.452697754],[125.66070556600002,45.387512207],[125.65368652300002,45.335693359],[125.71173095700001,45.279907227],[125.75311279300001,45.255493164],[125.77630615200002,45.233276367],[125.80688476600001,45.223327637],[125.855285645,45.188293457],[125.929504395,45.183105469],[126.06127929700001,45.122070312],[126.08947753900001,45.122314453],[126.13287353500002,45.127075195],[126.23968505900001,45.141113281],[126.26007080100001,45.148681641],[126.28527832000002,45.175292969],[126.30908203100002,45.17590332],[126.34411621100001,45.204711914],[126.40588378900001,45.207275391],[126.43048095700001,45.211120605],[126.48150634800001,45.228088379],[126.53051757800002,45.235473633],[126.59149169900002,45.215087891],[126.64031982400002,45.183105469],[126.69451904300001,45.173278809],[126.77587890600002,45.120910645],[126.79431152300002,45.118713379],[126.87127685500002,45.125915527],[126.92327880900001,45.126281738],[126.93609619100002,45.121520996],[126.94891357400002,45.077087402],[126.95092773400002,45.047302246],[126.96972656200002,45.008728027],[127.05969238300001,44.935302734],[127.06329345700001,44.91192627],[127.01751709000001,44.897705078],[127.00207519500002,44.873291016],[126.97070312500001,44.840881348],[126.96588134800001,44.821716309],[126.98229980500001,44.773681641],[126.96868896500001,44.699707031],[126.99951171900001,44.653076172],[127.00610351600001,44.622680664],[127.00390625000001,44.601074219]]]}}
