{"type":"Feature","id":"bulk-99377448B65593099349966","bbox":[118.08489990200002,36.919494629,119.02288818400001,38.124511719],"properties":{"id":"bulk-99377448B65593099349966","name":"Dongying","nameEn":"Dongying","fullName":"Dongying","level":"city","boundaryRole":"administrative-extent","boundaryQuality":"generalized-source-2020","boundaryYearRepresented":"2020","bounds":[[118.08489990200002,36.919494629],[119.02288818400001,38.124511719]],"center":[118.55389404300001,37.522003174],"centerMethod":"bounding-box midpoint; camera framing only","license":"CC-BY-3.0-IGO","attribution":"geoBoundaries / HDX, China administrative boundaries (2020)","source":{"provider":"geoBoundaries gbHumanitarian / HDX","url":"https://github.com/wmgeolab/geoBoundaries/raw/9469f09/releaseData/gbHumanitarian/CHN/ADM2/geoBoundaries-CHN-ADM2.geojson","metadataUrl":"https://www.geoboundaries.org/api/current/gbHumanitarian/CHN/ADM2/","shapeID":"99377448B65593099349966","shapeName":"Dongying","boundaryID":"CHN-ADM2-99377448","commit":"9469f09"},"geometryCounts":{"coordinates":201,"components":1,"holes":0},"boundaryNotice":"geoBoundaries / HDX 2020 年行政区数据，海岸和边界经过源数据概化，并非当前测绘成果。"},"geometry":{"type":"Polygon","coordinates":[[[118.24847412100002,36.98651123],[118.28833007800002,36.942077637],[118.33087158200001,36.952087402],[118.37487793000001,36.945129395],[118.39752197300001,36.922729492],[118.43048095700001,36.931274414],[118.48828125000001,36.919494629],[118.52990722700001,36.932312012],[118.538879395,36.961486816],[118.54888916000002,36.997924805],[118.52807617200001,37.021118164],[118.56390380900001,37.037109375],[118.61492919900002,37.035888672],[118.64068603500002,37.060119629],[118.64587402300002,37.098327637],[118.64587402300002,37.128723145],[118.64331054700001,37.158325195],[118.65631103500002,37.205078125],[118.69470214800002,37.223693848],[118.72650146500001,37.238525391],[118.76428222700001,37.24609375],[118.87908935500002,37.282287598],[118.88031005900001,37.29309082],[118.88031005900001,37.303894043],[118.88031005900001,37.314697266],[118.86968994100002,37.325317383],[118.85272216800001,37.330078125],[118.82830810500002,37.331481934],[118.79589843700002,37.334716797],[118.79107666000002,37.342529297],[118.788879395,37.34588623],[118.78228759800001,37.360717773],[118.77490234400001,37.379272461],[118.75628662100002,37.403076172],[118.79351806600002,37.410522461],[118.82769775400001,37.414123535],[118.85168457000002,37.416687012],[118.87408447300001,37.417907715],[118.88128662100002,37.430908203],[118.87548828100002,37.453674316],[118.89331054700001,37.464294434],[118.88732910200001,37.506286621],[118.85931396500001,37.518920898],[118.89129638700001,37.532104492],[118.91052246100001,37.547119141],[118.91351318400001,37.563903809],[118.90332031200002,37.587280273],[118.91711425800001,37.606872559],[118.93591308600001,37.627502441],[118.94409179700001,37.63848877],[118.95751953100002,37.652099609],[118.97308349600002,37.666503906],[118.96771240200002,37.692077637],[119.00628662100002,37.690307617],[119.01647949200002,37.707702637],[119.02288818400001,37.721679687],[119.02050781200002,37.753479004],[119.00848388700001,37.750488281],[118.97607421900001,37.755493164],[118.95892334000001,37.760070801],[118.93969726600001,37.767700195],[118.92449951200001,37.77947998],[118.90393066400001,37.785522461],[118.89831543000001,37.813476562],[118.89947509800001,37.81829834],[118.88867187500001,37.838684082],[118.89331054700001,37.848327637],[118.93127441400001,37.839477539],[118.94250488300001,37.866699219],[118.97027587900001,37.894714355],[118.95709228500002,37.913513184],[118.96289062500001,37.942871094],[118.93872070300002,37.949890137],[118.91851806600002,37.947692871],[118.90167236300002,37.945129395],[118.87927246100001,37.945678711],[118.88031005900001,37.955505371],[118.88769531200002,37.967712402],[118.89111328100002,37.978271484],[118.89367675800001,37.989929199],[118.89270019500002,38.002502441],[118.89147949200002,38.012512207],[118.87487793000001,38.022705078],[118.855285645,38.016723633],[118.83227539100001,38.010925293],[118.82592773400002,37.99609375],[118.81927490200002,37.979309082],[118.81829834000001,37.970275879],[118.80670166000002,37.950500488],[118.80511474600002,37.936096191],[118.78649902300002,37.939086914],[118.77288818400001,37.954284668],[118.75891113300001,37.967895508],[118.75488281200002,37.983520508],[118.75152587900001,37.996276855],[118.75512695300002,38.007873535],[118.77032470700001,38.016723633],[118.78387451200001,38.023925781],[118.80212402300002,38.027282715],[118.82031250000001,38.031494141],[118.83251953100002,38.03527832],[118.85290527300002,38.038513184],[118.86267089800002,38.051330566],[118.83489990200002,38.046875],[118.81707763700001,38.045288086],[118.79711914100001,38.045715332],[118.77893066400001,38.052307129],[118.76147460900002,38.056091309],[118.73669433600001,38.054870605],[118.71331787100002,38.046508789],[118.74127197300001,38.077087402],[118.75268554700001,38.093688965],[118.75531005900001,38.106872559],[118.75628662100002,38.115905762],[118.74890136700002,38.124511719],[118.73449707000002,38.121887207],[118.73327636700002,38.111877441],[118.72747802700002,38.100708008],[118.71447753900001,38.091491699],[118.70111084000001,38.086914062],[118.68792724600002,38.085876465],[118.67608642600001,38.097473145],[118.66931152300002,38.109680176],[118.65069580100001,38.101928711],[118.64910888700001,38.087524414],[118.65209960900002,38.071105957],[118.64868164100001,38.050720215],[118.62249755900001,38.026123047],[118.59729003900001,38.034118652],[118.57568359400001,38.031677246],[118.56072998000002,38.023681641],[118.54949951200001,38.018127441],[118.53552246100001,38.009094238],[118.53552246100001,37.998291016],[118.53869628900001,37.983703613],[118.51672363300001,37.986877441],[118.49768066400001,37.963684082],[118.48608398400002,38.009521484],[118.45507812500001,38.017700195],[118.46911621100001,38.040283203],[118.47192382800002,38.054504395],[118.46612548800002,38.06652832],[118.45288085900002,38.077270508],[118.44232177700002,38.087890625],[118.41607666000002,38.084899902],[118.40368652300002,38.081298828],[118.39111328100002,38.072875977],[118.37469482400002,38.073913574],[118.35412597700001,38.080688477],[118.34051513700001,38.07611084],[118.32373046900001,38.072509766],[118.31469726600001,38.065124512],[118.29888916000002,38.049682617],[118.26269531200002,38.042114258],[118.25732421900001,38.01348877],[118.23632812500001,38.014892578],[118.22631835900002,38.028320312],[118.19549560500002,37.980895996],[118.19830322300001,37.949890137],[118.19152832000002,37.916503906],[118.18627929700001,37.88092041],[118.20550537100002,37.850708008],[118.22467041000002,37.819885254],[118.26031494100002,37.816711426],[118.29827880900001,37.824890137],[118.33148193400001,37.811889648],[118.33691406200002,37.771911621],[118.32629394500002,37.735107422],[118.30749511700002,37.702880859],[118.29187011700002,37.678283691],[118.27612304700001,37.646118164],[118.24310302700002,37.63067627],[118.19909668000001,37.631530762],[118.15930175800001,37.631713867],[118.13549804700001,37.610107422],[118.12188720700001,37.577087402],[118.09228515600002,37.556274414],[118.11492919900002,37.530883789],[118.13751220700001,37.49609375],[118.11389160200001,37.470703125],[118.08489990200002,37.443115234],[118.08551025400001,37.412719727],[118.11749267600001,37.393676758],[118.13269043000001,37.358093262],[118.18469238300001,37.384887695],[118.20349121100001,37.408874512],[118.25128173800002,37.394897461],[118.27868652300002,37.372680664],[118.30212402300002,37.340087891],[118.34631347700001,37.362487793],[118.35827636700002,37.307312012],[118.34191894500002,37.275085449],[118.36370849600002,37.25769043],[118.33569335900002,37.240722656],[118.34027099600002,37.185302734],[118.34948730500001,37.154724121],[118.35028076200001,37.116882324],[118.33807373000002,37.086730957],[118.31890869100002,37.057678223],[118.30133056600002,37.029724121],[118.24847412100002,36.98651123]]]}}
