{"type":"Feature","id":"bulk-99377448B54755665220404","bbox":[113.83831787100002,22.176330566,114.38647460900002,22.565490723],"properties":{"id":"bulk-99377448B54755665220404","name":"Hong Kong Special Administrative Region","nameEn":"Hong Kong Special Administrative Region","fullName":"Hong Kong Special Administrative Region","level":"province","boundaryRole":"administrative-extent","boundaryQuality":"generalized-source-2020","boundaryYearRepresented":"2020","bounds":[[113.83831787100002,22.176330566],[114.38647460900002,22.565490723]],"center":[114.11239624000001,22.3709106445],"centerMethod":"bounding-box midpoint; camera framing only","license":"CC-BY-3.0-IGO","attribution":"geoBoundaries / HDX, China administrative boundaries (2020)","source":{"provider":"geoBoundaries gbHumanitarian / HDX","url":"https://github.com/wmgeolab/geoBoundaries/raw/9469f09/releaseData/gbHumanitarian/CHN/ADM2/geoBoundaries-CHN-ADM2.geojson","metadataUrl":"https://www.geoboundaries.org/api/current/gbHumanitarian/CHN/ADM2/","shapeID":"99377448B54755665220404","shapeName":"Hong Kong Special Administrative Region","boundaryID":"CHN-ADM2-99377448","commit":"9469f09"},"geometryCounts":{"coordinates":581,"components":10,"holes":0},"boundaryNotice":"geoBoundaries / HDX 2020 年行政区数据，海岸和边界经过源数据概化，并非当前测绘成果。"},"geometry":{"type":"MultiPolygon","coordinates":[[[[114.12731933600001,22.20892334],[114.11907959000001,22.220275879],[114.11248779300001,22.230712891],[114.10552978500002,22.221496582],[114.10589599600002,22.221130371],[114.10412597700001,22.219482422],[114.10229492200001,22.217102051],[114.10467529300001,22.215270996],[114.10931396500001,22.216674805],[114.11248779300001,22.216125488],[114.11511230500001,22.212524414],[114.11651611300002,22.20111084],[114.11810302700002,22.19708252],[114.11669921900001,22.190490723],[114.11828613300001,22.178100586],[114.12030029300001,22.17791748],[114.12310791000002,22.176330566],[114.12750244100002,22.180725098],[114.13250732400002,22.178100586],[114.13330078100002,22.180480957],[114.13067627,22.186096191],[114.13171386700002,22.189880371],[114.13647460900002,22.185302734],[114.13909912100002,22.189880371],[114.13568115200002,22.193725586],[114.13690185500002,22.196899414],[114.14251709000001,22.198303223],[114.14447021500001,22.199890137],[114.14489746100001,22.200317383],[114.13708496100001,22.204101562],[114.13531494100002,22.203125],[114.12927246100001,22.203308105],[114.12487793000001,22.199890137],[114.12268066400001,22.20111084],[114.12487793000001,22.207092285],[114.12847900400001,22.208312988],[114.12731933600001,22.20892334]]],[[[114.15850830100001,22.226501465],[114.15728759800001,22.235473633],[114.15472412100002,22.238708496],[114.14447021500001,22.241516113],[114.14868164100001,22.233886719],[114.15850830100001,22.226501465]]],[[[114.28009033200001,22.239685059],[114.28228759800001,22.24029541],[114.28967285200001,22.252075195],[114.28710937500001,22.252319336],[114.27893066400001,22.249694824],[114.27728271500001,22.24230957],[114.28009033200001,22.239685059]]],[[[114.17687988300001,22.276489258],[114.16632080100001,22.278686523],[114.14672851600001,22.281311035],[114.12811279300001,22.280090332],[114.12652587900001,22.279907227],[114.11712646500001,22.275512695],[114.11468505900001,22.272094727],[114.11511230500001,22.268493652],[114.12432861300002,22.256713867],[114.12707519500002,22.255310059],[114.12951660200001,22.251525879],[114.13848877,22.246520996],[114.13989257800002,22.24407959],[114.14392089800002,22.24230957],[114.15667724600002,22.244873047],[114.15991210900002,22.243286133],[114.15948486300002,22.24029541],[114.16149902300002,22.238525391],[114.16510009800001,22.227905273],[114.16912841800001,22.22869873],[114.17510986300002,22.239929199],[114.18072509800001,22.240478516],[114.18389892600001,22.233886719],[114.19049072300001,22.232727051],[114.19268798800002,22.230529785],[114.19427490200002,22.222717285],[114.18951416000002,22.22088623],[114.19610595700001,22.213684082],[114.19268798800002,22.208496094],[114.19372558600001,22.207519531],[114.20111084000001,22.209472656],[114.20269775400001,22.215698242],[114.20709228500002,22.213684082],[114.20892334000001,22.210693359],[114.21112060500002,22.215698242],[114.20971679700001,22.218688965],[114.21112060500002,22.221130371],[114.21392822300001,22.221679687],[114.21588134800001,22.226074219],[114.21728515600002,22.225280762],[114.21868896500001,22.226928711],[114.22467041000002,22.227111816],[114.22528076200001,22.229492187],[114.22113037100002,22.238525391],[114.22290039100001,22.246704102],[114.22448730500001,22.247680664],[114.22808837900001,22.241882324],[114.23150634800001,22.216491699],[114.23571777300002,22.21307373],[114.24212646500001,22.20892334],[114.24267578100002,22.213928223],[114.24530029300001,22.225891113],[114.24731445300002,22.236877441],[114.24407959000001,22.239929199],[114.24670410200001,22.243286133],[114.24792480500001,22.243103027],[114.24810791000002,22.24987793],[114.24371337900001,22.259277344],[114.24249267600001,22.260925293],[114.24212646500001,22.261108398],[114.23529052700002,22.26171875],[114.23492431600002,22.265930176],[114.23669433600001,22.268493652],[114.23327636700002,22.272705078],[114.22528076200001,22.275085449],[114.22491455100001,22.274719238],[114.22149658200001,22.276306152],[114.22131347700001,22.276306152],[114.20928955100001,22.280883789],[114.19952392600001,22.280273437],[114.18768310500002,22.278930664],[114.17687988300001,22.276489258]]],[[[114.14251709000001,22.31451416],[114.14288330100001,22.315124512],[114.14172363300001,22.315307617],[114.14251709000001,22.31451416]]],[[[114.04168701200001,22.31652832],[114.038879395,22.323120117],[114.02929687500001,22.32611084],[114.01232910200001,22.318481445],[113.99328613300001,22.307128906],[113.97912597700001,22.299072266],[113.97808837900001,22.294921875],[113.97607421900001,22.294128418],[113.97167968700002,22.29510498],[113.95947265600002,22.288696289],[113.94268798800002,22.281921387],[113.92889404300001,22.277709961],[113.91131591800001,22.280273437],[113.89868164100001,22.281494141],[113.88867187500001,22.278076172],[113.88330078100002,22.275695801],[113.88427734400001,22.269287109],[113.87969970700001,22.270507812],[113.86529541000002,22.262695312],[113.86291503900001,22.259277344],[113.85827636700002,22.259887695],[113.85467529300001,22.256103516],[113.85272216800001,22.252929687],[113.85772705100001,22.252929687],[113.86010742200001,22.248474121],[113.85968017600001,22.245727539],[113.85192871100001,22.242675781],[113.85070800800001,22.239318848],[113.85192871100001,22.232910156],[113.85009765600002,22.230285645],[113.84368896500001,22.233276367],[113.83990478500002,22.229309082],[113.83831787100002,22.225280762],[113.84228515600002,22.212890625],[113.84149169900002,22.207519531],[113.84649658200001,22.202697754],[113.84692382800002,22.199890137],[113.84527587900001,22.196899414],[113.85150146500001,22.196105957],[113.85369873000002,22.201477051],[113.86132812500001,22.204101562],[113.86712646500001,22.202270508],[113.87127685500002,22.208312988],[113.87689209000001,22.20892334],[113.87969970700001,22.215270996],[113.89331054700001,22.222290039],[113.89611816400001,22.215270996],[113.90148925800001,22.210510254],[113.90789794900002,22.207885742],[113.91107177700002,22.207519531],[113.91070556600002,22.210876465],[113.91967773400002,22.215087891],[113.92449951200001,22.216491699],[113.91827392600001,22.215881348],[113.92028808600001,22.222106934],[113.92810058600001,22.222900391],[113.937316895,22.228881836],[113.94732666000002,22.232299805],[113.95831298800002,22.231689453],[113.96728515600002,22.237121582],[113.97387695300002,22.238525391],[113.97668457000002,22.237121582],[113.97692871100001,22.234130859],[113.97430419900002,22.229309082],[113.97930908200001,22.223693848],[113.98052978500002,22.215881348],[113.98687744100002,22.211730957],[113.98950195300002,22.213317871],[113.99468994100002,22.216918945],[113.99768066400001,22.214111328],[113.99987793000001,22.217895508],[114.00207519500002,22.227111816],[114.00109863300001,22.228088379],[114.00012207000002,22.227722168],[113.99890136700002,22.230529785],[113.99468994100002,22.234680176],[113.99389648400002,22.240478516],[114.00329589800002,22.25012207],[114.00329589800002,22.250305176],[114.00012207000002,22.252502441],[113.99230957000002,22.258483887],[113.98870849600002,22.260314941],[113.99090576200001,22.264282227],[113.99609375000001,22.267089844],[114.00012207000002,22.264282227],[114.00592041000002,22.26171875],[114.01391601600001,22.261291504],[114.01727294900002,22.264526367],[114.00531005900001,22.28729248],[114.02008056600002,22.289489746],[114.02130127,22.290710449],[114.02172851600001,22.291503906],[114.01947021500001,22.294677734],[114.01708984400001,22.295288086],[114.01269531200002,22.292297363],[114.01007080100001,22.292480469],[114.00872802700002,22.294128418],[114.01232910200001,22.297912598],[114.01232910200001,22.302490234],[114.01550293000001,22.305297852],[114.01788330100001,22.307495117],[114.02227783200001,22.308105469],[114.02709960900002,22.304504395],[114.03112793000001,22.304504395],[114.03308105500001,22.309082031],[114.02929687500001,22.316711426],[114.03051757800002,22.319091797],[114.03228759800001,22.318725586],[114.03851318400001,22.311279297],[114.04168701200001,22.31652832]]],[[[114.26269531200002,22.34967041],[114.26312255900001,22.34967041],[114.26287841800001,22.350097656],[114.26269531200002,22.34967041]]],[[[114.30212402300002,22.374694824],[114.30187988300001,22.37487793],[114.30047607400002,22.374694824],[114.30212402300002,22.374694824]]],[[[114.29791259800001,22.501281738],[114.30310058600001,22.502685547],[114.29370117200001,22.503479004],[114.29431152300002,22.502502441],[114.29791259800001,22.501281738]]],[[[114.04248046900001,22.501525879],[114.04907226600001,22.50012207],[114.04608154300001,22.496887207],[114.03710937500001,22.495910645],[114.03808593700002,22.490112305],[114.02832031200002,22.489074707],[114.02532959000001,22.483276367],[114.02587890600002,22.478088379],[114.03009033200001,22.470703125],[114.02490234400001,22.470275879],[114.02349853500002,22.467285156],[114.02447509800001,22.462097168],[114.02532959000001,22.459716797],[114.02709960900002,22.455505371],[114.03027343700002,22.452880859],[114.03912353500002,22.451293945],[114.04028320300002,22.449279785],[114.03930664100001,22.448120117],[114.03112793000001,22.448303223],[114.02172851600001,22.444885254],[114.02008056600002,22.445678711],[114.02532959000001,22.45111084],[114.02069091800001,22.456726074],[114.01910400400001,22.468322754],[114.00909423800002,22.468078613],[114.00891113300001,22.473083496],[113.99450683600001,22.45489502],[113.98388671900001,22.467102051],[113.97869873000002,22.460327148],[113.97589111300002,22.454284668],[113.97467041000002,22.452087402],[113.96972656200002,22.448303223],[113.95788574200002,22.444274902],[113.94610595700001,22.43548584],[113.94311523400002,22.428100586],[113.93267822300001,22.423278809],[113.93652343700002,22.420288086],[113.93328857400002,22.417724609],[113.91748046900001,22.415710449],[113.90191650400001,22.404907227],[113.90112304700001,22.403076172],[113.91088867200001,22.400085449],[113.91333007800002,22.397521973],[113.91351318400001,22.392272949],[113.91967773400002,22.384094238],[113.92010498000002,22.382507324],[113.92071533200001,22.379699707],[113.91992187500001,22.377685547],[113.91607666000002,22.376281738],[113.91870117200001,22.372924805],[113.92608642600001,22.366882324],[113.93267822300001,22.365905762],[113.94128418000001,22.362487793],[113.94372558600001,22.362304687],[113.96173095700001,22.374328613],[113.96368408200001,22.383911133],[113.96868896500001,22.38671875],[113.97210693400001,22.386291504],[113.97552490200002,22.383483887],[113.97668457000002,22.374084473],[113.98168945300002,22.371276855],[113.99127197300001,22.369873047],[113.99267578100002,22.368286133],[113.99169921900001,22.365478516],[113.99407959000001,22.36328125],[114.00012207000002,22.357116699],[114.00250244100002,22.357727051],[114.00488281200002,22.354125977],[114.01287841800001,22.355102539],[114.01391601600001,22.351501465],[114.01690673800002,22.351501465],[114.09411621100001,22.375488281],[114.10229492200001,22.364074707],[114.10308837900001,22.364318848],[114.10711669900002,22.363525391],[114.10992431600002,22.359680176],[114.10949707000002,22.353881836],[114.11590576200001,22.344909668],[114.12310791000002,22.352905273],[114.12512207000002,22.353088379],[114.12591552700002,22.351501465],[114.12048339800002,22.341674805],[114.12127685500002,22.338317871],[114.12109375000001,22.337524414],[114.12567138700001,22.331115723],[114.13269043000001,22.324279785],[114.13391113300001,22.324279785],[114.13751220700001,22.325500488],[114.14770507800002,22.326477051],[114.15509033200001,22.321716309],[114.15771484400001,22.318115234],[114.15612793000001,22.314086914],[114.15728759800001,22.312316895],[114.15808105500001,22.30847168],[114.15808105500001,22.305114746],[114.17132568400001,22.300720215],[114.18847656200002,22.302490234],[114.1875,22.30847168],[114.19091796900001,22.313110352],[114.19409179700001,22.313720703],[114.20269775400001,22.306274414],[114.20770263700001,22.307678223],[114.20770263700001,22.309082031],[114.19909668000001,22.317687988],[114.19927978500002,22.321105957],[114.20227050800001,22.320495605],[114.21069335900002,22.312927246],[114.21429443400001,22.306274414],[114.21588134800001,22.303283691],[114.21789550800001,22.301330566],[114.22113037100002,22.298095703],[114.22991943400001,22.293518066],[114.23132324200002,22.288879395],[114.23449707000002,22.284912109],[114.24810791000002,22.314697266],[114.26049804700001,22.304870605],[114.26409912100002,22.280273437],[114.26727294900002,22.280700684],[114.26928710900002,22.280700684],[114.26867675800001,22.277893066],[114.26489257800002,22.274291992],[114.26568603500002,22.267700195],[114.26611328100002,22.266296387],[114.27032470700001,22.27130127],[114.27288818400001,22.274719238],[114.27648925800001,22.272277832],[114.27368164100001,22.267883301],[114.27770996100001,22.261474609],[114.28552246100001,22.263305664],[114.29089355500001,22.260314941],[114.29229736300002,22.267700195],[114.29272460900002,22.271118164],[114.28851318400001,22.270690918],[114.28631591800001,22.275695801],[114.28869628900001,22.285522461],[114.29052734400001,22.285522461],[114.29467773400002,22.282104492],[114.29467773400002,22.282287598],[114.29150390600002,22.299072266],[114.29168701200001,22.303100586],[114.29028320300002,22.303894043],[114.28588867200001,22.316894531],[114.27148437500001,22.316101074],[114.26971435500002,22.319091797],[114.27050781200002,22.32409668],[114.26470947300001,22.33392334],[114.26672363300001,22.340515137],[114.26452636700002,22.34588623],[114.25952148400002,22.348327637],[114.24969482400002,22.349487305],[114.24810791000002,22.35168457],[114.24871826200001,22.354125977],[114.24890136700002,22.355285645],[114.25628662100002,22.353881836],[114.25848388700001,22.356506348],[114.25927734400001,22.370727539],[114.27227783200001,22.377685547],[114.27227783200001,22.377502441],[114.27471923800002,22.379699707],[114.27691650400001,22.38848877],[114.28070068400001,22.386291504],[114.28448486300002,22.388671875],[114.28833007800002,22.386901855],[114.29370117200001,22.380310059],[114.30468750000001,22.37890625],[114.30670166000002,22.378479004],[114.30688476600001,22.383117676],[114.30987548800002,22.382507324],[114.31427002,22.377685547],[114.32031250000001,22.376098633],[114.32452392600001,22.373474121],[114.33850097700001,22.372497559],[114.33630371100001,22.37689209],[114.33850097700001,22.379882812],[114.34088134800001,22.378479004],[114.34307861300002,22.373718262],[114.34851074200002,22.371276855],[114.35668945300002,22.370483398],[114.35827636700002,22.370727539],[114.35870361300002,22.370300293],[114.36468505900001,22.369506836],[114.37231445300002,22.384887695],[114.37011718700002,22.394897461],[114.37011718700002,22.395080566],[114.36810302700002,22.40447998],[114.36871337900001,22.419311523],[114.38647460900002,22.423278809],[114.38610839800002,22.435302734],[114.38592529300001,22.43548584],[114.38287353500002,22.43347168],[114.36828613300001,22.434692383],[114.36468505900001,22.440673828],[114.36712646500001,22.44732666],[114.36431884800001,22.452087402],[114.36029052700002,22.453308105],[114.35711669900002,22.450927734],[114.35748291000002,22.446899414],[114.35168457000002,22.44128418],[114.35131835900002,22.433898926],[114.35430908200001,22.420288086],[114.35107421900001,22.416320801],[114.34771728500002,22.417480469],[114.34289550800001,22.430297852],[114.33947753900001,22.426086426],[114.33850097700001,22.426330566],[114.33752441400001,22.422302246],[114.33728027300002,22.426513672],[114.33709716800001,22.426513672],[114.33471679700001,22.430297852],[114.33489990200002,22.433288574],[114.33648681600002,22.434875488],[114.33508300800001,22.455078125],[114.33508300800001,22.455322266],[114.328125,22.460876465],[114.33007812500001,22.465087891],[114.32928466800001,22.467895508],[114.32208252,22.467712402],[114.32128906200002,22.472900391],[114.31610107400002,22.473083496],[114.31567382800002,22.472900391],[114.31268310500002,22.468688965],[114.30090332000002,22.461303711],[114.30072021500001,22.450073242],[114.29711914100001,22.451293945],[114.29248046900001,22.450317383],[114.28833007800002,22.453918457],[114.28851318400001,22.445495605],[114.28131103500002,22.446899414],[114.27490234400001,22.441711426],[114.27429199200002,22.440917969],[114.27447509800001,22.439697266],[114.27630615200002,22.438903809],[114.27911377,22.437683105],[114.27972412100002,22.428283691],[114.28491210900002,22.422485352],[114.28491210900002,22.419494629],[114.27990722700001,22.416320801],[114.27288818400001,22.408081055],[114.27050781200002,22.408508301],[114.26312255900001,22.419494629],[114.26727294900002,22.421691895],[114.26849365200002,22.42388916],[114.26629638700001,22.427124023],[114.26611328100002,22.427124023],[114.26531982400002,22.42590332],[114.26391601600001,22.426879883],[114.24652099600002,22.424926758],[114.24108886700002,22.433288574],[114.23730468700002,22.432312012],[114.23510742200001,22.423522949],[114.22747802700002,22.414672852],[114.22290039100001,22.406677246],[114.22009277300002,22.401916504],[114.20867919900002,22.390686035],[114.20751953100002,22.382080078],[114.19873046900001,22.37689209],[114.19451904300001,22.377685547],[114.19207763700001,22.373474121],[114.18927002,22.372497559],[114.18811035200001,22.37689209],[114.20770263700001,22.398681641],[114.20947265600002,22.403686523],[114.20770263700001,22.408325195],[114.20849609400001,22.411499023],[114.19567871100001,22.398925781],[114.19189453100002,22.42388916],[114.18847656200002,22.434082031],[114.18328857400002,22.436523437],[114.17608642600001,22.437316895],[114.17352294900002,22.440307617],[114.16027832000002,22.446472168],[114.16131591800001,22.449279785],[114.16711425800001,22.450500488],[114.16650390600002,22.450683594],[114.24029541000002,22.48248291],[114.23992919900002,22.483886719],[114.24230957000002,22.48449707],[114.24371337900001,22.483886719],[114.24609375000001,22.484924316],[114.24871826200001,22.481079102],[114.25189209000001,22.479309082],[114.25927734400001,22.479309082],[114.27612304700001,22.486083984],[114.27947998000002,22.485107422],[114.27929687500001,22.482299805],[114.30432128900001,22.495910645],[114.30151367200001,22.494873047],[114.29370117200001,22.497070312],[114.28912353500002,22.501098633],[114.28271484400001,22.50390625],[114.27148437500001,22.504516602],[114.26910400400001,22.507873535],[114.27008056600002,22.510498047],[114.27508544900002,22.509521484],[114.27410888700001,22.524475098],[114.27368164100001,22.524475098],[114.27032470700001,22.520080566],[114.26330566400001,22.518676758],[114.25891113300001,22.520080566],[114.26007080100001,22.525085449],[114.26531982400002,22.528076172],[114.25592041000002,22.531677246],[114.23248291000002,22.531311035],[114.23071289100001,22.527709961],[114.22747802700002,22.527526855],[114.22448730500001,22.52532959],[114.21649169900002,22.527709961],[114.20788574200002,22.525512695],[114.20690918000001,22.527282715],[114.20910644500002,22.529907227],[114.21008300800001,22.530517578],[114.19989013700001,22.530090332],[114.20709228500002,22.53729248],[114.23107910200001,22.551086426],[114.23211669900002,22.551879883],[114.23327636700002,22.554077148],[114.23492431600002,22.555908203],[114.23547363300001,22.556518555],[114.23828125000001,22.559875488],[114.23889160200001,22.560119629],[114.23590087900001,22.561096191],[114.21649169900002,22.565490723],[114.19390869100002,22.56451416],[114.18847656200002,22.562683105],[114.16607666000002,22.555297852],[114.13208007800002,22.536071777],[114.11010742200001,22.525878906],[114.07629394500002,22.512329102],[114.05792236300002,22.507507324],[114.05749511700002,22.507324219],[114.04968261700002,22.504272461],[114.04248046900001,22.501525879]]]]}}
