{"type":"Feature","id":"bulk-99377448B21485375667710","bbox":[116.16571044900002,36.025512695,117.70867919900002,37.513671875],"properties":{"id":"bulk-99377448B21485375667710","name":"Jinan","nameEn":"Jinan","fullName":"Jinan","level":"city","boundaryRole":"administrative-extent","boundaryQuality":"generalized-source-2020","boundaryYearRepresented":"2020","bounds":[[116.16571044900002,36.025512695],[117.70867919900002,37.513671875]],"center":[116.93719482400002,36.769592285],"centerMethod":"bounding-box midpoint; camera framing only","license":"CC-BY-3.0-IGO","attribution":"geoBoundaries / HDX, China administrative boundaries (2020)","source":{"provider":"geoBoundaries gbHumanitarian / HDX","url":"https://github.com/wmgeolab/geoBoundaries/raw/9469f09/releaseData/gbHumanitarian/CHN/ADM2/geoBoundaries-CHN-ADM2.geojson","metadataUrl":"https://www.geoboundaries.org/api/current/gbHumanitarian/CHN/ADM2/","shapeID":"99377448B21485375667710","shapeName":"Jinan","boundaryID":"CHN-ADM2-99377448","commit":"9469f09"},"geometryCounts":{"coordinates":138,"components":1,"holes":0},"boundaryNotice":"geoBoundaries / HDX 2020 年行政区数据，海岸和边界经过源数据概化，并非当前测绘成果。"},"geometry":{"type":"Polygon","coordinates":[[[117.19451904300001,37.513671875],[117.16149902300002,37.49407959],[117.12310791000002,37.484130859],[117.09729003900001,37.475891113],[117.07171630900001,37.470092773],[117.02050781200002,37.456115723],[116.99371337900001,37.43347168],[116.98388671900001,37.386901855],[116.97448730500001,37.347717285],[116.97192382800002,37.309326172],[116.97430419900002,37.28112793],[117.00451660200001,37.242919922],[117.02172851600001,37.212890625],[117.02508544900002,37.177490234],[117.02392578100002,37.140319824],[117.03930664100001,37.115478516],[116.95587158200001,37.097473145],[116.91210937500001,37.071899414],[116.92327880900001,37.042724609],[116.90527343700002,37.010925293],[116.86853027300002,36.993103027],[116.87249755900001,36.956115723],[116.90527343700002,36.928710937],[116.93969726600001,36.88671875],[116.94848632800002,36.853088379],[116.97070312500001,36.828674316],[117.00750732400002,36.835510254],[117.04187011700002,36.836914062],[117.04827880900001,36.807495117],[117.04492187500001,36.753479004],[116.97027587900001,36.717529297],[116.85449218700002,36.726318359],[116.78448486300002,36.70489502],[116.77728271500001,36.695129395],[116.74969482400002,36.676513672],[116.72167968700002,36.615112305],[116.68829345700001,36.601928711],[116.62628173800002,36.557312012],[116.56530761700002,36.485107422],[116.58209228500002,36.454101562],[116.58831787100002,36.413513184],[116.52648925800001,36.400085449],[116.49548339800002,36.383117676],[116.48828125000001,36.375915527],[116.47070312500001,36.356689453],[116.41632080100001,36.321899414],[116.37969970700001,36.30847168],[116.25891113300001,36.246704102],[116.18450927700002,36.159912109],[116.16571044900002,36.125671387],[116.16851806600002,36.080322266],[116.18090820300002,36.074707031],[116.18609619100002,36.059326172],[116.18511962900001,36.038513184],[116.23492431600002,36.025512695],[116.28631591800001,36.038330078],[116.32629394500002,36.062072754],[116.36572265600002,36.071716309],[116.41271972700001,36.060119629],[116.45172119100002,36.052124023],[116.49749755900001,36.063476562],[116.51452636700002,36.089477539],[116.54132080100001,36.110717773],[116.53149414100001,36.140319824],[116.49609375000001,36.174072266],[116.47308349600002,36.202697754],[116.49072265600002,36.235473633],[116.52990722700001,36.249084473],[116.56787109400001,36.286071777],[116.63311767600001,36.278320312],[116.69067382800002,36.282470703],[116.72088623000002,36.295288086],[116.77709960900002,36.307312012],[116.83288574200002,36.283874512],[116.85571289100001,36.255493164],[116.88232421900001,36.235290527],[116.92687988300001,36.238891602],[116.97131347700001,36.240112305],[117.01531982400002,36.24407959],[117.04248046900001,36.272888184],[117.05187988300001,36.32232666],[117.08673095700001,36.318725586],[117.13732910200001,36.341491699],[117.15692138700001,36.368530273],[117.19531250000001,36.399475098],[117.23052978500002,36.421875],[117.25952148400002,36.43927002],[117.30609130900001,36.45489502],[117.36450195300002,36.430725098],[117.39770507800002,36.438110352],[117.43310546900001,36.449279785],[117.47070312500001,36.460876465],[117.50732421900001,36.473510742],[117.54028320300002,36.484130859],[117.57672119100002,36.504882812],[117.61492919900002,36.516906738],[117.65771484400001,36.500671387],[117.70867919900002,36.524108887],[117.69348144500002,36.553710937],[117.67687988300001,36.586486816],[117.67010498000002,36.624694824],[117.67327880900001,36.654296875],[117.67968750000001,36.683105469],[117.68627929700001,36.717529297],[117.68548584000001,36.748291016],[117.65307617200001,36.767700195],[117.62329101600001,36.783508301],[117.59027099600002,36.80090332],[117.56427002,36.832092285],[117.55029296900001,36.861083984],[117.53570556600002,36.886901855],[117.52972412100002,36.922729492],[117.52551269500002,36.94909668],[117.48907470700001,36.957275391],[117.45611572300001,36.94152832],[117.42987060500002,36.922302246],[117.39569091800001,36.906677246],[117.36492919900002,36.930297852],[117.34570312500001,36.961914062],[117.30047607400002,36.974304199],[117.28771972700001,37.000305176],[117.26092529300001,37.053283691],[117.31048584000001,37.063110352],[117.35687255900001,37.070495605],[117.43469238300001,37.101074219],[117.42272949200002,37.126525879],[117.41607666000002,37.16229248],[117.40368652300002,37.192077637],[117.40350341800001,37.280883789],[117.39947509800001,37.290893555],[117.38732910200001,37.318481445],[117.37188720700001,37.342895508],[117.35070800800001,37.371276855],[117.33050537100002,37.399902344],[117.29650878900001,37.428283691],[117.26428222700001,37.445495605],[117.30310058600001,37.487487793],[117.19451904300001,37.513671875]]]}}
