{"type":"Feature","id":"bulk-99377448B29889799468007","bbox":[106.12408447300001,26.227111816,107.26330566400001,27.368713379],"properties":{"id":"bulk-99377448B29889799468007","name":"Guiyang","nameEn":"Guiyang","fullName":"Guiyang","level":"city","boundaryRole":"administrative-extent","boundaryQuality":"generalized-source-2020","boundaryYearRepresented":"2020","bounds":[[106.12408447300001,26.227111816],[107.26330566400001,27.368713379]],"center":[106.6936950685,26.7979125975],"centerMethod":"bounding-box midpoint; camera framing only","license":"CC-BY-3.0-IGO","attribution":"geoBoundaries / HDX, China administrative boundaries (2020)","source":{"provider":"geoBoundaries gbHumanitarian / HDX","url":"https://github.com/wmgeolab/geoBoundaries/raw/9469f09/releaseData/gbHumanitarian/CHN/ADM2/geoBoundaries-CHN-ADM2.geojson","metadataUrl":"https://www.geoboundaries.org/api/current/gbHumanitarian/CHN/ADM2/","shapeID":"99377448B29889799468007","shapeName":"Guiyang","boundaryID":"CHN-ADM2-99377448","commit":"9469f09"},"geometryCounts":{"coordinates":145,"components":1,"holes":0},"boundaryNotice":"geoBoundaries / HDX 2020 年行政区数据，海岸和边界经过源数据概化，并非当前测绘成果。"},"geometry":{"type":"Polygon","coordinates":[[[106.46588134800001,26.313293457],[106.50451660200001,26.271118164],[106.52490234400001,26.249084473],[106.55432128900001,26.237487793],[106.58630371100001,26.237487793],[106.620910645,26.255310059],[106.64367675800001,26.295471191],[106.67889404300001,26.311523437],[106.71667480500001,26.292297363],[106.74768066400001,26.31829834],[106.78411865200002,26.288879395],[106.79827880900001,26.253723145],[106.80932617200001,26.227111816],[106.84631347700001,26.229309082],[106.87652587900001,26.245117187],[106.85351562500001,26.271484375],[106.85467529300001,26.31048584],[106.82092285200001,26.332092285],[106.79870605500001,26.36932373],[106.82171630900001,26.396728516],[106.78668212900001,26.401123047],[106.76129150400001,26.416503906],[106.77227783200001,26.442077637],[106.81469726600001,26.464294434],[106.81292724600002,26.515075684],[106.83752441400001,26.542297363],[106.82208252,26.572875977],[106.85009765600002,26.594482422],[106.87628173800002,26.619506836],[106.86572265600002,26.647705078],[106.89929199200002,26.659912109],[106.93792724600002,26.662475586],[106.93548584000001,26.696716309],[106.953125,26.724304199],[106.95208740200002,26.74432373],[106.98229980500001,26.748718262],[107.00567627,26.770874023],[107.02148437500001,26.778503418],[107.04571533200001,26.77911377],[107.06127929700001,26.793884277],[107.08508300800001,26.808898926],[107.10089111300002,26.81652832],[107.16552734400001,26.818115234],[107.20629882800002,26.8046875],[107.23992919900002,26.796081543],[107.24951171900001,26.830078125],[107.25909423800002,26.859130859],[107.26330566400001,26.891479492],[107.25769043000001,26.93170166],[107.24572753900001,26.965698242],[107.22412109400001,27.000671387],[107.19787597700001,27.027526855],[107.17047119100002,27.045715332],[107.15930175800001,27.075317383],[107.16308593700002,27.108276367],[107.16809082000002,27.137695312],[107.19067382800002,27.16192627],[107.22210693400001,27.16229248],[107.25787353500002,27.176696777],[107.25390625000001,27.211120605],[107.24249267600001,27.245483398],[107.19927978500002,27.254089355],[107.16552734400001,27.242919922],[107.13171386700002,27.237487793],[107.14172363300001,27.269714355],[107.15832519500002,27.298095703],[107.19549560500002,27.323303223],[107.20947265600002,27.368713379],[107.171691895,27.352294922],[107.12792968700002,27.335876465],[107.09387207000002,27.325073242],[107.05950927700002,27.321899414],[107.03088378900001,27.333129883],[106.99487304700001,27.344116211],[106.95507812500001,27.326721191],[106.92828369100002,27.305297852],[106.88928222700001,27.286682129],[106.87371826200001,27.297912598],[106.87292480500001,27.319274902],[106.80810546900001,27.317504883],[106.79827880900001,27.287109375],[106.77789306600002,27.247680664],[106.75732421900001,27.21887207],[106.71710205100001,27.218505859],[106.72528076200001,27.253295898],[106.74029541000002,27.280273437],[106.72930908200001,27.312072754],[106.65588378900001,27.30090332],[106.628723145,27.280700684],[106.60687255900001,27.261474609],[106.58447265600002,27.239685059],[106.55047607400002,27.229675293],[106.50708007800002,27.216308594],[106.46911621100001,27.198303223],[106.44787597700001,27.178527832],[106.41827392600001,27.150878906],[106.39550781200002,27.096496582],[106.40972900400001,27.0703125],[106.42889404300001,27.033691406],[106.44873046900001,27.006286621],[106.41931152300002,26.983886719],[106.37768554700001,26.977905273],[106.36791992200001,26.940673828],[106.36529541000002,26.901489258],[106.37170410200001,26.881286621],[106.33172607400002,26.872924805],[106.29132080100001,26.871520996],[106.27648925800001,26.842285156],[106.26751709000001,26.863708496],[106.25067138700001,26.877502441],[106.25048828100002,26.884521484],[106.22650146500001,26.876525879],[106.21130371100001,26.854492187],[106.19549560500002,26.846923828],[106.19610595700001,26.832519531],[106.171875,26.831726074],[106.12451171900001,26.80847168],[106.13330078100002,26.794494629],[106.15008544900002,26.780700684],[106.17572021500001,26.745727539],[106.17608642600001,26.738525391],[106.16827392600001,26.731079102],[106.17108154300001,26.666687012],[106.14770507800002,26.651489258],[106.13153076200001,26.650878906],[106.12408447300001,26.636291504],[106.14929199200002,26.615722656],[106.16589355500001,26.601928711],[106.16668701200001,26.587524414],[106.17529296900001,26.573486328],[106.18792724600002,26.562072754],[106.21392822300001,26.541320801],[106.24749755900001,26.559692383],[106.28771972700001,26.561279297],[106.30627441400001,26.523071289],[106.32629394500002,26.487121582],[106.37127685500002,26.466491699],[106.42309570300002,26.476074219],[106.47711181600002,26.457275391],[106.48132324200002,26.421508789],[106.51110839800002,26.401306152],[106.54211425800001,26.403686523],[106.55267334000001,26.370483398],[106.50952148400002,26.336914062],[106.46588134800001,26.313293457]]]}}
