{"type":"Feature","id":"bulk-99377448B65065768387169","bbox":[113.49810791000002,22.665710449,114.22930908200001,23.134521484],"properties":{"id":"bulk-99377448B65065768387169","name":"Dongguan","nameEn":"Dongguan","fullName":"Dongguan","level":"city","boundaryRole":"administrative-extent","boundaryQuality":"generalized-source-2020","boundaryYearRepresented":"2020","bounds":[[113.49810791000002,22.665710449],[114.22930908200001,23.134521484]],"center":[113.86370849600002,22.9001159665],"centerMethod":"bounding-box midpoint; camera framing only","license":"CC-BY-3.0-IGO","attribution":"geoBoundaries / HDX, China administrative boundaries (2020)","source":{"provider":"geoBoundaries gbHumanitarian / HDX","url":"https://github.com/wmgeolab/geoBoundaries/raw/9469f09/releaseData/gbHumanitarian/CHN/ADM2/geoBoundaries-CHN-ADM2.geojson","metadataUrl":"https://www.geoboundaries.org/api/current/gbHumanitarian/CHN/ADM2/","shapeID":"99377448B65065768387169","shapeName":"Dongguan","boundaryID":"CHN-ADM2-99377448","commit":"9469f09"},"geometryCounts":{"coordinates":137,"components":2,"holes":0},"boundaryNotice":"geoBoundaries / HDX 2020 年行政区数据，海岸和边界经过源数据概化，并非当前测绘成果。"},"geometry":{"type":"MultiPolygon","coordinates":[[[[113.65808105500001,22.788085937],[113.66052246100001,22.802307129],[113.65930175800001,22.810913086],[113.65570068400001,22.815307617],[113.64630127,22.82208252],[113.63250732400002,22.827880859],[113.62927246100001,22.830688477],[113.62371826200001,22.820678711],[113.61389160200001,22.808898926],[113.613098145,22.804870605],[113.61511230500001,22.79888916],[113.61968994100002,22.794311523],[113.62908935500002,22.794921875],[113.63592529300001,22.788879395],[113.63732910200001,22.787475586],[113.65209960900002,22.782897949],[113.65527343700002,22.784118652],[113.65808105500001,22.788085937]]],[[[114.22729492200001,22.835083008],[114.22930908200001,22.862915039],[114.22369384800001,22.901306152],[114.20269775400001,22.939086914],[114.19970703100002,22.975280762],[114.18847656200002,23.011291504],[114.16247558600001,22.994873047],[114.12811279300001,23.017089844],[114.10607910200001,23.053710937],[114.07427978500002,23.064880371],[114.04748535200001,23.084472656],[114.00970459000001,23.06451416],[113.97668457000002,23.072875977],[113.94787597700001,23.090881348],[113.91247558600001,23.091918945],[113.86987304700001,23.092712402],[113.83831787100002,23.09387207],[113.79748535200001,23.100097656],[113.76831054700001,23.130126953],[113.75970459000001,23.134521484],[113.72290039100001,23.12689209],[113.68109130900001,23.115112305],[113.64270019500002,23.088684082],[113.49890136700002,23.061889648],[113.49810791000002,23.061889648],[113.50152587900001,23.05871582],[113.51849365200002,23.051086426],[113.51928710900002,23.049499512],[113.52667236300002,23.057495117],[113.53131103500002,23.05267334],[113.52148437500001,23.045288086],[113.53509521500001,23.019287109],[113.54748535200001,22.979125977],[113.54931640600002,22.966674805],[113.55212402300002,22.96887207],[113.55529785200001,22.965698242],[113.55047607400002,22.959472656],[113.55230712900001,22.945678711],[113.55889892600001,22.93170166],[113.55908203100002,22.930908203],[113.56152343700002,22.927307129],[113.56872558600001,22.924316406],[113.56787109400001,22.91809082],[113.57128906200002,22.90032959],[113.57507324200002,22.895690918],[113.57952880900001,22.898498535],[113.58508300800001,22.906494141],[113.58868408200001,22.915893555],[113.59448242200001,22.910888672],[113.58447265600002,22.891113281],[113.58288574200002,22.881530762],[113.58691406200002,22.872314453],[113.59350585900002,22.866088867],[113.59588623000002,22.865478516],[113.59667968700002,22.870727539],[113.59552002,22.88092041],[113.59771728500002,22.888122559],[113.60968017600001,22.898681641],[113.613098145,22.904296875],[113.61407470700001,22.911499023],[113.61547851600001,22.907714844],[113.61853027300002,22.899108887],[113.61810302700002,22.895874023],[113.60388183600001,22.887878418],[113.60131835900002,22.88470459],[113.60009765600002,22.879272461],[113.60150146500001,22.875671387],[113.59887695300002,22.856079102],[113.60028076200001,22.846679687],[113.60827636700002,22.834716797],[113.61450195300002,22.819519043],[113.61730957000002,22.820678711],[113.62109375000001,22.824890137],[113.62408447300001,22.834472656],[113.62628173800002,22.843505859],[113.63348388700001,22.832702637],[113.63732910200001,22.830078125],[113.64611816400001,22.828674316],[113.64947509800001,22.831481934],[113.66168212900001,22.81652832],[113.66668701200001,22.808105469],[113.66729736300002,22.800720215],[113.66430664100001,22.78729248],[113.663879395,22.778320312],[113.65991210900002,22.772094727],[113.65911865200002,22.765686035],[113.67047119100002,22.748291016],[113.67987060500002,22.747680664],[113.70031738300001,22.754516602],[113.70611572300001,22.758911133],[113.71173095700001,22.760314941],[113.71307373000002,22.767272949],[113.71911621100001,22.769897461],[113.72509765600002,22.765319824],[113.73052978500002,22.765319824],[113.75207519500002,22.758483887],[113.75628662100002,22.753479004],[113.76629638700001,22.765930176],[113.78991699200002,22.790893555],[113.81628418000001,22.812927246],[113.83929443400001,22.839111328],[113.87268066400001,22.842102051],[113.90972900400001,22.85748291],[113.94110107400002,22.845275879],[113.95007324200002,22.811523437],[113.96752929700001,22.786682129],[113.99468994100002,22.767272949],[114.02368164100001,22.766479492],[114.05230712900001,22.772277832],[114.08728027300002,22.755493164],[114.11407470700001,22.72467041],[114.13690185500002,22.697875977],[114.14288330100001,22.665710449],[114.17767334000001,22.669128418],[114.19207763700001,22.709716797],[114.18609619100002,22.738891602],[114.17291259800001,22.772705078],[114.19732666000002,22.795715332],[114.22729492200001,22.835083008]]]]}}
