{"type":"Feature","id":"bulk-99377448B46595705300523","bbox":[105.30950927700002,28.169677734,110.15307617200001,32.202880859],"properties":{"id":"bulk-99377448B46595705300523","name":"Chongqing Municipality","nameEn":"Chongqing Municipality","fullName":"Chongqing Municipality","level":"city","boundaryRole":"administrative-extent","boundaryQuality":"generalized-source-2020","boundaryYearRepresented":"2020","bounds":[[105.30950927700002,28.169677734],[110.15307617200001,32.202880859]],"center":[107.73129272450001,30.186279296499997],"centerMethod":"bounding-box midpoint; camera framing only","license":"CC-BY-3.0-IGO","attribution":"geoBoundaries / HDX, China administrative boundaries (2020)","source":{"provider":"geoBoundaries gbHumanitarian / HDX","url":"https://github.com/wmgeolab/geoBoundaries/raw/9469f09/releaseData/gbHumanitarian/CHN/ADM2/geoBoundaries-CHN-ADM2.geojson","metadataUrl":"https://www.geoboundaries.org/api/current/gbHumanitarian/CHN/ADM2/","shapeID":"99377448B46595705300523","shapeName":"Chongqing Municipality","boundaryID":"CHN-ADM2-99377448","commit":"9469f09"},"geometryCounts":{"coordinates":573,"components":1,"holes":0},"boundaryNotice":"geoBoundaries / HDX 2020 年行政区数据，海岸和边界经过源数据概化，并非当前测绘成果。"},"geometry":{"type":"Polygon","coordinates":[[[110.11511230500001,31.304870605],[110.11547851600001,31.310119629],[110.04949951200001,31.412475586],[110.02728271500001,31.400085449],[110.00567627,31.41229248],[109.98309326200001,31.442321777],[109.92791748000002,31.460876465],[109.92730712900001,31.487487793],[109.89208984400001,31.501708984],[109.88732910200001,31.502685547],[109.83331298800002,31.545715332],[109.78967285200001,31.533874512],[109.76312255900001,31.53527832],[109.69128418000001,31.547912598],[109.71307373000002,31.588928223],[109.70947265600002,31.627075195],[109.66308593700002,31.71270752],[109.63830566400001,31.732727051],[109.59429931600002,31.731506348],[109.56347656200002,31.718688965],[109.54608154300001,31.721679687],[109.53692627,31.711303711],[109.48413085900002,31.730285645],[109.39868164100001,31.728271484],[109.35607910200001,31.708312988],[109.29870605500001,31.69329834],[109.25708007800002,31.722717285],[109.24548339800002,31.730712891],[109.22528076200001,31.783691406],[109.18151855500001,31.82208252],[109.15307617200001,31.848876953],[109.15087890600002,31.850891113],[109.09527587900001,31.89630127],[109.04028320300002,31.935302734],[109.02429199200002,31.946472168],[108.96887207000002,31.97668457],[108.89788818400001,31.982727051],[108.85430908200001,32.00769043],[108.76812744100002,32.061279297],[108.70147705100001,32.093688965],[108.63952636700002,32.137512207],[108.62908935500002,32.144714355],[108.55950927700002,32.175292969],[108.50207519500002,32.202880859],[108.43310546900001,32.180480957],[108.38507080100001,32.179321289],[108.38232421900001,32.144897461],[108.41571044900002,32.125488281],[108.42791748000002,32.092285156],[108.42889404300001,32.061279297],[108.39031982400002,32.066101074],[108.35351562500001,32.051879883],[108.33532714800002,32.027893066],[108.35491943400001,31.995910645],[108.33990478500002,31.969909668],[108.29632568400001,31.983886719],[108.26568603500002,31.963500977],[108.26989746100001,31.931274414],[108.28387451200001,31.903503418],[108.30627441400001,31.873718262],[108.33209228500002,31.849487305],[108.36187744100002,31.835327148],[108.39569091800001,31.812683105],[108.43090820300002,31.803283691],[108.45227050800001,31.780517578],[108.48950195300002,31.768493652],[108.52172851600001,31.747680664],[108.51989746100001,31.716918945],[108.51947021500001,31.67767334],[108.49951171900001,31.637084961],[108.45788574200002,31.616088867],[108.41448974600002,31.618286133],[108.38092041000002,31.597106934],[108.38189697300001,31.56628418],[108.34008789100001,31.534729004],[108.31872558600001,31.504089355],[108.29132080100001,31.49029541],[108.24432373000002,31.49230957],[108.20269775400001,31.484680176],[108.20849609400001,31.458312988],[108.20727539100001,31.424682617],[108.19671630900001,31.396911621],[108.16748046900001,31.378295898],[108.16229248000002,31.348510742],[108.17071533200001,31.314880371],[108.13989257800002,31.288879395],[108.09649658200001,31.268676758],[108.06909179700001,31.254272461],[108.03527832000002,31.246520996],[108.04589843700002,31.204101562],[108.08190918000001,31.192871094],[108.06591796900001,31.164306641],[108.04907226600001,31.140930176],[108.02410888700001,31.113098145],[108.00891113300001,31.085327148],[108.03771972700001,31.061889648],[108.01708984400001,31.032287598],[107.98907470700001,31.008117676],[107.93847656200002,30.992126465],[107.91790771500001,30.963684082],[107.92028808600001,30.923278809],[107.95092773400002,30.906677246],[107.94091796900001,30.877929687],[107.91931152300002,30.848693848],[107.88452148400002,30.828674316],[107.85607910200001,30.803710937],[107.81048584000001,30.795471191],[107.76629638700001,30.81427002],[107.75927734400001,30.842895508],[107.74450683600001,30.878112793],[107.69812011700002,30.867675781],[107.66571044900002,30.84967041],[107.62847900400001,30.831726074],[107.59570312500001,30.84387207],[107.56567382800002,30.856079102],[107.52709960900002,30.868286133],[107.51568603500002,30.838317871],[107.49108886700002,30.797912598],[107.46209716800001,30.763916016],[107.43969726600001,30.741088867],[107.43151855500001,30.701477051],[107.45288085900002,30.673278809],[107.49267578100002,30.647094727],[107.49188232400002,30.61907959],[107.46630859400001,30.597473145],[107.44671630900001,30.575073242],[107.43048095700001,30.549926758],[107.40087890600002,30.505493164],[107.36987304700001,30.484924316],[107.34167480500001,30.444519043],[107.32769775400001,30.414672852],[107.30529785200001,30.377502441],[107.28771972700001,30.352111816],[107.26489257800002,30.320922852],[107.24829101600001,30.284118652],[107.23669433600001,30.234680176],[107.18951416000002,30.203674316],[107.16772460900002,30.172912598],[107.13812255900001,30.142272949],[107.10552978500002,30.115112305],[107.07690429700001,30.087097168],[107.05432128900001,30.055480957],[107.01751709000001,30.033874512],[106.988098145,30.047302246],[106.94470214800002,30.054321289],[106.90850830100001,30.031921387],[106.86987304700001,30.038696289],[106.80670166000002,30.027526855],[106.77691650400001,30.038085937],[106.74847412100002,30.052490234],[106.70928955100001,30.073303223],[106.67492675800001,30.10949707],[106.67932128900001,30.153076172],[106.65789794900002,30.176696777],[106.62847900400001,30.206481934],[106.63391113300001,30.245483398],[106.62207031200002,30.276306152],[106.59729003900001,30.296875],[106.54748535200001,30.285095215],[106.46667480500001,30.28692627],[106.43768310500002,30.241516113],[106.40148925800001,30.23828125],[106.35668945300002,30.228881836],[106.32751464800002,30.209899902],[106.29071044900002,30.185913086],[106.24249267600001,30.195495605],[106.20568847700001,30.202270508],[106.19592285200001,30.228515625],[106.18328857400002,30.253295898],[106.18572998000002,30.282287598],[106.17608642600001,30.317871094],[106.13348388700001,30.320495605],[106.09509277300002,30.318908691],[106.06329345700001,30.333496094],[106.03430175800001,30.353271484],[106.00671386700002,30.38269043],[105.97308349600002,30.363098145],[105.93768310500002,30.383117676],[105.90612793000001,30.391723633],[105.86828613300001,30.387329102],[105.83691406200002,30.410705566],[105.79968261700002,30.431091309],[105.77893066400001,30.407897949],[105.76727294900002,30.378479004],[105.75329589800002,30.351074219],[105.72607421900001,30.327880859],[105.71490478500002,30.300476074],[105.72991943400001,30.270690918],[105.69592285200001,30.258483887],[105.65887451200001,30.271484375],[105.62347412100002,30.259277344],[105.63171386700002,30.231079102],[105.65771484400001,30.203674316],[105.62408447300001,30.195129395],[105.59167480500001,30.1953125],[105.55047607400002,30.20690918],[105.54827880900001,30.178283691],[105.54931640600002,30.143676758],[105.58428955100001,30.14630127],[105.58691406200002,30.11907959],[105.62072753900001,30.100524902],[105.64910888700001,30.085510254],[105.69250488300001,30.051330566],[105.72509765600002,30.043701172],[105.75048828100002,30.019104004],[105.75152587900001,29.986328125],[105.73492431600002,29.958496094],[105.71508789100001,29.917724609],[105.72113037100002,29.887329102],[105.72167968700002,29.830688477],[105.65850830100001,29.825927734],[105.61688232400002,29.817687988],[105.60308837900001,29.786071777],[105.59887695300002,29.740905762],[105.55871582000002,29.742919922],[105.54388427700002,29.711914062],[105.50952148400002,29.714294434],[105.47210693400001,29.695922852],[105.45092773400002,29.67388916],[105.42150878900001,29.689880371],[105.38769531200002,29.644714355],[105.35168457000002,29.612915039],[105.32629394500002,29.574890137],[105.30950927700002,29.538696289],[105.33947753900001,29.522277832],[105.37152099600002,29.506103516],[105.40649414100001,29.501281738],[105.41790771500001,29.47467041],[105.40850830100001,29.444885254],[105.41052246100001,29.412719727],[105.43487548800002,29.387512207],[105.43371582000002,29.354309082],[105.41290283200001,29.322692871],[105.48931884800001,29.277709961],[105.52490234400001,29.265075684],[105.57147216800001,29.271484375],[105.63848877,29.269287109],[105.64929199200002,29.239929199],[105.71087646500001,29.260681152],[105.70367431600002,29.21307373],[105.70611572300001,29.18347168],[105.71368408200001,29.153076172],[105.71868896500001,29.12487793],[105.73132324200002,29.06427002],[105.75952148400002,29.040100098],[105.74987793000001,29.011474609],[105.78631591800001,28.948303223],[105.796875,28.922119141],[105.83288574200002,28.903686523],[105.87628173800002,28.894897461],[105.91149902300002,28.891723633],[105.91912841800001,28.918273926],[105.95050048800002,28.934509277],[105.98388671900001,28.952697754],[106.01208496100001,28.938476562],[106.04327392600001,28.925292969],[106.0625,28.897705078],[106.09991455100001,28.892700195],[106.14068603500002,28.899902344],[106.17633056600002,28.895874023],[106.21429443400001,28.868713379],[106.25311279300001,28.841125488],[106.25750732400002,28.809692383],[106.25030517600001,28.77911377],[106.27270507800002,28.752685547],[106.29510498000002,28.729309082],[106.30609130900001,28.690490723],[106.31109619100002,28.659912109],[106.31469726600001,28.630493164],[106.32647705100001,28.604492187],[106.32910156200002,28.576721191],[106.32409668000001,28.542114258],[106.37768554700001,28.521728516],[106.38287353500002,28.557495117],[106.44390869100002,28.555725098],[106.46850585900002,28.530517578],[106.50451660200001,28.534301758],[106.47967529300001,28.58190918],[106.49090576200001,28.612670898],[106.49969482400002,28.627319336],[106.52728271500001,28.657470703],[106.51910400400001,28.702880859],[106.47509765600002,28.719482422],[106.43969726600001,28.776489258],[106.42547607400002,28.841491699],[106.43768310500002,28.847717285],[106.45288085900002,28.855712891],[106.47711181600002,28.844909668],[106.50909423800002,28.799316406],[106.51708984400001,28.780700684],[106.54650878900001,28.768127441],[106.57647705100001,28.743103027],[106.56591796900001,28.722290039],[106.59729003900001,28.711486816],[106.64471435500002,28.686096191],[106.64367675800001,28.66192627],[106.62890625000001,28.644470215],[106.60809326200001,28.597473145],[106.57287597700001,28.522888184],[106.60388183600001,28.497070312],[106.64971923800002,28.507324219],[106.67028808600001,28.484680176],[106.69708252,28.457702637],[106.72192382800002,28.471496582],[106.74127197300001,28.482299805],[106.74212646500001,28.515319824],[106.72412109400001,28.556091309],[106.76892089800002,28.567871094],[106.73931884800001,28.588684082],[106.73168945300002,28.622497559],[106.76147460900002,28.603515625],[106.80688476600001,28.597717285],[106.83648681600002,28.60748291],[106.86370849600002,28.654724121],[106.84332275400001,28.675476074],[106.81909179700001,28.742919922],[106.84472656200002,28.770080566],[106.85388183600001,28.779724121],[106.90289306600002,28.794311523],[106.94232177700002,28.790100098],[106.96429443400001,28.781677246],[106.98107910200001,28.832885742],[107.01428222700001,28.879272461],[107.02807617200001,28.88269043],[107.09210205100001,28.898071289],[107.14947509800001,28.883911133],[107.21447753900001,28.844909668],[107.20928955100001,28.822509766],[107.24108886700002,28.783081055],[107.24530029300001,28.778076172],[107.27447509800001,28.794128418],[107.35150146500001,28.83392334],[107.38067627,28.852905273],[107.41491699200002,28.87512207],[107.44207763700001,28.920471191],[107.42010498000002,28.974304199],[107.39331054700001,28.997680664],[107.37731933600001,29.030090332],[107.35748291000002,29.082885742],[107.37829589800002,29.133483887],[107.39727783200001,29.149291992],[107.40472412100002,29.17010498],[107.42327880900001,29.198486328],[107.42712402300002,29.204528809],[107.49407959000001,29.19128418],[107.53527832000002,29.205871582],[107.54809570300002,29.194702148],[107.58050537100002,29.163513184],[107.62927246100001,29.160522461],[107.66851806600002,29.171325684],[107.70989990200002,29.200073242],[107.75451660200001,29.174682617],[107.76367187500001,29.120483398],[107.77630615200002,29.062927246],[107.78570556600002,29.013122559],[107.78668212900001,29.008728027],[107.83551025400001,28.958129883],[107.86468505900001,28.967102051],[107.88372802700002,29.014892578],[107.92633056600002,29.043701172],[107.96270752,29.039123535],[108.00567627,29.053710937],[108.04949951200001,29.077087402],[108.05371093700002,29.077514648],[108.07849121100001,29.080322266],[108.11712646500001,29.071472168],[108.16351318400001,29.080688477],[108.22589111300002,29.046325684],[108.23571777300002,29.060913086],[108.24652099600002,29.078918457],[108.26593017600001,29.087280273],[108.28228759800001,29.000488281],[108.28991699200002,28.989929199],[108.30609130900001,28.967895508],[108.33367919900002,28.910705566],[108.31750488300001,28.829101562],[108.34552002,28.795898437],[108.35247802700002,28.769287109],[108.28747558600001,28.729492187],[108.33728027300002,28.656494141],[108.40167236300002,28.641906738],[108.43511962900001,28.626525879],[108.47308349600002,28.602294922],[108.48413085900002,28.644470215],[108.54431152300002,28.668884277],[108.60729980500001,28.631896973],[108.58447265600002,28.558105469],[108.56091308600001,28.518493652],[108.57672119100002,28.467895508],[108.57708740200002,28.417907715],[108.56512451200001,28.364929199],[108.562316895,28.358886719],[108.62127685500002,28.344726562],[108.63970947300001,28.384277344],[108.64910888700001,28.419311523],[108.64630127,28.448730469],[108.63171386700002,28.454711914],[108.62731933600001,28.465270996],[108.68127441400001,28.487670898],[108.70648193400001,28.474914551],[108.71667480500001,28.469726562],[108.73907470700001,28.436279297],[108.74792480500001,28.335510254],[108.73547363300001,28.220092773],[108.77050781200002,28.213684082],[108.81170654300001,28.253723145],[108.83709716800001,28.225524902],[108.86407470700001,28.206298828],[108.91412353500002,28.220703125],[108.93292236300002,28.20489502],[108.96569824200002,28.169677734],[108.99890136700002,28.196105957],[109.01190185500002,28.213317871],[109.03448486300002,28.209289551],[109.05548095700001,28.192504883],[109.09228515600002,28.198486328],[109.09027099600002,28.236877441],[109.08770752,28.260925293],[109.11688232400002,28.289123535],[109.12731933600001,28.332092285],[109.13348388700001,28.381286621],[109.14611816400001,28.419921875],[109.19549560500002,28.469726562],[109.24908447300001,28.487487793],[109.27111816400001,28.548278809],[109.27770996100001,28.556518555],[109.29132080100001,28.572692871],[109.29711914100001,28.590698242],[109.20489502,28.609924316],[109.19830322300001,28.630310059],[109.17712402300002,28.659484863],[109.22808837900001,28.689697266],[109.24731445300002,28.709472656],[109.27947998000002,28.755493164],[109.26727294900002,28.768493652],[109.24127197300001,28.796875],[109.23107910200001,28.817871094],[109.20367431600002,28.868530273],[109.21130371100001,28.90612793],[109.24249267600001,28.948486328],[109.26348877,28.990478516],[109.28149414100001,29.014892578],[109.29248046900001,29.038085937],[109.28570556600002,29.064880371],[109.20471191400001,29.139526367],[109.20471191400001,29.123474121],[109.18328857400002,29.161499023],[109.15631103500002,29.16192627],[109.09350585900002,29.183288574],[109.08551025400001,29.212524414],[109.09167480500001,29.26171875],[109.08569335900002,29.300720215],[109.08990478500002,29.348083496],[109.04809570300002,29.398071289],[109.03570556600002,29.391296387],[109.02972412100002,29.388122559],[108.99810791000002,29.354675293],[108.95587158200001,29.33972168],[108.93609619100002,29.332885742],[108.91772460900002,29.326477051],[108.88848877,29.333129883],[108.89788818400001,29.369873047],[108.90808105500001,29.420715332],[108.88348388700001,29.452514648],[108.83428955100001,29.460510254],[108.82910156200002,29.499511719],[108.85913085900002,29.548278809],[108.88348388700001,29.574279785],[108.85729980500001,29.581115723],[108.83648681600002,29.585083008],[108.84527587900001,29.604919434],[108.81011962900001,29.635498047],[108.76147460900002,29.655090332],[108.72369384800001,29.665893555],[108.66247558600001,29.69152832],[108.65991210900002,29.711120605],[108.65112304700001,29.764282227],[108.64727783200001,29.790100098],[108.62268066400001,29.825683594],[108.60809326200001,29.847106934],[108.55627441400001,29.826477051],[108.53527832000002,29.795898437],[108.52368164100001,29.755493164],[108.52490234400001,29.746887207],[108.52789306600002,29.722717285],[108.51611328100002,29.72088623],[108.44787597700001,29.710327148],[108.39709472700001,29.760925293],[108.37469482400002,29.79888916],[108.37170410200001,29.804077148],[108.34509277300002,29.824890137],[108.34527587900001,29.847900391],[108.37811279300001,29.869873047],[108.41467285200001,29.870727539],[108.44732666000002,29.864074707],[108.45050048800002,29.863525391],[108.49230957000002,29.870483398],[108.50250244100002,29.877075195],[108.49951171900001,29.90447998],[108.49890136700002,29.91027832],[108.49407959000001,29.94708252],[108.52947998000002,29.989685059],[108.49468994100002,30.037109375],[108.48907470700001,30.048522949],[108.51190185500002,30.094299316],[108.53668212900001,30.143676758],[108.53790283200001,30.209472656],[108.53607177700002,30.23449707],[108.52069091800001,30.262512207],[108.46948242200001,30.321105957],[108.429504395,30.354919434],[108.38812255900001,30.36907959],[108.38549804700001,30.416320801],[108.38952636700002,30.494506836],[108.40832519500002,30.496276855],[108.43572998000002,30.499084473],[108.48590087900001,30.481506348],[108.56567382800002,30.492675781],[108.58709716800001,30.513671875],[108.59228515600002,30.556274414],[108.61370849600002,30.621704102],[108.64971923800002,30.61529541],[108.68511962900001,30.559082031],[108.78070068400001,30.495910645],[108.82672119100002,30.50567627],[108.85510253900001,30.553100586],[108.88049316400001,30.575317383],[108.89947509800001,30.592102051],[108.94708252,30.635498047],[108.99530029300001,30.642272949],[108.99749755900001,30.64251709],[109.04510498000002,30.637878418],[109.07232666000002,30.607299805],[109.10870361300002,30.559692383],[109.12127685500002,30.543273926],[109.16131591800001,30.542907715],[109.17687988300001,30.553710937],[109.21411132800002,30.587097168],[109.25970459000001,30.627685547],[109.27972412100002,30.631530762],[109.29388427700002,30.614074707],[109.32409668000001,30.574523926],[109.33410644500002,30.549682617],[109.32507324200002,30.527282715],[109.34472656200002,30.49029541],[109.38427734400001,30.524475098],[109.39288330100001,30.571716309],[109.42248535200001,30.621887207],[109.47668457000002,30.660705566],[109.52008056600002,30.665527344],[109.52209472700001,30.665710449],[109.56530761700002,30.667907715],[109.60748291000002,30.743103027],[109.63690185500002,30.775695801],[109.64788818400001,30.787902832],[109.70129394500002,30.832885742],[109.74627685500002,30.865112305],[109.83392334000001,30.888122559],[109.91009521500001,30.890686035],[109.95751953100002,30.905090332],[109.97772216800001,30.901672363],[109.99230957000002,30.834472656],[110.04229736300002,30.803710937],[110.08227539100001,30.827880859],[110.09228515600002,30.844299316],[110.11352539100001,30.878723145],[110.14447021500001,30.952697754],[110.09912109400001,31.047302246],[110.08807373000002,31.090698242],[110.09289550800001,31.134277344],[110.15307617200001,31.16027832],[110.10888671900001,31.234680176],[110.11511230500001,31.304870605]]]}}
