{"type":"Feature","id":"bulk-99377448B27973652860526","bbox":[112.68127441400001,34.269104004,114.22711181600002,34.958496094],"properties":{"id":"bulk-99377448B27973652860526","name":"Zhengzhou","nameEn":"Zhengzhou","fullName":"Zhengzhou","level":"city","boundaryRole":"administrative-extent","boundaryQuality":"generalized-source-2020","boundaryYearRepresented":"2020","bounds":[[112.68127441400001,34.269104004],[114.22711181600002,34.958496094]],"center":[113.45419311500001,34.613800049],"centerMethod":"bounding-box midpoint; camera framing only","license":"CC-BY-3.0-IGO","attribution":"geoBoundaries / HDX, China administrative boundaries (2020)","source":{"provider":"geoBoundaries gbHumanitarian / HDX","url":"https://github.com/wmgeolab/geoBoundaries/raw/9469f09/releaseData/gbHumanitarian/CHN/ADM2/geoBoundaries-CHN-ADM2.geojson","metadataUrl":"https://www.geoboundaries.org/api/current/gbHumanitarian/CHN/ADM2/","shapeID":"99377448B27973652860526","shapeName":"Zhengzhou","boundaryID":"CHN-ADM2-99377448","commit":"9469f09"},"geometryCounts":{"coordinates":85,"components":1,"holes":0},"boundaryNotice":"geoBoundaries / HDX 2020 年行政区数据，海岸和边界经过源数据概化，并非当前测绘成果。"},"geometry":{"type":"Polygon","coordinates":[[[112.80627441400001,34.794128418],[112.87731933600001,34.764282227],[112.88031005900001,34.726074219],[112.85650634800001,34.705688477],[112.82409668000001,34.697692871],[112.80792236300002,34.659912109],[112.81512451200001,34.622680664],[112.84112548800002,34.580505371],[112.87109375000001,34.557922363],[112.90429687500001,34.551330566],[112.94311523400002,34.550292969],[112.91271972700001,34.495300293],[112.88012695300002,34.467529297],[112.82189941400001,34.476928711],[112.77447509800001,34.493530273],[112.73828125000001,34.501281738],[112.70690918000001,34.489074707],[112.70751953100002,34.460083008],[112.68847656200002,34.423278809],[112.68127441400001,34.393310547],[112.72369384800001,34.356079102],[112.788879395,34.330078125],[112.81469726600001,34.305908203],[112.85772705100001,34.303283691],[112.90332031200002,34.305114746],[112.94128418000001,34.304504395],[112.98529052700002,34.300476074],[113.02471923800002,34.282287598],[113.08508300800001,34.269104004],[113.11987304700001,34.281494141],[113.17327880900001,34.311706543],[113.20227050800001,34.340515137],[113.23632812500001,34.343322754],[113.27551269500002,34.362487793],[113.29028320300002,34.402893066],[113.36529541000002,34.362121582],[113.48730468700002,34.358703613],[113.52691650400001,34.328125],[113.60589599600002,34.290893555],[113.63409423800002,34.274719238],[113.66729736300002,34.279724121],[113.71032714800002,34.31072998],[113.77667236300002,34.336730957],[113.81207275400001,34.34588623],[113.84570312500001,34.351501465],[113.84631347700001,34.380493164],[113.84191894500002,34.409118652],[113.84832763700001,34.458496094],[113.96051025400001,34.456115723],[114.00268554700001,34.481079102],[114.00512695300002,34.515075684],[114.02032470700001,34.551879883],[114.06469726600001,34.56427002],[114.10168457000002,34.569519043],[114.13592529300001,34.586730957],[114.16967773400002,34.615478516],[114.15972900400001,34.64251709],[114.15447998000002,34.686279297],[114.16107177700002,34.725891113],[114.17852783200001,34.758117676],[114.17907714800002,34.785095215],[114.16027832000002,34.808288574],[114.16949462900001,34.841308594],[114.21069335900002,34.848693848],[114.22711181600002,34.884277344],[114.20507812500001,34.885070801],[114.09350585900002,34.926513672],[114.02770996100001,34.936279297],[114.00231933600001,34.934509277],[113.92388916000002,34.881896973],[113.89831543000001,34.87512207],[113.82287597700001,34.882507324],[113.66888427700002,34.902099609],[113.55328369100002,34.928100586],[113.46868896500001,34.948120117],[113.36810302700002,34.958496094],[113.32373046900001,34.954528809],[113.24627685500002,34.913879395],[113.16888427700002,34.873291016],[113.10748291000002,34.83972168],[113.08831787100002,34.832519531],[113.04370117200001,34.818481445],[112.90167236300002,34.817077637],[112.86688232400002,34.817687988],[112.80627441400001,34.794128418]]]}}
