{"type":"Feature","id":"bulk-99377448B60395205645886","bbox":[114.53167724600002,29.514892578,115.44268798800002,30.333679199],"properties":{"id":"bulk-99377448B60395205645886","name":"Huangshi","nameEn":"Huangshi","fullName":"Huangshi","level":"city","boundaryRole":"administrative-extent","boundaryQuality":"generalized-source-2020","boundaryYearRepresented":"2020","bounds":[[114.53167724600002,29.514892578],[115.44268798800002,30.333679199]],"center":[114.98718261700002,29.924285888500002],"centerMethod":"bounding-box midpoint; camera framing only","license":"CC-BY-3.0-IGO","attribution":"geoBoundaries / HDX, China administrative boundaries (2020)","source":{"provider":"geoBoundaries gbHumanitarian / HDX","url":"https://github.com/wmgeolab/geoBoundaries/raw/9469f09/releaseData/gbHumanitarian/CHN/ADM2/geoBoundaries-CHN-ADM2.geojson","metadataUrl":"https://www.geoboundaries.org/api/current/gbHumanitarian/CHN/ADM2/","shapeID":"99377448B60395205645886","shapeName":"Huangshi","boundaryID":"CHN-ADM2-99377448","commit":"9469f09"},"geometryCounts":{"coordinates":84,"components":1,"holes":0},"boundaryNotice":"geoBoundaries / HDX 2020 年行政区数据，海岸和边界经过源数据概化，并非当前测绘成果。"},"geometry":{"type":"Polygon","coordinates":[[[115.43530273400002,29.81652832],[115.41491699200002,29.831298828],[115.37469482400002,29.874328613],[115.35589599600002,29.916320801],[115.33691406200002,29.958312988],[115.31811523400002,30.000305176],[115.29827880900001,30.028503418],[115.30010986300002,30.055908203],[115.28112793000001,30.097900391],[115.26049804700001,30.112487793],[115.24072265600002,30.140686035],[115.21929931600002,30.141723633],[115.19952392600001,30.17010498],[115.17889404300001,30.184692383],[115.13592529300001,30.186523437],[115.09289550800001,30.188476562],[115.07232666000002,30.202880859],[115.07312011700002,30.216674805],[115.07470703100002,30.24407959],[115.00970459000001,30.252685547],[114.98632812500001,30.224487305],[114.95227050800001,30.211486816],[114.92010498000002,30.217285156],[114.88372802700002,30.241088867],[114.86688232400002,30.266296387],[114.85327148400002,30.301696777],[114.82952880900001,30.333312988],[114.796875,30.333679199],[114.76690673800002,30.324707031],[114.72711181600002,30.329101562],[114.70428466800001,30.31048584],[114.67791748000002,30.291870117],[114.64971923800002,30.269897461],[114.65570068400001,30.228515625],[114.68328857400002,30.208129883],[114.70330810500002,30.181274414],[114.70507812500001,30.143920898],[114.71612548800002,30.116088867],[114.72387695300002,30.089904785],[114.71228027300002,30.062683105],[114.68029785200001,30.055114746],[114.65911865200002,30.033325195],[114.62109375000001,30.038330078],[114.58691406200002,30.047912598],[114.53167724600002,30.035095215],[114.53448486300002,30.003112793],[114.54809570300002,29.951293945],[114.58990478500002,29.94732666],[114.62512207000002,29.941711426],[114.66210937500001,29.935302734],[114.69787597700001,29.923278809],[114.72570800800001,29.87109375],[114.71789550800001,29.837280273],[114.72167968700002,29.798706055],[114.73272705100001,29.770507812],[114.76171875000001,29.750488281],[114.79492187500001,29.737670898],[114.82312011700002,29.718688965],[114.855285645,29.708129883],[114.88110351600001,29.692077637],[114.89648437500001,29.655090332],[114.90472412100002,29.61907959],[114.92248535200001,29.578918457],[114.94012451200001,29.56072998],[114.95910644500002,29.568908691],[115.00909423800002,29.566101074],[115.04510498000002,29.555908203],[115.07470703100002,29.519287109],[115.12347412100002,29.514892578],[115.12847900400001,29.531921387],[115.13092041000002,29.540283203],[115.13507080100001,29.561523437],[115.11572265600002,29.614074707],[115.09368896500001,29.675292969],[115.10351562500001,29.662475586],[115.14770507800002,29.647521973],[115.18670654300001,29.655090332],[115.22808837900001,29.647277832],[115.27832031200002,29.627502441],[115.32769775400001,29.653320312],[115.36828613300001,29.689880371],[115.41510009800001,29.728271484],[115.44268798800002,29.77532959],[115.43530273400002,29.81652832]]]}}
