{"type":"Feature","id":"bulk-99377448B29319510362955","bbox":[124.79150390600002,42.293701172,125.79852294900002,43.223083496],"properties":{"id":"bulk-99377448B29319510362955","name":"Liaoyuan","nameEn":"Liaoyuan","fullName":"Liaoyuan","level":"city","boundaryRole":"administrative-extent","boundaryQuality":"generalized-source-2020","boundaryYearRepresented":"2020","bounds":[[124.79150390600002,42.293701172],[125.79852294900002,43.223083496]],"center":[125.29501342750001,42.758392334],"centerMethod":"bounding-box midpoint; camera framing only","license":"CC-BY-3.0-IGO","attribution":"geoBoundaries / HDX, China administrative boundaries (2020)","source":{"provider":"geoBoundaries gbHumanitarian / HDX","url":"https://github.com/wmgeolab/geoBoundaries/raw/9469f09/releaseData/gbHumanitarian/CHN/ADM2/geoBoundaries-CHN-ADM2.geojson","metadataUrl":"https://www.geoboundaries.org/api/current/gbHumanitarian/CHN/ADM2/","shapeID":"99377448B29319510362955","shapeName":"Liaoyuan","boundaryID":"CHN-ADM2-99377448","commit":"9469f09"},"geometryCounts":{"coordinates":79,"components":1,"holes":0},"boundaryNotice":"geoBoundaries / HDX 2020 年行政区数据，海岸和边界经过源数据概化，并非当前测绘成果。"},"geometry":{"type":"Polygon","coordinates":[[[125.21789550800001,42.293701172],[125.29089355500001,42.327514648],[125.31927490200002,42.34588623],[125.36230468700002,42.372314453],[125.39990234400001,42.392883301],[125.43572998000002,42.410705566],[125.49328613300001,42.433898926],[125.53808593700002,42.458679199],[125.58148193400001,42.484924316],[125.59948730500001,42.518493652],[125.62451171900001,42.545715332],[125.65032959000001,42.568481445],[125.671691895,42.602294922],[125.65393066400001,42.625915527],[125.61547851600001,42.654907227],[125.61212158200001,42.684326172],[125.62072753900001,42.716674805],[125.65167236300002,42.731506348],[125.69927978500002,42.731689453],[125.73889160200001,42.729919434],[125.79089355500001,42.735107422],[125.79852294900002,42.76348877],[125.75848388700001,42.782470703],[125.72692871100001,42.803710937],[125.71173095700001,42.833129883],[125.70568847700001,42.864685059],[125.71850585900002,42.919921875],[125.71752929700001,42.948913574],[125.69171142600001,42.979675293],[125.671691895,43.003723145],[125.63787841800001,43.023681641],[125.63287353500002,43.056884766],[125.57189941400001,43.057128906],[125.53070068400001,43.058288574],[125.48413085900002,43.069274902],[125.47308349600002,43.106872559],[125.45190429700001,43.141296387],[125.43591308600001,43.149475098],[125.42132568400001,43.163879395],[125.40527343700002,43.171875],[125.38928222700001,43.180114746],[125.37072753900001,43.175720215],[125.35070800800001,43.165283203],[125.347473145,43.155273437],[125.34429931600002,43.121276855],[125.31970214800002,43.098083496],[125.27252197300001,43.109924316],[125.22589111300002,43.143127441],[125.19873046900001,43.176696777],[125.16088867200001,43.213928223],[125.11212158200001,43.223083496],[125.09307861300002,43.199707031],[125.06512451200001,43.175476074],[125.02691650400001,43.173522949],[124.98651123000002,43.187683105],[124.94311523400002,43.176513672],[124.91088867200001,43.147277832],[124.87347412100002,43.121887207],[124.82849121100001,43.121704102],[124.84387207000002,43.017272949],[124.83612060500002,42.939086914],[124.80712890600002,42.872070312],[124.79150390600002,42.815490723],[124.82629394500002,42.760498047],[124.94012451200001,42.755310059],[124.92651367200001,42.684875488],[124.94689941400001,42.633300781],[124.96209716800001,42.616516113],[125.00268554700001,42.602111816],[125.03448486300002,42.597473145],[125.05847168000001,42.594116211],[125.04949951200001,42.528686523],[125.04870605500001,42.442504883],[125.06628418000001,42.43347168],[125.11389160200001,42.409301758],[125.12829589800002,42.348510742],[125.12609863300001,42.30291748],[125.21130371100001,42.300720215],[125.21789550800001,42.293701172]]]}}
