{"type":"Feature","id":"bulk-99377448B40742048989756","bbox":[103.61950683600001,27.842895508,105.35552978500002,29.264282227],"properties":{"id":"bulk-99377448B40742048989756","name":"Yibin","nameEn":"Yibin","fullName":"Yibin","level":"city","boundaryRole":"administrative-extent","boundaryQuality":"generalized-source-2020","boundaryYearRepresented":"2020","bounds":[[103.61950683600001,27.842895508],[105.35552978500002,29.264282227]],"center":[104.48751831050001,28.5535888675],"centerMethod":"bounding-box midpoint; camera framing only","license":"CC-BY-3.0-IGO","attribution":"geoBoundaries / HDX, China administrative boundaries (2020)","source":{"provider":"geoBoundaries gbHumanitarian / HDX","url":"https://github.com/wmgeolab/geoBoundaries/raw/9469f09/releaseData/gbHumanitarian/CHN/ADM2/geoBoundaries-CHN-ADM2.geojson","metadataUrl":"https://www.geoboundaries.org/api/current/gbHumanitarian/CHN/ADM2/","shapeID":"99377448B40742048989756","shapeName":"Yibin","boundaryID":"CHN-ADM2-99377448","commit":"9469f09"},"geometryCounts":{"coordinates":159,"components":1,"holes":0},"boundaryNotice":"geoBoundaries / HDX 2020 年行政区数据，海岸和边界经过源数据概化，并非当前测绘成果。"},"geometry":{"type":"Polygon","coordinates":[[[103.61950683600001,28.614685059],[103.63287353500002,28.565917969],[103.67132568400001,28.56072998],[103.679504395,28.525512695],[103.66851806600002,28.491271973],[103.65991210900002,28.454284668],[103.66992187500001,28.428100586],[103.70471191400001,28.428283691],[103.73870849600002,28.451293945],[103.75390625000001,28.477722168],[103.81951904300001,28.518676758],[103.81072998000002,28.538330078],[103.81909179700001,28.580871582],[103.84869384800001,28.640686035],[103.86431884800001,28.669311523],[103.89068603500002,28.631286621],[103.96252441400001,28.623474121],[104.06469726600001,28.62512207],[104.11968994100002,28.621704102],[104.16290283200001,28.639099121],[104.20648193400001,28.651123047],[104.26068115200002,28.655700684],[104.29351806600002,28.645690918],[104.35351562500001,28.658508301],[104.36468505900001,28.660888672],[104.42730712900001,28.635070801],[104.40069580100001,28.597717285],[104.39251709000001,28.586120605],[104.32470703100002,28.53527832],[104.28491210900002,28.466125488],[104.27130127,28.402893066],[104.26849365200002,28.389099121],[104.28570556600002,28.32989502],[104.33489990200002,28.317077637],[104.34887695300002,28.314697266],[104.39752197300001,28.305908203],[104.40850830100001,28.278686523],[104.43627929700001,28.229675293],[104.40447998000002,28.196899414],[104.43127441400001,28.182128906],[104.47113037100002,28.151672363],[104.46368408200001,28.13470459],[104.45330810500002,28.110473633],[104.39788818400001,28.077270508],[104.37292480500001,28.068908691],[104.34667968700002,28.062316895],[104.32830810500002,28.061279297],[104.32928466800001,28.031677246],[104.36029052700002,27.995727539],[104.39508056600002,27.949890137],[104.44470214800002,27.934692383],[104.47131347700001,27.926696777],[104.50769043000001,27.887084961],[104.56988525400001,27.856872559],[104.61267089800002,27.842895508],[104.73052978500002,27.877502441],[104.73931884800001,27.880126953],[104.80047607400002,27.882080078],[104.83587646500001,27.873718262],[104.89508056600002,27.891723633],[104.92047119100002,27.947509766],[104.93951416000002,27.989685059],[104.96807861300002,28.028503418],[104.96868896500001,28.030273437],[104.99609375000001,28.090698242],[105.06109619100002,28.121276855],[105.13269043000001,28.068908691],[105.14807128900001,28.055297852],[105.20947265600002,28.068725586],[105.23492431600002,28.085876465],[105.25988769500002,28.110473633],[105.30249023400002,28.124511719],[105.34368896500001,28.127929687],[105.35552978500002,28.155883789],[105.33929443400001,28.182312012],[105.31811523400002,28.211120605],[105.32330322300001,28.24407959],[105.32830810500002,28.272277832],[105.33508300800001,28.29888916],[105.33312988300001,28.338684082],[105.30950927700002,28.371520996],[105.28051757800002,28.414916992],[105.24188232400002,28.461303711],[105.22570800800001,28.484313965],[105.21069335900002,28.516479492],[105.18988037100002,28.555114746],[105.16870117200001,28.579284668],[105.15808105500001,28.604675293],[105.17510986300002,28.635314941],[105.19567871100001,28.662109375],[105.195129395,28.710876465],[105.20648193400001,28.737304687],[105.23449707000002,28.76348877],[105.24450683600001,28.79107666],[105.21667480500001,28.848693848],[105.15747070300002,28.916687012],[105.16467285200001,28.950500488],[105.08587646500001,28.926330566],[105.04791259800001,28.938476562],[105.02050781200002,28.958312988],[104.98907470700001,28.983886719],[104.95208740200002,29.020690918],[104.93591308600001,29.049682617],[104.90008544900002,29.050476074],[104.87792968700002,29.024719238],[104.85107421900001,28.99432373],[104.80969238300001,28.991882324],[104.74829101600001,28.973876953],[104.73187255900001,28.998474121],[104.71868896500001,29.031921387],[104.73388671900001,29.066894531],[104.72131347700001,29.099121094],[104.70751953100002,29.129699707],[104.69189453100002,29.158691406],[104.65869140600002,29.180297852],[104.60571289100001,29.193481445],[104.56909179700001,29.151916504],[104.54467773400002,29.126525879],[104.52050781200002,29.144104004],[104.488098145,29.153320312],[104.46667480500001,29.181518555],[104.43511962900001,29.213317871],[104.40289306600002,29.217712402],[104.37530517600001,29.234680176],[104.34509277300002,29.222717285],[104.31268310500002,29.241882324],[104.27728271500001,29.264282227],[104.25091552700002,29.24810791],[104.23413085900002,29.214477539],[104.203125,29.22668457],[104.179504395,29.200317383],[104.16088867200001,29.144897461],[104.15972900400001,29.111694336],[104.15911865200002,29.078308105],[104.15069580100001,29.052307129],[104.13250732400002,29.015319824],[104.12609863300001,28.98651123],[104.12792968700002,28.959289551],[104.11047363300001,28.936279297],[104.07067871100001,28.948730469],[104.06567382800002,28.911682129],[104.05371093700002,28.880493164],[104.01507568400001,28.874084473],[104.02191162100002,28.840881348],[104.00189209000001,28.815917969],[103.980285645,28.793701172],[103.95947265600002,28.769104004],[103.93011474600002,28.752075195],[103.90411377,28.770507812],[103.87048339800002,28.801696777],[103.84710693400001,28.823303223],[103.79711914100001,28.834716797],[103.77911377,28.785705566],[103.74487304700001,28.76171875],[103.71728515600002,28.735473633],[103.69671630900001,28.703491211],[103.68469238300001,28.676330566],[103.66912841800001,28.651489258],[103.61950683600001,28.614685059]]]}}
