{"type":"Feature","id":"bulk-99377448B18296186541857","bbox":[110.34588623000002,40.162475586,114.81451416000002,43.352722168],"properties":{"id":"bulk-99377448B18296186541857","name":"Ulanqab","nameEn":"Ulanqab","fullName":"Ulanqab","level":"city","boundaryRole":"administrative-extent","boundaryQuality":"generalized-source-2020","boundaryYearRepresented":"2020","bounds":[[110.34588623000002,40.162475586],[114.81451416000002,43.352722168]],"center":[112.58020019500002,41.757598877],"centerMethod":"bounding-box midpoint; camera framing only","license":"CC-BY-3.0-IGO","attribution":"geoBoundaries / HDX, China administrative boundaries (2020)","source":{"provider":"geoBoundaries gbHumanitarian / HDX","url":"https://github.com/wmgeolab/geoBoundaries/raw/9469f09/releaseData/gbHumanitarian/CHN/ADM2/geoBoundaries-CHN-ADM2.geojson","metadataUrl":"https://www.geoboundaries.org/api/current/gbHumanitarian/CHN/ADM2/","shapeID":"99377448B18296186541857","shapeName":"Ulanqab","boundaryID":"CHN-ADM2-99377448","commit":"9469f09"},"geometryCounts":{"coordinates":307,"components":1,"holes":0},"boundaryNotice":"geoBoundaries / HDX 2020 年行政区数据，海岸和边界经过源数据概化，并非当前测绘成果。"},"geometry":{"type":"Polygon","coordinates":[[[114.81451416000002,42.135681152],[114.76910400400001,42.188293457],[114.72747802700002,42.197509766],[114.68109130900001,42.209289551],[114.67248535200001,42.237121582],[114.64990234400001,42.26348877],[114.60247802700002,42.269714355],[114.54870605500001,42.25769043],[114.47711181600002,42.226928711],[114.43072509800001,42.224121094],[114.38952636700002,42.219116211],[114.40209960900002,42.189086914],[114.42028808600001,42.153930664],[114.39947509800001,42.119689941],[114.35913085900002,42.129516602],[114.34289550800001,42.154296875],[114.31872558600001,42.181884766],[114.27191162100002,42.202514648],[114.230285645,42.181884766],[114.20788574200002,42.158874512],[114.17309570300002,42.128112793],[114.13067627,42.113098145],[114.07507324200002,42.099487305],[114.04968261700002,42.06829834],[114.05468750000001,42.034301758],[114.06188964800002,42.00390625],[114.03649902300002,41.978088379],[113.99847412100002,41.961486816],[113.94750976600001,41.948486328],[113.90032959000001,41.948730469],[113.89147949200002,41.976928711],[113.88928222700001,42.003723145],[113.88470459000001,42.03112793],[113.86608886700002,42.055297852],[113.82647705100001,42.062927246],[113.77728271500001,42.070129395],[113.73547363300001,42.08392334],[113.69891357400002,42.107116699],[113.65289306600002,42.121520996],[113.61151123000002,42.133728027],[113.55548095700001,42.142272949],[113.51147460900002,42.143127441],[113.43188476600001,42.173706055],[113.37792968700002,42.127075195],[113.33551025400001,42.117675781],[113.30187988300001,42.105102539],[113.26629638700001,42.085510254],[113.23352050800001,42.062316895],[113.20672607400002,42.039672852],[113.17828369100002,42.012512207],[113.15612793000001,41.986877441],[113.08831787100002,41.961120605],[113.03967285200001,41.962890625],[112.99432373000002,41.97088623],[112.92547607400002,41.979125977],[112.91210937500001,42.030517578],[112.89367675800001,42.057678223],[112.87268066400001,42.088928223],[112.83471679700001,42.120483398],[112.79467773400002,42.126098633],[112.74688720700001,42.126281738],[112.70709228500002,42.141479492],[112.69390869100002,42.181274414],[112.70007324200002,42.210510254],[112.70507812500001,42.239685059],[112.70550537100002,42.267700195],[112.68487548800002,42.306884766],[112.64910888700001,42.327270508],[112.61431884800001,42.33770752],[112.56750488300001,42.367675781],[112.53692627,42.385070801],[112.48730468700002,42.380493164],[112.445129395,42.376281738],[112.39471435500002,42.378295898],[112.35571289100001,42.39050293],[112.32189941400001,42.415100098],[112.29327392600001,42.435119629],[112.25549316400001,42.471130371],[112.22070312500001,42.500305176],[112.17932128900001,42.523071289],[112.14648437500001,42.537719727],[112.11010742200001,42.560913086],[112.07867431600002,42.577270508],[112.05169677700002,42.596923828],[112.01788330100001,42.622497559],[111.99090576200001,42.643920898],[111.96551513700001,42.667480469],[111.93249511700002,42.697692871],[111.89068603500002,42.741699219],[111.86669921900001,42.769287109],[111.84771728500002,42.797729492],[111.82830810500002,42.82989502],[111.82287597700001,42.864685059],[111.83270263700001,42.898681641],[111.82250976600001,42.9296875],[111.79107666000002,42.949707031],[111.74810791000002,42.971496582],[111.71191406200002,42.986694336],[111.67572021500001,43.002685547],[111.63470459000001,43.02911377],[111.60809326200001,43.055480957],[111.57830810500002,43.09387207],[111.55328369100002,43.126525879],[111.50952148400002,43.160888672],[111.45391845700001,43.184875488],[111.38330078100002,43.209106445],[111.34930419900002,43.231079102],[111.30847168000001,43.236083984],[111.26531982400002,43.233276367],[111.22448730500001,43.245727539],[111.18768310500002,43.266906738],[111.15570068400001,43.291320801],[111.12707519500002,43.313110352],[111.097473145,43.336486816],[111.08551025400001,43.352722168],[111.07067871100001,43.347900391],[110.96667480500001,43.290710449],[110.76068115200002,43.092895508],[110.73529052700002,43.083679199],[110.66931152300002,43.025695801],[110.67968750000001,43.002685547],[110.628723145,42.937683105],[110.46331787100002,42.831298828],[110.43310546900001,42.778076172],[110.34588623000002,42.736694336],[110.39709472700001,42.695129395],[110.42889404300001,42.676879883],[110.45251464800002,42.645690918],[110.48468017600001,42.611694336],[110.53088378900001,42.586120605],[110.56787109400001,42.553710937],[110.60571289100001,42.522705078],[110.64007568400001,42.49987793],[110.67230224600002,42.478881836],[110.70428466800001,42.44708252],[110.71832275400001,42.400512695],[110.73413085900002,42.352722168],[110.73730468700002,42.32409668],[110.74371337900001,42.285705566],[110.75549316400001,42.253479004],[110.77972412100002,42.1953125],[110.79388427700002,42.165527344],[110.80590820300002,42.13848877],[110.82128906200002,42.108886719],[110.83868408200001,42.081298828],[110.85467529300001,42.050476074],[110.86828613300001,42.019714355],[110.88311767600001,41.991088867],[110.90728759800001,41.955322266],[110.92968750000001,41.930297852],[110.94689941400001,41.900878906],[110.96588134800001,41.868896484],[110.98309326200001,41.841308594],[111.00268554700001,41.81427002],[111.02508544900002,41.787475586],[111.04528808600001,41.761901855],[111.06707763700001,41.739074707],[111.09912109400001,41.721130371],[111.13330078100002,41.69329834],[111.17047119100002,41.674682617],[111.21209716800001,41.657470703],[111.26593017600001,41.639709473],[111.30749511700002,41.634521484],[111.34289550800001,41.607116699],[111.37628173800002,41.576904297],[111.39349365200002,41.551513672],[111.40393066400001,41.517089844],[111.40191650400001,41.477294922],[111.39508056600002,41.437927246],[111.38507080100001,41.405273437],[111.37652587900001,41.375488281],[111.38671875000001,41.346679687],[111.47351074200002,41.325073242],[111.51971435500002,41.319274902],[111.55651855500001,41.306884766],[111.59912109400001,41.301696777],[111.64349365200002,41.3046875],[111.68151855500001,41.311523437],[111.71350097700001,41.284118652],[111.74890136700002,41.255310059],[111.78131103500002,41.236083984],[111.81671142600001,41.215881348],[111.85949707000002,41.159729004],[111.85913085900002,41.122924805],[111.92889404300001,41.077270508],[111.95751953100002,41.059326172],[111.99072265600002,41.031677246],[112.00170898400002,40.993103027],[112.01409912100002,40.96270752],[112.04290771500001,40.945129395],[112.08172607400002,40.93927002],[112.10888671900001,40.91809082],[112.13391113300001,40.883483887],[112.14788818400001,40.856689453],[112.16149902300002,40.82409668],[112.15307617200001,40.792297363],[112.12408447300001,40.774475098],[112.09948730500001,40.740722656],[112.08489990200002,40.706726074],[112.09130859400001,40.680297852],[112.08508300800001,40.641479492],[112.07110595700001,40.592102051],[112.04711914100001,40.565917969],[112.03808593700002,40.540100098],[112.06427002,40.520080566],[112.09667968700002,40.502319336],[112.13970947300001,40.474304199],[112.16333007800002,40.452697754],[112.187316895,40.420898437],[112.20489502,40.394104004],[112.21191406200002,40.359680176],[112.22290039100001,40.326293945],[112.26330566400001,40.278076172],[112.28588867200001,40.253479004],[112.28790283200001,40.245910645],[112.30487060500002,40.256713867],[112.36627197300001,40.285888672],[112.41088867200001,40.297912598],[112.48107910200001,40.284729004],[112.55352783200001,40.264282227],[112.58428955100001,40.250671387],[112.59631347700001,40.23828125],[112.61669921900001,40.218322754],[112.64489746100001,40.199279785],[112.67749023400002,40.183288574],[112.72271728500002,40.173278809],[112.76770019500002,40.163085937],[112.79248046900001,40.162475586],[112.81347656200002,40.171325684],[112.83508300800001,40.192504883],[112.86010742200001,40.221496582],[112.90051269500002,40.280090332],[112.94110107400002,40.320129395],[112.98229980500001,40.361083984],[113.01629638700001,40.378723145],[113.054504395,40.402526855],[113.09667968700002,40.419921875],[113.13452148400002,40.428283691],[113.18408203100002,40.427124023],[113.23730468700002,40.407287598],[113.27789306600002,40.384887695],[113.32971191400001,40.340698242],[113.37829589800002,40.314880371],[113.42370605500001,40.307495117],[113.47332763700001,40.306274414],[113.54449462900001,40.322875977],[113.59130859400001,40.346130371],[113.63012695300002,40.37890625],[113.66668701200001,40.445495605],[113.71490478500002,40.496276855],[113.76092529300001,40.530883789],[113.76232910200001,40.531921387],[113.79467773400002,40.512512207],[113.82250976600001,40.49029541],[113.86407470700001,40.489074707],[113.89752197300001,40.49407959],[113.93109130900001,40.50189209],[113.97869873000002,40.534912109],[113.99987793000001,40.620300293],[114.00427246100001,40.703125],[114.04449462900001,40.751098633],[114.07971191400001,40.759277344],[113.91888427700002,41.015075684],[113.82452392600001,41.07208252],[113.86907959000001,41.125915527],[113.88311767600001,41.146728516],[113.94311523400002,41.164916992],[113.97888183600001,41.18347168],[114.00732421900001,41.226318359],[113.94848632800002,41.235717773],[113.91369628900001,41.27532959],[113.91412353500002,41.278076172],[113.91912841800001,41.315917969],[113.94769287100002,41.363098145],[113.89532470700001,41.390930176],[113.86047363300001,41.396118164],[113.90948486300002,41.438293457],[113.95947265600002,41.476074219],[114.02648925800001,41.537475586],[114.08709716800001,41.531677246],[114.17407226600001,41.519897461],[114.19348144500002,41.503295898],[114.22668457000002,41.511474609],[114.18829345700001,41.59387207],[114.17309570300002,41.664306641],[114.16711425800001,41.716491699],[114.16711425800001,41.717529297],[114.17871093700002,41.760681152],[114.19470214800002,41.820495605],[114.21411132800002,41.843078613],[114.28332519500002,41.914916992],[114.31951904300001,41.93170166],[114.38549804700001,41.930908203],[114.44848632800002,41.946105957],[114.48547363300001,41.975280762],[114.46569824200002,41.996276855],[114.45452880900001,42.044311523],[114.46490478500002,42.080505371],[114.51867675800001,42.102905273],[114.57708740200002,42.119873047],[114.62609863300001,42.117675781],[114.69567871100001,42.114074707],[114.72692871100001,42.102478027],[114.76129150400001,42.101501465],[114.76788330100001,42.135070801],[114.80749511700002,42.141113281],[114.81451416000002,42.135681152]]]}}
