{"type":"Feature","id":"bulk-99377448B36694821929565","bbox":[105.95507812500001,30.027526855,107.26489257800002,30.84588623],"properties":{"id":"bulk-99377448B36694821929565","name":"Guang'an","nameEn":"Guang'an","fullName":"Guang'an","level":"city","boundaryRole":"administrative-extent","boundaryQuality":"generalized-source-2020","boundaryYearRepresented":"2020","bounds":[[105.95507812500001,30.027526855],[107.26489257800002,30.84588623]],"center":[106.60998535150001,30.4367065425],"centerMethod":"bounding-box midpoint; camera framing only","license":"CC-BY-3.0-IGO","attribution":"geoBoundaries / HDX, China administrative boundaries (2020)","source":{"provider":"geoBoundaries gbHumanitarian / HDX","url":"https://github.com/wmgeolab/geoBoundaries/raw/9469f09/releaseData/gbHumanitarian/CHN/ADM2/geoBoundaries-CHN-ADM2.geojson","metadataUrl":"https://www.geoboundaries.org/api/current/gbHumanitarian/CHN/ADM2/","shapeID":"99377448B36694821929565","shapeName":"Guang'an","boundaryID":"CHN-ADM2-99377448","commit":"9469f09"},"geometryCounts":{"coordinates":95,"components":1,"holes":0},"boundaryNotice":"geoBoundaries / HDX 2020 年行政区数据，海岸和边界经过源数据概化，并非当前测绘成果。"},"geometry":{"type":"Polygon","coordinates":[[[107.26489257800002,30.320922852],[107.23529052700002,30.33972168],[107.21350097700001,30.386474609],[107.21850585900002,30.414489746],[107.18011474600002,30.424499512],[107.17547607400002,30.452087402],[107.19787597700001,30.471679687],[107.20349121100001,30.522888184],[107.16552734400001,30.528686523],[107.13372802700002,30.507080078],[107.09887695300002,30.502075195],[107.11547851600001,30.472106934],[107.08032226600001,30.470092773],[107.05932617200001,30.495910645],[107.02929687500001,30.513122559],[107.00329589800002,30.539672852],[107.01190185500002,30.56628418],[107.04370117200001,30.658691406],[106.99670410200001,30.631896973],[106.95831298800002,30.633911133],[106.92810058600001,30.642700195],[106.90350341800001,30.644714355],[106.86352539100001,30.691894531],[106.90148925800001,30.692871094],[106.90032959000001,30.724914551],[106.67791748000002,30.842529297],[106.63708496100001,30.84588623],[106.60913085900002,30.831726074],[106.62591552700002,30.799926758],[106.60369873000002,30.769104004],[106.57952880900001,30.749328613],[106.54150390600002,30.730285645],[106.50970459000001,30.75390625],[106.46148681600002,30.746887207],[106.43408203100002,30.710876465],[106.39147949200002,30.691894531],[106.35589599600002,30.707519531],[106.32269287100002,30.687072754],[106.29412841800001,30.700927734],[106.25769043000001,30.687927246],[106.21173095700001,30.699707031],[106.18389892600001,30.672485352],[106.18347168000001,30.634277344],[106.16748046900001,30.592285156],[106.15130615200002,30.56628418],[106.13128662100002,30.538085937],[106.07672119100002,30.517700195],[106.04730224600002,30.49407959],[106.00671386700002,30.491882324],[105.97509765600002,30.456726074],[105.95507812500001,30.43572998],[105.98651123000002,30.41192627],[106.00671386700002,30.38269043],[106.03430175800001,30.353271484],[106.06329345700001,30.333496094],[106.09509277300002,30.318908691],[106.13348388700001,30.320495605],[106.17608642600001,30.317871094],[106.18572998000002,30.282287598],[106.18328857400002,30.253295898],[106.19592285200001,30.228515625],[106.20568847700001,30.202270508],[106.24249267600001,30.195495605],[106.29071044900002,30.185913086],[106.32751464800002,30.209899902],[106.35668945300002,30.228881836],[106.40148925800001,30.23828125],[106.43768310500002,30.241516113],[106.46667480500001,30.28692627],[106.54748535200001,30.285095215],[106.59729003900001,30.296875],[106.62207031200002,30.276306152],[106.63391113300001,30.245483398],[106.62847900400001,30.206481934],[106.65789794900002,30.176696777],[106.67932128900001,30.153076172],[106.67492675800001,30.10949707],[106.70928955100001,30.073303223],[106.74847412100002,30.052490234],[106.77691650400001,30.038085937],[106.80670166000002,30.027526855],[106.86987304700001,30.038696289],[106.90850830100001,30.031921387],[106.94470214800002,30.054321289],[106.988098145,30.047302246],[107.01751709000001,30.033874512],[107.05432128900001,30.055480957],[107.07690429700001,30.087097168],[107.10552978500002,30.115112305],[107.13812255900001,30.142272949],[107.16772460900002,30.172912598],[107.18951416000002,30.203674316],[107.23669433600001,30.234680176],[107.24829101600001,30.284118652],[107.26489257800002,30.320922852]]]}}
