{"type":"Feature","id":"bulk-99377448B52907035881667","bbox":[97.38067627,37.510681152,102.15728759800001,39.900085449],"properties":{"id":"bulk-99377448B52907035881667","name":"Zhangye","nameEn":"Zhangye","fullName":"Zhangye","level":"city","boundaryRole":"administrative-extent","boundaryQuality":"generalized-source-2020","boundaryYearRepresented":"2020","bounds":[[97.38067627,37.510681152],[102.15728759800001,39.900085449]],"center":[99.76898193400001,38.7053833005],"centerMethod":"bounding-box midpoint; camera framing only","license":"CC-BY-3.0-IGO","attribution":"geoBoundaries / HDX, China administrative boundaries (2020)","source":{"provider":"geoBoundaries gbHumanitarian / HDX","url":"https://github.com/wmgeolab/geoBoundaries/raw/9469f09/releaseData/gbHumanitarian/CHN/ADM2/geoBoundaries-CHN-ADM2.geojson","metadataUrl":"https://www.geoboundaries.org/api/current/gbHumanitarian/CHN/ADM2/","shapeID":"99377448B52907035881667","shapeName":"Zhangye","boundaryID":"CHN-ADM2-99377448","commit":"9469f09"},"geometryCounts":{"coordinates":284,"components":1,"holes":0},"boundaryNotice":"geoBoundaries / HDX 2020 年行政区数据，海岸和边界经过源数据概化，并非当前测绘成果。"},"geometry":{"type":"Polygon","coordinates":[[[99.54272460900002,39.897705078],[99.48388671900001,39.900085449],[99.44012451200001,39.890930176],[99.40087890600002,39.870910645],[99.35107421900001,39.850708008],[99.29571533200001,39.83392334],[99.24768066400001,39.819702148],[99.20910644500002,39.800109863],[99.17791748,39.774475098],[99.13250732400002,39.770080566],[99.08630371100001,39.791320801],[99.04870605500001,39.820922852],[99.03167724600002,39.785095215],[98.99407959000001,39.762695312],[98.95971679700001,39.755126953],[98.92468261700002,39.726928711],[98.91809082000002,39.697692871],[98.90612793000001,39.669677734],[98.88208007800002,39.643676758],[98.84387207000002,39.62890625],[98.85351562500001,39.578491211],[98.89270019500002,39.572509766],[98.94732666000002,39.565490723],[98.98352050800001,39.577270508],[99.01593017600001,39.596679687],[99.06207275400001,39.586486816],[99.08947753900001,39.568115234],[99.12567138700001,39.555480957],[99.15588378900001,39.538330078],[99.18371582000002,39.516479492],[99.20709228500002,39.490722656],[99.222473145,39.45489502],[99.246276855,39.418884277],[99.26428222700001,39.391479492],[99.30133056600002,39.370117187],[99.35211181600002,39.37109375],[99.39172363300001,39.342285156],[99.37329101600001,39.288879395],[99.31872558600001,39.272277832],[99.28472900400001,39.256530762],[99.24291992200001,39.232299805],[99.21948242200001,39.212097168],[99.19927978500002,39.164123535],[99.14947509800001,39.198913574],[99.11907959000001,39.241699219],[99.08868408200001,39.27947998],[99.04772949200002,39.293701172],[99.01367187500001,39.306884766],[98.97113037100002,39.320129395],[98.93310546900001,39.331726074],[98.89428710900002,39.341918945],[98.85150146500001,39.354919434],[98.80932617200001,39.37310791],[98.77331543000001,39.389282227],[98.73010253900001,39.40612793],[98.68927002,39.420288086],[98.62628173800002,39.444091797],[98.59350585900002,39.458679199],[98.56072998,39.47052002],[98.52172851600001,39.480895996],[98.47448730500001,39.499084473],[98.42852783200001,39.503295898],[98.372070312,39.513916016],[98.39129638700001,39.463684082],[98.33428955100001,39.469726562],[98.29772949200002,39.483520508],[98.25872802700002,39.499084473],[98.22692871100001,39.513122559],[98.17791748,39.53112793],[98.13671875000001,39.543701172],[98.10247802700002,39.55267334],[98.06628418000001,39.556274414],[98.02770996100001,39.562072754],[97.98907470700001,39.577087402],[97.95568847700001,39.589111328],[97.91888427700002,39.602722168],[97.879089355,39.604309082],[97.82891845700001,39.606506348],[97.77893066400001,39.610900879],[97.79388427700002,39.639526367],[97.75708007800002,39.655517578],[97.67828369100002,39.674682617],[97.62689209000001,39.670898437],[97.59588623,39.652099609],[97.58172607400002,39.622314453],[97.54449462900001,39.608520508],[97.50872802700002,39.603881836],[97.52807617200001,39.547302246],[97.51208496100001,39.519287109],[97.47869873,39.488708496],[97.45928955100001,39.465515137],[97.47192382800002,39.438720703],[97.51208496100001,39.434082031],[97.53350830100001,39.405700684],[97.52691650400001,39.370483398],[97.52410888700001,39.33190918],[97.54089355500001,39.307495117],[97.57189941400001,39.292480469],[97.61108398400002,39.279724121],[97.63250732400002,39.252319336],[97.60913085900002,39.230102539],[97.56512451200001,39.220703125],[97.52587890600002,39.219482422],[97.48291015600002,39.22052002],[97.44189453100002,39.206298828],[97.40850830100001,39.1875],[97.38092041000002,39.158691406],[97.38067627,39.154724121],[97.44787597700001,39.110900879],[97.54010009800001,39.04107666],[97.64172363300001,38.99987793],[97.677124023,38.957702637],[97.70788574200002,38.927490234],[97.92211914100001,38.87512207],[98.00427246100001,38.840881348],[98.01367187500001,38.782897949],[98.09368896500001,38.783874512],[98.11370849600002,38.808105469],[98.13909912100002,38.838684082],[98.24432373,38.889282227],[98.28991699200002,38.944091797],[98.29388427700002,39.015686035],[98.36749267600001,39.014282227],[98.45910644500002,38.956481934],[98.43829345700001,38.931518555],[98.51409912100002,38.929077148],[98.56011962900001,38.928710937],[98.60748291000002,38.93548584],[98.70947265600002,39.015075684],[98.722473145,39.037902832],[98.73492431600002,39.063720703],[98.75390625000001,39.074523926],[98.77728271500001,39.082702637],[98.80572509800001,39.085083008],[98.81927490200002,39.077087402],[98.83752441400001,39.053283691],[99.04870605500001,38.943481445],[99.07568359400001,38.925476074],[99.06811523400002,38.900695801],[99.27111816400001,38.791870117],[99.51232910200001,38.608520508],[99.57287597700001,38.578674316],[99.62707519500002,38.484130859],[99.76147460900002,38.393310547],[99.92248535200001,38.334716797],[100.04949951200001,38.262878418],[100.14752197300001,38.220703125],[100.18188476600001,38.206726074],[100.20068359400001,38.228881836],[100.18347168000001,38.277099609],[100.18572998,38.302124023],[100.11767578100002,38.363098145],[100.105285645,38.415893555],[100.122070312,38.452087402],[100.12268066400001,38.48248291],[100.163085937,38.497070312],[100.22448730500001,38.466125488],[100.29412841800001,38.38067627],[100.39190673800002,38.292724609],[100.60388183600001,38.240478516],[100.60888671900001,38.227478027],[100.63891601600001,38.147888184],[100.63031005900001,38.077087402],[100.75952148400002,38.076477051],[100.80731201200001,38.049926758],[100.90191650400001,37.996887207],[100.95147705100001,37.990478516],[101.01110839800002,37.987487793],[101.15209960900002,37.915527344],[101.20452880900001,37.88470459],[101.25012207000002,37.857727051],[101.29528808600001,37.831115723],[101.46990966800001,37.75390625],[101.53411865200002,37.678100586],[101.64312744100002,37.62310791],[101.74951171900001,37.580078125],[101.79052734400001,37.510681152],[101.86712646500001,37.51751709],[101.83789062500001,37.575073242],[101.86547851600001,37.650512695],[101.91772460900002,37.714111328],[101.91467285200001,37.741516113],[101.95129394500002,37.757873535],[101.96948242200001,37.74987793],[101.971679687,37.728515625],[101.97491455100001,37.697875977],[101.995910645,37.689880371],[102.05548095700001,37.659729004],[102.07269287100002,37.69708252],[102.10888671900001,37.709899902],[102.14727783200001,37.744689941],[102.15649414100001,37.783508301],[102.15728759800001,37.81048584],[102.14709472700001,37.844726562],[102.12731933600001,37.876525879],[102.09967041000002,37.902526855],[102.07409668000001,37.952514648],[102.11187744100002,37.959472656],[102.14788818400001,37.978088379],[102.120117187,37.998718262],[102.07830810500002,38.010498047],[102.03210449200002,38.023498535],[101.99468994100002,38.028686523],[101.95727539100001,38.041503906],[101.91827392600001,38.06072998],[101.88568115200002,38.07232666],[101.85052490200002,38.076721191],[101.812316895,38.075317383],[101.75750732400002,38.078674316],[101.71307373000002,38.082519531],[101.69390869100002,38.058288574],[101.65808105500001,38.046875],[101.63610839800002,38.071899414],[101.59167480500001,38.074279785],[101.55151367200001,38.059875488],[101.52209472700001,38.039489746],[101.48608398400002,38.022888184],[101.44427490200002,38.015686035],[101.40289306600002,38.017272949],[101.40948486300002,38.049072266],[101.428710937,38.090270996],[101.44427490200002,38.126281738],[101.47448730500001,38.151672363],[101.50109863300001,38.177124023],[101.50653076200001,38.216674805],[101.48968505900001,38.25189209],[101.47711181600002,38.291687012],[101.45971679700001,38.33190918],[101.41912841800001,38.355529785],[101.39270019500002,38.382324219],[101.42687988300001,38.402099609],[101.46990966800001,38.413330078],[101.51391601600001,38.434326172],[101.51971435500002,38.460693359],[101.51367187500001,38.489501953],[101.51348877,38.527099609],[101.50811767600001,38.569091797],[101.51049804700001,38.595703125],[101.51232910200001,38.629272461],[101.51611328100002,38.66607666],[101.56848144500002,38.69732666],[101.53912353500002,38.719116211],[101.46551513700001,38.727905273],[101.34051513700001,38.753112793],[101.33410644500002,38.759887695],[101.33068847700001,38.782287598],[101.34509277300002,38.80291748],[101.33752441400001,38.830322266],[101.30108642600001,38.848083496],[101.26531982400002,38.861083984],[101.25970459000001,38.88067627],[101.27532959000001,38.901306152],[101.26647949200002,38.930480957],[101.24731445300002,38.930297852],[101.238098145,38.92791748],[101.219726562,38.943115234],[101.22888183600001,38.957092285],[101.25451660200001,38.975708008],[101.26550293000001,38.99609375],[101.25628662100002,39.003723145],[101.21771240200002,38.995910645],[101.171875,38.967102051],[101.12951660200001,38.949279785],[101.07409668000001,38.942504883],[100.99871826200001,38.93927002],[100.97967529300001,38.934875488],[100.95709228500002,39.014526367],[100.85888671900001,38.969299316],[100.85888671900001,38.973876953],[100.85791015600002,39.048278809],[100.91748046900001,39.085083008],[100.87567138700001,39.152099609],[100.89532470700001,39.355712891],[100.54852294900002,39.368713379],[100.53070068400001,39.36932373],[100.54089355500001,39.453674316],[100.33911132800002,39.523498535],[100.33673095700001,39.631286621],[100.28112793000001,39.696289062],[100.14788818400001,39.711914062],[100.13049316400001,39.714111328],[99.79370117200001,39.841125488],[99.48931884800001,39.852294922],[99.54272460900002,39.897705078]]]}}
