{"type":"Feature","id":"bulk-99377448B89345073368890","bbox":[113.84191894500002,34.222106934,115.23730468700002,35.005310059],"properties":{"id":"bulk-99377448B89345073368890","name":"Kaifeng","nameEn":"Kaifeng","fullName":"Kaifeng","level":"city","boundaryRole":"administrative-extent","boundaryQuality":"generalized-source-2020","boundaryYearRepresented":"2020","bounds":[[113.84191894500002,34.222106934],[115.23730468700002,35.005310059]],"center":[114.53961181600002,34.6137084965],"centerMethod":"bounding-box midpoint; camera framing only","license":"CC-BY-3.0-IGO","attribution":"geoBoundaries / HDX, China administrative boundaries (2020)","source":{"provider":"geoBoundaries gbHumanitarian / HDX","url":"https://github.com/wmgeolab/geoBoundaries/raw/9469f09/releaseData/gbHumanitarian/CHN/ADM2/geoBoundaries-CHN-ADM2.geojson","metadataUrl":"https://www.geoboundaries.org/api/current/gbHumanitarian/CHN/ADM2/","shapeID":"99377448B89345073368890","shapeName":"Kaifeng","boundaryID":"CHN-ADM2-99377448","commit":"9469f09"},"geometryCounts":{"coordinates":92,"components":1,"holes":0},"boundaryNotice":"geoBoundaries / HDX 2020 年行政区数据，海岸和边界经过源数据概化，并非当前测绘成果。"},"geometry":{"type":"Polygon","coordinates":[[[114.77447509800001,35.005310059],[114.77630615200002,34.98248291],[114.70428466800001,34.940124512],[114.73712158200001,34.908691406],[114.73608398400002,34.891113281],[114.72229003900001,34.871704102],[114.71008300800001,34.877075195],[114.62609863300001,34.90032959],[114.55670166000002,34.902893066],[114.45410156200002,34.876525879],[114.41650390600002,34.880310059],[114.29711914100001,34.894470215],[114.26190185500002,34.885681152],[114.22711181600002,34.884277344],[114.21069335900002,34.848693848],[114.16949462900001,34.841308594],[114.16027832000002,34.808288574],[114.17907714800002,34.785095215],[114.17852783200001,34.758117676],[114.16107177700002,34.725891113],[114.15447998000002,34.686279297],[114.15972900400001,34.64251709],[114.16967773400002,34.615478516],[114.13592529300001,34.586730957],[114.10168457000002,34.569519043],[114.06469726600001,34.56427002],[114.02032470700001,34.551879883],[114.00512695300002,34.515075684],[114.00268554700001,34.481079102],[113.96051025400001,34.456115723],[113.84832763700001,34.458496094],[113.84191894500002,34.409118652],[113.84631347700001,34.380493164],[113.84570312500001,34.351501465],[113.89251709000001,34.336486816],[113.92687988300001,34.318481445],[113.95648193400001,34.293518066],[113.97808837900001,34.265319824],[114.04272460900002,34.250915527],[114.08050537100002,34.246887207],[114.11828613300001,34.222106934],[114.15393066400001,34.226501465],[114.20208740200002,34.247680664],[114.26507568400001,34.286071777],[114.30010986300002,34.280517578],[114.33209228500002,34.270324707],[114.37408447300001,34.267883301],[114.40393066400001,34.321716309],[114.47070312500001,34.330688477],[114.50067138700001,34.315490723],[114.55291748000002,34.290710449],[114.62829589800002,34.248901367],[114.70227050800001,34.250488281],[114.74847412100002,34.239929199],[114.80627441400001,34.26171875],[114.85748291000002,34.282104492],[114.86108398400002,34.309875488],[114.86511230500001,34.346923828],[114.86029052700002,34.381896973],[114.85107421900001,34.411315918],[114.85388183600001,34.443725586],[114.87829589800002,34.476501465],[114.89868164100001,34.502502441],[114.89331054700001,34.557312012],[114.88092041000002,34.60748291],[114.88031005900001,34.639526367],[114.88110351600001,34.667480469],[114.88128662100002,34.698120117],[114.82592773400002,34.733276367],[114.86688232400002,34.764892578],[114.90191650400001,34.771484375],[114.94708252,34.774475098],[114.98413085900002,34.778686523],[115.02667236300002,34.783325195],[115.07971191400001,34.783874512],[115.12329101600001,34.778930664],[115.16168212900001,34.778076172],[115.21289062500001,34.78692627],[115.23730468700002,34.817321777],[115.23071289100001,34.854492187],[115.20611572300001,34.85748291],[115.20471191400001,34.870910645],[115.20349121100001,34.891296387],[115.179504395,34.900085449],[115.17211914100001,34.909118652],[115.16650390600002,34.9296875],[115.14068603500002,34.969482422],[115.11730957000002,34.978271484],[115.08392334000001,34.990905762],[114.95471191400001,34.972106934],[114.89550781200002,34.990905762],[114.77447509800001,35.005310059]]]}}
