{"type":"Feature","id":"bulk-99377448B4787967891318","bbox":[110.46691894500002,28.409118652,112.33728027300002,30.13470459],"properties":{"id":"bulk-99377448B4787967891318","name":"Changde","nameEn":"Changde","fullName":"Changde","level":"city","boundaryRole":"administrative-extent","boundaryQuality":"generalized-source-2020","boundaryYearRepresented":"2020","bounds":[[110.46691894500002,28.409118652],[112.33728027300002,30.13470459]],"center":[111.40209960900002,29.271911621],"centerMethod":"bounding-box midpoint; camera framing only","license":"CC-BY-3.0-IGO","attribution":"geoBoundaries / HDX, China administrative boundaries (2020)","source":{"provider":"geoBoundaries gbHumanitarian / HDX","url":"https://github.com/wmgeolab/geoBoundaries/raw/9469f09/releaseData/gbHumanitarian/CHN/ADM2/geoBoundaries-CHN-ADM2.geojson","metadataUrl":"https://www.geoboundaries.org/api/current/gbHumanitarian/CHN/ADM2/","shapeID":"99377448B4787967891318","shapeName":"Changde","boundaryID":"CHN-ADM2-99377448","commit":"9469f09"},"geometryCounts":{"coordinates":203,"components":1,"holes":0},"boundaryNotice":"geoBoundaries / HDX 2020 年行政区数据，海岸和边界经过源数据概化，并非当前测绘成果。"},"geometry":{"type":"Polygon","coordinates":[[[110.58612060500002,29.759887695],[110.62329101600001,29.725280762],[110.64788818400001,29.707092285],[110.68292236300002,29.692321777],[110.72729492200001,29.704101562],[110.75592041000002,29.66229248],[110.81408691400001,29.680114746],[110.87048339800002,29.686706543],[110.91210937500001,29.668273926],[110.94488525400001,29.665283203],[110.98107910200001,29.665710449],[111.00811767600001,29.642089844],[111.03167724600002,29.612915039],[111.07348632800002,29.603881836],[111.12030029300001,29.601318359],[111.16149902300002,29.593688965],[111.20251464800002,29.599121094],[111.25451660200001,29.567077637],[111.27911377,29.539672852],[111.29388427700002,29.497680664],[111.28570556600002,29.44732666],[111.27252197300001,29.420715332],[111.24932861300002,29.343688965],[111.245910645,29.305297852],[111.23950195300002,29.261108398],[111.21490478500002,29.238891602],[111.20910644500002,29.205688477],[111.16607666000002,29.200500488],[111.13208007800002,29.203125],[111.10028076200001,29.184082031],[111.06927490200002,29.157470703],[111.04010009800001,29.135681152],[111.00628662100002,29.117492676],[110.97009277300002,29.11907959],[110.93072509800001,29.124694824],[110.89752197300001,29.116271973],[110.83392334000001,29.098693848],[110.85510253900001,29.05871582],[110.88732910200001,29.031677246],[110.90972900400001,29.011901855],[110.93487548800002,28.984680176],[110.93170166000002,28.952087402],[110.93310546900001,28.92388916],[110.95227050800001,28.89050293],[110.98413085900002,28.87487793],[111.01568603500002,28.857116699],[111.03790283200001,28.837524414],[111.05792236300002,28.816894531],[111.06872558600001,28.788879395],[111.09552002,28.758483887],[111.10449218700002,28.72088623],[111.09167480500001,28.6875],[111.05468750000001,28.674072266],[111.03228759800001,28.650085449],[111.01428222700001,28.618713379],[110.96868896500001,28.606506348],[110.92712402300002,28.59588623],[110.91247558600001,28.561096191],[110.94067382800002,28.548278809],[110.97271728500002,28.567077637],[111.00488281200002,28.575500488],[111.03570556600002,28.549682617],[111.04492187500001,28.516479492],[111.01452636700002,28.504089355],[110.97491455100001,28.506103516],[110.94671630900001,28.489685059],[110.92492675800001,28.469299316],[110.89489746100001,28.452880859],[110.86370849600002,28.437316895],[110.85308837900001,28.409118652],[110.91528320300002,28.410522461],[110.96588134800001,28.420288086],[111.00848388700001,28.42388916],[111.06188964800002,28.434326172],[111.09289550800001,28.440490723],[111.11468505900001,28.461303711],[111.14288330100001,28.48651123],[111.18310546900001,28.506286621],[111.21588134800001,28.50592041],[111.24932861300002,28.501708984],[111.28509521500001,28.49609375],[111.32550048800002,28.508483887],[111.355285645,28.528076172],[111.38867187500001,28.529907227],[111.42230224600002,28.52947998],[111.45288085900002,28.551513672],[111.47808837900001,28.599487305],[111.55688476600001,28.607299805],[111.59912109400001,28.606872559],[111.63549804700001,28.585876465],[111.65069580100001,28.555908203],[111.67907714800002,28.574890137],[111.68328857400002,28.611083984],[111.71807861300002,28.623474121],[111.74108886700002,28.594116211],[111.77410888700001,28.609680176],[111.80932617200001,28.593322754],[111.84771728500002,28.610717773],[111.88427734400001,28.612121582],[111.90667724600002,28.639282227],[111.94171142600001,28.627075195],[111.97631835900002,28.607116699],[112.01110839800002,28.642883301],[112.05767822300001,28.623291016],[112.12188720700001,28.637084961],[112.18811035200001,28.643676758],[112.21191406200002,28.666870117],[112.24749755900001,28.684692383],[112.26531982400002,28.718078613],[112.25769043000001,28.740905762],[112.26007080100001,28.753112793],[112.26690673800002,28.767089844],[112.27868652300002,28.774719238],[112.31048584000001,28.760681152],[112.31207275400001,28.774475098],[112.28747558600001,28.795471191],[112.28411865200002,28.814697266],[112.30969238300001,28.812927246],[112.31689453100002,28.826721191],[112.312316895,28.852111816],[112.30487060500002,28.881286621],[112.32690429700001,28.929870605],[112.32232666000002,28.950500488],[112.33673095700001,28.973693848],[112.33728027300002,28.996887207],[112.31048584000001,29.047729492],[112.29791259800001,29.061096191],[112.27807617200001,29.062072754],[112.24407959000001,29.095275879],[112.20208740200002,29.109924316],[112.17590332000002,29.128723145],[112.18847656200002,29.206481934],[112.20391845700001,29.246887207],[112.21490478500002,29.294921875],[112.25012207000002,29.314880371],[112.22851562500001,29.336303711],[112.23010253900001,29.365905762],[112.24572753900001,29.397888184],[112.26690673800002,29.444091797],[112.26751709000001,29.495727539],[112.29608154300001,29.536499023],[112.27050781200002,29.52130127],[112.25488281200002,29.517883301],[112.24487304700001,29.545715332],[112.25988769500002,29.565917969],[112.24572753900001,29.598083496],[112.20892334000001,29.645690918],[112.20172119100002,29.647888184],[112.15368652300002,29.661499023],[112.14410400400001,29.646484375],[112.13787841800001,29.642089844],[112.11291503900001,29.657470703],[112.09552002,29.678100586],[112.06671142600001,29.708679199],[112.05133056600002,29.72088623],[111.99731445300002,29.759277344],[111.88311767600001,29.827087402],[111.80932617200001,29.865905762],[111.79150390600002,29.876525879],[111.76647949200002,29.891113281],[111.72912597700001,29.909301758],[111.67791748000002,29.914123535],[111.62432861300002,29.900085449],[111.52288818400001,29.904296875],[111.46850585900002,29.926086426],[111.43090820300002,29.936889648],[111.37011718700002,29.910522461],[111.33770752,29.931091309],[111.33050537100002,29.951477051],[111.28851318400001,29.965087891],[111.27709960900002,29.98828125],[111.26409912100002,29.997680664],[111.23431396500001,30.019470215],[111.18927002,30.032104492],[111.14532470700001,30.042907715],[111.09387207000002,30.044677734],[111.03210449200002,30.03692627],[110.94708252,30.016479492],[110.91351318400001,30.041503906],[110.86108398400002,30.125915527],[110.83367919900002,30.13470459],[110.78131103500002,30.125915527],[110.71832275400001,30.10168457],[110.70050048800002,30.087524414],[110.71429443400001,30.058288574],[110.67248535200001,30.042114258],[110.65869140600002,30.045715332],[110.63568115200002,30.0625],[110.55169677700002,30.054321289],[110.49511718700002,30.043518066],[110.46691894500002,30.035522461],[110.48590087900001,30.019104004],[110.51647949200002,29.992919922],[110.51330566400001,29.988525391],[110.48309326200001,29.97052002],[110.46771240200002,29.916320801],[110.47308349600002,29.89050293],[110.50128173800002,29.876281738],[110.51708984400001,29.871887207],[110.53192138700001,29.845275879],[110.58007812500001,29.830322266],[110.59710693400001,29.768920898],[110.58612060500002,29.759887695]]]}}
