{"type":"Feature","id":"bulk-99377448B7474469698233","bbox":[119.11968994100002,31.164916992,120.17547607400002,32.054077148],"properties":{"id":"bulk-99377448B7474469698233","name":"Changzhou","nameEn":"Changzhou","fullName":"Changzhou","level":"city","boundaryRole":"administrative-extent","boundaryQuality":"generalized-source-2020","boundaryYearRepresented":"2020","bounds":[[119.11968994100002,31.164916992],[120.17547607400002,32.054077148]],"center":[119.64758300750002,31.609497069999996],"centerMethod":"bounding-box midpoint; camera framing only","license":"CC-BY-3.0-IGO","attribution":"geoBoundaries / HDX, China administrative boundaries (2020)","source":{"provider":"geoBoundaries gbHumanitarian / HDX","url":"https://github.com/wmgeolab/geoBoundaries/raw/9469f09/releaseData/gbHumanitarian/CHN/ADM2/geoBoundaries-CHN-ADM2.geojson","metadataUrl":"https://www.geoboundaries.org/api/current/gbHumanitarian/CHN/ADM2/","shapeID":"99377448B7474469698233","shapeName":"Changzhou","boundaryID":"CHN-ADM2-99377448","commit":"9469f09"},"geometryCounts":{"coordinates":107,"components":1,"holes":0},"boundaryNotice":"geoBoundaries / HDX 2020 年行政区数据，海岸和边界经过源数据概化，并非当前测绘成果。"},"geometry":{"type":"Polygon","coordinates":[[[120.00091552700002,31.96270752],[119.95471191400001,32.015075684],[119.92327880900001,32.004516602],[119.88812255900001,32.021728516],[119.84051513700001,32.053710937],[119.796691895,32.054077148],[119.76849365200002,32.031311035],[119.77069091800001,31.997497559],[119.74432373000002,31.962524414],[119.77270507800002,31.944091797],[119.78070068400001,31.917480469],[119.77410888700001,31.886291504],[119.73291015600002,31.875671387],[119.73950195300002,31.84588623],[119.75848388700001,31.816101074],[119.738098145,31.790710449],[119.72930908200001,31.738708496],[119.68212890600002,31.764526367],[119.65307617200001,31.782897949],[119.60827636700002,31.799926758],[119.57470703100002,31.815124512],[119.56488037100002,31.840881348],[119.53790283200001,31.87109375],[119.49353027300002,31.869506836],[119.43310546900001,31.863098145],[119.39868164100001,31.837097168],[119.35809326200001,31.856872559],[119.31890869100002,31.867675781],[119.33312988300001,31.82409668],[119.33087158200001,31.792297363],[119.32489013700001,31.764282227],[119.30212402300002,31.743713379],[119.29772949200002,31.707519531],[119.29852294900002,31.672912598],[119.26647949200002,31.66607666],[119.18127441400001,31.648681641],[119.17932128900001,31.600280762],[119.16131591800001,31.570129395],[119.14910888700001,31.533691406],[119.14050293000001,31.506713867],[119.11968994100002,31.456115723],[119.15930175800001,31.40447998],[119.18847656200002,31.384277344],[119.19390869100002,31.344482422],[119.17608642600001,31.257873535],[119.18609619100002,31.249084473],[119.22192382800002,31.245727539],[119.25848388700001,31.257507324],[119.29949951200001,31.283081055],[119.35327148400002,31.277282715],[119.33569335900002,31.25189209],[119.33947753900001,31.205322266],[119.35229492200001,31.183105469],[119.35650634800001,31.180908203],[119.37652587900001,31.170715332],[119.39550781200002,31.177307129],[119.40972900400001,31.171875],[119.43151855500001,31.164916992],[119.46948242200001,31.171875],[119.51428222700001,31.171325684],[119.51593017600001,31.169677734],[119.52947998000002,31.20690918],[119.51452636700002,31.237915039],[119.50549316400001,31.265075684],[119.51129150400001,31.295898437],[119.51611328100002,31.335693359],[119.51287841800001,31.388305664],[119.54010009800001,31.428283691],[119.58050537100002,31.43927002],[119.55468750000001,31.468505859],[119.55187988300001,31.507507324],[119.58129882800002,31.53729248],[119.61407470700001,31.573120117],[119.65551757800002,31.605285645],[119.69689941400001,31.570922852],[119.73107910200001,31.547912598],[119.77032470700001,31.534484863],[119.81268310500002,31.531921387],[119.84570312500001,31.545898437],[119.88592529300001,31.562927246],[119.92352294900002,31.558288574],[119.94427490200002,31.531494141],[119.97467041000002,31.50592041],[120.00732421900001,31.500488281],[120.04467773400002,31.478271484],[120.09649658200001,31.507507324],[120.06927490200002,31.540710449],[120.05010986300002,31.5625],[120.04907226600001,31.593078613],[120.07470703100002,31.616516113],[120.10467529300001,31.644104004],[120.12268066400001,31.679870605],[120.12927246100001,31.719909668],[120.13647460900002,31.749694824],[120.17547607400002,31.756530762],[120.17071533200001,31.78527832],[120.15551757800002,31.809326172],[120.15509033200001,31.839477539],[120.16912841800001,31.86907959],[120.128723145,31.86932373],[120.09552002,31.857727051],[120.054504395,31.844909668],[120.01647949200002,31.833679199],[119.99987793000001,31.860717773],[119.99847412100002,31.892883301],[120.00671386700002,31.922119141],[120.00091552700002,31.96270752]]]}}
