{"type":"Feature","id":"bulk-99377448B27898185166352","bbox":[121.93548584000001,29.943115234,122.51708984400001,30.738891602],"properties":{"id":"bulk-99377448B27898185166352","name":"Zhoushan","nameEn":"Zhoushan","fullName":"Zhoushan","level":"city","boundaryRole":"administrative-extent","boundaryQuality":"generalized-source-2020","boundaryYearRepresented":"2020","bounds":[[121.93548584000001,29.943115234],[122.51708984400001,30.738891602]],"center":[122.226287842,30.341003418],"centerMethod":"bounding-box midpoint; camera framing only","license":"CC-BY-3.0-IGO","attribution":"geoBoundaries / HDX, China administrative boundaries (2020)","source":{"provider":"geoBoundaries gbHumanitarian / HDX","url":"https://github.com/wmgeolab/geoBoundaries/raw/9469f09/releaseData/gbHumanitarian/CHN/ADM2/geoBoundaries-CHN-ADM2.geojson","metadataUrl":"https://www.geoboundaries.org/api/current/gbHumanitarian/CHN/ADM2/","shapeID":"99377448B27898185166352","shapeName":"Zhoushan","boundaryID":"CHN-ADM2-99377448","commit":"9469f09"},"geometryCounts":{"coordinates":206,"components":7,"holes":0},"boundaryNotice":"geoBoundaries / HDX 2020 年行政区数据，海岸和边界经过源数据概化，并非当前测绘成果。"},"geometry":{"type":"MultiPolygon","coordinates":[[[[122.25030517600001,29.945129395],[122.24768066400001,29.950500488],[122.24291992200001,29.954528809],[122.23608398400002,29.955688477],[122.22589111300002,29.96307373],[122.22113037100002,29.964111328],[122.21972656200002,29.957885742],[122.22167968700002,29.953918457],[122.22210693400001,29.953674316],[122.25030517600001,29.945129395]]],[[[121.97668457000002,30.073120117],[121.98071289100001,30.073303223],[121.98608398400002,30.077270508],[121.98211669900002,30.08190918],[121.98132324200002,30.086486816],[121.97930908200001,30.085510254],[121.97552490200002,30.076477051],[121.97668457000002,30.073120117]]],[[[121.97167968700002,30.08770752],[121.97692871100001,30.093322754],[121.97509765600002,30.096679687],[121.96972656200002,30.097473145],[121.96771240200002,30.096923828],[121.96832275400001,30.09588623],[121.97088623000002,30.089111328],[121.97167968700002,30.08770752]]],[[[121.96069335900002,30.155273437],[121.93707275400001,30.168884277],[121.93548584000001,30.163513184],[121.93652343700002,30.160888672],[121.93908691400001,30.161071777],[121.94207763700001,30.15447998],[121.95172119100002,30.15032959],[121.95269775400001,30.147277832],[121.94952392600001,30.142883301],[121.96392822300001,30.137878418],[121.97009277300002,30.126281738],[121.97570800800001,30.12310791],[121.97589111300002,30.121276855],[121.97668457000002,30.110473633],[121.98327636700002,30.104675293],[121.98669433600001,30.096130371],[121.98468017600001,30.092285156],[121.98907470700001,30.080688477],[121.98931884800001,30.07409668],[121.97967529300001,30.065917969],[121.98968505900001,30.048278809],[121.99072265600002,30.045898437],[121.99951171900001,30.043518066],[122.00628662100002,30.034484863],[122.01171875000001,30.033325195],[122.01489257800002,30.02947998],[122.01867675800001,30.021484375],[122.02008056600002,30.018493652],[122.02172851600001,30.002502441],[122.02252197300001,30.00012207],[122.02447509800001,29.993530273],[122.02612304700001,29.991271973],[122.02893066400001,29.990478516],[122.03332519500002,29.990905762],[122.05371093700002,30.00012207],[122.05487060500002,30.000488281],[122.06329345700001,30.007507324],[122.06652832000002,30.008483887],[122.07092285200001,30.006713867],[122.09869384800001,30.006896973],[122.10552978500002,30.003112793],[122.10772705100001,30.000488281],[122.14971923800002,29.99029541],[122.16589355500001,29.989685059],[122.17730712900001,29.98651123],[122.19207763700001,29.978881836],[122.20928955100001,29.977294922],[122.230285645,29.965881348],[122.24810791000002,29.959289551],[122.25292968700002,29.95489502],[122.25787353500002,29.950317383],[122.27008056600002,29.944519043],[122.29071044900002,29.943115234],[122.29711914100001,29.944885254],[122.30352783200001,29.953674316],[122.30230712900001,29.968322754],[122.30908203100002,29.986877441],[122.31329345700001,30.00012207],[122.312316895,30.009277344],[122.30548095700001,30.016723633],[122.29931640600002,30.02331543],[122.26391601600001,30.053283691],[122.23931884800001,30.062683105],[122.23132324200002,30.065917969],[122.21667480500001,30.077270508],[122.187316895,30.073913574],[122.17327880900001,30.081726074],[122.16149902300002,30.088317871],[122.15808105500001,30.095703125],[122.15490722700001,30.102722168],[122.14807128900001,30.103088379],[122.12829589800002,30.104492187],[122.10992431600002,30.111877441],[122.10028076200001,30.11907959],[122.09570312500001,30.132324219],[122.07727050800001,30.139709473],[122.06567382800002,30.140686035],[122.05010986300002,30.136901855],[122.03027343700002,30.134277344],[122.01947021500001,30.133483887],[121.97332763700001,30.140930176],[121.96069335900002,30.155273437]]],[[[122.06628418000001,30.291870117],[122.06890869100002,30.295715332],[122.06811523400002,30.297485352],[122.06628418000001,30.296691895],[122.06628418000001,30.291870117]]],[[[122.21752929700001,30.307922363],[122.20367431600002,30.31652832],[122.19049072300001,30.322509766],[122.17669677700002,30.323913574],[122.17431640600002,30.32208252],[122.17510986300002,30.31652832],[122.17309570300002,30.3125],[122.16870117200001,30.309509277],[122.15692138700001,30.31048584],[122.15527343700002,30.312072754],[122.13909912100002,30.302124023],[122.12750244100002,30.303283691],[122.11187744100002,30.307678223],[122.09991455100001,30.30670166],[122.09130859400001,30.300292969],[122.09008789100001,30.29888916],[122.09350585900002,30.29309082],[122.08428955100001,30.29107666],[122.08227539100001,30.287719727],[122.08367919900002,30.28527832],[122.09570312500001,30.281921387],[122.10467529300001,30.283325195],[122.11987304700001,30.269104004],[122.12170410200001,30.268310547],[122.12908935500002,30.264526367],[122.14050293000001,30.250488281],[122.15509033200001,30.247680664],[122.16149902300002,30.248474121],[122.16931152300002,30.241088867],[122.18811035200001,30.242126465],[122.20068359400001,30.234680176],[122.20568847700001,30.237121582],[122.21130371100001,30.235107422],[122.21411132800002,30.233703613],[122.21447753900001,30.233703613],[122.20147705100001,30.278503418],[122.20507812500001,30.280883789],[122.20452880900001,30.281311035],[122.20349121100001,30.285095215],[122.20709228500002,30.290710449],[122.22229003900001,30.293884277],[122.22448730500001,30.296325684],[122.21752929700001,30.307922363]]],[[[122.453125,30.722473145],[122.45147705100001,30.724121094],[122.42828369100002,30.738098145],[122.42468261700002,30.738891602],[122.42248535200001,30.738525391],[122.421691895,30.73651123],[122.42590332000002,30.733093262],[122.42968750000001,30.730102539],[122.43530273400002,30.728881836],[122.42987060500002,30.703674316],[122.42468261700002,30.700927734],[122.42388916000002,30.699279785],[122.43188476600001,30.693725586],[122.43389892600001,30.69329834],[122.43548584000001,30.69152832],[122.44091796900001,30.687683105],[122.44647216800001,30.687927246],[122.44689941400001,30.688110352],[122.44848632800002,30.692687988],[122.45050048800002,30.691894531],[122.45129394500002,30.689697266],[122.46148681600002,30.693481445],[122.46191406200002,30.694091797],[122.47692871100001,30.698303223],[122.47991943400001,30.697509766],[122.48229980500001,30.693908691],[122.48712158200001,30.693481445],[122.49047851600001,30.694885254],[122.495910645,30.700500488],[122.49969482400002,30.700073242],[122.49548339800002,30.694702148],[122.49847412100002,30.69329834],[122.50250244100002,30.694519043],[122.50769043000001,30.699523926],[122.51428222700001,30.698486328],[122.51629638700001,30.697875977],[122.51708984400001,30.715270996],[122.51611328100002,30.715270996],[122.51409912100002,30.711303711],[122.51171875000001,30.710693359],[122.50732421900001,30.715270996],[122.49890136700002,30.715087891],[122.49768066400001,30.713317871],[122.48547363300001,30.708129883],[122.47412109400001,30.707885742],[122.46948242200001,30.710083008],[122.46649169900002,30.715087891],[122.46630859400001,30.715087891],[122.45367431600002,30.722717285],[122.453125,30.722473145]]]]}}
