{"type":"Feature","id":"bulk-99377448B67535985936141","bbox":[112.83172607400002,23.888122559,114.71173095700001,25.508911133],"properties":{"id":"bulk-99377448B67535985936141","name":"Shaoguan","nameEn":"Shaoguan","fullName":"Shaoguan","level":"city","boundaryRole":"administrative-extent","boundaryQuality":"generalized-source-2020","boundaryYearRepresented":"2020","bounds":[[112.83172607400002,23.888122559],[114.71173095700001,25.508911133]],"center":[113.77172851550002,24.698516846],"centerMethod":"bounding-box midpoint; camera framing only","license":"CC-BY-3.0-IGO","attribution":"geoBoundaries / HDX, China administrative boundaries (2020)","source":{"provider":"geoBoundaries gbHumanitarian / HDX","url":"https://github.com/wmgeolab/geoBoundaries/raw/9469f09/releaseData/gbHumanitarian/CHN/ADM2/geoBoundaries-CHN-ADM2.geojson","metadataUrl":"https://www.geoboundaries.org/api/current/gbHumanitarian/CHN/ADM2/","shapeID":"99377448B67535985936141","shapeName":"Shaoguan","boundaryID":"CHN-ADM2-99377448","commit":"9469f09"},"geometryCounts":{"coordinates":271,"components":1,"holes":0},"boundaryNotice":"geoBoundaries / HDX 2020 年行政区数据，海岸和边界经过源数据概化，并非当前测绘成果。"},"geometry":{"type":"Polygon","coordinates":[[[113.97271728500002,25.43951416],[113.92492675800001,25.443908691],[113.90551757800002,25.432678223],[113.88647460900002,25.426086426],[113.87011718700002,25.414672852],[113.85729980500001,25.388122559],[113.84887695300002,25.371276855],[113.83551025400001,25.358886719],[113.82727050800001,25.349304199],[113.81671142600001,25.328918457],[113.77947998000002,25.31829834],[113.75030517600001,25.332519531],[113.72369384800001,25.34387207],[113.70690918000001,25.346313477],[113.67791748000002,25.338928223],[113.65991210900002,25.334899902],[113.65368652300002,25.324279785],[113.61572265600002,25.319702148],[113.58892822300001,25.321289062],[113.56152343700002,25.332885742],[113.54290771500001,25.34588623],[113.52832031200002,25.356079102],[113.49987793000001,25.366699219],[113.46789550800001,25.363098145],[113.45288085900002,25.356079102],[113.42132568400001,25.368530273],[113.39990234400001,25.386291504],[113.37152099600002,25.403076172],[113.34588623000002,25.412719727],[113.33068847700001,25.43371582],[113.31311035200001,25.450317383],[113.30548095700001,25.458496094],[113.29510498000002,25.485717773],[113.28668212900001,25.502075195],[113.26788330100001,25.508911133],[113.25408935500002,25.499328613],[113.25268554700001,25.498474121],[113.19970703100002,25.489685059],[113.17089843700002,25.488525391],[113.14392089800002,25.485473633],[113.12768554700001,25.47668457],[113.11932373000002,25.459899902],[113.12072753900001,25.432678223],[113.11407470700001,25.409484863],[113.08288574200002,25.387695312],[113.06750488300001,25.369873047],[113.03948974600002,25.36328125],[113.01751709000001,25.354675293],[112.98547363300001,25.34552002],[112.96148681600002,25.344116211],[112.9375,25.328491211],[112.91510009800001,25.309875488],[112.87652587900001,25.316101074],[112.84692382800002,25.32208252],[112.83172607400002,25.306091309],[112.83892822300001,25.27532959],[112.85351562500001,25.259887695],[112.87609863300001,25.247680664],[112.90447998000002,25.233703613],[112.95007324200002,25.225524902],[112.98669433600001,25.218505859],[112.99731445300002,25.208496094],[112.99609375000001,25.200317383],[112.98889160200001,25.189697266],[112.98150634800001,25.170898437],[112.97351074200002,25.164672852],[112.95550537100002,25.15612793],[112.95129394500002,25.149902344],[112.95288085900002,25.134521484],[112.96929931600002,25.111694336],[112.97967529300001,25.090881348],[112.98352050800001,25.079101562],[112.97912597700001,25.062927246],[112.96569824200002,25.039672852],[112.97467041000002,24.999084473],[112.98107910200001,24.978088379],[112.98492431600002,24.965515137],[112.99127197300001,24.943725586],[112.97912597700001,24.92767334],[112.972473145,24.924926758],[112.97991943400001,24.882507324],[112.94787597700001,24.849487305],[112.92669677700002,24.815673828],[112.93048095700001,24.785888672],[112.90209960900002,24.764709473],[112.86730957000002,24.739685059],[112.87469482400002,24.704284668],[112.86547851600001,24.669677734],[112.86212158200001,24.628295898],[112.89752197300001,24.610717773],[112.93908691400001,24.567077637],[112.98071289100001,24.531311035],[113.00347900400001,24.49987793],[113.04711914100001,24.488098145],[113.06311035200001,24.517272949],[113.09167480500001,24.551696777],[113.11389160200001,24.527099609],[113.12432861300002,24.501708984],[113.171875,24.515930176],[113.22949218700002,24.520324707],[113.24371337900001,24.495727539],[113.27770996100001,24.49029541],[113.30969238300001,24.50012207],[113.35931396500001,24.496704102],[113.39691162100002,24.479919434],[113.43170166000002,24.475280762],[113.46948242200001,24.49432373],[113.50427246100001,24.54510498],[113.53930664100001,24.546081543],[113.56811523400002,24.515686035],[113.59912109400001,24.49029541],[113.63989257800002,24.482910156],[113.65667724600002,24.443481445],[113.69152832000002,24.433288574],[113.72747802700002,24.446716309],[113.75732421900001,24.444274902],[113.78747558600001,24.405883789],[113.80212402300002,24.370300293],[113.82507324200002,24.342895508],[113.83569335900002,24.316711426],[113.83673095700001,24.286682129],[113.86010742200001,24.245117187],[113.89190673800002,24.230529785],[113.90148925800001,24.191894531],[113.87268066400001,24.17388916],[113.84552002,24.152282715],[113.83190918000001,24.116882324],[113.82269287100002,24.088684082],[113.80047607400002,24.059509277],[113.76428222700001,24.041870117],[113.73309326200001,24.056518555],[113.71612548800002,24.009887695],[113.71630859400001,23.976074219],[113.74530029300001,23.953491211],[113.77111816400001,23.930908203],[113.81268310500002,23.909118652],[113.85650634800001,23.923522949],[113.89489746100001,23.93951416],[113.93371582000002,23.943115234],[113.96911621100001,23.93371582],[114.00830078100002,23.920288086],[114.06011962900001,23.888122559],[114.08129882800002,23.908691406],[114.11450195300002,23.910888672],[114.13867187500001,23.926696777],[114.15228271500001,23.951293945],[114.18389892600001,23.955871582],[114.21191406200002,23.938293457],[114.24188232400002,23.946899414],[114.27172851600001,23.959899902],[114.29248046900001,23.930114746],[114.32629394500002,23.920898437],[114.36010742200001,23.921081543],[114.38610839800002,23.949707031],[114.39508056600002,23.977294922],[114.39971923800002,24.007080078],[114.38507080100001,24.031921387],[114.42071533200001,24.048522949],[114.45147705100001,24.084106445],[114.48828125000001,24.114074707],[114.52709960900002,24.131896973],[114.55548095700001,24.148498535],[114.57910156200002,24.168884277],[114.58630371100001,24.199523926],[114.58209228500002,24.227722168],[114.57507324200002,24.255126953],[114.54949951200001,24.274475098],[114.52392578100002,24.259277344],[114.50952148400002,24.22869873],[114.47467041000002,24.199523926],[114.46368408200001,24.169677734],[114.46087646500001,24.138671875],[114.43969726600001,24.118286133],[114.40191650400001,24.135314941],[114.36090087900001,24.144104004],[114.32910156200002,24.150512695],[114.30310058600001,24.169921875],[114.27947998000002,24.206298828],[114.26232910200001,24.239074707],[114.24627685500002,24.269470215],[114.26129150400001,24.305114746],[114.25592041000002,24.33190918],[114.24627685500002,24.366088867],[114.23669433600001,24.397521973],[114.24291992200001,24.425292969],[114.26672363300001,24.451477051],[114.29327392600001,24.473327637],[114.31311035200001,24.582275391],[114.30090332000002,24.586486816],[114.26947021500001,24.587524414],[114.25427246100001,24.603271484],[114.23632812500001,24.624511719],[114.21490478500002,24.635070801],[114.18408203100002,24.643676758],[114.17889404300001,24.645324707],[114.15930175800001,24.649475098],[114.15667724600002,24.66229248],[114.16308593700002,24.673706055],[114.18548584000001,24.691101074],[114.21270752,24.709289551],[114.24432373000002,24.711914062],[114.27032470700001,24.721923828],[114.30572509800001,24.745117187],[114.32312011700002,24.76171875],[114.33728027300002,24.792724609],[114.36608886700002,24.828674316],[114.38989257800002,24.853271484],[114.39288330100001,24.878479004],[114.38592529300001,24.904907227],[114.37670898400002,24.924926758],[114.38531494100002,24.942871094],[114.39288330100001,24.958679199],[114.43988037100002,24.972473145],[114.45788574200002,24.99987793],[114.47509765600002,25.011901855],[114.49688720700001,25.03729248],[114.52148437500001,25.059082031],[114.546875,25.075317383],[114.562316895,25.085510254],[114.59448242200001,25.075500488],[114.63647460900002,25.081298828],[114.67108154300001,25.104309082],[114.69750976600001,25.119689941],[114.70288085900002,25.133117676],[114.70410156200002,25.135681152],[114.70831298800002,25.144470215],[114.703125,25.160888672],[114.68768310500002,25.172302246],[114.66772460900002,25.193725586],[114.66888427700002,25.219726562],[114.69787597700001,25.248474121],[114.71173095700001,25.272277832],[114.70269775400001,25.294128418],[114.69311523400002,25.304504395],[114.67529296900001,25.327514648],[114.64947509800001,25.331115723],[114.63708496100001,25.319885254],[114.61987304700001,25.333129883],[114.60388183600001,25.358886719],[114.58068847700001,25.37487793],[114.55090332000002,25.399291992],[114.53710937500001,25.403076172],[114.52331543000001,25.406677246],[114.49432373000002,25.403930664],[114.46929931600002,25.399475098],[114.44787597700001,25.384887695],[114.42852783200001,25.372680664],[114.40887451200001,25.354492187],[114.39031982400002,25.335327148],[114.35809326200001,25.325500488],[114.33007812500001,25.319274902],[114.28070068400001,25.325317383],[114.26489257800002,25.300476074],[114.22027587900001,25.305480957],[114.19232177700002,25.301086426],[114.15771484400001,25.307495117],[114.12329101600001,25.313903809],[114.10412597700001,25.307312012],[114.09692382800002,25.298522949],[114.07171630900001,25.290283203],[114.04748535200001,25.276489258],[114.01568603500002,25.277526855],[114.01452636700002,25.289672852],[114.01190185500002,25.31451416],[114.02929687500001,25.327514648],[114.02667236300002,25.369873047],[114.02728271500001,25.384277344],[114.01788330100001,25.404296875],[113.99011230500001,25.430297852],[113.97448730500001,25.438903809],[113.97271728500002,25.43951416]]]}}
