{"type":"Feature","id":"bulk-99377448B2711846253747","bbox":[109.92730712900001,31.304870605,110.95568847700001,31.857727051],"properties":{"id":"bulk-99377448B2711846253747","name":"Shennongjia Forestry District","nameEn":"Shennongjia Forestry District","fullName":"Shennongjia Forestry District","level":"city","boundaryRole":"administrative-extent","boundaryQuality":"generalized-source-2020","boundaryYearRepresented":"2020","bounds":[[109.92730712900001,31.304870605],[110.95568847700001,31.857727051]],"center":[110.441497803,31.581298828],"centerMethod":"bounding-box midpoint; camera framing only","license":"CC-BY-3.0-IGO","attribution":"geoBoundaries / HDX, China administrative boundaries (2020)","source":{"provider":"geoBoundaries gbHumanitarian / HDX","url":"https://github.com/wmgeolab/geoBoundaries/raw/9469f09/releaseData/gbHumanitarian/CHN/ADM2/geoBoundaries-CHN-ADM2.geojson","metadataUrl":"https://www.geoboundaries.org/api/current/gbHumanitarian/CHN/ADM2/","shapeID":"99377448B2711846253747","shapeName":"Shennongjia Forestry District","boundaryID":"CHN-ADM2-99377448","commit":"9469f09"},"geometryCounts":{"coordinates":72,"components":1,"holes":0},"boundaryNotice":"geoBoundaries / HDX 2020 年行政区数据，海岸和边界经过源数据概化，并非当前测绘成果。"},"geometry":{"type":"Polygon","coordinates":[[[110.44470214800002,31.330871582],[110.48590087900001,31.346313477],[110.52447509800001,31.332702637],[110.55627441400001,31.337524414],[110.55847168000001,31.365478516],[110.57788085900002,31.393493652],[110.58752441400001,31.426330566],[110.58111572300001,31.459716797],[110.59869384800001,31.482727051],[110.63909912100002,31.480102539],[110.68151855500001,31.487915039],[110.68908691400001,31.521728516],[110.71832275400001,31.533691406],[110.74468994100002,31.550292969],[110.78851318400001,31.553100586],[110.81970214800002,31.527282715],[110.85968017600001,31.508483887],[110.89971923800002,31.532897949],[110.92248535200001,31.58190918],[110.93511962900001,31.606689453],[110.95568847700001,31.641296387],[110.94012451200001,31.665283203],[110.90710449200002,31.668273926],[110.863098145,31.684875488],[110.85687255900001,31.719116211],[110.84429931600002,31.751098633],[110.81707763700001,31.772277832],[110.77770996100001,31.784484863],[110.75451660200001,31.81427002],[110.78308105500001,31.847900391],[110.72570800800001,31.849914551],[110.68188476600001,31.855529785],[110.64270019500002,31.850891113],[110.60272216800001,31.857727051],[110.56610107400002,31.852905273],[110.53027343700002,31.843078613],[110.47949218700002,31.824890137],[110.42010498000002,31.813903809],[110.39947509800001,31.785705566],[110.37609863300001,31.765686035],[110.33587646500001,31.76550293],[110.29309082000002,31.766479492],[110.25671386700002,31.753723145],[110.22967529300001,31.72869873],[110.21289062500001,31.697509766],[110.22290039100001,31.666320801],[110.20251464800002,31.641296387],[110.18792724600002,31.614929199],[110.22027587900001,31.597900391],[110.18872070300002,31.582702637],[110.14050293000001,31.606323242],[110.09527587900001,31.595703125],[110.03948974600002,31.580078125],[110.05291748000002,31.554504395],[110.04052734400001,31.524475098],[109.99951171900001,31.515075684],[109.92730712900001,31.487487793],[109.92791748000002,31.460876465],[109.98309326200001,31.442321777],[110.00567627,31.41229248],[110.02728271500001,31.400085449],[110.04949951200001,31.412475586],[110.11547851600001,31.310119629],[110.11511230500001,31.304870605],[110.17010498000002,31.31072998],[110.19610595700001,31.330078125],[110.22967529300001,31.355895996],[110.26531982400002,31.379089355],[110.30328369100002,31.397277832],[110.33929443400001,31.399108887],[110.36968994100002,31.389282227],[110.44470214800002,31.330871582]]]}}
