{"type":"Feature","id":"bulk-99377448B17352324028853","bbox":[115.40429687500001,39.417114258,117.46490478500002,41.057128906],"properties":{"id":"bulk-99377448B17352324028853","name":"Beijing Municipality","nameEn":"Beijing Municipality","fullName":"Beijing Municipality","level":"city","boundaryRole":"administrative-extent","boundaryQuality":"generalized-source-2020","boundaryYearRepresented":"2020","bounds":[[115.40429687500001,39.417114258],[117.46490478500002,41.057128906]],"center":[116.43460083000002,40.237121582],"centerMethod":"bounding-box midpoint; camera framing only","license":"CC-BY-3.0-IGO","attribution":"geoBoundaries / HDX, China administrative boundaries (2020)","source":{"provider":"geoBoundaries gbHumanitarian / HDX","url":"https://github.com/wmgeolab/geoBoundaries/raw/9469f09/releaseData/gbHumanitarian/CHN/ADM2/geoBoundaries-CHN-ADM2.geojson","metadataUrl":"https://www.geoboundaries.org/api/current/gbHumanitarian/CHN/ADM2/","shapeID":"99377448B17352324028853","shapeName":"Beijing Municipality","boundaryID":"CHN-ADM2-99377448","commit":"9469f09"},"geometryCounts":{"coordinates":214,"components":1,"holes":0},"boundaryNotice":"geoBoundaries / HDX 2020 年行政区数据，海岸和边界经过源数据概化，并非当前测绘成果。"},"geometry":{"type":"Polygon","coordinates":[[[117.21429443400001,40.084899902],[117.21447753900001,40.086120605],[117.24450683600001,40.114685059],[117.26593017600001,40.127929687],[117.31890869100002,40.119873047],[117.36730957000002,40.135498047],[117.32568359400001,40.169311523],[117.31988525400001,40.173095703],[117.31469726600001,40.180908203],[117.30310058600001,40.198730469],[117.28790283200001,40.230529785],[117.27490234400001,40.24609375],[117.25811767600001,40.259277344],[117.23309326200001,40.289672852],[117.20031738300001,40.340087891],[117.19049072300001,40.349121094],[117.16351318400001,40.373718262],[117.17468261700002,40.390930176],[117.18829345700001,40.439880371],[117.16607666000002,40.503723145],[117.20190429700001,40.528686523],[117.24749755900001,40.542480469],[117.29827880900001,40.545288086],[117.34429931600002,40.53692627],[117.38732910200001,40.533081055],[117.40869140600002,40.557678223],[117.40332031200002,40.578491211],[117.41168212900001,40.598693848],[117.4375,40.608886719],[117.45288085900002,40.609680176],[117.46490478500002,40.632507324],[117.45391845700001,40.646911621],[117.37927246100001,40.648681641],[117.27752685500002,40.658874512],[117.17309570300002,40.673706055],[117.09869384800001,40.67767334],[117.01428222700001,40.672912598],[116.95788574200002,40.669128418],[116.93347168000001,40.674926758],[116.91668701200001,40.696472168],[116.90008544900002,40.717895508],[116.85748291000002,40.761474609],[116.83850097700001,40.788085937],[116.79748535200001,40.815490723],[116.76452636700002,40.825683594],[116.70269775400001,40.853271484],[116.70867919900002,40.86907959],[116.70690918000001,40.890319824],[116.68109130900001,40.914489746],[116.65490722700001,40.95111084],[116.64990234400001,40.983886719],[116.64770507800002,40.998291016],[116.63409423800002,41.039672852],[116.620910645,41.057128906],[116.55712890600002,41.028686523],[116.53649902300002,40.965881348],[116.50311279300001,40.955688477],[116.47607421900001,40.949707031],[116.42712402300002,40.955322266],[116.40490722700001,40.948303223],[116.41650390600002,40.911499023],[116.43548584000001,40.891296387],[116.4375,40.869873047],[116.39550781200002,40.871520996],[116.35913085900002,40.884521484],[116.33850097700001,40.898681641],[116.32391357400002,40.906494141],[116.31170654300001,40.913085937],[116.29711914100001,40.910095215],[116.29949951200001,40.879089355],[116.36492919900002,40.800292969],[116.39392089800002,40.784912109],[116.42987060500002,40.768310547],[116.45428466800001,40.739501953],[116.39447021500001,40.737915039],[116.31549072300001,40.748718262],[116.30072021500001,40.747680664],[116.28509521500001,40.734130859],[116.27508544900002,40.731079102],[116.24890136700002,40.735900879],[116.23492431600002,40.743713379],[116.20812988300001,40.741271973],[116.19067382800002,40.734924316],[116.15869140600002,40.700683594],[116.12908935500002,40.666320801],[116.10308837900001,40.64251709],[116.07708740200002,40.622314453],[116.06030273400002,40.594482422],[116.03729248000002,40.577697754],[116.00512695300002,40.570129395],[115.94970703100002,40.572692871],[115.89770507800002,40.585693359],[115.83789062500001,40.565124512],[115.81109619100002,40.560913086],[115.79608154300001,40.554321289],[115.76531982400002,40.536071777],[115.73352050800001,40.519104004],[115.70812988300001,40.498718262],[115.71130371100001,40.473876953],[115.73632812500001,40.450927734],[115.74688720700001,40.430114746],[115.77447509800001,40.394470215],[115.84588623000002,40.350280762],[115.89587402300002,40.295288086],[115.92749023400002,40.266723633],[115.92388916000002,40.235717773],[115.921691895,40.216491699],[115.85827636700002,40.179870605],[115.85369873000002,40.144714355],[115.84851074200002,40.143920898],[115.79089355500001,40.133728027],[115.73712158200001,40.114501953],[115.67431640600002,40.122070312],[115.60388183600001,40.103271484],[115.56207275400001,40.064086914],[115.54168701200001,40.049072266],[115.52087402300002,40.033874512],[115.44927978500002,40.031921387],[115.40789794900002,40.01550293],[115.40429687500001,39.975097656],[115.42248535200001,39.937316895],[115.43811035200001,39.904907227],[115.47827148400002,39.882324219],[115.47888183600001,39.853881836],[115.54528808600001,39.792297363],[115.54632568400001,39.788085937],[115.54992675800001,39.772705078],[115.47851562500001,39.767272949],[115.41607666000002,39.776489258],[115.41589355500001,39.733093262],[115.46447753900001,39.712890625],[115.44848632800002,39.705505371],[115.43548584000001,39.704284668],[115.45227050800001,39.669921875],[115.48828125000001,39.618286133],[115.50787353500002,39.591125488],[115.53833007800002,39.58392334],[115.56170654300001,39.579528809],[115.60968017600001,39.588500977],[115.63708496100001,39.57409668],[115.66949462900001,39.542907715],[115.72808837900001,39.478881836],[115.77947998000002,39.494689941],[115.80792236300002,39.503295898],[115.82452392600001,39.522277832],[115.84008789100001,39.542907715],[115.89068603500002,39.555908203],[115.92767334000001,39.542114258],[115.95251464800002,39.543884277],[115.99291992200001,39.544128418],[116.01110839800002,39.534484863],[116.06988525400001,39.545471191],[116.13348388700001,39.557128906],[116.171691895,39.578674316],[116.18072509800001,39.576721191],[116.20989990200002,39.527282715],[116.21032714800002,39.504089355],[116.21887207000002,39.492919922],[116.23669433600001,39.476074219],[116.26593017600001,39.455078125],[116.29571533200001,39.441101074],[116.34887695300002,39.422485352],[116.38409423800002,39.417297363],[116.38647460900002,39.417114258],[116.42767334000001,39.429077148],[116.42871093700002,39.43347168],[116.42388916000002,39.463928223],[116.39447021500001,39.482727051],[116.39147949200002,39.490905762],[116.40069580100001,39.49810791],[116.40527343700002,39.50189209],[116.43792724600002,39.526916504],[116.50207519500002,39.546325684],[116.52770996100001,39.570922852],[116.53509521500001,39.590087891],[116.58728027300002,39.605529785],[116.60687255900001,39.583496094],[116.66412353500002,39.57208252],[116.687316895,39.581726074],[116.69250488300001,39.586914062],[116.71173095700001,39.606323242],[116.73187255900001,39.608093262],[116.74108886700002,39.603271484],[116.77008056600002,39.578918457],[116.78747558600001,39.562316895],[116.80328369100002,39.579284668],[116.81048584000001,39.610717773],[116.84167480500001,39.646484375],[116.90130615200002,39.680297852],[116.88787841800001,39.691711426],[116.88208007800002,39.706298828],[116.89990234400001,39.742919922],[116.90991210900002,39.772705078],[116.91271972700001,39.8046875],[116.89312744100002,39.825500488],[116.88592529300001,39.82409668],[116.85650634800001,39.818481445],[116.82110595700001,39.823730469],[116.79388427700002,39.839477539],[116.77368164100001,39.854675293],[116.75347900400001,39.870117187],[116.75091552700002,39.920288086],[116.73730468700002,39.928100586],[116.72412109400001,39.942871094],[116.72509765600002,39.953674316],[116.73449707000002,39.976501465],[116.74310302700002,39.992126465],[116.75109863300001,40.002319336],[116.78149414100001,40.018676758],[116.82550048800002,40.027099609],[116.87591552700002,40.028076172],[116.94787597700001,40.026123047],[116.97229003900001,40.024475098],[117.21429443400001,40.084899902]]]}}
