{"type":"Feature","id":"bulk-99377448B47266062536888","bbox":[108.17230224600002,21.613708496,109.84588623000002,22.707275391],"properties":{"id":"bulk-99377448B47266062536888","name":"Qinzhou","nameEn":"Qinzhou","fullName":"Qinzhou","level":"city","boundaryRole":"administrative-extent","boundaryQuality":"generalized-source-2020","boundaryYearRepresented":"2020","bounds":[[108.17230224600002,21.613708496],[109.84588623000002,22.707275391]],"center":[109.00909423800002,22.1604919435],"centerMethod":"bounding-box midpoint; camera framing only","license":"CC-BY-3.0-IGO","attribution":"geoBoundaries / HDX, China administrative boundaries (2020)","source":{"provider":"geoBoundaries gbHumanitarian / HDX","url":"https://github.com/wmgeolab/geoBoundaries/raw/9469f09/releaseData/gbHumanitarian/CHN/ADM2/geoBoundaries-CHN-ADM2.geojson","metadataUrl":"https://www.geoboundaries.org/api/current/gbHumanitarian/CHN/ADM2/","shapeID":"99377448B47266062536888","shapeName":"Qinzhou","boundaryID":"CHN-ADM2-99377448","commit":"9469f09"},"geometryCounts":{"coordinates":368,"components":4,"holes":0},"boundaryNotice":"geoBoundaries / HDX 2020 年行政区数据，海岸和边界经过源数据概化，并非当前测绘成果。"},"geometry":{"type":"MultiPolygon","coordinates":[[[[108.89251709000001,21.766479492],[108.89788818400001,21.770874023],[108.89471435500002,21.769287109],[108.89251709000001,21.766906738],[108.89251709000001,21.766479492]]],[[[108.82867431600002,21.792114258],[108.82849121100001,21.792480469],[108.82788085900002,21.792297363],[108.82867431600002,21.792114258]]],[[[108.82409668000001,21.797485352],[108.82867431600002,21.797729492],[108.83148193400001,21.80090332],[108.82727050800001,21.809875488],[108.82550048800002,21.811706543],[108.82171630900001,21.807128906],[108.82409668000001,21.797485352]]],[[[109.58911132800002,21.931884766],[109.54968261700002,21.959716797],[109.55908203100002,21.986328125],[109.58227539100001,22.007324219],[109.56652832000002,22.046081543],[109.54327392600001,22.080688477],[109.52111816400001,22.158508301],[109.53509521500001,22.189880371],[109.55010986300002,22.228881836],[109.55328369100002,22.272521973],[109.57250976600001,22.30670166],[109.62591552700002,22.325073242],[109.66448974600002,22.341308594],[109.69390869100002,22.377075195],[109.72888183600001,22.376281738],[109.76171875000001,22.349304199],[109.79132080100001,22.320678711],[109.82128906200002,22.32409668],[109.83349609400001,22.361083984],[109.82208252,22.397277832],[109.82867431600002,22.467712402],[109.84588623000002,22.520507812],[109.84027099600002,22.553527832],[109.81927490200002,22.595092773],[109.77929687500001,22.612487793],[109.75091552700002,22.591918945],[109.71307373000002,22.582092285],[109.68249511700002,22.607727051],[109.66430664100001,22.629699707],[109.65069580100001,22.675476074],[109.59191894500002,22.707275391],[109.56188964800002,22.677124023],[109.53131103500002,22.664672852],[109.49908447300001,22.661682129],[109.46728515600002,22.658325195],[109.43432617200001,22.633911133],[109.39752197300001,22.65612793],[109.32690429700001,22.648071289],[109.29888916000002,22.616699219],[109.29412841800001,22.579711914],[109.296691895,22.540100098],[109.25567627,22.522888184],[109.21130371100001,22.528503418],[109.16009521500001,22.531311035],[109.11608886700002,22.535705566],[109.08532714800002,22.538085937],[109.03332519500002,22.536682129],[108.99969482400002,22.549926758],[108.96752929700001,22.559875488],[108.92510986300002,22.548278809],[108.87792968700002,22.53112793],[108.84191894500002,22.54510498],[108.81372070300002,22.53527832],[108.77929687500001,22.513305664],[108.75427246100001,22.496704102],[108.73168945300002,22.472473145],[108.70288085900002,22.45111084],[108.65710449200002,22.445129395],[108.61889648400002,22.447692871],[108.60052490200002,22.425720215],[108.55932617200001,22.418884277],[108.53790283200001,22.397888184],[108.52569580100001,22.366088867],[108.51910400400001,22.307128906],[108.48651123000002,22.278686523],[108.45367431600002,22.268676758],[108.42388916000002,22.282714844],[108.39428710900002,22.282104492],[108.363098145,22.267883301],[108.32727050800001,22.245300293],[108.29730224600002,22.229675293],[108.25653076200001,22.21472168],[108.21331787100002,22.197509766],[108.18908691400001,22.1796875],[108.17767334000001,22.135681152],[108.17651367200001,22.108276367],[108.18450927700002,22.063476562],[108.19329834000001,22.035888672],[108.17230224600002,21.997070312],[108.21270752,21.954528809],[108.23291015600002,21.9296875],[108.25848388700001,21.908691406],[108.29449462900001,21.905883789],[108.32232666000002,21.915100098],[108.35229492200001,21.922485352],[108.39508056600002,21.929321289],[108.43029785200001,21.921691895],[108.46289062500001,21.888122559],[108.45892334000001,21.900878906],[108.45831298800002,21.907714844],[108.46008300800001,21.917114258],[108.47070312500001,21.933105469],[108.47729492200001,21.93548584],[108.47747802700002,21.931884766],[108.46392822300001,21.907287598],[108.46789550800001,21.890319824],[108.46771240200002,21.885498047],[108.46691894500002,21.883911133],[108.48608398400002,21.863708496],[108.48632812500001,21.865478516],[108.48870849600002,21.868713379],[108.49627685500002,21.868286133],[108.50268554700001,21.865905762],[108.50988769500002,21.87109375],[108.51751709000001,21.886901855],[108.53289794900002,21.89831543],[108.53631591800001,21.904724121],[108.54388427700002,21.91027832],[108.54028320300002,21.900085449],[108.54632568400001,21.901489258],[108.55548095700001,21.881103516],[108.55889892600001,21.881530762],[108.56427002,21.885925293],[108.56408691400001,21.882080078],[108.59051513700001,21.884521484],[108.58227539100001,21.851074219],[108.58709716800001,21.853881836],[108.59332275400001,21.866516113],[108.59490966800001,21.869689941],[108.60131835900002,21.874328613],[108.61651611300002,21.879272461],[108.61431884800001,21.87512207],[108.60668945300002,21.869506836],[108.60150146500001,21.862487793],[108.62072753900001,21.873901367],[108.60607910200001,21.835693359],[108.60430908200001,21.823730469],[108.60351562500001,21.8125],[108.58648681600002,21.790893555],[108.57507324200002,21.781494141],[108.57531738300001,21.770324707],[108.58508300800001,21.758483887],[108.59130859400001,21.743713379],[108.59649658200001,21.728881836],[108.60089111300002,21.72088623],[108.60607910200001,21.719116211],[108.60931396500001,21.719482422],[108.61767578100002,21.726928711],[108.61932373000002,21.730285645],[108.61828613300001,21.734130859],[108.61248779300001,21.736328125],[108.62048339800002,21.742492676],[108.62030029300001,21.748901367],[108.61791992200001,21.772888184],[108.64129638700001,21.772277832],[108.64068603500002,21.801879883],[108.64752197300001,21.799926758],[108.64508056600002,21.81072998],[108.64648437500001,21.81427002],[108.64849853500002,21.814697266],[108.65008544900002,21.811706543],[108.65112304700001,21.79888916],[108.66107177700002,21.795898437],[108.66210937500001,21.796081543],[108.67431640600002,21.813110352],[108.67529296900001,21.81451416],[108.67871093700002,21.817077637],[108.68188476600001,21.816711426],[108.67468261700002,21.804077148],[108.66992187500001,21.79888916],[108.70269775400001,21.81048584],[108.69909668000001,21.794677734],[108.68371582000002,21.783325195],[108.66851806600002,21.770080566],[108.65612793000001,21.754089355],[108.64569091800001,21.742675781],[108.64532470700001,21.738525391],[108.65148925800001,21.739501953],[108.65710449200002,21.738708496],[108.66247558600001,21.736083984],[108.67211914100001,21.737670898],[108.69427490200002,21.736083984],[108.70788574200002,21.733093262],[108.70812988300001,21.734313965],[108.70709228500002,21.736694336],[108.70550537100002,21.74029541],[108.70587158200001,21.743286133],[108.71008300800001,21.742919922],[108.71508789100001,21.751281738],[108.71630859400001,21.749084473],[108.71209716800001,21.733886719],[108.71307373000002,21.731872559],[108.71392822300001,21.731689453],[108.71990966800001,21.736877441],[108.72808837900001,21.739318848],[108.72332763700001,21.734313965],[108.72631835900002,21.730529785],[108.72052002,21.729675293],[108.71868896500001,21.728881836],[108.72467041000002,21.722717285],[108.72790527300002,21.707885742],[108.72430419900002,21.69128418],[108.71588134800001,21.678100586],[108.71612548800002,21.676330566],[108.71929931600002,21.674682617],[108.72528076200001,21.67590332],[108.72552490200002,21.669494629],[108.73291015600002,21.67010498],[108.74353027300002,21.673706055],[108.74871826200001,21.688720703],[108.75207519500002,21.688720703],[108.75207519500002,21.674072266],[108.75067138700001,21.672485352],[108.75872802700002,21.668518066],[108.75531005900001,21.665100098],[108.75231933600001,21.661315918],[108.75488281200002,21.657287598],[108.75408935500002,21.654724121],[108.75250244100002,21.65447998],[108.74847412100002,21.657897949],[108.74829101600001,21.658325195],[108.74829101600001,21.658081055],[108.73468017600001,21.651489258],[108.72448730500001,21.649291992],[108.73071289100001,21.640930176],[108.73211669900002,21.63671875],[108.72851562500001,21.62689209],[108.72912597700001,21.625915527],[108.74353027300002,21.613708496],[108.74371337900001,21.615112305],[108.74871826200001,21.620300293],[108.75732421900001,21.624694824],[108.76928710900002,21.625671387],[108.77368164100001,21.632873535],[108.77990722700001,21.633911133],[108.78607177700002,21.640686035],[108.79528808600001,21.643676758],[108.81170654300001,21.640930176],[108.81909179700001,21.629516602],[108.81970214800002,21.629089355],[108.82348632800002,21.629699707],[108.83807373000002,21.627075195],[108.84027099600002,21.625488281],[108.84429931600002,21.627075195],[108.85107421900001,21.633728027],[108.855285645,21.635498047],[108.84252929700001,21.650512695],[108.83972168000001,21.654724121],[108.83947753900001,21.654724121],[108.83410644500002,21.649719238],[108.82989502,21.648071289],[108.82788085900002,21.649719238],[108.83648681600002,21.659484863],[108.82952880900001,21.670715332],[108.82330322300001,21.689880371],[108.79589843700002,21.704284668],[108.79949951200001,21.714294434],[108.79370117200001,21.715087891],[108.79327392600001,21.716674805],[108.80187988300001,21.721313477],[108.80511474600002,21.730529785],[108.80590820300002,21.729919434],[108.80529785200001,21.730712891],[108.79089355500001,21.727111816],[108.78430175800001,21.726928711],[108.78210449200002,21.72869873],[108.78472900400001,21.731079102],[108.79052734400001,21.730895996],[108.79229736300002,21.732910156],[108.78588867200001,21.735473633],[108.78631591800001,21.738098145],[108.796691895,21.735107422],[108.80230712900001,21.735107422],[108.80670166000002,21.738098145],[108.80328369100002,21.739929199],[108.79730224600002,21.754516602],[108.79870605500001,21.755493164],[108.80688476600001,21.74987793],[108.812316895,21.743286133],[108.81427002,21.722106934],[108.82330322300001,21.713684082],[108.82470703100002,21.713500977],[108.82952880900001,21.708679199],[108.83428955100001,21.709106445],[108.83807373000002,21.711914062],[108.83972168000001,21.716674805],[108.83831787100002,21.72052002],[108.83032226600001,21.727478027],[108.83349609400001,21.730285645],[108.84191894500002,21.731506348],[108.84490966800001,21.734680176],[108.84490966800001,21.734924316],[108.84368896500001,21.739501953],[108.83270263700001,21.766113281],[108.82427978500002,21.791320801],[108.81787109400001,21.791870117],[108.81390380900001,21.784301758],[108.80987548800002,21.784484863],[108.81951904300001,21.799499512],[108.81848144500002,21.805114746],[108.81970214800002,21.80847168],[108.82049560500002,21.811279297],[108.81890869100002,21.812683105],[108.78607177700002,21.815673828],[108.77807617200001,21.818115234],[108.78070068400001,21.820678711],[108.79949951200001,21.820922852],[108.81488037100002,21.818481445],[108.82568359400001,21.815307617],[108.83447265600002,21.809875488],[108.84613037100002,21.807312012],[108.85607910200001,21.817321777],[108.85968017600001,21.817687988],[108.85809326200001,21.812316895],[108.85070800800001,21.803710937],[108.84851074200002,21.796081543],[108.85052490200002,21.787109375],[108.85449218700002,21.783508301],[108.85632324200002,21.795471191],[108.86010742200001,21.79107666],[108.86547851600001,21.79510498],[108.87109375000001,21.809326172],[108.87207031200002,21.804077148],[108.86853027300002,21.794311523],[108.86212158200001,21.784118652],[108.86492919900002,21.776123047],[108.863098145,21.763916016],[108.86291503900001,21.762878418],[108.86968994100002,21.754699707],[108.88470459000001,21.762512207],[108.89093017600001,21.772888184],[108.89709472700001,21.774108887],[108.90411377,21.777526855],[108.90789794900002,21.783874512],[108.90850830100001,21.778320312],[108.90527343700002,21.773925781],[108.91131591800001,21.762878418],[108.93792724600002,21.797912598],[108.95690918000001,21.820678711],[108.99987793000001,21.832885742],[109.02807617200001,21.849121094],[109.038879395,21.884094238],[109.06469726600001,21.904907227],[109.09069824200002,21.881286621],[109.10687255900001,21.852478027],[109.14392089800002,21.844909668],[109.18548584000001,21.844482422],[109.21472168000001,21.860290527],[109.24108886700002,21.889709473],[109.25653076200001,21.922485352],[109.24389648400002,21.960876465],[109.25708007800002,21.999511719],[109.28710937500001,21.936889648],[109.32507324200002,21.896728516],[109.36389160200001,21.894470215],[109.41448974600002,21.917480469],[109.44189453100002,21.909118652],[109.46551513700001,21.886901855],[109.49530029300001,21.877502441],[109.50848388700001,21.903320312],[109.53192138700001,21.921081543],[109.58911132800002,21.931884766]]]]}}
