{"type":"Feature","id":"bulk-99377448B8121587663696","bbox":[107.76287841800001,27.147277832,109.44451904300001,29.087280273],"properties":{"id":"bulk-99377448B8121587663696","name":"Tongren","nameEn":"Tongren","fullName":"Tongren","level":"city","boundaryRole":"administrative-extent","boundaryQuality":"generalized-source-2020","boundaryYearRepresented":"2020","bounds":[[107.76287841800001,27.147277832],[109.44451904300001,29.087280273]],"center":[108.60369873050001,28.117279052500002],"centerMethod":"bounding-box midpoint; camera framing only","license":"CC-BY-3.0-IGO","attribution":"geoBoundaries / HDX, China administrative boundaries (2020)","source":{"provider":"geoBoundaries gbHumanitarian / HDX","url":"https://github.com/wmgeolab/geoBoundaries/raw/9469f09/releaseData/gbHumanitarian/CHN/ADM2/geoBoundaries-CHN-ADM2.geojson","metadataUrl":"https://www.geoboundaries.org/api/current/gbHumanitarian/CHN/ADM2/","shapeID":"99377448B8121587663696","shapeName":"Tongren","boundaryID":"CHN-ADM2-99377448","commit":"9469f09"},"geometryCounts":{"coordinates":210,"components":1,"holes":0},"boundaryNotice":"geoBoundaries / HDX 2020 年行政区数据，海岸和边界经过源数据概化，并非当前测绘成果。"},"geometry":{"type":"Polygon","coordinates":[[[109.39709472700001,27.717102051],[109.35412597700001,27.744873047],[109.31347656200002,27.790710449],[109.30389404300001,27.844482422],[109.28588867200001,27.946716309],[109.32031250000001,28.016906738],[109.32708740200002,28.042907715],[109.32373046900001,28.056274414],[109.28448486300002,28.067321777],[109.28729248000002,28.084472656],[109.31488037100002,28.141113281],[109.32928466800001,28.17590332],[109.35229492200001,28.231689453],[109.34710693400001,28.289672852],[109.26910400400001,28.253479004],[109.27752685500002,28.328674316],[109.25592041000002,28.383483887],[109.24908447300001,28.487487793],[109.19549560500002,28.469726562],[109.14611816400001,28.419921875],[109.13348388700001,28.381286621],[109.12731933600001,28.332092285],[109.11688232400002,28.289123535],[109.08770752,28.260925293],[109.09027099600002,28.236877441],[109.09228515600002,28.198486328],[109.05548095700001,28.192504883],[109.03448486300002,28.209289551],[109.01190185500002,28.213317871],[108.99890136700002,28.196105957],[108.96569824200002,28.169677734],[108.93292236300002,28.20489502],[108.91412353500002,28.220703125],[108.86407470700001,28.206298828],[108.83709716800001,28.225524902],[108.81170654300001,28.253723145],[108.77050781200002,28.213684082],[108.73547363300001,28.220092773],[108.74792480500001,28.335510254],[108.73907470700001,28.436279297],[108.71667480500001,28.469726562],[108.70648193400001,28.474914551],[108.68127441400001,28.487670898],[108.62731933600001,28.465270996],[108.63171386700002,28.454711914],[108.64630127,28.448730469],[108.64910888700001,28.419311523],[108.63970947300001,28.384277344],[108.62127685500002,28.344726562],[108.562316895,28.358886719],[108.56512451200001,28.364929199],[108.57708740200002,28.417907715],[108.57672119100002,28.467895508],[108.56091308600001,28.518493652],[108.58447265600002,28.558105469],[108.60729980500001,28.631896973],[108.54431152300002,28.668884277],[108.48413085900002,28.644470215],[108.47308349600002,28.602294922],[108.43511962900001,28.626525879],[108.40167236300002,28.641906738],[108.33728027300002,28.656494141],[108.28747558600001,28.729492187],[108.35247802700002,28.769287109],[108.34552002,28.795898437],[108.31750488300001,28.829101562],[108.33367919900002,28.910705566],[108.30609130900001,28.967895508],[108.28991699200002,28.989929199],[108.28228759800001,29.000488281],[108.26593017600001,29.087280273],[108.24652099600002,29.078918457],[108.23571777300002,29.060913086],[108.22589111300002,29.046325684],[108.16351318400001,29.080688477],[108.11712646500001,29.071472168],[108.07849121100001,29.080322266],[108.05371093700002,29.077514648],[108.054504395,29.039916992],[108.06268310500002,29.008483887],[108.08551025400001,28.982299805],[108.11108398400002,28.955078125],[108.128723145,28.926086426],[108.11669921900001,28.891723633],[108.11029052700002,28.854675293],[108.14093017600001,28.826477051],[108.16271972700001,28.80267334],[108.17907714800002,28.772277832],[108.18408203100002,28.733520508],[108.18127441400001,28.702880859],[108.16052246100001,28.657897949],[108.13067627,28.626708984],[108.09088134800001,28.612487793],[108.07049560500002,28.591308594],[108.03210449200002,28.571899414],[108.01611328100002,28.54510498],[108.03607177700002,28.511291504],[108.04730224600002,28.479125977],[108.04949951200001,28.442077637],[108.04772949200002,28.410705566],[108.02868652300002,28.372924805],[107.99810791000002,28.355529785],[107.95910644500002,28.353271484],[107.92248535200001,28.352478027],[107.88232421900001,28.332702637],[107.85632324200002,28.303100586],[107.84790039100001,28.272888184],[107.84729003900001,28.240478516],[107.84448242200001,28.210510254],[107.77728271500001,28.191894531],[107.77508544900002,28.139526367],[107.77770996100001,28.106079102],[107.78167724600002,28.067687988],[107.81109619100002,28.039306641],[107.84088134800001,28.01751709],[107.87127685500002,28.001525879],[107.90509033200001,27.987487793],[107.90087890600002,27.957702637],[107.91491699200002,27.930114746],[107.92327880900001,27.903503418],[107.90710449200002,27.879699707],[107.88232421900001,27.854309082],[107.90008544900002,27.813293457],[107.92132568400001,27.783081055],[107.92669677700002,27.755126953],[107.92272949200002,27.727722168],[107.91748046900001,27.697509766],[107.90631103500002,27.652709961],[107.91992187500001,27.602111816],[107.87487793000001,27.559326172],[107.84350585900002,27.555908203],[107.81628418000001,27.539306641],[107.80908203100002,27.510681152],[107.80810546900001,27.478088379],[107.81030273400002,27.440673828],[107.78387451200001,27.419128418],[107.76287841800001,27.390930176],[107.78747558600001,27.363708496],[107.81689453100002,27.355285645],[107.85687255900001,27.346679687],[107.89031982400002,27.348876953],[107.92907714800002,27.341674805],[107.96527099600002,27.328491211],[108.02008056600002,27.320922852],[108.04968261700002,27.328308105],[108.08087158200001,27.333312988],[108.11828613300001,27.326477051],[108.15710449200002,27.298522949],[108.18408203100002,27.341125488],[108.19989013700001,27.36907959],[108.23107910200001,27.383483887],[108.26727294900002,27.36932373],[108.31072998000002,27.364318848],[108.34631347700001,27.376281738],[108.378723145,27.402893066],[108.42089843700002,27.405883789],[108.45709228500002,27.400878906],[108.48571777300002,27.411499023],[108.50531005900001,27.443725586],[108.52508544900002,27.466674805],[108.55047607400002,27.493896484],[108.58111572300001,27.492919922],[108.59228515600002,27.519714355],[108.62310791000002,27.528320312],[108.65490722700001,27.522521973],[108.68627929700001,27.525695801],[108.71868896500001,27.500488281],[108.76129150400001,27.479309082],[108.79309082000002,27.483703613],[108.83551025400001,27.504089355],[108.90728759800001,27.502685547],[108.93988037100002,27.502319336],[108.93707275400001,27.468688965],[108.96771240200002,27.450500488],[109.00170898400002,27.448303223],[109.00671386700002,27.390686035],[108.96551513700001,27.365905762],[108.93188476600001,27.369506836],[108.89849853500002,27.365112305],[108.86987304700001,27.355285645],[108.82989502,27.364074707],[108.82751464800002,27.329711914],[108.83728027300002,27.301086426],[108.82708740200002,27.272705078],[108.79132080100001,27.248474121],[108.76867675800001,27.217712402],[108.77569580100001,27.186523437],[108.80987548800002,27.168273926],[108.83929443400001,27.151916504],[108.86187744100002,27.147277832],[108.870910645,27.161071777],[108.90191650400001,27.183288574],[108.94812011700002,27.243103027],[108.98767089800002,27.286682129],[109.04528808600001,27.299316406],[109.09027099600002,27.334899902],[109.11248779300001,27.391723633],[109.15008544900002,27.419311523],[109.18072509800001,27.441894531],[109.23687744100002,27.430297852],[109.25091552700002,27.444885254],[109.28369140600002,27.479125977],[109.34411621100001,27.519104004],[109.37207031200002,27.537719727],[109.42852783200001,27.57409668],[109.429504395,27.57611084],[109.44030761700002,27.598510742],[109.44451904300001,27.654907227],[109.40570068400001,27.711486816],[109.39709472700001,27.717102051]]]}}
