{"type":"Feature","id":"bulk-99377448B29724732889296","bbox":[102.75671386700002,35.532104492,104.59509277300002,37.01550293],"properties":{"id":"bulk-99377448B29724732889296","name":"Lanzhou","nameEn":"Lanzhou","fullName":"Lanzhou","level":"city","boundaryRole":"administrative-extent","boundaryQuality":"generalized-source-2020","boundaryYearRepresented":"2020","bounds":[[102.75671386700002,35.532104492],[104.59509277300002,37.01550293]],"center":[103.67590332000002,36.273803711],"centerMethod":"bounding-box midpoint; camera framing only","license":"CC-BY-3.0-IGO","attribution":"geoBoundaries / HDX, China administrative boundaries (2020)","source":{"provider":"geoBoundaries gbHumanitarian / HDX","url":"https://github.com/wmgeolab/geoBoundaries/raw/9469f09/releaseData/gbHumanitarian/CHN/ADM2/geoBoundaries-CHN-ADM2.geojson","metadataUrl":"https://www.geoboundaries.org/api/current/gbHumanitarian/CHN/ADM2/","shapeID":"99377448B29724732889296","shapeName":"Lanzhou","boundaryID":"CHN-ADM2-99377448","commit":"9469f09"},"geometryCounts":{"coordinates":193,"components":1,"holes":0},"boundaryNotice":"geoBoundaries / HDX 2020 年行政区数据，海岸和边界经过源数据概化，并非当前测绘成果。"},"geometry":{"type":"Polygon","coordinates":[[[103.60791015600002,36.852478027],[103.57189941400001,36.855102539],[103.52972412100002,36.867675781],[103.48010253900001,36.864685059],[103.45172119100002,36.848876953],[103.413879395,36.82232666],[103.38848877,36.857910156],[103.38128662100002,36.892883301],[103.35791015600002,36.918518066],[103.32312011700002,36.930908203],[103.26928710900002,36.942687988],[103.22552490200002,36.991088867],[103.21008300800001,37.01550293],[103.17028808600001,37.009887695],[103.17608642600001,36.983276367],[103.19812011700002,36.951477051],[103.21130371100001,36.924682617],[103.171691895,36.918273926],[103.14447021500001,36.935913086],[103.08508300800001,36.945678711],[103.03607177700002,36.930480957],[102.99029541000002,36.909484863],[102.96307373000002,36.882080078],[102.96087646500001,36.852905273],[102.96807861300002,36.821289062],[102.93572998000002,36.80847168],[102.90270996100001,36.830078125],[102.86871337900001,36.838317871],[102.85772705100001,36.806274414],[102.84411621100001,36.777893066],[102.82269287100002,36.751708984],[102.82269287100002,36.716918945],[102.84930419900002,36.685119629],[102.86889648400002,36.658081055],[102.87652587900001,36.621276855],[102.82867431600002,36.629516602],[102.79211425800001,36.678283691],[102.76287841800001,36.657714844],[102.76647949200002,36.622497559],[102.78387451200001,36.593688965],[102.80389404300001,36.570129395],[102.811523437,36.542724609],[102.812316895,36.513916016],[102.78631591800001,36.481689453],[102.75671386700002,36.444885254],[102.79809570300002,36.403686523],[102.83331298800002,36.365722656],[102.85211181600002,36.332885742],[102.86791992200001,36.333679199],[102.88391113300001,36.331481934],[102.90032959000001,36.323303223],[102.93609619100002,36.278930664],[102.95349121100001,36.261474609],[103.00329589800002,36.233520508],[103.02990722700001,36.227722168],[103.07110595700001,36.224914551],[103.12670898400002,36.218688965],[103.17852783200001,36.169128418],[103.24188232400002,36.163085937],[103.26208496100001,36.158081055],[103.28771972700001,36.134887695],[103.33190918000001,36.12487793],[103.37609863300001,36.114929199],[103.39227294900002,36.10949707],[103.40228271500001,36.085510254],[103.41168212900001,36.077087402],[103.41748046900001,36.076721191],[103.42291259800001,36.075073242],[103.429504395,36.075073242],[103.43328857400002,36.076904297],[103.44250488300001,36.081115723],[103.44708252,36.084716797],[103.44952392600001,36.088317871],[103.45452880900001,36.098693848],[103.45709228500002,36.107910156],[103.46411132800002,36.113708496],[103.47210693400001,36.114685059],[103.48327636700002,36.114929199],[103.50689697300001,36.106079102],[103.51110839800002,36.102478027],[103.51507568400001,36.100280762],[103.52752685500002,36.095275879],[103.54089355500001,36.089477539],[103.55407714800002,36.08392334],[103.56671142600001,36.078491211],[103.58569335900002,36.075073242],[103.59710693400001,36.069519043],[103.60168457000002,36.06652832],[103.60589599600002,36.051086426],[103.60412597700001,36.045288086],[103.60748291000002,36.035522461],[103.61547851600001,36.032714844],[103.62408447300001,36.023925781],[103.62628173800002,36.017272949],[103.62432861300002,36.012329102],[103.61669921900001,36.006286621],[103.61132812500001,36.005310059],[103.60949707000002,36.005310059],[103.61029052700002,36.002319336],[103.61267089800002,35.99810791],[103.61749267600001,35.989929199],[103.61529541000002,35.980285645],[103.61132812500001,35.97088623],[103.60870361300002,35.969299316],[103.60809326200001,35.966918945],[103.60827636700002,35.961486816],[103.61169433600001,35.953918457],[103.61767578100002,35.94152832],[103.61328125000001,35.928283691],[103.61029052700002,35.919921875],[103.604492187,35.914306641],[103.59036888000001,35.909578923],[103.61047363300001,35.907104492],[103.64947509800001,35.921691895],[103.69390869100002,35.923706055],[103.71667480500001,35.901672363],[103.74548339800002,35.885498047],[103.78350830100001,35.867126465],[103.79931640600002,35.83392334],[103.83172607400002,35.814086914],[103.85351562500001,35.786499023],[103.91772460900002,35.753112793],[103.95507812500001,35.732910156],[103.99627685500002,35.71307373],[104.03350830100001,35.707519531],[104.07769775400001,35.680908203],[104.10308837900001,35.644714355],[104.120910645,35.59967041],[104.12548828100002,35.573120117],[104.15612793000001,35.54888916],[104.19348144500002,35.557128906],[104.20892334000001,35.532104492],[104.25091552700002,35.536682129],[104.24230957000002,35.574523926],[104.25531005900001,35.610900879],[104.27148437500001,35.635070801],[104.30249023400002,35.669494629],[104.33288574200002,35.706298828],[104.36407470700001,35.730285645],[104.39251709000001,35.762329102],[104.40692138700001,35.78729248],[104.41888427700002,35.818725586],[104.43609619100002,35.852905273],[104.44189453100002,35.88470459],[104.44628906200002,35.92590332],[104.45727539100001,35.955505371],[104.49548339800002,36.021911621],[104.49987793000001,36.069274902],[104.53112793000001,36.110107422],[104.56768798800002,36.13092041],[104.59509277300002,36.147277832],[104.58850097700001,36.183105469],[104.55511474600002,36.202087402],[104.54071044900002,36.231689453],[104.53210449200002,36.25769043],[104.51947021500001,36.300109863],[104.51507568400001,36.343078613],[104.50292968700002,36.372680664],[104.46807861300002,36.399108887],[104.42492675800001,36.424072266],[104.41729736300002,36.395507812],[104.40447998000002,36.384277344],[104.36688232400002,36.387878418],[104.31347656200002,36.332702637],[104.26110839800002,36.354125977],[104.24047851600001,36.358520508],[104.19812011700002,36.33807373],[104.18151855500001,36.289916992],[104.13208007800002,36.27947998],[104.105285645,36.297119141],[104.08032226600001,36.335083008],[104.06689453100002,36.365112305],[104.06951904300001,36.403686523],[104.06372070300002,36.441101074],[104.04931640600002,36.480712891],[104.03271484400001,36.51751709],[104.01629638700001,36.552490234],[103.995910645,36.579101562],[103.97192382800002,36.615722656],[103.954101562,36.655517578],[103.94427490200002,36.687072754],[103.95709228500002,36.713317871],[103.97528076200001,36.749084473],[103.94451904300001,36.76348877],[103.90270996100001,36.784484863],[103.85748291000002,36.803894043],[103.81390380900001,36.811523437],[103.77288818400001,36.806884766],[103.73571777300002,36.79510498],[103.70349121100001,36.775085449],[103.66369628900001,36.799499512],[103.63848877,36.823303223],[103.60791015600002,36.852478027]]]}}
