{"type":"Feature","id":"bulk-99377448B39234212180930","bbox":[110.27630615200002,22.615112305,111.66430664100001,24.421081543],"properties":{"id":"bulk-99377448B39234212180930","name":"Wuzhou","nameEn":"Wuzhou","fullName":"Wuzhou","level":"city","boundaryRole":"administrative-extent","boundaryQuality":"generalized-source-2020","boundaryYearRepresented":"2020","bounds":[[110.27630615200002,22.615112305],[111.66430664100001,24.421081543]],"center":[110.9703063965,23.518096923999998],"centerMethod":"bounding-box midpoint; camera framing only","license":"CC-BY-3.0-IGO","attribution":"geoBoundaries / HDX, China administrative boundaries (2020)","source":{"provider":"geoBoundaries gbHumanitarian / HDX","url":"https://github.com/wmgeolab/geoBoundaries/raw/9469f09/releaseData/gbHumanitarian/CHN/ADM2/geoBoundaries-CHN-ADM2.geojson","metadataUrl":"https://www.geoboundaries.org/api/current/gbHumanitarian/CHN/ADM2/","shapeID":"99377448B39234212180930","shapeName":"Wuzhou","boundaryID":"CHN-ADM2-99377448","commit":"9469f09"},"geometryCounts":{"coordinates":227,"components":1,"holes":0},"boundaryNotice":"geoBoundaries / HDX 2020 年行政区数据，海岸和边界经过源数据概化，并非当前测绘成果。"},"geometry":{"type":"Polygon","coordinates":[[[111.08007812500001,22.723510742],[111.08831787100002,22.749328613],[111.10748291000002,22.750305176],[111.11529541000002,22.751098633],[111.14727783200001,22.752929687],[111.16851806600002,22.755493164],[111.21087646500001,22.776306152],[111.22351074200002,22.788879395],[111.23608398400002,22.796081543],[111.25170898400002,22.80871582],[111.26330566400001,22.838684082],[111.27587890600002,22.850280762],[111.29052734400001,22.872070312],[111.30212402300002,22.883911133],[111.32550048800002,22.909118652],[111.35852050800001,22.929870605],[111.35852050800001,22.946105957],[111.34710693400001,22.970703125],[111.35028076200001,22.977722168],[111.35589599600002,22.989685059],[111.36511230500001,23.000671387],[111.37048339800002,23.006896973],[111.39172363300001,23.022277832],[111.40631103500002,23.030273437],[111.41229248000002,23.051086426],[111.40747070300002,23.065673828],[111.40472412100002,23.073730469],[111.39892578100002,23.082885742],[111.38928222700001,23.096496582],[111.38348388700001,23.116516113],[111.37487793000001,23.139282227],[111.37011718700002,23.166503906],[111.36730957000002,23.198120117],[111.37127685500002,23.224487305],[111.35510253900001,23.281494141],[111.35327148400002,23.293518066],[111.34948730500001,23.317687988],[111.34472656200002,23.335876465],[111.36608886700002,23.372070312],[111.37890625000001,23.403686523],[111.37829589800002,23.41607666],[111.37628173800002,23.456298828],[111.38409423800002,23.46887207],[111.38708496100001,23.478881836],[111.40167236300002,23.497680664],[111.41467285200001,23.516296387],[111.42230224600002,23.527526855],[111.43609619100002,23.542907715],[111.46728515600002,23.569885254],[111.47631835900002,23.581481934],[111.47631835900002,23.593322754],[111.48828125000001,23.640319824],[111.52630615200002,23.643676758],[111.570129395,23.633483887],[111.59851074200002,23.643127441],[111.61328125000001,23.659301758],[111.61431884800001,23.676513672],[111.62231445300002,23.704528809],[111.63891601600001,23.710693359],[111.66430664100001,23.711486816],[111.66052246100001,23.716918945],[111.65570068400001,23.731506348],[111.64208984400001,23.749511719],[111.61492919900002,23.766906738],[111.605285645,23.789672852],[111.60949707000002,23.814086914],[111.62530517600001,23.836486816],[111.63989257800002,23.852905273],[111.63409423800002,23.866699219],[111.628723145,23.897888184],[111.63049316400001,23.930908203],[111.62408447300001,23.970275879],[111.58630371100001,23.996520996],[111.55828857400002,24.007324219],[111.53387451200001,24.028503418],[111.53851318400001,24.064086914],[111.55267334000001,24.089477539],[111.56567382800002,24.119873047],[111.56707763700001,24.155517578],[111.53472900400001,24.190307617],[111.49768066400001,24.212280273],[111.46148681600002,24.202270508],[111.45727539100001,24.162902832],[111.45788574200002,24.129089355],[111.42608642600001,24.129272461],[111.39349365200002,24.105712891],[111.37371826200001,24.070922852],[111.36547851600001,24.031921387],[111.37988281200002,23.992675781],[111.38208007800002,23.943725586],[111.36968994100002,23.913085937],[111.32672119100002,23.898681641],[111.29467773400002,23.891479492],[111.25787353500002,23.896728516],[111.22607421900001,23.915527344],[111.19989013700001,23.940124512],[111.17767334000001,23.974914551],[111.13867187500001,23.95892334],[111.11407470700001,23.936523437],[111.09167480500001,23.902526855],[111.07208252,23.879699707],[111.04632568400001,23.85369873],[111.00549316400001,23.843078613],[110.99792480500001,23.809509277],[110.98107910200001,23.77947998],[110.97369384800001,23.743713379],[110.94909668000001,23.724487305],[110.94067382800002,23.682312012],[110.91168212900001,23.673278809],[110.87927246100001,23.698913574],[110.86767578100002,23.725524902],[110.87908935500002,23.758117676],[110.86071777300002,23.793273926],[110.85589599600002,23.831298828],[110.82568359400001,23.852294922],[110.85589599600002,23.873291016],[110.84808349600002,23.907714844],[110.81610107400002,23.922302246],[110.78491210900002,23.953674316],[110.75012207000002,23.971496582],[110.72290039100001,23.958496094],[110.68707275400001,23.967285156],[110.67327880900001,24.004699707],[110.68768310500002,24.030883789],[110.71069335900002,24.059692383],[110.67791748000002,24.066101074],[110.66430664100001,24.090515137],[110.671875,24.120300293],[110.69689941400001,24.18347168],[110.69549560500002,24.212890625],[110.66967773400002,24.234680176],[110.63568115200002,24.247924805],[110.59869384800001,24.269104004],[110.57470703100002,24.300109863],[110.57928466800001,24.346679687],[110.57031250000001,24.421081543],[110.50769043000001,24.409484863],[110.49072265600002,24.384887695],[110.453125,24.371520996],[110.41809082000002,24.386901855],[110.40167236300002,24.364074707],[110.36187744100002,24.34588623],[110.33172607400002,24.352294922],[110.27630615200002,24.351501465],[110.32452392600001,24.313293457],[110.36169433600001,24.292114258],[110.38592529300001,24.25769043],[110.40490722700001,24.234313965],[110.40087890600002,24.206726074],[110.40527343700002,24.179077148],[110.42547607400002,24.146911621],[110.38769531200002,24.148681641],[110.34832763700001,24.157287598],[110.31628418000001,24.11907959],[110.31127929700001,24.086120605],[110.34490966800001,24.074890137],[110.37811279300001,24.054077148],[110.37768554700001,24.010681152],[110.37548828100002,23.974487305],[110.35491943400001,23.944702148],[110.35791015600002,23.916687012],[110.38989257800002,23.897277832],[110.42871093700002,23.883728027],[110.45971679700001,23.866516113],[110.47088623000002,23.83807373],[110.50628662100002,23.833129883],[110.53027343700002,23.851928711],[110.55468750000001,23.824707031],[110.54187011700002,23.789123535],[110.54010009800001,23.758728027],[110.55090332000002,23.715515137],[110.56347656200002,23.686706543],[110.58612060500002,23.634887695],[110.605285645,23.585693359],[110.61212158200001,23.557128906],[110.61871337900001,23.511474609],[110.60632324200002,23.483276367],[110.58007812500001,23.455322266],[110.57647705100001,23.424072266],[110.56091308600001,23.394287109],[110.55169677700002,23.368530273],[110.56512451200001,23.340087891],[110.60412597700001,23.337280273],[110.63391113300001,23.320922852],[110.63250732400002,23.28729248],[110.60290527300002,23.245300293],[110.57891845700001,23.225097656],[110.54132080100001,23.219482422],[110.53009033200001,23.186889648],[110.52947998000002,23.158691406],[110.54608154300001,23.130310059],[110.55950927700002,23.097290039],[110.59588623000002,23.118286133],[110.62750244100002,23.12310791],[110.65350341800001,23.100280762],[110.679504395,23.06829834],[110.71490478500002,23.077270508],[110.73327636700002,23.024475098],[110.73571777300002,22.994873047],[110.72167968700002,22.951721191],[110.71368408200001,22.924682617],[110.72088623000002,22.894897461],[110.73291015600002,22.860900879],[110.76470947300001,22.867675781],[110.78009033200001,22.840087891],[110.75909423800002,22.813110352],[110.75231933600001,22.781311035],[110.75811767600001,22.750488281],[110.78649902300002,22.712524414],[110.81530761700002,22.715881348],[110.84167480500001,22.694274902],[110.85687255900001,22.668273926],[110.86767578100002,22.642883301],[110.87811279300001,22.615112305],[110.89611816400001,22.629699707],[110.90667724600002,22.641479492],[110.92712402300002,22.643310547],[110.95507812500001,22.646118164],[110.99267578100002,22.656921387],[111.01287841800001,22.661499023],[111.03808593700002,22.671325684],[111.04870605500001,22.672302246],[111.07751464800002,22.67590332],[111.08728027300002,22.686706543],[111.09210205100001,22.701293945],[111.08728027300002,22.715698242],[111.08007812500001,22.723510742]]]}}
