{"type":"Feature","id":"bulk-99377448B1914582827010","bbox":[110.74047851600001,27.194274902,112.47009277300002,28.198486328],"properties":{"id":"bulk-99377448B1914582827010","name":"Loudi","nameEn":"Loudi","fullName":"Loudi","level":"city","boundaryRole":"administrative-extent","boundaryQuality":"generalized-source-2020","boundaryYearRepresented":"2020","bounds":[[110.74047851600001,27.194274902],[112.47009277300002,28.198486328]],"center":[111.60528564450001,27.696380615000002],"centerMethod":"bounding-box midpoint; camera framing only","license":"CC-BY-3.0-IGO","attribution":"geoBoundaries / HDX, China administrative boundaries (2020)","source":{"provider":"geoBoundaries gbHumanitarian / HDX","url":"https://github.com/wmgeolab/geoBoundaries/raw/9469f09/releaseData/gbHumanitarian/CHN/ADM2/geoBoundaries-CHN-ADM2.geojson","metadataUrl":"https://www.geoboundaries.org/api/current/gbHumanitarian/CHN/ADM2/","shapeID":"99377448B1914582827010","shapeName":"Loudi","boundaryID":"CHN-ADM2-99377448","commit":"9469f09"},"geometryCounts":{"coordinates":131,"components":1,"holes":0},"boundaryNotice":"geoBoundaries / HDX 2020 年行政区数据，海岸和边界经过源数据概化，并非当前测绘成果。"},"geometry":{"type":"Polygon","coordinates":[[[111.87432861300002,28.013122559],[111.83288574200002,28.014526367],[111.79351806600002,28.016296387],[111.74291992200001,28.015075684],[111.71191406200002,27.993530273],[111.68170166000002,27.976074219],[111.64990234400001,28.019714355],[111.61810302700002,28.009887695],[111.57769775400001,27.995117187],[111.55651855500001,27.960510254],[111.53588867200001,27.993103027],[111.53570556600002,28.020874023],[111.51007080100001,28.042907715],[111.46929931600002,28.036071777],[111.45849609400001,28.074523926],[111.47369384800001,28.113098145],[111.46948242200001,28.148925781],[111.46490478500002,28.178100586],[111.41967773400002,28.18951416],[111.38092041000002,28.177307129],[111.32592773400002,28.188720703],[111.29211425800001,28.198486328],[111.25531005900001,28.178527832],[111.21948242200001,28.150695801],[111.18927002,28.139282227],[111.14068603500002,28.12512207],[111.11328125000001,28.091674805],[111.09991455100001,28.047729492],[111.09851074200002,28.018676758],[111.09667968700002,27.990112305],[111.05230712900001,27.989318848],[111.00750732400002,28.001281738],[110.98730468700002,28.024108887],[110.96667480500001,28.046325684],[110.93609619100002,28.030273437],[110.94891357400002,27.975524902],[110.95611572300001,27.94152832],[110.94012451200001,27.913330078],[110.91851806600002,27.877502441],[110.89550781200002,27.844482422],[110.85107421900001,27.834472656],[110.78430175800001,27.835693359],[110.74932861300002,27.81652832],[110.74047851600001,27.782897949],[110.77709960900002,27.750915527],[110.80969238300001,27.714477539],[110.82989502,27.685913086],[110.84649658200001,27.656494141],[110.89868164100001,27.643676758],[110.93591308600001,27.650695801],[110.97528076200001,27.636291504],[111.02008056600002,27.627685547],[111.04968261700002,27.614685059],[111.07189941400001,27.584106445],[111.120910645,27.573486328],[111.20727539100001,27.514099121],[111.25207519500002,27.532470703],[111.28430175800001,27.574890137],[111.30468750000001,27.540100098],[111.32891845700001,27.513305664],[111.37512207000002,27.530517578],[111.38867187500001,27.556091309],[111.42431640600002,27.575927734],[111.45690918000001,27.5703125],[111.48791503900001,27.571289062],[111.53552246100001,27.61328125],[111.57489013700001,27.56652832],[111.63848877,27.597717285],[111.67108154300001,27.539489746],[111.70031738300001,27.510681152],[111.73791503900001,27.503112793],[111.73791503900001,27.469116211],[111.76330566400001,27.452514648],[111.79431152300002,27.458312988],[111.82672119100002,27.427307129],[111.86291503900001,27.392700195],[111.90008544900002,27.361328125],[111.929504395,27.345092773],[111.96411132800002,27.31652832],[111.98791503900001,27.296325684],[112.01007080100001,27.270690918],[112.01312255900001,27.238708496],[112.02130127,27.203674316],[112.05108642600001,27.194274902],[112.08911132800002,27.215270996],[112.11767578100002,27.235473633],[112.13909912100002,27.267700195],[112.12908935500002,27.30847168],[112.16711425800001,27.313720703],[112.18011474600002,27.281921387],[112.22430419900002,27.297912598],[112.25030517600001,27.326904297],[112.28387451200001,27.350097656],[112.31951904300001,27.35748291],[112.36108398400002,27.352294922],[112.39788818400001,27.342712402],[112.42510986300002,27.326904297],[112.44989013700001,27.362915039],[112.45672607400002,27.397888184],[112.47009277300002,27.430480957],[112.42749023400002,27.452697754],[112.41412353500002,27.486694336],[112.38928222700001,27.533508301],[112.36987304700001,27.499084473],[112.33068847700001,27.480102539],[112.29107666000002,27.478515625],[112.27392578100002,27.519714355],[112.29388427700002,27.548706055],[112.29351806600002,27.589904785],[112.28051757800002,27.62487793],[112.28009033200001,27.663085937],[112.25927734400001,27.687316895],[112.21752929700001,27.687927246],[112.18029785200001,27.66027832],[112.15209960900002,27.642883301],[112.12310791000002,27.621276855],[112.09912109400001,27.64251709],[112.07830810500002,27.620117187],[112.04052734400001,27.633117676],[112.02691650400001,27.665283203],[112.02429199200002,27.698120117],[112.05151367200001,27.721313477],[112.07849121100001,27.755310059],[112.06170654300001,27.785705566],[111.99987793000001,27.830505371],[111.97808837900001,27.872680664],[111.96490478500002,27.908081055],[111.95269775400001,27.934875488],[111.93572998000002,27.961730957],[111.90551757800002,27.969299316],[111.87432861300002,28.013122559]]]}}
