{"type":"Feature","id":"bulk-99377448B90432234832744","bbox":[120.91888427700002,29.093078613,122.12188720700001,30.306884766],"properties":{"id":"bulk-99377448B90432234832744","name":"Ningbo","nameEn":"Ningbo","fullName":"Ningbo","level":"city","boundaryRole":"administrative-extent","boundaryQuality":"generalized-source-2020","boundaryYearRepresented":"2020","bounds":[[120.91888427700002,29.093078613],[122.12188720700001,30.306884766]],"center":[121.52038574200002,29.6999816895],"centerMethod":"bounding-box midpoint; camera framing only","license":"CC-BY-3.0-IGO","attribution":"geoBoundaries / HDX, China administrative boundaries (2020)","source":{"provider":"geoBoundaries gbHumanitarian / HDX","url":"https://github.com/wmgeolab/geoBoundaries/raw/9469f09/releaseData/gbHumanitarian/CHN/ADM2/geoBoundaries-CHN-ADM2.geojson","metadataUrl":"https://www.geoboundaries.org/api/current/gbHumanitarian/CHN/ADM2/","shapeID":"99377448B90432234832744","shapeName":"Ningbo","boundaryID":"CHN-ADM2-99377448","commit":"9469f09"},"geometryCounts":{"coordinates":690,"components":7,"holes":0},"boundaryNotice":"geoBoundaries / HDX 2020 年行政区数据，海岸和边界经过源数据概化，并非当前测绘成果。"},"geometry":{"type":"MultiPolygon","coordinates":[[[[121.86151123000002,29.159118652],[121.86749267600001,29.164916992],[121.86267089800002,29.165283203],[121.85668945300002,29.162475586],[121.85632324200002,29.16027832],[121.86151123000002,29.159118652]]],[[[121.83587646500001,29.159912109],[121.83691406200002,29.160888672],[121.83569335900002,29.162902832],[121.82287597700001,29.173522949],[121.81372070300002,29.186279297],[121.80151367200001,29.190673828],[121.80047607400002,29.190917969],[121.79608154300001,29.183898926],[121.81848144500002,29.168884277],[121.83447265600002,29.160095215],[121.83587646500001,29.159912109]]],[[[121.82110595700001,29.235290527],[121.82189941400001,29.235717773],[121.82531738300001,29.239685059],[121.82128906200002,29.245117187],[121.81848144500002,29.247070312],[121.82110595700001,29.235290527]]],[[[121.52111816400001,29.266906738],[121.51470947300001,29.268676758],[121.50567627,29.26751709],[121.54150390600002,29.262695312],[121.53308105500001,29.268493652],[121.52111816400001,29.266906738]]],[[[121.78228759800001,29.341308594],[121.78247070300002,29.341918945],[121.78131103500002,29.347290039],[121.78027343700002,29.344116211],[121.78228759800001,29.341308594]]],[[[121.99707031200002,29.810302734],[122.02172851600001,29.816894531],[122.01971435500002,29.817687988],[122.00567627,29.81451416],[121.99707031200002,29.810302734]]],[[[121.43347168000001,29.143310547],[121.42327880900001,29.147705078],[121.42230224600002,29.146911621],[121.413879395,29.145690918],[121.41668701200001,29.153320312],[121.41650390600002,29.156494141],[121.41552734400001,29.157714844],[121.41369628900001,29.159729004],[121.413879395,29.160095215],[121.41333007800002,29.160888672],[121.41430664100001,29.160888672],[121.41912841800001,29.169128418],[121.42150878900001,29.168518066],[121.42248535200001,29.168273926],[121.42852783200001,29.169128418],[121.43212890600002,29.167480469],[121.44488525400001,29.166687012],[121.45587158200001,29.163696289],[121.46008300800001,29.158691406],[121.46929931600002,29.158325195],[121.47747802700002,29.197509766],[121.48187255900001,29.188903809],[121.47912597700001,29.195922852],[121.47967529300001,29.199707031],[121.48529052700002,29.19732666],[121.48852539100001,29.191894531],[121.48632812500001,29.185913086],[121.48712158200001,29.178527832],[121.49530029300001,29.162475586],[121.50811767600001,29.170715332],[121.51428222700001,29.172302246],[121.51470947300001,29.178527832],[121.51647949200002,29.180297852],[121.51049804700001,29.198913574],[121.53588867200001,29.247497559],[121.50170898400002,29.267089844],[121.49328613300001,29.266113281],[121.48413085900002,29.268493652],[121.47692871100001,29.266479492],[121.47192382800002,29.262329102],[121.45648193400001,29.256286621],[121.45648193400001,29.258911133],[121.45971679700001,29.262329102],[121.47827148400002,29.27130127],[121.48992919900002,29.272521973],[121.503723145,29.270874023],[121.51312255900001,29.272521973],[121.52252197300001,29.270507812],[121.52807617200001,29.271911621],[121.53448486300002,29.276489258],[121.55767822300001,29.267883301],[121.56109619100002,29.267883301],[121.56829834000001,29.27331543],[121.57147216800001,29.27331543],[121.57409668000001,29.270874023],[121.57531738300001,29.272094727],[121.58770752,29.285522461],[121.59130859400001,29.276306152],[121.59167480500001,29.278686523],[121.59613037100002,29.280700684],[121.60107421900001,29.260498047],[121.60272216800001,29.246887207],[121.60949707000002,29.231079102],[121.60949707000002,29.224487305],[121.61187744100002,29.221679687],[121.61669921900001,29.21887207],[121.61730957000002,29.217102051],[121.61352539100001,29.256530762],[121.61230468700002,29.27947998],[121.62371826200001,29.292907715],[121.62408447300001,29.293273926],[121.62371826200001,29.294677734],[121.62329101600001,29.296325684],[121.62707519500002,29.302124023],[121.63629150400001,29.304077148],[121.63891601600001,29.30291748],[121.64691162100002,29.307922363],[121.64947509800001,29.30267334],[121.66271972700001,29.319274902],[121.66888427700002,29.320922852],[121.67108154300001,29.319274902],[121.66333007800002,29.312927246],[121.66168212900001,29.309875488],[121.66308593700002,29.308898926],[121.66589355500001,29.309692383],[121.66668701200001,29.307678223],[121.66528320300002,29.303283691],[121.66949462900001,29.30090332],[121.65570068400001,29.286682129],[121.65692138700001,29.280273437],[121.65447998000002,29.266296387],[121.64831543000001,29.247680664],[121.64831543000001,29.23449707],[121.65112304700001,29.23248291],[121.64849853500002,29.229675293],[121.64868164100001,29.204711914],[121.65209960900002,29.193481445],[121.68347168000001,29.19128418],[121.70568847700001,29.192504883],[121.70892334000001,29.195129395],[121.71551513700001,29.206481934],[121.72052002,29.208312988],[121.73107910200001,29.215881348],[121.73950195300002,29.228515625],[121.73931884800001,29.232727051],[121.72967529300001,29.251281738],[121.72808837900001,29.259277344],[121.73150634800001,29.270690918],[121.71868896500001,29.270080566],[121.72009277300002,29.278503418],[121.72729492200001,29.280273437],[121.72448730500001,29.283874512],[121.72851562500001,29.288330078],[121.73529052700002,29.28527832],[121.74011230500001,29.287902832],[121.74212646500001,29.285095215],[121.73931884800001,29.27947998],[121.73968505900001,29.274475098],[121.73669433600001,29.27130127],[121.73431396500001,29.270874023],[121.73370361300002,29.254272461],[121.73687744100002,29.24432373],[121.74450683600001,29.231872559],[121.74371337900001,29.225097656],[121.73370361300002,29.211914062],[121.73168945300002,29.20111084],[121.73431396500001,29.196289062],[121.73889160200001,29.19128418],[121.75048828100002,29.20489502],[121.75048828100002,29.205078125],[121.75250244100002,29.207275391],[121.76287841800001,29.221679687],[121.76647949200002,29.239685059],[121.76251220700001,29.265686035],[121.75567627,29.286315918],[121.76232910200001,29.304870605],[121.76690673800002,29.315673828],[121.76647949200002,29.315917969],[121.76849365200002,29.320678711],[121.76788330100001,29.32989502],[121.76629638700001,29.330505371],[121.76788330100001,29.332092285],[121.76751709000001,29.336303711],[121.75909423800002,29.344482422],[121.75567627,29.367492676],[121.77111816400001,29.370483398],[121.77307128900001,29.371520996],[121.77368164100001,29.37109375],[121.78967285200001,29.374328613],[121.78790283200001,29.368286133],[121.78869628900001,29.368530273],[121.80847168000001,29.378479004],[121.80932617200001,29.376098633],[121.80749511700002,29.373901367],[121.79968261700002,29.364074707],[121.78930664100001,29.360473633],[121.78967285200001,29.358703613],[121.80047607400002,29.354675293],[121.80090332000002,29.350891113],[121.79809570300002,29.344116211],[121.79272460900002,29.340881348],[121.79589843700002,29.334899902],[121.79132080100001,29.330688477],[121.79168701200001,29.329528809],[121.79809570300002,29.329284668],[121.80328369100002,29.333129883],[121.81689453100002,29.338928223],[121.83068847700001,29.340698242],[121.83227539100001,29.337524414],[121.82910156200002,29.333679199],[121.82427978500002,29.332702637],[121.82287597700001,29.330322266],[121.83331298800002,29.327697754],[121.83587646500001,29.327087402],[121.83709716800001,29.325073242],[121.83447265600002,29.321716309],[121.82891845700001,29.322875977],[121.82031250000001,29.321289062],[121.82128906200002,29.315490723],[121.82031250000001,29.311096191],[121.81750488300001,29.309509277],[121.81030273400002,29.311096191],[121.80328369100002,29.30090332],[121.80511474600002,29.297119141],[121.81048584000001,29.29510498],[121.81732177700002,29.29888916],[121.82330322300001,29.299682617],[121.83752441400001,29.297912598],[121.83972168000001,29.296081543],[121.83489990200002,29.287902832],[121.82373046900001,29.280090332],[121.82171630900001,29.280517578],[121.81872558600001,29.273681641],[121.81829834000001,29.268920898],[121.81872558600001,29.25592041],[121.83111572300001,29.246276855],[121.83947753900001,29.242126465],[121.81927490200002,29.222473145],[121.81927490200002,29.221679687],[121.80688476600001,29.20111084],[121.80432128900001,29.196716309],[121.81311035200001,29.195922852],[121.81427002,29.192077637],[121.82550048800002,29.177490234],[121.84613037100002,29.161682129],[121.85632324200002,29.167297363],[121.86712646500001,29.169128418],[121.870910645,29.16809082],[121.87768554700001,29.174926758],[121.89129638700001,29.189086914],[121.91070556600002,29.214477539],[121.93188476600001,29.223327637],[121.94567871100001,29.219299316],[121.94647216800001,29.226501465],[121.94952392600001,29.22869873],[121.95288085900002,29.228515625],[121.95428466800001,29.239318848],[121.95788574200002,29.245117187],[121.95788574200002,29.250671387],[121.96008300800001,29.253112793],[121.96228027300002,29.252075195],[121.96612548800002,29.258117676],[121.96612548800002,29.258300781],[121.96649169900002,29.258728027],[121.97991943400001,29.280090332],[121.97570800800001,29.276916504],[121.96807861300002,29.276489258],[121.95788574200002,29.268127441],[121.95587158200001,29.267883301],[121.95190429700001,29.267089844],[121.93768310500002,29.271484375],[121.92431640600002,29.268676758],[121.91552734400001,29.290283203],[121.91009521500001,29.292114258],[121.90930175800001,29.298278809],[121.91088867200001,29.301513672],[121.90667724600002,29.311523437],[121.91528320300002,29.315307617],[121.91229248000002,29.316711426],[121.91827392600001,29.326721191],[121.92547607400002,29.331481934],[121.92907714800002,29.330688477],[121.93151855500001,29.332885742],[121.92828369100002,29.336730957],[121.92468261700002,29.337280273],[121.92150878900001,29.336120605],[121.91931152300002,29.340515137],[121.90649414100001,29.341674805],[121.90447998000002,29.374694824],[121.88928222700001,29.388122559],[121.88232421900001,29.399719238],[121.88848877,29.412902832],[121.89910888700001,29.420898437],[121.91888427700002,29.425292969],[121.93450927700002,29.423706055],[121.93792724600002,29.422302246],[121.94567871100001,29.424499512],[121.95672607400002,29.421508789],[121.96948242200001,29.446472168],[121.96929931600002,29.447692871],[121.96990966800001,29.447692871],[121.972473145,29.452697754],[121.95770263700001,29.460693359],[121.94592285200001,29.468078613],[121.93951416000002,29.484313965],[121.93389892600001,29.504882812],[121.91131591800001,29.51171875],[121.90332031200002,29.523498535],[121.91851806600002,29.527282715],[121.91870117200001,29.530517578],[121.91949462900001,29.532104492],[121.92272949200002,29.537719727],[121.92687988300001,29.541503906],[121.94232177700002,29.541503906],[121.94787597700001,29.539123535],[121.95068359400001,29.550720215],[121.95269775400001,29.553710937],[121.95111084000001,29.559692383],[121.95568847700001,29.55847168],[121.96148681600002,29.566894531],[121.97912597700001,29.58807373],[121.95007324200002,29.610107422],[121.94348144500002,29.63067627],[121.91430664100001,29.635070801],[121.91229248000002,29.63092041],[121.89587402300002,29.620910645],[121.88629150400001,29.620483398],[121.87969970700001,29.616271973],[121.87530517600001,29.615905762],[121.87030029300001,29.620117187],[121.86627197300001,29.619689941],[121.85748291000002,29.607299805],[121.85168457000002,29.605102539],[121.84667968700002,29.605529785],[121.83831787100002,29.609680176],[121.83612060500002,29.610900879],[121.83007812500001,29.61151123],[121.82269287100002,29.609680176],[121.81970214800002,29.602478027],[121.81567382800002,29.600280762],[121.81030273400002,29.600280762],[121.80090332000002,29.602722168],[121.796875,29.60168457],[121.79010009800001,29.593688965],[121.79028320300002,29.593078613],[121.78527832000002,29.587890625],[121.78247070300002,29.584716797],[121.78131103500002,29.583679199],[121.77471923800002,29.576721191],[121.76751709000001,29.565124512],[121.75408935500002,29.56072998],[121.74487304700001,29.55291748],[121.74432373000002,29.543701172],[121.75109863300001,29.541320801],[121.75567627,29.54107666],[121.75708007800002,29.541687012],[121.77227783200001,29.542114258],[121.78051757800002,29.545715332],[121.78851318400001,29.542480469],[121.80969238300001,29.547302246],[121.81848144500002,29.543701172],[121.83270263700001,29.54309082],[121.83532714800002,29.541687012],[121.83831787100002,29.533325195],[121.84387207000002,29.529907227],[121.85308837900001,29.527282715],[121.85729980500001,29.523681641],[121.85650634800001,29.520080566],[121.84808349600002,29.522521973],[121.84008789100001,29.524719238],[121.84051513700001,29.524291992],[121.828125,29.522888184],[121.81909179700001,29.509277344],[121.81811523400002,29.494506836],[121.81591796900001,29.488525391],[121.8125,29.482116699],[121.80609130900001,29.476501465],[121.77709960900002,29.465270996],[121.77532959000001,29.466125488],[121.77508544900002,29.465881348],[121.77471923800002,29.466491699],[121.76989746100001,29.468688965],[121.76330566400001,29.477478027],[121.76312255900001,29.478088379],[121.76110839800002,29.480102539],[121.76147460900002,29.482910156],[121.76049804700001,29.485900879],[121.75848388700001,29.491699219],[121.75830078100002,29.498901367],[121.76007080100001,29.507080078],[121.76831054700001,29.521911621],[121.76947021500001,29.527526855],[121.75970459000001,29.526672363],[121.75927734400001,29.525695801],[121.74951171900001,29.524291992],[121.74108886700002,29.519714355],[121.73590087900001,29.519897461],[121.73150634800001,29.524475098],[121.73370361300002,29.527099609],[121.72711181600002,29.528930664],[121.70788574200002,29.52911377],[121.69927978500002,29.519897461],[121.68707275400001,29.508300781],[121.66607666000002,29.499694824],[121.66607666000002,29.499328613],[121.65832519500002,29.493896484],[121.64892578100002,29.49432373],[121.63409423800002,29.489685059],[121.62347412100002,29.489929199],[121.60028076200001,29.480102539],[121.59570312500001,29.47668457],[121.59448242200001,29.475891113],[121.58929443400001,29.474487305],[121.57910156200002,29.474914551],[121.57470703100002,29.473327637],[121.55328369100002,29.455871582],[121.55212402300002,29.453491211],[121.55511474600002,29.4453125],[121.54730224600002,29.429870605],[121.54229736300002,29.426696777],[121.53869628900001,29.421691895],[121.52569580100001,29.413879395],[121.51269531200002,29.401916504],[121.50628662100002,29.399475098],[121.50170898400002,29.395507812],[121.49249267600001,29.387084961],[121.48767089800002,29.387878418],[121.48767089800002,29.373474121],[121.48168945300002,29.381286621],[121.48248291000002,29.389282227],[121.48089599600002,29.395507812],[121.47967529300001,29.395324707],[121.48071289100001,29.396484375],[121.480285645,29.397521973],[121.48107910200001,29.402526855],[121.48931884800001,29.412719727],[121.49371337900001,29.415527344],[121.49572753900001,29.415893555],[121.51367187500001,29.438720703],[121.51251220700001,29.443725586],[121.51428222700001,29.446105957],[121.51812744100002,29.444274902],[121.52069091800001,29.447509766],[121.52209472700001,29.452880859],[121.52728271500001,29.456115723],[121.52807617200001,29.457092285],[121.51867675800001,29.456298828],[121.51507568400001,29.453491211],[121.50628662100002,29.453674316],[121.50451660200001,29.455078125],[121.49792480500001,29.454528809],[121.49530029300001,29.466674805],[121.49432373000002,29.479919434],[121.49127197300001,29.475708008],[121.47589111300002,29.467895508],[121.47290039100001,29.463317871],[121.47467041000002,29.460510254],[121.47570800800001,29.459106445],[121.46429443400001,29.439880371],[121.46191406200002,29.430114746],[121.46307373000002,29.417480469],[121.44128418000001,29.41027832],[121.43688964800002,29.411682129],[121.43670654300001,29.41192627],[121.42150878900001,29.405273437],[121.42590332000002,29.440490723],[121.421691895,29.465515137],[121.42352294900002,29.479919434],[121.44232177700002,29.493530273],[121.44708252,29.507507324],[121.44628906200002,29.509887695],[121.445129395,29.512878418],[121.44708252,29.517089844],[121.45349121100001,29.522888184],[121.45452880900001,29.522094727],[121.46887207000002,29.533874512],[121.47967529300001,29.539306641],[121.48052978500002,29.540527344],[121.48211669900002,29.540527344],[121.49627685500002,29.547729492],[121.49908447300001,29.544494629],[121.50109863300001,29.54510498],[121.51171875000001,29.555114746],[121.51367187500001,29.553100586],[121.51348877,29.541687012],[121.51928710900002,29.525512695],[121.51989746100001,29.524291992],[121.52008056600002,29.520507812],[121.52789306600002,29.511901855],[121.52832031200002,29.512329102],[121.52947998000002,29.515075684],[121.53167724600002,29.51550293],[121.54248046900001,29.525512695],[121.54870605500001,29.534912109],[121.55151367200001,29.536071777],[121.55310058600001,29.53527832],[121.55810546900001,29.539916992],[121.56390380900001,29.539916992],[121.56408691400001,29.541503906],[121.56768798800002,29.545898437],[121.57312011700002,29.546508789],[121.58691406200002,29.540100098],[121.60192871100001,29.540283203],[121.60351562500001,29.540527344],[121.60791015600002,29.542480469],[121.61749267600001,29.546875],[121.62469482400002,29.545288086],[121.63012695300002,29.547729492],[121.63348388700001,29.546325684],[121.64093017600001,29.547485352],[121.63812255900001,29.553710937],[121.64147949200002,29.571472168],[121.64367675800001,29.571716309],[121.64611816400001,29.567077637],[121.64672851600001,29.5546875],[121.64849853500002,29.54888916],[121.64990234400001,29.549316406],[121.68090820300002,29.558105469],[121.69152832000002,29.573486328],[121.70050048800002,29.584472656],[121.70288085900002,29.585876465],[121.70251464800002,29.586486816],[121.69689941400001,29.589111328],[121.69628906200002,29.591125488],[121.69769287100002,29.593078613],[121.703125,29.593078613],[121.70971679700001,29.58972168],[121.72113037100002,29.596130371],[121.72967529300001,29.601074219],[121.73730468700002,29.605529785],[121.74468994100002,29.610900879],[121.74511718700002,29.613891602],[121.74908447300001,29.615722656],[121.75531005900001,29.622497559],[121.76171875000001,29.645080566],[121.78509521500001,29.660095215],[121.78991699200002,29.662475586],[121.79492187500001,29.666320801],[121.82067871100001,29.678100586],[121.82647705100001,29.690673828],[121.83032226600001,29.695495605],[121.82830810500002,29.696472168],[121.83190918000001,29.697509766],[121.84851074200002,29.718505859],[121.85809326200001,29.73651123],[121.86267089800002,29.745483398],[121.86871337900001,29.751525879],[121.86932373000002,29.753723145],[121.88110351600001,29.765075684],[121.88287353500002,29.765319824],[121.90332031200002,29.776916504],[121.91931152300002,29.780883789],[121.92547607400002,29.785888672],[121.94091796900001,29.787719727],[121.94689941400001,29.789672852],[121.95452880900001,29.793518066],[121.97772216800001,29.81048584],[122.00048828100002,29.819885254],[122.01348877,29.82232666],[122.01489257800002,29.822875977],[122.02288818400001,29.82611084],[122.04028320300002,29.83972168],[122.07312011700002,29.848693848],[122.07928466800001,29.855895996],[122.08551025400001,29.855529785],[122.09552002,29.860473633],[122.10211181600002,29.860290527],[122.11468505900001,29.870117187],[122.120910645,29.870727539],[122.12188720700001,29.872680664],[122.11871337900001,29.889282227],[122.07427978500002,29.88470459],[122.05767822300001,29.882873535],[122.05548095700001,29.882080078],[122.04791259800001,29.881713867],[122.04772949200002,29.881713867],[122.03192138700001,29.879882812],[122.02148437500001,29.87890625],[122.01867675800001,29.875488281],[122.01312255900001,29.872924805],[122.01049804700001,29.87512207],[122.00952148400002,29.877685547],[121.97552490200002,29.874511719],[121.92828369100002,29.889282227],[121.89971923800002,29.908508301],[121.88189697300001,29.91027832],[121.84368896500001,29.913085937],[121.83367919900002,29.919128418],[121.83190918000001,29.919921875],[121.83172607400002,29.920288086],[121.82189941400001,29.926086426],[121.79028320300002,29.945678711],[121.76287841800001,29.958312988],[121.74749755900001,29.960876465],[121.74548339800002,29.957885742],[121.74212646500001,29.956115723],[121.74151611300002,29.958679199],[121.74310302700002,29.961486816],[121.73492431600002,29.96270752],[121.72912597700001,29.958679199],[121.72308349600002,29.948730469],[121.71789550800001,29.952087402],[121.72369384800001,29.959472656],[121.72308349600002,29.964477539],[121.71972656200002,29.965087891],[121.70672607400002,29.959472656],[121.687316895,29.961303711],[121.67828369100002,29.962097168],[121.67309570300002,29.965270996],[121.66589355500001,29.978088379],[121.65850830100001,29.985473633],[121.64227294900002,30.00012207],[121.63427734400001,30.007324219],[121.62927246100001,30.010070801],[121.62512207000002,30.018310547],[121.60290527300002,30.034912109],[121.57849121100001,30.05090332],[121.56530761700002,30.059326172],[121.54931640600002,30.084472656],[121.53430175800001,30.116882324],[121.50469970700001,30.12890625],[121.48992919900002,30.163085937],[121.46270752,30.20111084],[121.43988037100002,30.231506348],[121.40332031200002,30.239501953],[121.378723145,30.240905762],[121.37628173800002,30.262878418],[121.34149169900002,30.284484863],[121.28112793000001,30.300109863],[121.23687744100002,30.306884766],[121.20068359400001,30.293884277],[121.16052246100001,30.289306641],[121.12670898400002,30.277893066],[121.10388183600001,30.259094238],[121.08850097700001,30.25592041],[121.07568359400001,30.250671387],[121.07330322300001,30.249084473],[121.07110595700001,30.248901367],[121.05249023400002,30.241088867],[121.00988769500002,30.209716797],[120.99029541000002,30.202087402],[120.98052978500002,30.198303223],[120.96612548800002,30.187072754],[120.96331787100002,30.185302734],[120.96270752,30.184692383],[120.96209716800001,30.184692383],[120.91888427700002,30.158691406],[120.93609619100002,30.12109375],[120.945129395,30.093322754],[120.95989990200002,30.054077148],[120.97192382800002,30.026916504],[120.99450683600001,30.002685547],[121.02331543000001,29.99029541],[121.05987548800002,29.990478516],[121.06030273400002,29.963500977],[121.02972412100002,29.931518555],[121.00927734400001,29.903076172],[121.02069091800001,29.877319336],[121.05151367200001,29.855895996],[121.08471679700001,29.840698242],[121.10809326200001,29.819702148],[121.12072753900001,29.789489746],[121.09350585900002,29.767272949],[121.06292724600002,29.758483887],[120.99310302700002,29.740478516],[120.99652099600002,29.695129395],[121.01788330100001,29.666687012],[121.06707763700001,29.66607666],[121.07928466800001,29.62487793],[121.09808349600002,29.597290039],[121.09832763700001,29.550109863],[121.16528320300002,29.535705566],[121.19989013700001,29.520324707],[121.20770263700001,29.492919922],[121.19952392600001,29.456481934],[121.24291992200001,29.451904297],[121.21331787100002,29.396484375],[121.20568847700001,29.360107422],[121.179504395,29.337524414],[121.12408447300001,29.318725586],[121.13470459000001,29.269287109],[121.14093017600001,29.234680176],[121.16088867200001,29.209289551],[121.18890380900001,29.195495605],[121.21228027300002,29.171508789],[121.21948242200001,29.105895996],[121.28228759800001,29.093078613],[121.30828857400002,29.109924316],[121.35992431600002,29.124694824],[121.40368652300002,29.131896973],[121.43347168000001,29.143310547]]]]}}
