{"type":"Feature","id":"bulk-99377448B66767123673506","bbox":[87.304077148,41.194885254,91.92132568400001,43.60369873],"properties":{"id":"bulk-99377448B66767123673506","name":"Turpan","nameEn":"Turpan","fullName":"Turpan","level":"city","boundaryRole":"administrative-extent","boundaryQuality":"generalized-source-2020","boundaryYearRepresented":"2020","bounds":[[87.304077148,41.194885254],[91.92132568400001,43.60369873]],"center":[89.61270141600001,42.399291992],"centerMethod":"bounding-box midpoint; camera framing only","license":"CC-BY-3.0-IGO","attribution":"geoBoundaries / HDX, China administrative boundaries (2020)","source":{"provider":"geoBoundaries gbHumanitarian / HDX","url":"https://github.com/wmgeolab/geoBoundaries/raw/9469f09/releaseData/gbHumanitarian/CHN/ADM2/geoBoundaries-CHN-ADM2.geojson","metadataUrl":"https://www.geoboundaries.org/api/current/gbHumanitarian/CHN/ADM2/","shapeID":"99377448B66767123673506","shapeName":"Turpan","boundaryID":"CHN-ADM2-99377448","commit":"9469f09"},"geometryCounts":{"coordinates":278,"components":1,"holes":0},"boundaryNotice":"geoBoundaries / HDX 2020 年行政区数据，海岸和边界经过源数据概化，并非当前测绘成果。"},"geometry":{"type":"Polygon","coordinates":[[[87.304077148,43.133728027],[87.35388183600001,43.110473633],[87.394714355,43.107116699],[87.43389892600001,43.101074219],[87.49291992200001,43.087280273],[87.53448486300002,43.074523926],[87.577087402,43.050109863],[87.60351562500001,43.017089844],[87.62847900400001,42.990112305],[87.66528320300002,42.96887207],[87.71911621100001,42.957275391],[87.75830078100002,42.9453125],[87.79370117200001,42.921325684],[87.82507324200002,42.906677246],[87.85729980500001,42.872314453],[87.872070312,42.836303711],[87.868103027,42.798278809],[87.86572265600002,42.766723633],[87.88629150400001,42.725524902],[87.903686523,42.700317383],[87.928710937,42.659118652],[87.96209716800001,42.627075195],[87.99829101600001,42.599121094],[88.03668212900001,42.584472656],[88.07629394500002,42.570922852],[88.12567138700001,42.550292969],[88.18072509800001,42.531677246],[88.21209716800001,42.509887695],[88.22467041000002,42.483093262],[88.217712402,42.454711914],[88.19671630900001,42.421081543],[88.16552734400001,42.384521484],[88.13708496100001,42.356506348],[88.10968017600001,42.332092285],[88.06628418000001,42.3125],[88.028686523,42.300476074],[87.97509765600002,42.281494141],[87.92492675800001,42.251525879],[87.911071777,42.18951416],[87.909912109,42.144470215],[87.91210937500001,42.114501953],[87.962280273,42.063720703],[88.00567627,42.042297363],[88.04327392600001,42.028503418],[88.09729003900001,42.002502441],[88.14068603500002,41.966125488],[88.16210937500001,41.927490234],[88.17687988300001,41.898925781],[88.194274902,41.874694824],[88.221679687,41.853088379],[88.24670410200001,41.831115723],[88.280273437,41.80847168],[88.30871582000002,41.768676758],[88.32427978500002,41.733520508],[88.32611084000001,41.696472168],[88.33209228500002,41.659912109],[88.337280273,41.627075195],[88.34332275400001,41.587280273],[88.34368896500001,41.545288086],[88.34252929700001,41.516296387],[88.34228515600002,41.479125977],[88.37329101600001,41.455078125],[88.45587158200001,41.438720703],[88.50708007800002,41.448486328],[88.58007812500001,41.455505371],[88.629882812,41.453918457],[88.69049072300001,41.452270508],[88.73291015600002,41.452514648],[88.77032470700001,41.43170166],[88.78289794900002,41.405273437],[88.82287597700001,41.38067627],[88.88110351600001,41.381896973],[88.917724609,41.383117676],[88.95452880900001,41.383483887],[89.01171875000001,41.389709473],[89.06311035200001,41.382080078],[89.10827636700002,41.372924805],[89.143127441,41.362304687],[89.202087402,41.373291016],[89.25311279300001,41.35949707],[89.29632568400001,41.361877441],[89.34729003900001,41.361694336],[89.40588378900001,41.355285645],[89.48547363300001,41.344482422],[89.52447509800001,41.337524414],[89.56390380900001,41.336730957],[89.61370849600002,41.359924316],[89.63269043000001,41.331115723],[89.73071289100001,41.332519531],[89.78527832000002,41.329711914],[89.844726562,41.339111328],[89.90447998,41.346496582],[89.97650146500001,41.32208252],[90.02667236300002,41.301513672],[90.09228515600002,41.286315918],[90.13189697300001,41.284912109],[90.17492675800001,41.272705078],[90.20672607400002,41.254882812],[90.24572753900001,41.237670898],[90.29852294900002,41.222290039],[90.34167480500001,41.217529297],[90.38287353500002,41.216308594],[90.435302734,41.21472168],[90.48291015600002,41.212280273],[90.55187988300001,41.210876465],[90.58868408200001,41.210327148],[90.64648437500001,41.206115723],[90.730285645,41.199279785],[90.77270507800002,41.198486328],[90.84527587900001,41.196289062],[90.89691162100002,41.194885254],[90.94610595700001,41.199890137],[90.995910645,41.202697754],[91.03448486300002,41.207885742],[91.11468505900001,41.210510254],[91.15649414100001,41.210327148],[91.21490478500002,41.211486816],[91.26251220700001,41.221313477],[91.30828857400002,41.235473633],[91.34948730500001,41.240478516],[91.41491699200002,41.24407959],[91.48632812500001,41.247924805],[91.53228759800001,41.250488281],[91.57171630900001,41.252685547],[91.61828613300001,41.25592041],[91.66571044900002,41.259887695],[91.72808837900001,41.263122559],[91.76470947300001,41.264099121],[91.80767822300001,41.266723633],[91.84631347700001,41.269714355],[91.88708496100001,41.276672363],[91.92132568400001,41.28729248],[91.91912841800001,41.326293945],[91.92108154300001,41.353515625],[91.90270996100001,41.380310059],[91.87927246100001,41.405273437],[91.85351562500001,41.439086914],[91.83709716800001,41.475524902],[91.82189941400001,41.519287109],[91.80950927700002,41.567077637],[91.82189941400001,41.614318848],[91.828125,41.653686523],[91.83190918000001,41.690307617],[91.821289062,41.738891602],[91.80267334000001,41.78692627],[91.786499023,41.834899902],[91.78149414100001,41.871887207],[91.761474609,41.924682617],[91.73950195300002,41.963684082],[91.71270752,41.988708496],[91.68469238300001,42.009277344],[91.62689209000001,42.031311035],[91.59332275400001,42.058288574],[91.571289062,42.097900391],[91.55267334000001,42.131103516],[91.54168701200001,42.159729004],[91.53070068400001,42.208679199],[91.51910400400001,42.244506836],[91.485717773,42.289306641],[91.47607421900001,42.3203125],[91.47052002,42.347106934],[91.462280273,42.397888184],[91.44171142600001,42.463500977],[91.43872070300002,42.492492676],[91.43572998,42.541687012],[91.43212890600002,42.603515625],[91.42108154300001,42.634887695],[91.41528320300002,42.678100586],[91.41412353500002,42.721130371],[91.41467285200001,42.766723633],[91.39672851600001,42.809326172],[91.38287353500002,42.839477539],[91.37188720700001,42.867126465],[91.36029052700002,42.928283691],[91.35888671900001,42.968078613],[91.32952880900001,43.045898437],[91.32849121100001,43.077270508],[91.33349609400001,43.116516113],[91.33770752,43.153686523],[91.328674316,43.200500488],[91.31549072300001,43.226074219],[91.28729248,43.284484863],[91.27148437500001,43.317687988],[91.24987793000001,43.354125977],[91.22271728500002,43.374084473],[91.18127441400001,43.386108398],[91.137695312,43.402282715],[91.119689941,43.427490234],[91.11492919900002,43.460876465],[91.05932617200001,43.472717285],[91.02410888700001,43.484924316],[90.98352050800001,43.495483398],[90.91351318400001,43.499084473],[90.86627197300001,43.499084473],[90.804870605,43.497680664],[90.761474609,43.497924805],[90.72369384800001,43.500671387],[90.68450927700002,43.506713867],[90.63732910200001,43.508728027],[90.618896484,43.479492187],[90.578125,43.479919434],[90.52667236300002,43.490112305],[90.47888183600001,43.496887207],[90.42529296900001,43.504089355],[90.39031982400002,43.491088867],[90.31732177700002,43.503479004],[90.25909423800002,43.521911621],[90.21508789100001,43.532287598],[90.17651367200001,43.546691895],[90.12487793000001,43.511108398],[90.077880859,43.50012207],[90.03588867200001,43.501281738],[89.98992919900002,43.479675293],[89.96307373,43.447692871],[89.91809082000002,43.43170166],[89.879089355,43.440917969],[89.83349609400001,43.446289062],[89.79089355500001,43.437072754],[89.76092529300001,43.420288086],[89.70227050800001,43.39831543],[89.66229248,43.38067627],[89.62249755900001,43.396484375],[89.57189941400001,43.413696289],[89.52770996100001,43.422485352],[89.454101562,43.43371582],[89.40588378900001,43.446472168],[89.370483398,43.46472168],[89.33148193400001,43.50012207],[89.293518066,43.524291992],[89.25030517600001,43.521118164],[89.20629882800002,43.529296875],[89.18328857400002,43.561889648],[89.14093017600001,43.576477051],[89.09289550800001,43.576904297],[89.051330566,43.574279785],[89.01348877,43.587280273],[88.95129394500002,43.60369873],[88.950927734,43.461120605],[88.89929199200002,43.403930664],[88.86291503900001,43.371704102],[88.81628418000001,43.36932373],[88.778320312,43.365905762],[88.73431396500001,43.355712891],[88.678283691,43.334716797],[88.635314941,43.333679199],[88.57690429700001,43.336303711],[88.53332519500002,43.333129883],[88.50628662100002,43.307678223],[88.49072265600002,43.272705078],[88.47692871100001,43.242492676],[88.46728515600002,43.193908691],[88.427124023,43.198486328],[88.38970947300001,43.199523926],[88.34130859400001,43.210876465],[88.29309082000002,43.226074219],[88.25689697300001,43.241271973],[88.20947265600002,43.252319336],[88.159912109,43.25567627],[88.11407470700001,43.255493164],[88.07489013700001,43.255126953],[88.004882812,43.251281738],[87.952087402,43.24987793],[87.89251709000001,43.250671387],[87.821289062,43.252502441],[87.77947998,43.253112793],[87.73388671900001,43.255310059],[87.69152832000002,43.259277344],[87.653320312,43.260070801],[87.586914062,43.272277832],[87.54327392600001,43.28527832],[87.49047851600001,43.293273926],[87.44091796900001,43.291503906],[87.41412353500002,43.252929687],[87.40667724600002,43.223083496],[87.38970947300001,43.1953125],[87.38049316400001,43.16192627],[87.344299316,43.153076172],[87.304077148,43.133728027]]]}}
