{"type":"Feature","id":"bulk-99377448B80280913354935","bbox":[110.71307373000002,27.960510254,112.90832519500002,29.542114258],"properties":{"id":"bulk-99377448B80280913354935","name":"Yiyang","nameEn":"Yiyang","fullName":"Yiyang","level":"city","boundaryRole":"administrative-extent","boundaryQuality":"generalized-source-2020","boundaryYearRepresented":"2020","bounds":[[110.71307373000002,27.960510254],[112.90832519500002,29.542114258]],"center":[111.81069946250003,28.751312256],"centerMethod":"bounding-box midpoint; camera framing only","license":"CC-BY-3.0-IGO","attribution":"geoBoundaries / HDX, China administrative boundaries (2020)","source":{"provider":"geoBoundaries gbHumanitarian / HDX","url":"https://github.com/wmgeolab/geoBoundaries/raw/9469f09/releaseData/gbHumanitarian/CHN/ADM2/geoBoundaries-CHN-ADM2.geojson","metadataUrl":"https://www.geoboundaries.org/api/current/gbHumanitarian/CHN/ADM2/","shapeID":"99377448B80280913354935","shapeName":"Yiyang","boundaryID":"CHN-ADM2-99377448","commit":"9469f09"},"geometryCounts":{"coordinates":216,"components":1,"holes":0},"boundaryNotice":"geoBoundaries / HDX 2020 年行政区数据，海岸和边界经过源数据概化，并非当前测绘成果。"},"geometry":{"type":"Polygon","coordinates":[[[112.29608154300001,29.536499023],[112.26751709000001,29.495727539],[112.26690673800002,29.444091797],[112.24572753900001,29.397888184],[112.23010253900001,29.365905762],[112.22851562500001,29.336303711],[112.25012207000002,29.314880371],[112.21490478500002,29.294921875],[112.20391845700001,29.246887207],[112.18847656200002,29.206481934],[112.17590332000002,29.128723145],[112.20208740200002,29.109924316],[112.24407959000001,29.095275879],[112.27807617200001,29.062072754],[112.29791259800001,29.061096191],[112.31048584000001,29.047729492],[112.33728027300002,28.996887207],[112.33673095700001,28.973693848],[112.32232666000002,28.950500488],[112.32690429700001,28.929870605],[112.30487060500002,28.881286621],[112.312316895,28.852111816],[112.31689453100002,28.826721191],[112.30969238300001,28.812927246],[112.28411865200002,28.814697266],[112.28747558600001,28.795471191],[112.31207275400001,28.774475098],[112.31048584000001,28.760681152],[112.27868652300002,28.774719238],[112.26690673800002,28.767089844],[112.26007080100001,28.753112793],[112.25769043000001,28.740905762],[112.26531982400002,28.718078613],[112.24749755900001,28.684692383],[112.21191406200002,28.666870117],[112.18811035200001,28.643676758],[112.12188720700001,28.637084961],[112.05767822300001,28.623291016],[112.01110839800002,28.642883301],[111.97631835900002,28.607116699],[111.94171142600001,28.627075195],[111.90667724600002,28.639282227],[111.88427734400001,28.612121582],[111.84771728500002,28.610717773],[111.80932617200001,28.593322754],[111.77410888700001,28.609680176],[111.74108886700002,28.594116211],[111.71807861300002,28.623474121],[111.68328857400002,28.611083984],[111.67907714800002,28.574890137],[111.65069580100001,28.555908203],[111.63549804700001,28.585876465],[111.59912109400001,28.606872559],[111.55688476600001,28.607299805],[111.47808837900001,28.599487305],[111.45288085900002,28.551513672],[111.42230224600002,28.52947998],[111.38867187500001,28.529907227],[111.355285645,28.528076172],[111.32550048800002,28.508483887],[111.28509521500001,28.49609375],[111.24932861300002,28.501708984],[111.21588134800001,28.50592041],[111.18310546900001,28.506286621],[111.14288330100001,28.48651123],[111.11468505900001,28.461303711],[111.09289550800001,28.440490723],[111.06188964800002,28.434326172],[111.00848388700001,28.42388916],[110.96588134800001,28.420288086],[110.91528320300002,28.410522461],[110.85308837900001,28.409118652],[110.82269287100002,28.386108398],[110.79309082000002,28.367919922],[110.73370361300002,28.319519043],[110.71307373000002,28.288879395],[110.75909423800002,28.266296387],[110.79107666000002,28.248718262],[110.79010009800001,28.214294434],[110.79711914100001,28.186706543],[110.82391357400002,28.173095703],[110.83569335900002,28.144470215],[110.82830810500002,28.10748291],[110.84149169900002,28.067687988],[110.85632324200002,28.035095215],[110.86267089800002,28.002929687],[110.89447021500001,27.998291016],[110.93609619100002,28.030273437],[110.96667480500001,28.046325684],[110.98730468700002,28.024108887],[111.00750732400002,28.001281738],[111.05230712900001,27.989318848],[111.09667968700002,27.990112305],[111.09851074200002,28.018676758],[111.09991455100001,28.047729492],[111.11328125000001,28.091674805],[111.14068603500002,28.12512207],[111.18927002,28.139282227],[111.21948242200001,28.150695801],[111.25531005900001,28.178527832],[111.29211425800001,28.198486328],[111.32592773400002,28.188720703],[111.38092041000002,28.177307129],[111.41967773400002,28.18951416],[111.46490478500002,28.178100586],[111.46948242200001,28.148925781],[111.47369384800001,28.113098145],[111.45849609400001,28.074523926],[111.46929931600002,28.036071777],[111.51007080100001,28.042907715],[111.53570556600002,28.020874023],[111.53588867200001,27.993103027],[111.55651855500001,27.960510254],[111.57769775400001,27.995117187],[111.61810302700002,28.009887695],[111.64990234400001,28.019714355],[111.68170166000002,27.976074219],[111.71191406200002,27.993530273],[111.74291992200001,28.015075684],[111.79351806600002,28.016296387],[111.83288574200002,28.014526367],[111.87432861300002,28.013122559],[111.88409423800002,28.047485352],[111.86932373000002,28.082092285],[111.89190673800002,28.116088867],[111.89489746100001,28.144714355],[111.89727783200001,28.177307129],[111.92968750000001,28.205688477],[111.96508789100001,28.227111816],[112.00671386700002,28.24609375],[112.05187988300001,28.247680664],[112.09289550800001,28.253112793],[112.12768554700001,28.243713379],[112.15069580100001,28.208679199],[112.18249511700002,28.188110352],[112.21569824200002,28.198486328],[112.24127197300001,28.220703125],[112.28149414100001,28.263305664],[112.34667968700002,28.261901855],[112.38690185500002,28.280090332],[112.43371582000002,28.301513672],[112.46350097700001,28.309326172],[112.50390625000001,28.300476074],[112.53430175800001,28.320922852],[112.54211425800001,28.349914551],[112.54907226600001,28.379272461],[112.57391357400002,28.414306641],[112.60729980500001,28.462524414],[112.64147949200002,28.489685059],[112.65350341800001,28.519104004],[112.68072509800001,28.556274414],[112.64770507800002,28.564086914],[112.61230468700002,28.547729492],[112.57989502,28.52331543],[112.54272460900002,28.528076172],[112.538879395,28.555725098],[112.54449462900001,28.58392334],[112.53070068400001,28.610717773],[112.49670410200001,28.608276367],[112.47772216800001,28.639709473],[112.48712158200001,28.674072266],[112.52172851600001,28.702697754],[112.55249023400002,28.723876953],[112.61328125000001,28.770507812],[112.64831543000001,28.867492676],[112.67608642600001,28.897277832],[112.67889404300001,28.903320312],[112.70892334000001,28.902099609],[112.78472900400001,28.917724609],[112.81988525400001,28.934082031],[112.78552246100001,28.931091309],[112.74230957000002,28.918701172],[112.71972656200002,28.927490234],[112.73651123000002,28.938720703],[112.76110839800002,28.949279785],[112.77728271500001,28.94708252],[112.80871582000002,28.951904297],[112.81970214800002,28.957275391],[112.86071777300002,28.993103027],[112.86627197300001,29.006103516],[112.88287353500002,29.024719238],[112.90832519500002,29.046081543],[112.90350341800001,29.055480957],[112.88867187500001,29.08190918],[112.88269043000001,29.119873047],[112.87011718700002,29.147277832],[112.85571289100001,29.158081055],[112.83673095700001,29.160888672],[112.81512451200001,29.165893555],[112.79589843700002,29.174682617],[112.76831054700001,29.149108887],[112.75531005900001,29.082275391],[112.75469970700001,29.061279297],[112.73968505900001,29.025085449],[112.72552490200002,29.098693848],[112.74951171900001,29.145507812],[112.75329589800002,29.172302246],[112.73211669900002,29.185913086],[112.66967773400002,29.190673828],[112.64508056600002,29.208496094],[112.65472412100002,29.235717773],[112.65991210900002,29.278503418],[112.64892578100002,29.312316895],[112.62127685500002,29.340881348],[112.57830810500002,29.327880859],[112.54187011700002,29.31628418],[112.50628662100002,29.312072754],[112.47167968700002,29.330078125],[112.45190429700001,29.354675293],[112.41711425800001,29.371704102],[112.39288330100001,29.41607666],[112.36712646500001,29.446105957],[112.33032226600001,29.449890137],[112.30987548800002,29.481872559],[112.30529785200001,29.542114258],[112.29608154300001,29.536499023]]]}}
