{"type":"Feature","id":"bulk-99377448B71905717131460","bbox":[108.85931396500001,21.401672363,109.69628906200002,21.999511719],"properties":{"id":"bulk-99377448B71905717131460","name":"Beihai","nameEn":"Beihai","fullName":"Beihai","level":"city","boundaryRole":"administrative-extent","boundaryQuality":"generalized-source-2020","boundaryYearRepresented":"2020","bounds":[[108.85931396500001,21.401672363],[109.69628906200002,21.999511719]],"center":[109.27780151350001,21.700592041],"centerMethod":"bounding-box midpoint; camera framing only","license":"CC-BY-3.0-IGO","attribution":"geoBoundaries / HDX, China administrative boundaries (2020)","source":{"provider":"geoBoundaries gbHumanitarian / HDX","url":"https://github.com/wmgeolab/geoBoundaries/raw/9469f09/releaseData/gbHumanitarian/CHN/ADM2/geoBoundaries-CHN-ADM2.geojson","metadataUrl":"https://www.geoboundaries.org/api/current/gbHumanitarian/CHN/ADM2/","shapeID":"99377448B71905717131460","shapeName":"Beihai","boundaryID":"CHN-ADM2-99377448","commit":"9469f09"},"geometryCounts":{"coordinates":404,"components":4,"holes":0},"boundaryNotice":"geoBoundaries / HDX 2020 年行政区数据，海岸和边界经过源数据概化，并非当前测绘成果。"},"geometry":{"type":"MultiPolygon","coordinates":[[[[109.06591796900001,21.596679687],[109.07232666000002,21.600097656],[109.06909179700001,21.619873047],[109.06732177700002,21.619873047],[109.06390380900001,21.614685059],[109.05133056600002,21.60949707],[109.04827880900001,21.605712891],[109.05328369100002,21.603881836],[109.06048584000001,21.597290039],[109.06591796900001,21.596679687]]],[[[109.03570556600002,21.606689453],[109.04309082000002,21.615112305],[109.05090332000002,21.620117187],[109.05548095700001,21.62109375],[109.06207275400001,21.627685547],[109.05572509800001,21.627319336],[109.04571533200001,21.62109375],[109.03729248000002,21.614501953],[109.03369140600002,21.610290527],[109.03332519500002,21.607727051],[109.03570556600002,21.606689453]]],[[[108.89428710900002,21.650695801],[108.89208984400001,21.655273437],[108.88671875000001,21.659484863],[108.88348388700001,21.659301758],[108.88391113300001,21.655700684],[108.88867187500001,21.651916504],[108.89428710900002,21.650695801]]],[[[109.69628906200002,21.653503418],[109.66552734400001,21.674926758],[109.65887451200001,21.711303711],[109.67230224600002,21.747497559],[109.67327880900001,21.78729248],[109.66851806600002,21.830078125],[109.671875,21.866516113],[109.66351318400001,21.899108887],[109.63830566400001,21.913330078],[109.58911132800002,21.931884766],[109.53192138700001,21.921081543],[109.50848388700001,21.903320312],[109.49530029300001,21.877502441],[109.46551513700001,21.886901855],[109.44189453100002,21.909118652],[109.41448974600002,21.917480469],[109.36389160200001,21.894470215],[109.32507324200002,21.896728516],[109.28710937500001,21.936889648],[109.25708007800002,21.999511719],[109.24389648400002,21.960876465],[109.25653076200001,21.922485352],[109.24108886700002,21.889709473],[109.21472168000001,21.860290527],[109.18548584000001,21.844482422],[109.14392089800002,21.844909668],[109.10687255900001,21.852478027],[109.09069824200002,21.881286621],[109.06469726600001,21.904907227],[109.038879395,21.884094238],[109.02807617200001,21.849121094],[108.99987793000001,21.832885742],[108.95690918000001,21.820678711],[108.93792724600002,21.797912598],[108.91131591800001,21.762878418],[108.91192627,21.761474609],[108.91851806600002,21.761474609],[108.91870117200001,21.760498047],[108.93768310500002,21.759277344],[108.92230224600002,21.746276855],[108.90008544900002,21.73651123],[108.87512207000002,21.726074219],[108.86651611300002,21.71472168],[108.86627197300001,21.713317871],[108.86651611300002,21.711486816],[108.86572265600002,21.710510254],[108.85931396500001,21.680297852],[108.86212158200001,21.679077148],[108.87207031200002,21.671691895],[108.87768554700001,21.669677734],[108.89068603500002,21.669921875],[108.89611816400001,21.675109863],[108.89648437500001,21.666503906],[108.89971923800002,21.658325195],[108.89831543000001,21.654296875],[108.90112304700001,21.650512695],[108.89672851600001,21.648681641],[108.89691162100002,21.646484375],[108.90270996100001,21.643920898],[108.90228271500001,21.639282227],[108.90252685500002,21.639099121],[108.90527343700002,21.624328613],[108.90771484400001,21.61907959],[108.90930175800001,21.617919922],[108.921875,21.614929199],[108.92767334000001,21.610473633],[108.93908691400001,21.610107422],[108.94348144500002,21.611328125],[108.95111084000001,21.605712891],[108.96112060500002,21.602905273],[108.97052002,21.603271484],[108.97192382800002,21.603271484],[108.97747802700002,21.605285645],[108.98791503900001,21.605285645],[109.00628662100002,21.610290527],[109.01287841800001,21.616516113],[109.00512695300002,21.624084473],[109.00408935500002,21.626708984],[109.00592041000002,21.628479004],[109.01129150400001,21.622924805],[109.01672363300001,21.620117187],[109.02209472700001,21.620483398],[109.06408691400001,21.635498047],[109.06787109400001,21.638916016],[109.06872558600001,21.640686035],[109.06988525400001,21.644104004],[109.06811523400002,21.650085449],[109.06988525400001,21.654907227],[109.07391357400002,21.656311035],[109.07592773400002,21.657287598],[109.07232666000002,21.651672363],[109.07330322300001,21.643127441],[109.06927490200002,21.631896973],[109.070129395,21.629089355],[109.07232666000002,21.629272461],[109.07507324200002,21.632324219],[109.07690429700001,21.612915039],[109.07788085900002,21.610290527],[109.07989502,21.60949707],[109.07830810500002,21.600097656],[109.08288574200002,21.593322754],[109.09130859400001,21.589904785],[109.09411621100001,21.594909668],[109.09991455100001,21.591308594],[109.11328125000001,21.586914062],[109.11529541000002,21.588500977],[109.11407470700001,21.59387207],[109.11511230500001,21.596130371],[109.11828613300001,21.593322754],[109.12292480500001,21.593505859],[109.12329101600001,21.590270996],[109.12567138700001,21.588928223],[109.13049316400001,21.588684082],[109.12969970700001,21.586486816],[109.13171386700002,21.582885742],[109.13970947300001,21.579528809],[109.14111328100002,21.584289551],[109.14068603500002,21.585510254],[109.13970947300001,21.590698242],[109.14093017600001,21.595092773],[109.14672851600001,21.600524902],[109.14831543000001,21.596679687],[109.14648437500001,21.58770752],[109.14770507800002,21.581726074],[109.15130615200002,21.589477539],[109.15148925800001,21.572875977],[109.15368652300002,21.569091797],[109.15270996100001,21.564880371],[109.16430664100001,21.551879883],[109.16687011700002,21.542114258],[109.16772460900002,21.533691406],[109.16790771500001,21.532897949],[109.16510009800001,21.524291992],[109.15887451200001,21.514709473],[109.15869140600002,21.514526367],[109.15869140600002,21.511901855],[109.15087890600002,21.502502441],[109.12347412100002,21.491088867],[109.11810302700002,21.487915039],[109.11389160200001,21.486877441],[109.06829834000001,21.468078613],[109.05010986300002,21.460876465],[109.04351806600002,21.455505371],[109.04248046900001,21.451293945],[109.04589843700002,21.441894531],[109.04547119100002,21.4375],[109.04870605500001,21.436279297],[109.05267334000001,21.441711426],[109.05792236300002,21.445922852],[109.06091308600001,21.446289062],[109.06591796900001,21.438110352],[109.07971191400001,21.434692383],[109.09649658200001,21.428283691],[109.11248779300001,21.418273926],[109.11767578100002,21.41809082],[109.12207031200002,21.417907715],[109.12487793000001,21.413085937],[109.12707519500002,21.41192627],[109.13208007800002,21.412719727],[109.14648437500001,21.404296875],[109.15588378900001,21.401672363],[109.16052246100001,21.402282715],[109.16168212900001,21.405090332],[109.15747070300002,21.412109375],[109.16070556600002,21.415100098],[109.18188476600001,21.413696289],[109.18707275400001,21.41607666],[109.19451904300001,21.428710937],[109.20611572300001,21.443115234],[109.20892334000001,21.446472168],[109.22308349600002,21.46887207],[109.22808837900001,21.473510742],[109.23272705100001,21.477478027],[109.23791503900001,21.468688965],[109.238098145,21.46887207],[109.24127197300001,21.47088623],[109.24169921900001,21.465881348],[109.24108886700002,21.463317871],[109.24353027300002,21.459106445],[109.24407959000001,21.453674316],[109.24468994100002,21.446105957],[109.24768066400001,21.433105469],[109.25531005900001,21.43371582],[109.25750732400002,21.43548584],[109.26092529300001,21.434082031],[109.26629638700001,21.434692383],[109.26812744100002,21.436889648],[109.27148437500001,21.436279297],[109.27270507800002,21.435119629],[109.27789306600002,21.43572998],[109.27911377,21.439086914],[109.28070068400001,21.439697266],[109.28247070300002,21.436096191],[109.29809570300002,21.437316895],[109.30651855500001,21.447875977],[109.30712890600002,21.448730469],[109.30712890600002,21.448913574],[109.31890869100002,21.463500977],[109.32592773400002,21.461914062],[109.32708740200002,21.467712402],[109.32568359400001,21.479309082],[109.32672119100002,21.48248291],[109.33050537100002,21.47467041],[109.33532714800002,21.470703125],[109.33752441400001,21.465698242],[109.33648681600002,21.461730957],[109.33508300800001,21.459716797],[109.33728027300002,21.459106445],[109.33929443400001,21.452087402],[109.35607910200001,21.453125],[109.36151123000002,21.454101562],[109.36828613300001,21.455322266],[109.38830566400001,21.461914062],[109.39752197300001,21.459289551],[109.40948486300002,21.458496094],[109.41650390600002,21.455078125],[109.421691895,21.454528809],[109.42468261700002,21.458679199],[109.43371582000002,21.458312988],[109.44769287100002,21.461730957],[109.45910644500002,21.48248291],[109.46228027300002,21.479309082],[109.46447753900001,21.480895996],[109.46948242200001,21.494506836],[109.47290039100001,21.493103027],[109.47509765600002,21.488891602],[109.47509765600002,21.488098145],[109.47650146500001,21.477111816],[109.47888183600001,21.473510742],[109.48370361300002,21.472717285],[109.53631591800001,21.502502441],[109.54467773400002,21.509887695],[109.54968261700002,21.517089844],[109.54388427700002,21.531494141],[109.54467773400002,21.545471191],[109.55029296900001,21.559509277],[109.55108642600001,21.571472168],[109.55108642600001,21.580688477],[109.546875,21.597473145],[109.54010009800001,21.611328125],[109.50891113300001,21.633300781],[109.50170898400002,21.63671875],[109.47772216800001,21.647888184],[109.45727539100001,21.655090332],[109.47772216800001,21.660705566],[109.47607421900001,21.661682129],[109.46508789100001,21.664306641],[109.46411132800002,21.665710449],[109.46710205100001,21.671081543],[109.46929931600002,21.671325684],[109.48370361300002,21.665100098],[109.48468017600001,21.664672852],[109.49029541000002,21.664672852],[109.49530029300001,21.667114258],[109.50109863300001,21.662475586],[109.50952148400002,21.663085937],[109.51910400400001,21.671508789],[109.50830078100002,21.688110352],[109.50592041000002,21.685913086],[109.50268554700001,21.687316895],[109.50250244100002,21.690124512],[109.50347900400001,21.69128418],[109.49847412100002,21.694702148],[109.49468994100002,21.69708252],[109.49688720700001,21.697509766],[109.50427246100001,21.698303223],[109.49749755900001,21.706298828],[109.50170898400002,21.714904785],[109.50549316400001,21.717285156],[109.50891113300001,21.717895508],[109.50848388700001,21.707885742],[109.51251220700001,21.708129883],[109.51452636700002,21.713500977],[109.52191162100002,21.714904785],[109.52191162100002,21.722106934],[109.51812744100002,21.722106934],[109.51788330100001,21.725280762],[109.55389404300001,21.757080078],[109.55810546900001,21.752929687],[109.5625,21.752685547],[109.56951904300001,21.762084961],[109.56988525400001,21.760498047],[109.57031250000001,21.757873535],[109.56652832000002,21.746887207],[109.56591796900001,21.740722656],[109.57147216800001,21.755310059],[109.57312011700002,21.762695312],[109.57507324200002,21.748901367],[109.57727050800001,21.749694824],[109.57867431600002,21.747680664],[109.57849121100001,21.741882324],[109.58190918000001,21.74230957],[109.58551025400001,21.740478516],[109.59130859400001,21.745117187],[109.59448242200001,21.739929199],[109.59149169900002,21.737121582],[109.58752441400001,21.73651123],[109.58532714800002,21.73449707],[109.58410644500002,21.731872559],[109.60467529300001,21.739685059],[109.55767822300001,21.694885254],[109.55731201200001,21.694091797],[109.562316895,21.691101074],[109.55810546900001,21.686523437],[109.55987548800002,21.685119629],[109.56311035200001,21.684326172],[109.56787109400001,21.686523437],[109.56689453100002,21.681518555],[109.56909179700001,21.676330566],[109.56707763700001,21.673522949],[109.56152343700002,21.674926758],[109.55950927700002,21.675476074],[109.55889892600001,21.673095703],[109.56072998000002,21.668273926],[109.56292724600002,21.667297363],[109.56829834000001,21.669921875],[109.57373046900001,21.668701172],[109.57751464800002,21.671325684],[109.57830810500002,21.668884277],[109.57568359400001,21.660522461],[109.570129395,21.660095215],[109.56732177700002,21.656494141],[109.56872558600001,21.65447998],[109.57489013700001,21.655090332],[109.57629394500002,21.651916504],[109.57647705100001,21.639526367],[109.57867431600002,21.635681152],[109.58392334000001,21.639099121],[109.59588623000002,21.647094727],[109.59613037100002,21.639526367],[109.59851074200002,21.647888184],[109.60748291000002,21.651672363],[109.61010742200001,21.655273437],[109.61230468700002,21.655700684],[109.61407470700001,21.650878906],[109.61248779300001,21.646484375],[109.61029052700002,21.643920898],[109.60968017600001,21.643676758],[109.60449218700002,21.641479492],[109.60107421900001,21.637084961],[109.60290527300002,21.634521484],[109.60247802700002,21.622924805],[109.59967041000002,21.621704102],[109.60308837900001,21.616271973],[109.60247802700002,21.610290527],[109.60388183600001,21.607116699],[109.60791015600002,21.606079102],[109.61169433600001,21.59967041],[109.62408447300001,21.608276367],[109.62609863300001,21.60748291],[109.61627197300001,21.597900391],[109.62048339800002,21.587280273],[109.61889648400002,21.58392334],[109.61248779300001,21.585083008],[109.60552978500002,21.584106445],[109.60430908200001,21.581298828],[109.60552978500002,21.579101562],[109.61328125000001,21.575073242],[109.61389160200001,21.574707031],[109.61749267600001,21.569274902],[109.62048339800002,21.568908691],[109.62530517600001,21.585876465],[109.62548828100002,21.586914062],[109.64093017600001,21.601928711],[109.65350341800001,21.606689453],[109.66009521500001,21.60748291],[109.66467285200001,21.610107422],[109.66369628900001,21.612487793],[109.65850830100001,21.615905762],[109.65991210900002,21.618286133],[109.66247558600001,21.618286133],[109.66912841800001,21.612915039],[109.67309570300002,21.613525391],[109.67871093700002,21.620483398],[109.68231201200001,21.621276855],[109.69628906200002,21.653503418]]]]}}
