{"type":"Feature","id":"bulk-99377448B62394848254171","bbox":[101.29309082000002,23.344116211,103.13348388700001,24.964111328],"properties":{"id":"bulk-99377448B62394848254171","name":"Yuxi","nameEn":"Yuxi","fullName":"Yuxi","level":"city","boundaryRole":"administrative-extent","boundaryQuality":"generalized-source-2020","boundaryYearRepresented":"2020","bounds":[[101.29309082000002,23.344116211],[103.13348388700001,24.964111328]],"center":[102.21328735350002,24.1541137695],"centerMethod":"bounding-box midpoint; camera framing only","license":"CC-BY-3.0-IGO","attribution":"geoBoundaries / HDX, China administrative boundaries (2020)","source":{"provider":"geoBoundaries gbHumanitarian / HDX","url":"https://github.com/wmgeolab/geoBoundaries/raw/9469f09/releaseData/gbHumanitarian/CHN/ADM2/geoBoundaries-CHN-ADM2.geojson","metadataUrl":"https://www.geoboundaries.org/api/current/gbHumanitarian/CHN/ADM2/","shapeID":"99377448B62394848254171","shapeName":"Yuxi","boundaryID":"CHN-ADM2-99377448","commit":"9469f09"},"geometryCounts":{"coordinates":228,"components":1,"holes":0},"boundaryNotice":"geoBoundaries / HDX 2020 年行政区数据，海岸和边界经过源数据概化，并非当前测绘成果。"},"geometry":{"type":"Polygon","coordinates":[[[101.29309082000002,24.328918457],[101.30889892600001,24.300109863],[101.32287597700001,24.275878906],[101.34631347700001,24.232299805],[101.36889648400002,24.190917969],[101.39093017600001,24.157714844],[101.41247558600001,24.123901367],[101.42150878900001,24.093688965],[101.42987060500002,24.067321777],[101.44952392600001,24.041503906],[101.47607421900001,24.02947998],[101.49810791000002,23.991088867],[101.50549316400001,23.943115234],[101.49847412100002,23.913513184],[101.47912597700001,23.890075684],[101.44268798800002,23.864685059],[101.39569091800001,23.851074219],[101.42492675800001,23.827087402],[101.40509033200001,23.774719238],[101.41870117200001,23.749084473],[101.45129394500002,23.764099121],[101.488098145,23.777282715],[101.51593017600001,23.790893555],[101.55267334000001,23.796691895],[101.57470703100002,23.766113281],[101.58648681600002,23.725708008],[101.59271240200002,23.698120117],[101.60913085900002,23.669677734],[101.64648437500001,23.671508789],[101.686523437,23.691711426],[101.69567871100001,23.636108398],[101.71008300800001,23.593688965],[101.73968505900001,23.569274902],[101.75152587900001,23.538085937],[101.76452636700002,23.503295898],[101.75091552700002,23.477294922],[101.74389648400002,23.438476562],[101.76049804700001,23.407714844],[101.79547119100002,23.400085449],[101.82849121100001,23.397277832],[101.88330078100002,23.383483887],[101.93408203100002,23.397094727],[101.96032714800002,23.384094238],[101.995910645,23.362670898],[102.03192138700001,23.348327637],[102.06610107400002,23.344116211],[102.10192871100001,23.351501465],[102.13647460900002,23.371520996],[102.15289306600002,23.395324707],[102.17907714800002,23.428710937],[102.19787597700001,23.450927734],[102.22467041000002,23.464294434],[102.25347900400001,23.450927734],[102.29431152300002,23.43371582],[102.32629394500002,23.431884766],[102.36029052700002,23.453125],[102.37249755900001,23.485290527],[102.370117187,23.512878418],[102.35107421900001,23.542114258],[102.33990478500002,23.573730469],[102.32269287100002,23.606872559],[102.30548095700001,23.634887695],[102.28271484400001,23.66192627],[102.252929687,23.689880371],[102.23968505900001,23.726318359],[102.22967529300001,23.752319336],[102.19909668000001,23.782287598],[102.17431640600002,23.802307129],[102.15832519500002,23.833679199],[102.16027832000002,23.846679687],[102.19030761700002,23.869689941],[102.22808837900001,23.878112793],[102.25927734400001,23.87689209],[102.296691895,23.880126953],[102.30212402300002,23.907104492],[102.26489257800002,23.92590332],[102.24328613300001,23.961730957],[102.23547363300001,24.00970459],[102.30627441400001,24.054077148],[102.34912109400001,24.077514648],[102.33312988300001,24.102478027],[102.34307861300002,24.128723145],[102.37432861300002,24.118713379],[102.42028808600001,24.096923828],[102.45251464800002,24.094299316],[102.49249267600001,24.08770752],[102.52429199200002,24.065490723],[102.55828857400002,24.044921875],[102.58447265600002,24.058898926],[102.61291503900001,24.093078613],[102.62530517600001,24.049316406],[102.627929687,24.017700195],[102.63891601600001,23.982299805],[102.70428466800001,23.971923828],[102.72351074200002,23.996276855],[102.74987793000001,24.021728516],[102.77947998000002,24.050476074],[102.804504395,24.074523926],[102.83990478500002,24.064697266],[102.88031005900001,24.009887695],[102.90771484400001,24.030273437],[102.91168212900001,24.059875488],[102.93188476600001,24.083679199],[102.96752929700001,24.102111816],[103.00170898400002,24.089477539],[103.03247070300002,24.101074219],[103.05487060500002,24.128295898],[103.078125,24.157897949],[103.09210205100001,24.19128418],[103.12451171900001,24.221496582],[103.120910645,24.312316895],[103.11871337900001,24.341125488],[103.11651611300002,24.369873047],[103.09191894500002,24.382873535],[103.09088134800001,24.397277832],[103.08972168000001,24.411682129],[103.11108398400002,24.442077637],[103.13348388700001,24.457885742],[103.13012695300002,24.501098633],[103.12689209000001,24.544311523],[103.07971191400001,24.541320801],[103.05407714800002,24.568725586],[103.05871582000002,24.631530762],[103.03387451200001,24.647705078],[103.02508544900002,24.67590332],[103.03448486300002,24.711120605],[103.04992675800001,24.746276855],[103.071289062,24.773925781],[103.06188964800002,24.801330566],[103.02929687500001,24.800476074],[103.02893066400001,24.853881836],[103.03930664100001,24.884887695],[103.00207519500002,24.940917969],[102.94848632800002,24.900695801],[102.93627929700001,24.868530273],[102.929504395,24.822692871],[102.90948486300002,24.789306641],[102.86669921900001,24.780883789],[102.85870361300002,24.752929687],[102.86511230500001,24.718078613],[102.85009765600002,24.694274902],[102.83032226600001,24.670288086],[102.81549072300001,24.644714355],[102.80548095700001,24.617126465],[102.80529785200001,24.588500977],[102.82568359400001,24.553894043],[102.81628418000001,24.520080566],[102.76727294900002,24.505493164],[102.73468017600001,24.489685059],[102.69873046900001,24.478271484],[102.69250488300001,24.513305664],[102.64508056600002,24.518310547],[102.61450195300002,24.53112793],[102.59948730500001,24.567504883],[102.52270507800002,24.555114746],[102.46490478500002,24.535095215],[102.43609619100002,24.523071289],[102.39971923800002,24.510925293],[102.37512207000002,24.491516113],[102.36328125000001,24.459106445],[102.32690429700001,24.44732666],[102.25848388700001,24.469482422],[102.23107910200001,24.486083984],[102.20648193400001,24.511108398],[102.24969482400002,24.551696777],[102.28387451200001,24.569091797],[102.30187988300001,24.641479492],[102.29711914100001,24.686523437],[102.296691895,24.719482422],[102.29907226600001,24.751525879],[102.30529785200001,24.792297363],[102.31530761700002,24.823120117],[102.32708740200002,24.856323242],[102.329101562,24.885498047],[102.31750488300001,24.910705566],[102.29510498000002,24.934082031],[102.25408935500002,24.964111328],[102.23211669900002,24.937683105],[102.19989013700001,24.938476562],[102.16790771500001,24.963317871],[102.13092041000002,24.952270508],[102.120910645,24.920898437],[102.09027099600002,24.895080566],[102.04772949200002,24.899108887],[102.004882812,24.905090332],[102.03790283200001,24.827087402],[102.02032470700001,24.796875],[101.995117187,24.778320312],[101.97509765600002,24.757873535],[101.96887207000002,24.727478027],[101.98468017600001,24.687683105],[101.99047851600001,24.652709961],[101.98352050800001,24.621704102],[101.96087646500001,24.597473145],[101.98950195300002,24.560302734],[102.01568603500002,24.512084961],[102.02728271500001,24.435119629],[102.01971435500002,24.40032959],[102.04388427700002,24.368103027],[102.03131103500002,24.333679199],[102.01831054700001,24.299926758],[101.99389648400002,24.269470215],[101.96148681600002,24.263305664],[101.92132568400001,24.243286133],[101.83911132800002,24.230285645],[101.79168701200001,24.278503418],[101.76751709000001,24.306274414],[101.74548339800002,24.330078125],[101.71612548800002,24.34588623],[101.69232177700002,24.364685059],[101.65509033200001,24.350280762],[101.64569091800001,24.31072998],[101.63110351600001,24.282104492],[101.60168457000002,24.245300293],[101.56170654300001,24.224487305],[101.520507812,24.218322754],[101.50671386700002,24.24432373],[101.49908447300001,24.272705078],[101.47912597700001,24.300720215],[101.46752929700001,24.332702637],[101.47192382800002,24.366882324],[101.44830322300001,24.392272949],[101.421875,24.407897949],[101.38787841800001,24.402709961],[101.37347412100002,24.364074707],[101.35070800800001,24.331481934],[101.32330322300001,24.303283691],[101.29309082000002,24.328918457]]]}}
