{"type":"Feature","id":"bulk-99377448B60315686930267","bbox":[130.36730957,44.860107422,133.86370849600002,46.585876465],"properties":{"id":"bulk-99377448B60315686930267","name":"Jixi","nameEn":"Jixi","fullName":"Jixi","level":"city","boundaryRole":"administrative-extent","boundaryQuality":"generalized-source-2020","boundaryYearRepresented":"2020","bounds":[[130.36730957,44.860107422],[133.86370849600002,46.585876465]],"center":[132.11550903300002,45.7229919435],"centerMethod":"bounding-box midpoint; camera framing only","license":"CC-BY-3.0-IGO","attribution":"geoBoundaries / HDX, China administrative boundaries (2020)","source":{"provider":"geoBoundaries gbHumanitarian / HDX","url":"https://github.com/wmgeolab/geoBoundaries/raw/9469f09/releaseData/gbHumanitarian/CHN/ADM2/geoBoundaries-CHN-ADM2.geojson","metadataUrl":"https://www.geoboundaries.org/api/current/gbHumanitarian/CHN/ADM2/","shapeID":"99377448B60315686930267","shapeName":"Jixi","boundaryID":"CHN-ADM2-99377448","commit":"9469f09"},"geometryCounts":{"coordinates":336,"components":1,"holes":0},"boundaryNotice":"geoBoundaries / HDX 2020 年行政区数据，海岸和边界经过源数据概化，并非当前测绘成果。"},"geometry":{"type":"Polygon","coordinates":[[[133.78869628900003,46.495117187],[133.71368408200001,46.507324219],[133.66748046900003,46.508300781],[133.62768554700003,46.51550293],[133.592285156,46.527282715],[133.542724609,46.523071289],[133.49810791000002,46.512878418],[133.45050048800002,46.514099121],[133.417907715,46.539489746],[133.34271240200002,46.539306641],[133.304077148,46.554321289],[133.27648925800003,46.577514648],[133.23712158200001,46.585876465],[133.20550537100002,46.567321777],[133.191894531,46.538696289],[133.179077148,46.509277344],[133.17028808600003,46.476318359],[133.13232421900003,46.457885742],[133.091918945,46.458312988],[133.049682617,46.446472168],[133.03411865200002,46.409484863],[133.02008056600002,46.374694824],[132.999084473,46.344482422],[132.98492431600002,46.311096191],[132.97271728500002,46.274108887],[132.95507812500003,46.239685059],[132.93011474600002,46.19732666],[132.908325195,46.163330078],[132.884887695,46.135070801],[132.81628418000003,46.13848877],[132.767700195,46.140930176],[132.731506348,46.16229248],[132.69232177700002,46.16192627],[132.65631103500002,46.148071289],[132.625305176,46.131713867],[132.57891845700001,46.102905273],[132.541687012,46.075073242],[132.508483887,46.047302246],[132.489318848,46.022888184],[132.45849609400003,45.988708496],[132.421081543,45.972717285],[132.38708496100003,46.00012207],[132.347106934,46.016479492],[132.301086426,46.022521973],[132.25872802700002,46.00567627],[132.24188232400002,45.979919434],[132.241271973,45.945922852],[132.21771240200002,45.91607666],[132.23211669900002,45.888122559],[132.22430419900002,45.850708008],[132.177307129,45.842895508],[132.137695312,45.832885742],[132.086914062,45.825317383],[132.020507812,45.822509766],[131.965515137,45.832702637],[131.935302734,45.854125977],[131.895874023,45.868530273],[131.85748291000002,45.843322754],[131.82611084,45.814086914],[131.80291748000002,45.788513184],[131.76489257800003,45.77947998],[131.74792480500003,45.814880371],[131.762878418,45.856506348],[131.76867675800003,45.887695312],[131.760070801,45.889282227],[131.71667480500003,45.896911621],[131.66729736300002,45.887512207],[131.61389160200002,45.89630127],[131.57232666000002,45.901489258],[131.527282715,45.890930176],[131.48352050800003,45.863708496],[131.45892334,45.839477539],[131.44250488300003,45.811889648],[131.44708252,45.780273437],[131.403686523,45.757080078],[131.39971923800002,45.728881836],[131.36151123000002,45.713317871],[131.31927490200002,45.697692871],[131.28448486300002,45.666320801],[131.27532959,45.637084961],[131.238098145,45.629089355],[131.196472168,45.616516113],[131.15252685500002,45.625488281],[131.11370849600002,45.611083984],[131.087280273,45.634277344],[131.03527832,45.633728027],[130.99987793000003,45.651672363],[130.970275879,45.675476074],[130.92071533200001,45.652893066],[130.89208984400003,45.622314453],[130.83868408200001,45.605895996],[130.78271484400003,45.606872559],[130.742126465,45.621520996],[130.704101562,45.636291504],[130.674682617,45.598327637],[130.70391845700001,45.547119141],[130.70111084,45.519714355],[130.65148925800003,45.47088623],[130.584289551,45.421691895],[130.54510498000002,45.398071289],[130.49987793000003,45.373718262],[130.47308349600002,45.347717285],[130.45031738300003,45.319274902],[130.46112060500002,45.290527344],[130.45989990200002,45.26348877],[130.43450927700002,45.237487793],[130.4375,45.205688477],[130.42047119100002,45.171081543],[130.36730957,45.137084961],[130.41107177700002,45.098510742],[130.446716309,45.088928223],[130.48107910200002,45.103271484],[130.53112793000003,45.109680176],[130.54748535200002,45.104675293],[130.55010986300002,45.105102539],[130.58648681600002,45.094299316],[130.617126465,45.07409668],[130.62731933600003,45.048095703],[130.63708496100003,45.015319824],[130.66247558600003,44.993286133],[130.686889648,45.003723145],[130.71771240200002,45.032714844],[130.75610351600002,45.035095215],[130.77191162100002,45.030273437],[130.77508544900002,45.030517578],[130.81292724600002,45.019104004],[130.827514648,45.014709473],[130.90588378900003,45.011474609],[130.95587158200001,44.860107422],[130.95867919900002,44.861877441],[130.98992919900002,44.877685547],[131.01171875000003,44.880126953],[131.01867675800003,44.898498535],[131.036499023,44.927307129],[131.09649658200001,44.933288574],[131.09948730500003,44.931884766],[131.10168457,44.931884766],[131.10992431600002,44.931884766],[131.114318848,44.931884766],[131.11791992200003,44.932495117],[131.12310791000002,44.935119629],[131.12750244100002,44.938110352],[131.13208007800003,44.941894531],[131.14031982400002,44.943908691],[131.14611816400003,44.94128418],[131.15148925800003,44.938476562],[131.155700684,44.934692383],[131.161682129,44.932922363],[131.166687012,44.933105469],[131.170898437,44.933898926],[131.174316406,44.93371582],[131.179077148,44.932678223],[131.18432617200003,44.931518555],[131.18811035200002,44.930114746],[131.19110107400002,44.927490234],[131.19592285200002,44.923522949],[131.19610595700001,44.923278809],[131.20111084,44.928894043],[131.223327637,44.923706055],[131.23168945300003,44.951293945],[131.24768066400003,44.986877441],[131.335876465,44.980529785],[131.33612060500002,44.980712891],[131.34008789100002,44.983886719],[131.345092773,44.985473633],[131.35052490200002,44.986083984],[131.35510253900003,44.984924316],[131.35888671900003,44.98248291],[131.36389160200002,44.980102539],[131.36651611300002,44.978271484],[131.37768554700003,44.977478027],[131.38110351600002,44.978881836],[131.387878418,44.982727051],[131.395690918,44.984130859],[131.40112304700003,44.982910156],[131.40588378900003,44.981079102],[131.411315918,44.978515625],[131.41467285200002,44.976074219],[131.441711426,45.006103516],[131.491088867,45.032897949],[131.52929687500003,45.049499512],[131.54852294900002,45.06427002],[131.587280273,45.077880859],[131.616271973,45.107910156],[131.61169433600003,45.127075195],[131.582885742,45.141723633],[131.631896973,45.209472656],[131.669311523,45.206481934],[131.671691895,45.209472656],[131.67510986300002,45.213684082],[131.67987060500002,45.215087891],[131.68469238300003,45.215270996],[131.69708252,45.215881348],[131.70190429700003,45.219482422],[131.70489502,45.222473145],[131.709472656,45.224487305],[131.71807861300002,45.225524902],[131.72387695300003,45.226318359],[131.72851562500003,45.225280762],[131.748718262,45.247497559],[131.76171875000003,45.276123047],[131.77368164100002,45.297485352],[131.81488037100002,45.33972168],[131.847473145,45.333679199],[131.852722168,45.32232666],[131.852722168,45.322509766],[131.856872559,45.325317383],[131.862487793,45.326721191],[131.864685059,45.32989502],[131.86450195300003,45.334472656],[131.867675781,45.339294434],[131.87487793000003,45.341491699],[131.88128662100002,45.340881348],[131.88690185500002,45.341125488],[131.894287109,45.340881348],[131.900695801,45.339477539],[131.90447998000002,45.337890625],[131.90948486300002,45.335876465],[131.91430664100002,45.335510254],[131.919128418,45.323120117],[131.927124023,45.289916992],[131.93487548800002,45.281677246],[131.943481445,45.279907227],[131.97290039100002,45.275085449],[131.98352050800003,45.272521973],[131.991271973,45.267272949],[131.995910645,45.259521484],[132.00231933600003,45.249084473],[132.844726562,45.060119629],[132.858093262,45.059082031],[132.866088867,45.055908203],[132.86968994100002,45.052307129],[132.87188720700001,45.047485352],[132.87292480500003,45.044677734],[132.875671387,45.044128418],[132.881896973,45.042114258],[132.88751220700001,45.040710449],[132.89709472700002,45.038696289],[132.902282715,45.03729248],[132.90667724600002,45.032287598],[132.91052246100003,45.033691406],[132.91571044900002,45.034301758],[132.922912598,45.032104492],[132.92510986300002,45.028930664],[132.928894043,45.026916504],[132.929077148,45.026489258],[132.95587158200001,45.027282715],[132.96649169900002,45.032104492],[132.96350097700002,45.033508301],[132.96649169900002,45.035888672],[132.97467041000002,45.037109375],[132.97888183600003,45.039916992],[132.983276367,45.044128418],[132.99151611300002,45.044494629],[132.99291992200003,45.044677734],[133.01751709,45.056274414],[133.03247070300003,45.063720703],[133.03247070300003,45.064880371],[133.028503418,45.067077637],[133.032104492,45.069519043],[133.038085937,45.074279785],[133.03912353500002,45.077270508],[133.04248046900003,45.078918457],[133.05328369100002,45.084899902],[133.052307129,45.086120605],[133.049499512,45.090270996],[133.05468750000003,45.09387207],[133.059082031,45.097473145],[133.06372070300003,45.100097656],[133.071716309,45.098510742],[133.07611084,45.098876953],[133.07708740200002,45.09967041],[133.08868408200001,45.135070801],[133.093322754,45.160522461],[133.08367919900002,45.1796875],[133.08032226600002,45.194274902],[133.070129395,45.215515137],[133.05511474600002,45.243103027],[133.049682617,45.260070801],[133.04809570300003,45.286315918],[133.05847168000003,45.313476562],[133.05651855500003,45.321716309],[133.06652832,45.341918945],[133.07232666000002,45.375488281],[133.08612060500002,45.408691406],[133.11450195300003,45.446105957],[133.12347412100002,45.481079102],[133.144287109,45.511291504],[133.174316406,45.528686523],[133.225097656,45.536499023],[133.25970459,45.547485352],[133.30328369100002,45.557312012],[133.351318359,45.588684082],[133.37731933600003,45.609680176],[133.405273437,45.63671875],[133.415100098,45.665893555],[133.39227294900002,45.697692871],[133.37268066400003,45.719482422],[133.39227294900002,45.737915039],[133.434082031,45.769287109],[133.42828369100002,45.796508789],[133.403686523,45.835083008],[133.42150878900003,45.848083496],[133.444702148,45.884521484],[133.46612548800002,45.899719238],[133.51489257800003,45.891723633],[133.52532959,45.892272949],[133.55511474600002,45.927124023],[133.593322754,45.947875977],[133.63049316400003,45.966125488],[133.635925293,45.982116699],[133.64831543000003,46.006286621],[133.668273926,46.02911377],[133.68188476600002,46.053100586],[133.67852783200001,46.074279785],[133.671081543,46.096130371],[133.663879395,46.126281738],[133.65130615200002,46.148925781],[133.66748046900003,46.164123535],[133.69610595700001,46.168701172],[133.72729492200003,46.172912598],[133.74468994100002,46.19152832],[133.75927734400003,46.214477539],[133.78289794900002,46.223693848],[133.81829834,46.231689453],[133.84692382800003,46.240112305],[133.862304687,46.261108398],[133.86370849600002,46.296325684],[133.83331298800002,46.33807373],[133.85552978500002,46.358703613],[133.86187744100002,46.381103516],[133.83630371100003,46.408691406],[133.816711426,46.430725098],[133.796691895,46.459289551],[133.78308105500003,46.486877441],[133.78869628900003,46.495117187]]]}}
