{"type":"Feature","id":"bulk-99377448B67633295036275","bbox":[110.11090087900001,18.975524902,110.68011474600002,19.470703125],"properties":{"id":"bulk-99377448B67633295036275","name":"Qionghai City","nameEn":"Qionghai City","fullName":"Qionghai City","level":"city","boundaryRole":"administrative-extent","boundaryQuality":"generalized-source-2020","boundaryYearRepresented":"2020","bounds":[[110.11090087900001,18.975524902],[110.68011474600002,19.470703125]],"center":[110.39550781250001,19.223114013500002],"centerMethod":"bounding-box midpoint; camera framing only","license":"CC-BY-3.0-IGO","attribution":"geoBoundaries / HDX, China administrative boundaries (2020)","source":{"provider":"geoBoundaries gbHumanitarian / HDX","url":"https://github.com/wmgeolab/geoBoundaries/raw/9469f09/releaseData/gbHumanitarian/CHN/ADM2/geoBoundaries-CHN-ADM2.geojson","metadataUrl":"https://www.geoboundaries.org/api/current/gbHumanitarian/CHN/ADM2/","shapeID":"99377448B67633295036275","shapeName":"Qionghai City","boundaryID":"CHN-ADM2-99377448","commit":"9469f09"},"geometryCounts":{"coordinates":1109,"components":8,"holes":0},"boundaryNotice":"geoBoundaries / HDX 2020 年行政区数据，海岸和边界经过源数据概化，并非当前测绘成果。"},"geometry":{"type":"MultiPolygon","coordinates":[[[[110.55749511700002,19.13848877],[110.55767822300001,19.138305664],[110.55767822300001,19.13848877],[110.55749511700002,19.13848877]]],[[[110.52172851600001,19.133300781],[110.52471923800002,19.134094238],[110.52789306600002,19.137878418],[110.52471923800002,19.141296387],[110.51550293000001,19.143676758],[110.51312255900001,19.141723633],[110.51330566400001,19.137878418],[110.52172851600001,19.133300781]]],[[[110.57171630900001,19.142272949],[110.56427002,19.146484375],[110.56427002,19.145690918],[110.56408691400001,19.145690918],[110.56408691400001,19.145507812],[110.56347656200002,19.145507812],[110.56347656200002,19.145080566],[110.56268310500002,19.145080566],[110.56268310500002,19.144897461],[110.56152343700002,19.144897461],[110.56152343700002,19.144714355],[110.56109619100002,19.144714355],[110.56109619100002,19.144287109],[110.56048584000001,19.144287109],[110.56048584000001,19.143310547],[110.56072998000002,19.143310547],[110.56072998000002,19.142883301],[110.56109619100002,19.142883301],[110.56109619100002,19.142700195],[110.56127929700001,19.142700195],[110.56127929700001,19.142089844],[110.56152343700002,19.142089844],[110.56152343700002,19.141906738],[110.56188964800002,19.141906738],[110.56188964800002,19.141296387],[110.56152343700002,19.141296387],[110.56152343700002,19.141113281],[110.56127929700001,19.141113281],[110.56127929700001,19.140686035],[110.56072998000002,19.140686035],[110.56072998000002,19.138305664],[110.56109619100002,19.138305664],[110.56109619100002,19.137329102],[110.56127929700001,19.137512207],[110.56127929700001,19.136901855],[110.56152343700002,19.136901855],[110.56152343700002,19.136108398],[110.56188964800002,19.136108398],[110.56188964800002,19.135498047],[110.5625,19.135498047],[110.5625,19.135070801],[110.56488037100002,19.135070801],[110.56488037100002,19.135498047],[110.56652832000002,19.135498047],[110.56652832000002,19.136291504],[110.56689453100002,19.136291504],[110.56689453100002,19.138305664],[110.56787109400001,19.138305664],[110.56787109400001,19.137878418],[110.56909179700001,19.137878418],[110.56909179700001,19.138305664],[110.570129395,19.138305664],[110.570129395,19.13848877],[110.57110595700001,19.13848877],[110.57110595700001,19.138671875],[110.57189941400001,19.138671875],[110.57189941400001,19.139099121],[110.57171630900001,19.142272949]]],[[[110.56347656200002,19.147094727],[110.55889892600001,19.149719238],[110.55889892600001,19.148681641],[110.55889892600001,19.148498535],[110.55908203100002,19.148498535],[110.55908203100002,19.147705078],[110.55932617200001,19.147705078],[110.55932617200001,19.146911621],[110.55969238300001,19.146911621],[110.55969238300001,19.146484375],[110.55987548800002,19.146484375],[110.55987548800002,19.146118164],[110.56011962900001,19.146118164],[110.56011962900001,19.145874023],[110.56011962900001,19.145690918],[110.56207275400001,19.145690918],[110.56207275400001,19.146118164],[110.56292724600002,19.146118164],[110.56292724600002,19.14630127],[110.56329345700001,19.14630127],[110.56329345700001,19.146484375],[110.56347656200002,19.146484375],[110.56347656200002,19.147094727]]],[[[110.55749511700002,19.13848877],[110.55749511700002,19.139099121],[110.55712890600002,19.139099121],[110.55712890600002,19.139709473],[110.55749511700002,19.139709473],[110.55749511700002,19.139892578],[110.55712890600002,19.139892578],[110.55712890600002,19.140075684],[110.55688476600001,19.140075684],[110.55688476600001,19.14050293],[110.55651855500001,19.14050293],[110.55651855500001,19.142700195],[110.55688476600001,19.142700195],[110.55688476600001,19.142272949],[110.55712890600002,19.142272949],[110.55712890600002,19.141906738],[110.55749511700002,19.141906738],[110.55749511700002,19.141479492],[110.55767822300001,19.141479492],[110.55767822300001,19.141296387],[110.55792236300002,19.141296387],[110.55792236300002,19.141113281],[110.55828857400002,19.141113281],[110.55828857400002,19.140686035],[110.55847168000001,19.140686035],[110.55847168000001,19.14050293],[110.55908203100002,19.14050293],[110.55908203100002,19.140686035],[110.55932617200001,19.140686035],[110.55932617200001,19.141906738],[110.55908203100002,19.141906738],[110.55908203100002,19.143493652],[110.55889892600001,19.143493652],[110.55889892600001,19.144470215],[110.55889892600001,19.144714355],[110.55871582000002,19.144714355],[110.55847168000001,19.144714355],[110.55847168000001,19.144897461],[110.55828857400002,19.144897461],[110.55828857400002,19.145507812],[110.55792236300002,19.145507812],[110.55792236300002,19.145690918],[110.55767822300001,19.145690918],[110.55767822300001,19.146118164],[110.55749511700002,19.146118164],[110.55749511700002,19.146484375],[110.55712890600002,19.146484375],[110.55712890600002,19.146911621],[110.55688476600001,19.146911621],[110.55688476600001,19.147094727],[110.55651855500001,19.147094727],[110.55651855500001,19.147277832],[110.55651855500001,19.147705078],[110.55627441400001,19.147705078],[110.55627441400001,19.149108887],[110.55651855500001,19.149108887],[110.55651855500001,19.150695801],[110.55688476600001,19.150878906],[110.55627441400001,19.151306152],[110.55432128900001,19.150878906],[110.55291748000002,19.147888184],[110.55670166000002,19.139282227],[110.55749511700002,19.13848877]]],[[[110.58007812500001,19.156921387],[110.58007812500001,19.157104492],[110.57971191400001,19.157104492],[110.57971191400001,19.156921387],[110.57849121100001,19.156921387],[110.57849121100001,19.156677246],[110.57830810500002,19.156677246],[110.57830810500002,19.156311035],[110.57788085900002,19.156311035],[110.57788085900002,19.155883789],[110.57751464800002,19.155883789],[110.57751464800002,19.155700684],[110.57708740200002,19.155700684],[110.57708740200002,19.155517578],[110.57690429700001,19.155517578],[110.57690429700001,19.155273437],[110.57647705100001,19.155273437],[110.57647705100001,19.154296875],[110.57708740200002,19.154296875],[110.57708740200002,19.15411377],[110.57788085900002,19.15411377],[110.57788085900002,19.154296875],[110.57849121100001,19.154296875],[110.57849121100001,19.154724121],[110.57867431600002,19.154724121],[110.57867431600002,19.154907227],[110.57928466800001,19.154907227],[110.57928466800001,19.155273437],[110.57989502,19.155273437],[110.57989502,19.155517578],[110.58068847700001,19.155517578],[110.58068847700001,19.155700684],[110.58111572300001,19.155700684],[110.58111572300001,19.156677246],[110.58068847700001,19.156677246],[110.58068847700001,19.156921387],[110.58007812500001,19.156921387]]],[[[110.55932617200001,19.157287598],[110.55932617200001,19.157714844],[110.55792236300002,19.157714844],[110.55792236300002,19.157287598],[110.55749511700002,19.157287598],[110.55749511700002,19.157104492],[110.55688476600001,19.157104492],[110.55688476600001,19.156921387],[110.55651855500001,19.156921387],[110.56170654300001,19.152709961],[110.56530761700002,19.152893066],[110.56512451200001,19.152893066],[110.56512451200001,19.153320312],[110.56488037100002,19.153320312],[110.56488037100002,19.153503418],[110.56427002,19.153503418],[110.56427002,19.153686523],[110.56408691400001,19.153686523],[110.56408691400001,19.15411377],[110.56390380900001,19.15411377],[110.56390380900001,19.154296875],[110.56347656200002,19.154296875],[110.56347656200002,19.154724121],[110.56329345700001,19.154724121],[110.56329345700001,19.154907227],[110.56292724600002,19.154907227],[110.56292724600002,19.155273437],[110.56268310500002,19.155273437],[110.56268310500002,19.155517578],[110.56207275400001,19.155517578],[110.56207275400001,19.155700684],[110.56188964800002,19.155700684],[110.56188964800002,19.155883789],[110.56170654300001,19.155883789],[110.56152343700002,19.15612793],[110.56152343700002,19.156311035],[110.56127929700001,19.156311035],[110.56127929700001,19.156677246],[110.56109619100002,19.156677246],[110.56109619100002,19.156921387],[110.56048584000001,19.156921387],[110.56048584000001,19.157104492],[110.55987548800002,19.157104492],[110.55987548800002,19.157287598],[110.55932617200001,19.157287598]]],[[[110.22070312500001,19.223510742],[110.22210693400001,19.216674805],[110.22351074200002,19.210083008],[110.22131347700001,19.209899902],[110.21392822300001,19.210327148],[110.20751953100002,19.208679199],[110.203125,19.206481934],[110.19787597700001,19.204528809],[110.18572998000002,19.200683594],[110.17492675800001,19.195129395],[110.16632080100001,19.192871094],[110.15911865200002,19.196472168],[110.15112304700001,19.204284668],[110.14648437500001,19.210083008],[110.14147949200002,19.210327148],[110.13769531200002,19.204711914],[110.13592529300001,19.196716309],[110.13690185500002,19.190673828],[110.13848877,19.186523437],[110.13848877,19.183898926],[110.13452148400002,19.176696777],[110.13531494100002,19.170288086],[110.13470459000001,19.16192627],[110.128723145,19.152282715],[110.12408447300001,19.146484375],[110.12152099600002,19.142700195],[110.11907959000001,19.141113281],[110.11572265600002,19.137084961],[110.11370849600002,19.134887695],[110.11090087900001,19.13470459],[110.11248779300001,19.13067627],[110.11468505900001,19.121704102],[110.11712646500001,19.113525391],[110.11651611300002,19.106323242],[110.11688232400002,19.098510742],[110.11871337900001,19.090087891],[110.12030029300001,19.084716797],[110.12127685500002,19.080505371],[110.12030029300001,19.072509766],[110.11712646500001,19.066711426],[110.11547851600001,19.059875488],[110.11590576200001,19.053100586],[110.120910645,19.042724609],[110.12829589800002,19.03692627],[110.12988281200002,19.035888672],[110.13610839800002,19.033325195],[110.13928222700001,19.031494141],[110.14190673800002,19.029296875],[110.14447021500001,19.027099609],[110.14691162100002,19.024291992],[110.14672851600001,19.018127441],[110.15612793000001,19.007080078],[110.15972900400001,19.000915527],[110.16247558600001,18.994873047],[110.16430664100001,18.991271973],[110.16632080100001,18.988525391],[110.16949462900001,18.986694336],[110.17449951200001,18.986328125],[110.17633056600002,18.987915039],[110.17828369100002,18.989074707],[110.18267822300001,18.995117187],[110.187316895,19.000488281],[110.19067382800002,19.001281738],[110.19787597700001,18.995117187],[110.20709228500002,18.997314453],[110.21270752,19.000488281],[110.21752929700001,19.002929687],[110.22369384800001,19.002319336],[110.22827148400002,18.997314453],[110.23132324200002,18.988891602],[110.23687744100002,18.981689453],[110.24151611300002,18.978271484],[110.24890136700002,18.975524902],[110.25811767600001,18.976074219],[110.27032470700001,18.981506348],[110.27667236300002,18.984680176],[110.28930664100001,18.987915039],[110.29711914100001,18.990722656],[110.29907226600001,18.993530273],[110.30072021500001,19.001708984],[110.30328369100002,19.004882812],[110.31390380900001,19.002685547],[110.31988525400001,18.999328613],[110.32830810500002,19.002502441],[110.33508300800001,19.006896973],[110.34289550800001,19.012695312],[110.34252929700001,19.015686035],[110.34149169900002,19.019714355],[110.34631347700001,19.02532959],[110.35229492200001,19.026489258],[110.35772705100001,19.027526855],[110.36730957000002,19.03112793],[110.38012695300002,19.034729004],[110.39349365200002,19.040100098],[110.40087890600002,19.046081543],[110.40710449200002,19.050292969],[110.41467285200001,19.053527832],[110.421875,19.057922363],[110.43109130900001,19.061523437],[110.44110107400002,19.061523437],[110.44708252,19.062316895],[110.45471191400001,19.068481445],[110.46069335900002,19.07611084],[110.45867919900002,19.084716797],[110.45727539100001,19.093322754],[110.46527099600002,19.098693848],[110.47332763700001,19.098693848],[110.48107910200001,19.094116211],[110.48712158200001,19.088684082],[110.49072265600002,19.084289551],[110.49450683600001,19.081481934],[110.49731445300002,19.080871582],[110.50311279300001,19.084289551],[110.50787353500002,19.093078613],[110.51068115200002,19.097106934],[110.51788330100001,19.105102539],[110.53027343700002,19.107727051],[110.53430175800001,19.102478027],[110.53472900400001,19.097106934],[110.53649902300002,19.093505859],[110.54272460900002,19.089904785],[110.55090332000002,19.090881348],[110.55267334000001,19.089294434],[110.55267334000001,19.089477539],[110.55151367200001,19.092285156],[110.55029296900001,19.101074219],[110.55010986300002,19.105285645],[110.54931640600002,19.113525391],[110.55468750000001,19.118896484],[110.55468750000001,19.119689941],[110.55487060500002,19.119689941],[110.55487060500002,19.120483398],[110.55511474600002,19.120483398],[110.55511474600002,19.120727539],[110.55548095700001,19.120727539],[110.55548095700001,19.12109375],[110.55590820300002,19.12109375],[110.55627441400001,19.12109375],[110.55627441400001,19.121276855],[110.55688476600001,19.121276855],[110.55688476600001,19.121520996],[110.55712890600002,19.121520996],[110.55712890600002,19.121887207],[110.55767822300001,19.121887207],[110.55767822300001,19.122070312],[110.55792236300002,19.122070312],[110.55792236300002,19.122497559],[110.55889892600001,19.122497559],[110.55889892600001,19.122680664],[110.55932617200001,19.122680664],[110.56048584000001,19.128479004],[110.56048584000001,19.128723145],[110.56011962900001,19.128723145],[110.56011962900001,19.129699707],[110.54949951200001,19.14251709],[110.54589843700002,19.142272949],[110.53851318400001,19.13848877],[110.52728271500001,19.127929687],[110.52447509800001,19.127075195],[110.51367187500001,19.129089355],[110.51092529300001,19.134521484],[110.50067138700001,19.137329102],[110.49908447300001,19.139282227],[110.49670410200001,19.153686523],[110.49389648400002,19.158081055],[110.48547363300001,19.165893555],[110.48547363300001,19.169677734],[110.49267578100002,19.167724609],[110.49353027300002,19.165893555],[110.49731445300002,19.164306641],[110.50048828100002,19.160888672],[110.50189209000001,19.149108887],[110.50451660200001,19.14251709],[110.50769043000001,19.142272949],[110.51989746100001,19.148925781],[110.52331543000001,19.148071289],[110.52990722700001,19.14251709],[110.53271484400001,19.142883301],[110.53967285200001,19.147277832],[110.54809570300002,19.149475098],[110.55267334000001,19.156921387],[110.55267334000001,19.157104492],[110.55291748000002,19.157104492],[110.55291748000002,19.157714844],[110.55328369100002,19.157714844],[110.55328369100002,19.158325195],[110.55352783200001,19.158325195],[110.55352783200001,19.158508301],[110.55487060500002,19.158508301],[110.55487060500002,19.158325195],[110.55511474600002,19.158325195],[110.55511474600002,19.158508301],[110.55548095700001,19.158508301],[110.55548095700001,19.159118652],[110.55627441400001,19.159118652],[110.55627441400001,19.159301758],[110.55712890600002,19.159301758],[110.55712890600002,19.159118652],[110.55749511700002,19.159118652],[110.55749511700002,19.159301758],[110.55792236300002,19.159301758],[110.55792236300002,19.158874512],[110.55828857400002,19.158874512],[110.55828857400002,19.159118652],[110.55908203100002,19.159118652],[110.55908203100002,19.158874512],[110.55932617200001,19.158874512],[110.55932617200001,19.158508301],[110.55969238300001,19.158508301],[110.55969238300001,19.158325195],[110.55987548800002,19.158325195],[110.55987548800002,19.157897949],[110.56207275400001,19.157897949],[110.56207275400001,19.157714844],[110.56347656200002,19.157714844],[110.56347656200002,19.157287598],[110.56469726600001,19.157287598],[110.56469726600001,19.157104492],[110.56549072300001,19.157104492],[110.56549072300001,19.156921387],[110.56628418000001,19.156921387],[110.56628418000001,19.156677246],[110.56707763700001,19.156677246],[110.56707763700001,19.156311035],[110.56750488300001,19.156311035],[110.56750488300001,19.155700684],[110.56768798800002,19.155700684],[110.56768798800002,19.155517578],[110.56787109400001,19.155517578],[110.56787109400001,19.155273437],[110.56909179700001,19.155273437],[110.56909179700001,19.155517578],[110.56970214800002,19.155517578],[110.56970214800002,19.155700684],[110.57067871100001,19.155700684],[110.57067871100001,19.155517578],[110.57208252,19.155517578],[110.57208252,19.155883789],[110.57269287100002,19.155883789],[110.57269287100002,19.156311035],[110.57409668000001,19.156311035],[110.57409668000001,19.155883789],[110.57470703100002,19.155883789],[110.57470703100002,19.156921387],[110.57647705100001,19.156921387],[110.57647705100001,19.157104492],[110.57690429700001,19.157104492],[110.57690429700001,19.157287598],[110.57708740200002,19.157287598],[110.57708740200002,19.158325195],[110.57751464800002,19.158325195],[110.57751464800002,19.157897949],[110.57788085900002,19.157897949],[110.57788085900002,19.158325195],[110.57849121100001,19.158325195],[110.57849121100001,19.158508301],[110.57867431600002,19.158508301],[110.57867431600002,19.158874512],[110.57910156200002,19.158874512],[110.57910156200002,19.159301758],[110.57971191400001,19.159301758],[110.57971191400001,19.159118652],[110.58068847700001,19.159118652],[110.58068847700001,19.158874512],[110.58209228500002,19.158874512],[110.58209228500002,19.158508301],[110.58288574200002,19.158508301],[110.58288574200002,19.158325195],[110.58392334000001,19.158325195],[110.58471679700001,19.158325195],[110.58471679700001,19.158508301],[110.58551025400001,19.158508301],[110.58551025400001,19.158874512],[110.58569335900002,19.158874512],[110.58569335900002,19.159118652],[110.58612060500002,19.159118652],[110.58612060500002,19.159301758],[110.58630371100001,19.159912109],[110.58612060500002,19.159912109],[110.58612060500002,19.160522461],[110.58630371100001,19.160522461],[110.58630371100001,19.160705566],[110.58648681600002,19.160705566],[110.58648681600002,19.161071777],[110.58648681600002,19.16192627],[110.58673095700001,19.16192627],[110.58691406200002,19.162475586],[110.58691406200002,19.163330078],[110.58648681600002,19.163330078],[110.58648681600002,19.164672852],[110.58691406200002,19.164672852],[110.58691406200002,19.165283203],[110.58709716800001,19.165283203],[110.58709716800001,19.166320801],[110.58728027300002,19.166320801],[110.58728027300002,19.166503906],[110.58770752,19.166503906],[110.58770752,19.166870117],[110.58789062500001,19.166870117],[110.58789062500001,19.167114258],[110.58770752,19.167114258],[110.58770752,19.167724609],[110.58728027300002,19.167724609],[110.58728027300002,19.167907715],[110.58770752,19.167907715],[110.58770752,19.168884277],[110.58789062500001,19.168884277],[110.58789062500001,19.169921875],[110.58831787100002,19.169921875],[110.58831787100002,19.170471191],[110.58789062500001,19.170471191],[110.58789062500001,19.170715332],[110.58831787100002,19.170715332],[110.58831787100002,19.171508789],[110.58850097700001,19.171508789],[110.58850097700001,19.172119141],[110.58868408200001,19.172119141],[110.58868408200001,19.172485352],[110.58911132800002,19.172485352],[110.58911132800002,19.172729492],[110.58929443400001,19.172729492],[110.58929443400001,19.174682617],[110.58972168000001,19.174682617],[110.58972168000001,19.175476074],[110.58990478500002,19.175476074],[110.58990478500002,19.176086426],[110.59008789100001,19.176086426],[110.59008789100001,19.176330566],[110.59051513700001,19.176330566],[110.59051513700001,19.176513672],[110.59069824200002,19.176513672],[110.59069824200002,19.17767334],[110.59088134800001,19.17767334],[110.59088134800001,19.178283691],[110.59130859400001,19.178283691],[110.59130859400001,19.178527832],[110.59167480500001,19.178527832],[110.59167480500001,19.178894043],[110.59130859400001,19.178894043],[110.59130859400001,19.1796875],[110.59167480500001,19.1796875],[110.59167480500001,19.180480957],[110.59191894500002,19.180480957],[110.59191894500002,19.181274414],[110.59210205100001,19.181274414],[110.59210205100001,19.181884766],[110.59228515600002,19.181884766],[110.59228515600002,19.182922363],[110.59210205100001,19.182922363],[110.59210205100001,19.183898926],[110.59228515600002,19.183898926],[110.59228515600002,19.184082031],[110.59271240200002,19.184082031],[110.59271240200002,19.184326172],[110.59289550800001,19.184326172],[110.59289550800001,19.18548584],[110.59332275400001,19.18548584],[110.59332275400001,19.186096191],[110.59350585900002,19.186096191],[110.59350585900002,19.186279297],[110.59368896500001,19.186279297],[110.59368896500001,19.187072754],[110.59411621100001,19.187072754],[110.59411621100001,19.187927246],[110.59429931600002,19.187927246],[110.59429931600002,19.189086914],[110.59472656200002,19.189086914],[110.59472656200002,19.189697266],[110.59490966800001,19.189697266],[110.59490966800001,19.190490723],[110.59527587900001,19.190490723],[110.59527587900001,19.191101074],[110.59552002,19.191101074],[110.59552002,19.19128418],[110.59570312500001,19.19128418],[110.59570312500001,19.191711426],[110.59570312500001,19.191894531],[110.59588623000002,19.191894531],[110.59588623000002,19.192687988],[110.59631347700001,19.192687988],[110.59631347700001,19.192871094],[110.59667968700002,19.192871094],[110.59667968700002,19.19329834],[110.59692382800002,19.19329834],[110.59692382800002,19.193481445],[110.59710693400001,19.193481445],[110.59710693400001,19.193725586],[110.597473145,19.193725586],[110.597473145,19.194091797],[110.59771728500002,19.194091797],[110.59771728500002,19.194702148],[110.59790039100001,19.194702148],[110.59790039100001,19.195129395],[110.59832763700001,19.195129395],[110.59832763700001,19.195495605],[110.59851074200002,19.195495605],[110.59851074200002,19.196105957],[110.59887695300002,19.196105957],[110.59887695300002,19.196289062],[110.59912109400001,19.196289062],[110.59912109400001,19.196472168],[110.59930419900002,19.196472168],[110.59930419900002,19.19708252],[110.59967041000002,19.19708252],[110.59967041000002,19.197509766],[110.59991455100001,19.197509766],[110.59991455100001,19.197692871],[110.60052490200002,19.197692871],[110.60052490200002,19.197875977],[110.60107421900001,19.197875977],[110.60107421900001,19.198303223],[110.60211181600002,19.198303223],[110.60211181600002,19.198486328],[110.60272216800001,19.198486328],[110.60272216800001,19.198730469],[110.60290527300002,19.198730469],[110.60290527300002,19.19909668],[110.60351562500001,19.19909668],[110.60351562500001,19.199279785],[110.60430908200001,19.199279785],[110.60430908200001,19.199707031],[110.60467529300001,19.199707031],[110.60467529300001,19.199890137],[110.60552978500002,19.199890137],[110.60552978500002,19.200073242],[110.60650634800001,19.200073242],[110.60650634800001,19.200500488],[110.60772705100001,19.200500488],[110.60772705100001,19.200683594],[110.60827636700002,19.200683594],[110.60827636700002,19.201293945],[110.60852050800001,19.201293945],[110.60852050800001,19.202514648],[110.60888671900001,19.202270508],[110.60888671900001,19.202880859],[110.60913085900002,19.202880859],[110.60913085900002,19.203308105],[110.60992431600002,19.203308105],[110.60992431600002,19.203491211],[110.61010742200001,19.203491211],[110.61010742200001,19.203674316],[110.61029052700002,19.203674316],[110.61047363300001,19.203674316],[110.61047363300001,19.204101562],[110.61071777300002,19.204101562],[110.61071777300002,19.204284668],[110.61151123000002,19.204284668],[110.61151123000002,19.204711914],[110.61187744100002,19.204711914],[110.61187744100002,19.20489502],[110.61212158200001,19.20489502],[110.61212158200001,19.205078125],[110.61248779300001,19.205078125],[110.61248779300001,19.205505371],[110.61547851600001,19.221496582],[110.62127685500002,19.234313965],[110.62109375000001,19.234313965],[110.62109375000001,19.234680176],[110.62072753900001,19.234680176],[110.62072753900001,19.235290527],[110.62170410200001,19.235290527],[110.62231445300002,19.236694336],[110.62268066400001,19.237304687],[110.62268066400001,19.237915039],[110.62292480500001,19.237915039],[110.62292480500001,19.238525391],[110.62329101600001,19.238525391],[110.62329101600001,19.239318848],[110.62347412100002,19.239318848],[110.62347412100002,19.239685059],[110.62347412100002,19.239929199],[110.62371826200001,19.239929199],[110.62371826200001,19.240722656],[110.62408447300001,19.240722656],[110.62408447300001,19.241088867],[110.62432861300002,19.241088867],[110.62432861300002,19.241516113],[110.62469482400002,19.241516113],[110.62469482400002,19.241882324],[110.62487793000001,19.241882324],[110.62487793000001,19.242492676],[110.62512207000002,19.242492676],[110.62512207000002,19.242919922],[110.62548828100002,19.242919922],[110.62548828100002,19.243530273],[110.62567138700001,19.243530273],[110.62567138700001,19.243896484],[110.62609863300001,19.243896484],[110.62609863300001,19.24432373],[110.62628173800002,19.24432373],[110.62628173800002,19.244689941],[110.62652587900001,19.244689941],[110.62652587900001,19.245117187],[110.62689209000001,19.245117187],[110.62689209000001,19.245483398],[110.62707519500002,19.245483398],[110.62707519500002,19.245727539],[110.62750244100002,19.245727539],[110.62750244100002,19.24609375],[110.62768554700001,19.24609375],[110.62768554700001,19.246276855],[110.62792968700002,19.246276855],[110.62792968700002,19.246520996],[110.62792968700002,19.246887207],[110.62829589800002,19.246887207],[110.62829589800002,19.247070312],[110.63452148400002,19.25769043],[110.63787841800001,19.267700195],[110.63787841800001,19.271118164],[110.63830566400001,19.271118164],[110.63830566400001,19.271911621],[110.63848877,19.271911621],[110.63848877,19.272277832],[110.63830566400001,19.272277832],[110.63830566400001,19.272705078],[110.63848877,19.272705078],[110.63848877,19.274719238],[110.63867187500001,19.274719238],[110.63867187500001,19.275085449],[110.63250732400002,19.288696289],[110.63153076200001,19.294921875],[110.63311767600001,19.302307129],[110.63708496100001,19.308288574],[110.63732910200001,19.30847168],[110.63732910200001,19.308898926],[110.63769531200002,19.308898926],[110.63769531200002,19.309082031],[110.63787841800001,19.309082031],[110.63787841800001,19.309326172],[110.63830566400001,19.309326172],[110.63830566400001,19.309692383],[110.63848877,19.309692383],[110.63848877,19.309875488],[110.63867187500001,19.309875488],[110.63867187500001,19.310119629],[110.63909912100002,19.310119629],[110.63909912100002,19.31048584],[110.63928222700001,19.31048584],[110.63928222700001,19.311096191],[110.63989257800002,19.311096191],[110.63989257800002,19.311279297],[110.64007568400001,19.311279297],[110.64007568400001,19.311523437],[110.64111328100002,19.311523437],[110.64111328100002,19.311889648],[110.64208984400001,19.311889648],[110.64208984400001,19.312072754],[110.64270019500002,19.312072754],[110.64270019500002,19.3125],[110.64288330100001,19.3125],[110.64288330100001,19.312683105],[110.64367675800001,19.312683105],[110.64367675800001,19.312927246],[110.64410400400001,19.312927246],[110.64428710900002,19.313110352],[110.64428710900002,19.313293457],[110.64447021500001,19.313293457],[110.64471435500002,19.313476562],[110.64489746100001,19.313476562],[110.64569091800001,19.314086914],[110.65032959000001,19.313720703],[110.65191650400001,19.313720703],[110.65191650400001,19.313476562],[110.65228271500001,19.313476562],[110.65228271500001,19.313293457],[110.65350341800001,19.313293457],[110.65350341800001,19.312927246],[110.65429687500001,19.312927246],[110.65429687500001,19.312683105],[110.65472412100002,19.312683105],[110.65472412100002,19.3125],[110.65551757800002,19.3125],[110.65551757800002,19.312072754],[110.65570068400001,19.312072754],[110.65570068400001,19.311889648],[110.65612793000001,19.311889648],[110.65612793000001,19.311523437],[110.65631103500002,19.311523437],[110.65631103500002,19.311096191],[110.65649414100001,19.311096191],[110.65649414100001,19.310119629],[110.65692138700001,19.310119629],[110.65692138700001,19.309692383],[110.65710449200002,19.309692383],[110.65710449200002,19.308898926],[110.65728759800001,19.308898926],[110.65728759800001,19.308288574],[110.65771484400001,19.308288574],[110.65771484400001,19.307922363],[110.65789794900002,19.307922363],[110.65789794900002,19.307495117],[110.65850830100001,19.307495117],[110.65850830100001,19.307128906],[110.65972900400001,19.307128906],[110.65972900400001,19.307495117],[110.66027832000002,19.307495117],[110.66027832000002,19.307678223],[110.66052246100001,19.307678223],[110.66052246100001,19.307922363],[110.66070556600002,19.307922363],[110.66070556600002,19.308288574],[110.66131591800001,19.308288574],[110.66131591800001,19.308898926],[110.66149902300002,19.308898926],[110.66149902300002,19.309326172],[110.66192627,19.309326172],[110.66192627,19.310119629],[110.66210937500001,19.310119629],[110.66210937500001,19.31048584],[110.66247558600001,19.31048584],[110.66247558600001,19.311096191],[110.66271972700001,19.311096191],[110.66271972700001,19.311523437],[110.66290283200001,19.311523437],[110.66290283200001,19.312072754],[110.66333007800002,19.312072754],[110.66333007800002,19.3125],[110.66351318400001,19.3125],[110.66351318400001,19.312927246],[110.663879395,19.312927246],[110.663879395,19.313293457],[110.66412353500002,19.313293457],[110.66412353500002,19.313476562],[110.66430664100001,19.313476562],[110.66430664100001,19.313720703],[110.66467285200001,19.313720703],[110.66467285200001,19.31427002],[110.66491699200002,19.31427002],[110.66491699200002,19.314697266],[110.66528320300002,19.314697266],[110.66528320300002,19.314880371],[110.66552734400001,19.314880371],[110.66552734400001,19.315124512],[110.66632080100001,19.315124512],[110.66632080100001,19.315490723],[110.66650390600002,19.315490723],[110.66650390600002,19.315673828],[110.66687011700002,19.315673828],[110.66687011700002,19.316101074],[110.66711425800001,19.316101074],[110.66711425800001,19.31628418],[110.66772460900002,19.31628418],[110.66772460900002,19.31652832],[110.66790771500001,19.31652832],[110.66790771500001,19.316894531],[110.66851806600002,19.316894531],[110.66851806600002,19.317077637],[110.66912841800001,19.317077637],[110.66912841800001,19.317504883],[110.66967773400002,19.317504883],[110.66967773400002,19.317687988],[110.67028808600001,19.317687988],[110.67028808600001,19.317504883],[110.67047119100002,19.317504883],[110.67047119100002,19.317077637],[110.67071533200001,19.317077637],[110.67071533200001,19.316894531],[110.67132568400001,19.316894531],[110.67150878900001,19.316894531],[110.67150878900001,19.317077637],[110.671875,19.317077637],[110.671875,19.317321777],[110.671875,19.317687988],[110.67230224600002,19.317687988],[110.67272949200002,19.317687988],[110.67272949200002,19.317871094],[110.67327880900001,19.317871094],[110.67352294900002,19.318115234],[110.67352294900002,19.31829834],[110.67687988300001,19.321899414],[110.68011474600002,19.331481934],[110.67907714800002,19.337280273],[110.67010498000002,19.356079102],[110.66912841800001,19.358093262],[110.66967773400002,19.362121582],[110.66967773400002,19.363708496],[110.66967773400002,19.365478516],[110.66992187500001,19.365478516],[110.66992187500001,19.366271973],[110.67010498000002,19.366271973],[110.67010498000002,19.367126465],[110.67028808600001,19.367126465],[110.67047119100002,19.367675781],[110.67150878900001,19.374511719],[110.67211914100001,19.376098633],[110.67211914100001,19.377075195],[110.671875,19.377075195],[110.671875,19.379089355],[110.67150878900001,19.379089355],[110.67150878900001,19.381286621],[110.67132568400001,19.381286621],[110.67132568400001,19.382080078],[110.67150878900001,19.382080078],[110.67150878900001,19.382507324],[110.671691895,19.382507324],[110.671875,19.382507324],[110.671875,19.38269043],[110.67272949200002,19.38269043],[110.67272949200002,19.382873535],[110.67327880900001,19.382873535],[110.67327880900001,19.383483887],[110.67352294900002,19.383483887],[110.67352294900002,19.384094238],[110.67327880900001,19.384094238],[110.67327880900001,19.384887695],[110.67352294900002,19.384887695],[110.67352294900002,19.385498047],[110.67388916000002,19.385498047],[110.67388916000002,19.385681152],[110.67407226600001,19.385681152],[110.67407226600001,19.386108398],[110.67431640600002,19.386108398],[110.67431640600002,19.387084961],[110.67468261700002,19.387084961],[110.67468261700002,19.387695312],[110.67492675800001,19.387695312],[110.67492675800001,19.388122559],[110.67492675800001,19.388305664],[110.67529296900001,19.388305664],[110.67529296900001,19.38848877],[110.67547607400002,19.38848877],[110.67547607400002,19.388671875],[110.67572021500001,19.388671875],[110.67572021500001,19.389282227],[110.67608642600001,19.389282227],[110.67608642600001,19.389709473],[110.67633056600002,19.389709473],[110.67633056600002,19.389892578],[110.67608642600001,19.389892578],[110.67608642600001,19.39050293],[110.67633056600002,19.39050293],[110.67633056600002,19.391113281],[110.67651367200001,19.391113281],[110.67651367200001,19.391296387],[110.67687988300001,19.391296387],[110.67687988300001,19.391479492],[110.67749023400002,19.391479492],[110.67749023400002,19.391906738],[110.67767334000001,19.391906738],[110.67028808600001,19.394287109],[110.66229248000002,19.397277832],[110.65472412100002,19.398498535],[110.64868164100001,19.397521973],[110.64410400400001,19.395874023],[110.64251709000001,19.392272949],[110.64068603500002,19.38848877],[110.63348388700001,19.39251709],[110.62927246100001,19.393310547],[110.62689209000001,19.390930176],[110.62408447300001,19.383483887],[110.62371826200001,19.378479004],[110.62469482400002,19.370483398],[110.62487793000001,19.366271973],[110.61810302700002,19.36151123],[110.61389160200001,19.358886719],[110.60949707000002,19.355712891],[110.60052490200002,19.352294922],[110.59350585900002,19.354309082],[110.58569335900002,19.35748291],[110.58129882800002,19.363891602],[110.58007812500001,19.369689941],[110.58172607400002,19.376525879],[110.58227539100001,19.381530762],[110.58367919900002,19.39050293],[110.58087158200001,19.395690918],[110.57531738300001,19.399475098],[110.57452392600001,19.403930664],[110.57751464800002,19.412475586],[110.57727050800001,19.421508789],[110.57531738300001,19.426879883],[110.57171630900001,19.433288574],[110.56951904300001,19.437072754],[110.56408691400001,19.444091797],[110.55871582000002,19.446289062],[110.54949951200001,19.447692871],[110.54632568400001,19.452270508],[110.54211425800001,19.470275879],[110.53167724600002,19.468505859],[110.52368164100001,19.465881348],[110.51391601600001,19.469299316],[110.50469970700001,19.470703125],[110.50048828100002,19.470275879],[110.49389648400002,19.465698242],[110.48907470700001,19.458496094],[110.488098145,19.454528809],[110.48730468700002,19.449890137],[110.48449707000002,19.44708252],[110.48052978500002,19.444885254],[110.47570800800001,19.445922852],[110.47009277300002,19.445922852],[110.45867919900002,19.450073242],[110.45251464800002,19.450927734],[110.44592285200001,19.449279785],[110.43988037100002,19.444702148],[110.4375,19.442077637],[110.43310546900001,19.437316895],[110.43011474600002,19.432495117],[110.42852783200001,19.428527832],[110.42651367200001,19.422912598],[110.42388916000002,19.41809082],[110.41949462900001,19.415100098],[110.41229248000002,19.417297363],[110.40869140600002,19.419494629],[110.40527343700002,19.419677734],[110.40112304700001,19.417480469],[110.39691162100002,19.408874512],[110.39532470700001,19.405700684],[110.38891601600001,19.399902344],[110.38470459000001,19.398071289],[110.37951660200001,19.397705078],[110.37249755900001,19.397277832],[110.36791992200001,19.395690918],[110.36431884800001,19.393493652],[110.35852050800001,19.384094238],[110.35852050800001,19.376281738],[110.36010742200001,19.370483398],[110.36047363300001,19.368286133],[110.35992431600002,19.362487793],[110.35687255900001,19.35949707],[110.35052490200002,19.358886719],[110.34368896500001,19.359680176],[110.33850097700001,19.35949707],[110.33227539100001,19.354675293],[110.32891845700001,19.343322754],[110.32928466800001,19.341308594],[110.32751464800002,19.333129883],[110.32452392600001,19.328308105],[110.32110595700001,19.323913574],[110.32312011700002,19.316894531],[110.32690429700001,19.314880371],[110.33087158200001,19.311889648],[110.34088134800001,19.306518555],[110.35107421900001,19.303100586],[110.35491943400001,19.300292969],[110.35687255900001,19.293884277],[110.35748291000002,19.287719727],[110.35729980500001,19.283081055],[110.35412597700001,19.278686523],[110.34912109400001,19.277526855],[110.34167480500001,19.276123047],[110.33972168000001,19.274902344],[110.33648681600002,19.269104004],[110.33508300800001,19.263671875],[110.33367919900002,19.258300781],[110.33392334000001,19.25189209],[110.33612060500002,19.246887207],[110.34027099600002,19.242675781],[110.34167480500001,19.237304687],[110.34008789100001,19.229919434],[110.33612060500002,19.225524902],[110.33087158200001,19.225280762],[110.32788085900002,19.227111816],[110.32568359400001,19.229919434],[110.320129395,19.23248291],[110.31152343700002,19.231506348],[110.30529785200001,19.226501465],[110.29608154300001,19.217529297],[110.288879395,19.216918945],[110.28710937500001,19.217895508],[110.28167724600002,19.22052002],[110.27709960900002,19.222106934],[110.27148437500001,19.219909668],[110.26672363300001,19.216491699],[110.26232910200001,19.215087891],[110.25628662100002,19.215698242],[110.24871826200001,19.220703125],[110.24371337900001,19.224304199],[110.23791503900001,19.225708008],[110.23272705100001,19.224487305],[110.22552490200002,19.222900391],[110.22070312500001,19.223510742]]]]}}
