{"type":"Feature","id":"bulk-99377448B98206572019780","bbox":[97.34332275400001,27.943908691,102.47448730500001,34.006713867],"properties":{"id":"bulk-99377448B98206572019780","name":"Garzê Tibetan Autonomous Prefecture","nameEn":"Garzê Tibetan Autonomous Prefecture","fullName":"Garzê Tibetan Autonomous Prefecture","level":"city","boundaryRole":"administrative-extent","boundaryQuality":"generalized-source-2020","boundaryYearRepresented":"2020","bounds":[[97.34332275400001,27.943908691],[102.47448730500001,34.006713867]],"center":[99.9089050295,30.975311279000003],"centerMethod":"bounding-box midpoint; camera framing only","license":"CC-BY-3.0-IGO","attribution":"geoBoundaries / HDX, China administrative boundaries (2020)","source":{"provider":"geoBoundaries gbHumanitarian / HDX","url":"https://github.com/wmgeolab/geoBoundaries/raw/9469f09/releaseData/gbHumanitarian/CHN/ADM2/geoBoundaries-CHN-ADM2.geojson","metadataUrl":"https://www.geoboundaries.org/api/current/gbHumanitarian/CHN/ADM2/","shapeID":"99377448B98206572019780","shapeName":"Garzê Tibetan Autonomous Prefecture","boundaryID":"CHN-ADM2-99377448","commit":"9469f09"},"geometryCounts":{"coordinates":615,"components":1,"holes":0},"boundaryNotice":"geoBoundaries / HDX 2020 年行政区数据，海岸和边界经过源数据概化，并非当前测绘成果。"},"geometry":{"type":"Polygon","coordinates":[[[102.46307373000002,30.713684082],[102.42370605500001,30.708679199],[102.39007568400001,30.712097168],[102.35510253900001,30.702514648],[102.328125,30.684509277],[102.29327392600001,30.650878906],[102.26007080100001,30.630310059],[102.21911621100001,30.624694824],[102.17687988300001,30.613525391],[102.14892578100002,30.634521484],[102.11407470700001,30.660888672],[102.07507324200002,30.660705566],[102.04168701200001,30.709289551],[102.04992675800001,30.723510742],[102.061523437,30.771911621],[102.07232666000002,30.797119141],[102.078125,30.836120605],[102.07867431600002,30.86328125],[102.09790039100001,30.891296387],[102.13232421900001,30.900878906],[102.16510009800001,30.891906738],[102.19769287100002,30.896484375],[102.20629882800002,30.924926758],[102.19909668000001,30.961914062],[102.18408203100002,30.99230957],[102.16888427700002,31.01751709],[102.16369628900001,31.056091309],[102.16607666000002,31.088317871],[102.15869140600002,31.138671875],[102.12268066400001,31.114929199],[102.09289550800001,31.089294434],[102.05749511700002,31.073730469],[102.03692627,31.100524902],[102.03332519500002,31.134887695],[102.01812744100002,31.171691895],[101.98370361300002,31.187316895],[101.94470214800002,31.178527832],[101.91809082000002,31.151123047],[101.89508056600002,31.172912598],[101.88391113300001,31.200500488],[101.87371826200001,31.239685059],[101.85711669900002,31.276916504],[101.83367919900002,31.297119141],[101.77868652300002,31.289916992],[101.74688720700001,31.303283691],[101.71173095700001,31.311523437],[101.69769287100002,31.341308594],[101.67810058600001,31.374084473],[101.64532470700001,31.38848877],[101.61328125000001,31.371887207],[101.57672119100002,31.366271973],[101.55389404300001,31.389709473],[101.51867675800001,31.38269043],[101.48107910200001,31.36907959],[101.44250488300001,31.355529785],[101.41192627,31.367919922],[101.36828613300001,31.37109375],[101.336914062,31.389526367],[101.29467773400002,31.380310059],[101.26971435500002,31.404907227],[101.26031494100002,31.432678223],[101.25787353500002,31.470275879],[101.24829101600001,31.518920898],[101.19610595700001,31.508117676],[101.15789794900002,31.496704102],[101.12170410200001,31.477905273],[101.097473145,31.495727539],[101.07928466800001,31.52947998],[101.07971191400001,31.562072754],[101.07690429700001,31.596130371],[101.06610107400002,31.637878418],[101.03051757800002,31.657470703],[100.99291992200001,31.672485352],[100.97210693400001,31.696716309],[100.95892334000001,31.724304199],[100.93048095700001,31.747680664],[100.89227294900002,31.748718262],[100.90490722700001,31.799499512],[100.93212890600002,31.815917969],[100.94812011700002,31.839294434],[100.96148681600002,31.864318848],[100.99548339800002,31.885314941],[101.00787353500002,31.914489746],[101.00250244100002,31.954284668],[100.971679687,31.987304687],[100.92608642600001,31.98651123],[100.88629150400001,31.979125977],[100.85711669900002,31.996704102],[100.80432128900001,32.027709961],[100.77807617200001,32.049926758],[100.75988769500002,32.078918457],[100.72930908200001,32.090270996],[100.696289062,32.102111816],[100.69250488300001,32.13092041],[100.68450927700002,32.182495117],[100.67010498,32.208129883],[100.67272949200002,32.239501953],[100.679870605,32.272521973],[100.67028808600001,32.307495117],[100.63049316400001,32.299682617],[100.59191894500002,32.303283691],[100.55108642600001,32.337524414],[100.53387451200001,32.372070312],[100.54388427700002,32.419494629],[100.52172851600001,32.422302246],[100.47131347700001,32.463928223],[100.51812744100002,32.527282715],[100.57287597700001,32.586914062],[100.54492187500001,32.624511719],[100.50427246100001,32.69128418],[100.41931152300002,32.746887207],[100.35028076200001,32.723693848],[100.28131103500002,32.746704102],[100.26727294900002,32.70892334],[100.23590087900001,32.654724121],[100.24011230500001,32.61932373],[100.21807861300002,32.604309082],[100.163879395,32.612304687],[100.11853027300002,32.680908203],[100.15167236300002,32.729125977],[100.13708496100001,32.777893066],[100.11712646500001,32.833312988],[100.10913085900002,32.863891602],[100.07727050800001,32.864685059],[100.04632568400001,32.887329102],[100.06530761700002,32.927124023],[100.01831054700001,32.92767334],[99.99169921900001,32.870300293],[99.98413085900002,32.861694336],[99.88989257800002,32.838684082],[99.86352539100001,32.762329102],[99.87628173800002,32.696472168],[99.84588623,32.669921875],[99.79248046900001,32.66192627],[99.722473145,32.715698242],[99.69488525400001,32.762512207],[99.64312744100002,32.741088867],[99.64807128900001,32.702270508],[99.63269043000001,32.695678711],[99.59930419900002,32.717712402],[99.55187988300001,32.713684082],[99.52270507800002,32.72869873],[99.43292236300002,32.774719238],[99.39727783200001,32.838500977],[99.37628173800002,32.868286133],[99.36511230500001,32.883911133],[99.32470703100002,32.87689209],[99.28912353500002,32.913879395],[99.27630615200002,32.941101074],[99.25268554700001,32.990905762],[99.16131591800001,33.053283691],[99.09252929700001,33.075683594],[99.04351806600002,33.090087891],[99.01928710900002,33.075317383],[99.00451660200001,33.07232666],[98.92248535200001,33.134521484],[98.83752441400001,33.178527832],[98.84869384800001,33.216918945],[98.76727294900002,33.288879395],[98.795898437,33.327270508],[98.75750732400002,33.445129395],[98.72991943400001,33.48449707],[98.71350097700001,33.530273437],[98.69067382800002,33.582702637],[98.64807128900001,33.642089844],[98.67211914100001,33.68170166],[98.63592529300001,33.719482422],[98.570129395,33.778503418],[98.52508544900002,33.836730957],[98.47412109400001,33.854309082],[98.42468261700002,33.84588623],[98.40393066400001,33.842285156],[98.38128662100002,33.867919922],[98.34112548800002,33.856079102],[98.30230712900001,33.856689453],[98.30328369100002,33.902282715],[98.26611328100002,33.9453125],[98.15209960900002,33.952087402],[98.04870605500001,33.94128418],[97.96429443400001,33.92767334],[97.92108154300001,33.899291992],[97.86950683600001,33.867492676],[97.81072998,33.87512207],[97.80712890600002,33.93548584],[97.81072998,33.976928711],[97.77349853500002,33.981079102],[97.72552490200002,34.006713867],[97.69427490200002,33.991088867],[97.68310546900001,33.948913574],[97.66528320300002,33.900695801],[97.56689453100002,33.885498047],[97.52807617200001,33.885925293],[97.44329834000001,33.827270508],[97.43572998,33.825683594],[97.40808105500001,33.819274902],[97.40032959000001,33.805114746],[97.43231201200001,33.743103027],[97.46350097700001,33.656921387],[97.43969726600001,33.605285645],[97.50952148400002,33.567687988],[97.54052734400001,33.48248291],[97.57788085900002,33.475524902],[97.64508056600002,33.476074219],[97.66571044900002,33.449707031],[97.73687744100002,33.437072754],[97.77990722700001,33.42388916],[97.68829345700001,33.367919922],[97.64910888700001,33.307678223],[97.610717773,33.25012207],[97.57550048800002,33.201904297],[97.554077148,33.184509277],[97.51287841800001,33.145324707],[97.50927734400001,33.104675293],[97.54412841800001,33.078918457],[97.55432128900001,33.069091797],[97.56408691400001,33.05670166],[97.54968261700002,33.043701172],[97.53869628900001,33.036315918],[97.55108642600001,33.019714355],[97.55230712900001,32.998291016],[97.54730224600002,32.995117187],[97.50769043000001,32.996276855],[97.44287109400001,32.997680664],[97.39691162100002,32.969726562],[97.34332275400001,32.919677734],[97.38867187500001,32.899291992],[97.39868164100001,32.88470459],[97.41949462900001,32.849304199],[97.39752197300001,32.818908691],[97.40612793000001,32.788513184],[97.42492675800001,32.765319824],[97.477905273,32.72088623],[97.54089355500001,32.708496094],[97.56109619100002,32.701293945],[97.61328125000001,32.659729004],[97.63787841800001,32.624694824],[97.65612793000001,32.604675293],[97.68530273400002,32.588684082],[97.73449707000002,32.565673828],[97.77209472700001,32.544494629],[97.84808349600002,32.520874023],[97.87188720700001,32.488708496],[97.929870605,32.457092285],[97.95391845700001,32.450073242],[98.00128173800002,32.439086914],[98.01910400400001,32.44708252],[98.04571533200001,32.446716309],[98.06811523400002,32.42388916],[98.09289550800001,32.410705566],[98.12652587900001,32.389099121],[98.153320312,32.38848877],[98.17291259800001,32.384277344],[98.18908691400001,32.376281738],[98.20611572300001,32.365478516],[98.22692871100001,32.351928711],[98.22869873,32.236328125],[98.31072998,32.161682129],[98.33648681600002,32.101318359],[98.43389892600001,32.012695312],[98.44567871100001,31.989318848],[98.44610595700001,31.926330566],[98.39892578100002,31.900695801],[98.402526855,31.876525879],[98.44128418000001,31.841674805],[98.45208740200002,31.793701172],[98.47808837900001,31.789123535],[98.54327392600001,31.746520996],[98.57373046900001,31.710876465],[98.58868408200001,31.663085937],[98.62048339800002,31.617126465],[98.69470214800002,31.568115234],[98.70629882800002,31.544677734],[98.78369140600002,31.502929687],[98.83648681600002,31.455322266],[98.87951660200001,31.417480469],[98.88452148400002,31.410888672],[98.89709472700001,31.380493164],[98.89892578100002,31.366699219],[98.86169433600001,31.331481934],[98.83789062500001,31.290893555],[98.82208252,31.282287598],[98.79730224600002,31.279907227],[98.75170898400002,31.307312012],[98.74047851600001,31.327087402],[98.72192382800002,31.339477539],[98.68408203100002,31.339294434],[98.66809082000002,31.334289551],[98.65808105500001,31.315917969],[98.65972900400001,31.273925781],[98.64807128900001,31.265686035],[98.65148925800001,31.241516113],[98.64709472700001,31.21307373],[98.65087890600002,31.18548584],[98.74072265600002,31.141479492],[98.74688720700001,31.096496582],[98.74847412100002,31.074890137],[98.770507812,31.046081543],[98.81048584000001,31.028686523],[98.83068847700001,31.002685547],[98.83551025400001,30.968078613],[98.82287597700001,30.907287598],[98.83709716800001,30.894470215],[98.89990234400001,30.861877441],[98.92932128900001,30.829528809],[98.94451904300001,30.809875488],[98.97149658200001,30.794921875],[98.99670410200001,30.762329102],[98.99951171900001,30.741516113],[98.98529052700002,30.722473145],[98.95068359400001,30.701721191],[98.93591308600001,30.686279297],[98.92468261700002,30.646728516],[98.96667480500001,30.612121582],[98.97491455100001,30.581298828],[98.96508789100001,30.499694824],[98.99932861300002,30.460693359],[99.01489257800002,30.40612793],[99.00732421900001,30.391723633],[99.00592041000002,30.367126465],[99.01812744100002,30.315490723],[99.020507812,30.309509277],[99.01727294900002,30.293884277],[99.004089355,30.268127441],[99.00708007800002,30.243896484],[99.03088378900001,30.221496582],[99.03411865200002,30.134094238],[99.05950927700002,30.097717285],[99.10131835900002,29.936706543],[99.10070800800001,29.908508301],[99.05010986300002,29.791320801],[99.04907226600001,29.766479492],[99.02392578100002,29.739685059],[99.01428222700001,29.717712402],[99.01208496100001,29.640686035],[99.03747558600001,29.603881836],[99.05590820300002,29.58807373],[99.07891845700001,29.537475586],[99.06909179700001,29.518920898],[99.08209228500002,29.481506348],[99.09649658200001,29.465270996],[99.10369873,29.44128418],[99.09289550800001,29.398071289],[99.11450195300002,29.357910156],[99.11688232400002,29.340515137],[99.10150146500001,29.300476074],[99.10729980500001,29.28692627],[99.14093017600001,29.247924805],[99.15270996100001,29.22088623],[99.14410400400001,29.191894531],[99.15350341800001,29.118896484],[99.179870605,29.040527344],[99.16088867200001,28.96472168],[99.17028808600001,28.923278809],[99.15228271500001,28.872497559],[99.15228271500001,28.845092773],[99.16070556600002,28.745300293],[99.19531250000001,28.636901855],[99.22271728500002,28.543273926],[99.20849609400001,28.466491699],[99.24487304700001,28.36730957],[99.31927490200002,28.243713379],[99.35168457000002,28.19732666],[99.37670898400002,28.18170166],[99.38189697300001,28.178527832],[99.40869140600002,28.221496582],[99.41790771500001,28.288085937],[99.413879395,28.346130371],[99.41607666000002,28.395874023],[99.41210937500001,28.468322754],[99.40148925800001,28.513305664],[99.43670654300001,28.53729248],[99.46807861300002,28.542907715],[99.52307128900001,28.575683594],[99.56011962900001,28.612304687],[99.578125,28.668884277],[99.59307861300002,28.698913574],[99.60870361300002,28.706726074],[99.62689209000001,28.721313477],[99.64367675800001,28.735107422],[99.64129638700001,28.788696289],[99.70251464800002,28.840881348],[99.74169921900001,28.859680176],[99.75311279300001,28.817687988],[99.76409912100002,28.795288086],[99.75189209000001,28.74029541],[99.79309082000002,28.716918945],[99.87048339800002,28.615905762],[99.85607910200001,28.571472168],[99.879882812,28.580871582],[99.92492675800001,28.627929687],[99.94671630900001,28.637084961],[99.97271728500002,28.590515137],[99.98870849600002,28.561706543],[100.00531005900001,28.543273926],[100.00512695300002,28.528076172],[100.00787353500002,28.495117187],[100.03210449200002,28.46472168],[100.05249023400002,28.431518555],[100.097473145,28.39050293],[100.09112548800002,28.365722656],[100.10668945300002,28.356079102],[100.12451171900001,28.355102539],[100.14392089800002,28.356689453],[100.152526855,28.34387207],[100.17712402300002,28.300292969],[100.17047119100002,28.29510498],[100.17010498,28.271728516],[100.18988037100002,28.26171875],[100.16149902300002,28.220703125],[100.13952636700002,28.187316895],[100.10430908200001,28.189697266],[100.06127929700001,28.187683105],[100.05389404300001,28.1796875],[100.06707763700001,28.082885742],[100.14093017600001,27.996704102],[100.20092773400002,27.947875977],[100.20050048800002,27.943908691],[100.21868896500001,27.952880859],[100.25787353500002,27.956115723],[100.29248046900001,27.974487305],[100.32690429700001,27.999328613],[100.36407470700001,28.009887695],[100.41333007800002,28.006896973],[100.44531250000001,28.025878906],[100.44348144500002,28.056884766],[100.42730712900001,28.096923828],[100.41088867200001,28.138671875],[100.38732910200001,28.17767334],[100.37890625000001,28.209472656],[100.39270019500002,28.250305176],[100.42633056600002,28.268127441],[100.42633056600002,28.307678223],[100.395507812,28.328918457],[100.40649414100001,28.35748291],[100.42388916000002,28.386291504],[100.44171142600001,28.430908203],[100.45989990200002,28.457885742],[100.48510742200001,28.480102539],[100.50830078100002,28.503112793],[100.51409912100002,28.529907227],[100.52807617200001,28.559326172],[100.55389404300001,28.586303711],[100.52368164100001,28.611877441],[100.53192138700001,28.649475098],[100.51910400400001,28.675720215],[100.48571777300002,28.688720703],[100.47991943400001,28.719116211],[100.52252197300001,28.716674805],[100.54071044900002,28.742675781],[100.57611084000001,28.746276855],[100.59027099600002,28.780883789],[100.57568359400001,28.819091797],[100.55828857400002,28.85949707],[100.55072021500001,28.892883301],[100.53332519500002,28.927124023],[100.519714355,28.956481934],[100.55090332000002,28.969299316],[100.58569335900002,28.954528809],[100.61853027300002,28.966308594],[100.64929199200002,29.002075195],[100.66729736300002,29.027282715],[100.71771240200002,29.033874512],[100.77770996100001,29.02130127],[100.81170654300001,29.002685547],[100.84228515600002,29.007324219],[100.84930419900002,29.036499023],[100.8125,29.057678223],[100.777526855,29.068481445],[100.79571533200001,29.105102539],[100.83630371100001,29.112121582],[100.87347412100002,29.132507324],[100.91607666000002,29.146728516],[100.93347168000001,29.102294922],[100.94067382800002,29.072509766],[100.97229003900001,29.083679199],[101.00427246100001,29.117675781],[101.02807617200001,29.14251709],[101.08471679700001,29.165527344],[101.11291503900001,29.148498535],[101.13110351600001,29.123291016],[101.12670898400002,29.088317871],[101.15087890600002,29.064880371],[101.16412353500002,29.031921387],[101.163085937,28.998474121],[101.15692138700001,28.965698242],[101.18707275400001,28.938903809],[101.20727539100001,28.900512695],[101.19848632800002,28.859313965],[101.18292236300002,28.826293945],[101.18408203100002,28.792907715],[101.20788574200002,28.767272949],[101.22552490200002,28.742492676],[101.22607421900001,28.715698242],[101.22210693400001,28.674682617],[101.25408935500002,28.666870117],[101.30151367200001,28.669128418],[101.34088134800001,28.658508301],[101.37231445300002,28.644104004],[101.40710449200002,28.641479492],[101.43988037100002,28.651916504],[101.45129394500002,28.625488281],[101.48950195300002,28.616882324],[101.52087402300002,28.595703125],[101.55212402300002,28.58972168],[101.57928466800001,28.575073242],[101.59411621100001,28.551086426],[101.61712646500001,28.527282715],[101.63153076200001,28.493103027],[101.60351562500001,28.471496582],[101.56848144500002,28.468078613],[101.53472900400001,28.482299805],[101.50012207000002,28.500305176],[101.45867919900002,28.512329102],[101.42047119100002,28.504089355],[101.40728759800001,28.477111816],[101.44110107400002,28.434875488],[101.45428466800001,28.400695801],[101.46569824200002,28.365905762],[101.47552490200002,28.336486816],[101.488098145,28.310119629],[101.51751709000001,28.300476074],[101.54650878900001,28.311096191],[101.57409668000001,28.331298828],[101.60107421900001,28.344726562],[101.63549804700001,28.345703125],[101.67889404300001,28.341674805],[101.69372558600001,28.357910156],[101.72912597700001,28.376708984],[101.76593017600001,28.379272461],[101.79992675800001,28.414123535],[101.78912353500002,28.526489258],[101.804504395,28.560119629],[101.82147216800001,28.577514648],[101.85687255900001,28.596130371],[101.87408447300001,28.613525391],[101.92132568400001,28.622924805],[101.94891357400002,28.656921387],[101.97668457000002,28.688293457],[101.99987793000001,28.707702637],[102.02148437500001,28.73449707],[102.00549316400001,28.774475098],[101.98010253900001,28.813903809],[101.979492187,28.85369873],[101.99530029300001,28.886291504],[102.01971435500002,28.911682129],[102.05108642600001,28.926330566],[102.08032226600001,28.959472656],[102.11169433600001,28.986083984],[102.13708496100001,29.01171875],[102.16748046900001,29.035888672],[102.16949462900001,29.068481445],[102.16467285200001,29.110900879],[102.15167236300002,29.139526367],[102.13067627,29.163085937],[102.09570312500001,29.168273926],[102.06927490200002,29.185302734],[102.10150146500001,29.206481934],[102.13110351600001,29.225097656],[102.11810302700002,29.256103516],[102.08990478500002,29.277282715],[102.05712890600002,29.293884277],[102.01708984400001,29.303527832],[101.96551513700001,29.306091309],[101.96173095700001,29.335876465],[101.97149658200001,29.366882324],[101.98272705100001,29.409912109],[101.96911621100001,29.4375],[101.94812011700002,29.459289551],[101.93548584000001,29.489318848],[102.02569580100001,29.500305176],[102.07232666000002,29.487915039],[102.11572265600002,29.483093262],[102.14447021500001,29.49987793],[102.17468261700002,29.491882324],[102.19232177700002,29.463684082],[102.22308349600002,29.473327637],[102.26110839800002,29.494689941],[102.31512451200001,29.541870117],[102.31109619100002,29.568481445],[102.28411865200002,29.586486816],[102.28448486300002,29.617919922],[102.29309082000002,29.644104004],[102.30688476600001,29.671508789],[102.33148193400001,29.710327148],[102.34869384800001,29.741882324],[102.34729003900001,29.770874023],[102.34368896500001,29.810119629],[102.31872558600001,29.846496582],[102.28833007800002,29.868103027],[102.28430175800001,29.894714355],[102.28991699200002,29.926696777],[102.30291748000002,29.961486816],[102.296691895,29.989685059],[102.27630615200002,30.019470215],[102.27392578100002,30.070495605],[102.31530761700002,30.107727051],[102.31591796900001,30.134887695],[102.32647705100001,30.165893555],[102.35070800800001,30.194885254],[102.35711669900002,30.221923828],[102.38989257800002,30.230102539],[102.41192627,30.252502441],[102.41851806600002,30.27911377],[102.43188476600001,30.325073242],[102.44451904300001,30.368103027],[102.44390869100002,30.402709961],[102.43969726600001,30.43347168],[102.43011474600002,30.466308594],[102.42749023400002,30.49810791],[102.42712402300002,30.534484863],[102.43151855500001,30.572875977],[102.437316895,30.606323242],[102.45489502,30.643920898],[102.47448730500001,30.674072266],[102.46307373000002,30.713684082]]]}}
