{"type":"Feature","id":"bulk-99377448B95515417857334","bbox":[115.25451660200001,35.778930664,116.52648925800001,37.031677246],"properties":{"id":"bulk-99377448B95515417857334","name":"Liaocheng","nameEn":"Liaocheng","fullName":"Liaocheng","level":"city","boundaryRole":"administrative-extent","boundaryQuality":"generalized-source-2020","boundaryYearRepresented":"2020","bounds":[[115.25451660200001,35.778930664],[116.52648925800001,37.031677246]],"center":[115.89050293000001,36.405303955],"centerMethod":"bounding-box midpoint; camera framing only","license":"CC-BY-3.0-IGO","attribution":"geoBoundaries / HDX, China administrative boundaries (2020)","source":{"provider":"geoBoundaries gbHumanitarian / HDX","url":"https://github.com/wmgeolab/geoBoundaries/raw/9469f09/releaseData/gbHumanitarian/CHN/ADM2/geoBoundaries-CHN-ADM2.geojson","metadataUrl":"https://www.geoboundaries.org/api/current/gbHumanitarian/CHN/ADM2/","shapeID":"99377448B95515417857334","shapeName":"Liaocheng","boundaryID":"CHN-ADM2-99377448","commit":"9469f09"},"geometryCounts":{"coordinates":111,"components":1,"holes":0},"boundaryNotice":"geoBoundaries / HDX 2020 年行政区数据，海岸和边界经过源数据概化，并非当前测绘成果。"},"geometry":{"type":"Polygon","coordinates":[[[115.44232177700002,36.116088867],[115.41412353500002,36.079711914],[115.41333007800002,36.019470215],[115.39349365200002,35.993103027],[115.38049316400001,35.982910156],[115.33172607400002,35.958129883],[115.32110595700001,35.929321289],[115.31927490200002,35.899291992],[115.31469726600001,35.876525879],[115.304504395,35.835327148],[115.32067871100001,35.789916992],[115.32208252,35.786071777],[115.33911132800002,35.778930664],[115.39947509800001,35.821472168],[115.45050048800002,35.864685059],[115.49353027300002,35.882873535],[115.55328369100002,35.895324707],[115.62347412100002,35.909729004],[115.64752197300001,35.933898926],[115.65447998000002,35.941101074],[115.67468261700002,35.955078125],[115.70092773400002,35.961486816],[115.74511718700002,35.954528809],[115.79052734400001,35.960083008],[115.81890869100002,35.953674316],[115.83850097700001,35.960327148],[115.91668701200001,36.019470215],[115.98748779300001,36.063903809],[115.97210693400001,36.114929199],[115.99353027300002,36.144104004],[116.00988769500002,36.145690918],[116.02728271500001,36.122314453],[116.04290771500001,36.116516113],[116.06109619100002,36.103088379],[116.06488037100002,36.110473633],[116.08831787100002,36.126708984],[116.10229492200001,36.136291504],[116.14587402300002,36.159301758],[116.18450927700002,36.159912109],[116.25891113300001,36.246704102],[116.37969970700001,36.30847168],[116.41632080100001,36.321899414],[116.47070312500001,36.356689453],[116.48828125000001,36.375915527],[116.49548339800002,36.383117676],[116.52648925800001,36.400085449],[116.47650146500001,36.412902832],[116.45471191400001,36.437072754],[116.42871093700002,36.470275879],[116.38427734400001,36.521911621],[116.39428710900002,36.564697266],[116.39910888700001,36.598693848],[116.39709472700001,36.634094238],[116.36267089800002,36.683105469],[116.38610839800002,36.704101562],[116.37432861300002,36.745117187],[116.37072753900001,36.787475586],[116.37652587900001,36.814086914],[116.39031982400002,36.848327637],[116.41027832000002,36.88092041],[116.42388916000002,36.91027832],[116.41748046900001,36.941101074],[116.37829589800002,36.963500977],[116.33087158200001,36.971496582],[116.29528808600001,36.979125977],[116.25970459000001,36.989501953],[116.22027587900001,37.031677246],[116.21130371100001,37.023071289],[116.17651367200001,36.954284668],[116.12689209000001,36.901489258],[116.06988525400001,36.879089355],[116.03167724600002,36.87487793],[115.98791503900001,36.870117187],[115.94927978500002,36.872314453],[115.90527343700002,36.873474121],[115.86370849600002,36.876708984],[115.82568359400001,36.885681152],[115.74169921900001,36.917297363],[115.72589111300002,36.92010498],[115.69128418000001,36.889099121],[115.66607666000002,36.854919434],[115.66107177700002,36.832519531],[115.66711425800001,36.824707031],[115.65228271500001,36.800292969],[115.63171386700002,36.783691406],[115.55889892600001,36.76171875],[115.52349853500002,36.765686035],[115.49090576200001,36.762084961],[115.46728515600002,36.750488281],[115.45947265600002,36.730895996],[115.42590332000002,36.70892334],[115.41888427700002,36.70489502],[115.41748046900001,36.684875488],[115.39611816400001,36.655700684],[115.32867431600002,36.615905762],[115.30792236300002,36.596679687],[115.31848144500002,36.561096191],[115.30731201200001,36.538879395],[115.27227783200001,36.50012207],[115.25451660200001,36.473327637],[115.26007080100001,36.459289551],[115.27471923800002,36.392089844],[115.27612304700001,36.364318848],[115.30407714800002,36.332885742],[115.38909912100002,36.331726074],[115.39990234400001,36.301330566],[115.42431640600002,36.254516602],[115.44769287100002,36.208496094],[115.45928955100001,36.173706055],[115.46649169900002,36.140686035],[115.44232177700002,36.116088867]]]}}
