{"type":"Feature","id":"bulk-99377448B59726436021944","bbox":[114.77209472700001,34.530090332,116.38171386700002,35.864685059],"properties":{"id":"bulk-99377448B59726436021944","name":"Heze","nameEn":"Heze","fullName":"Heze","level":"city","boundaryRole":"administrative-extent","boundaryQuality":"generalized-source-2020","boundaryYearRepresented":"2020","bounds":[[114.77209472700001,34.530090332],[116.38171386700002,35.864685059]],"center":[115.57690429700001,35.1973876955],"centerMethod":"bounding-box midpoint; camera framing only","license":"CC-BY-3.0-IGO","attribution":"geoBoundaries / HDX, China administrative boundaries (2020)","source":{"provider":"geoBoundaries gbHumanitarian / HDX","url":"https://github.com/wmgeolab/geoBoundaries/raw/9469f09/releaseData/gbHumanitarian/CHN/ADM2/geoBoundaries-CHN-ADM2.geojson","metadataUrl":"https://www.geoboundaries.org/api/current/gbHumanitarian/CHN/ADM2/","shapeID":"99377448B59726436021944","shapeName":"Heze","boundaryID":"CHN-ADM2-99377448","commit":"9469f09"},"geometryCounts":{"coordinates":125,"components":1,"holes":0},"boundaryNotice":"geoBoundaries / HDX 2020 年行政区数据，海岸和边界经过源数据概化，并非当前测绘成果。"},"geometry":{"type":"Polygon","coordinates":[[[116.38171386700002,34.837524414],[116.36669921900001,34.841308594],[116.32830810500002,34.855712891],[116.28851318400001,34.870910645],[116.25048828100002,34.890686035],[116.21667480500001,34.907287598],[116.18072509800001,34.922912598],[116.14190673800002,34.931274414],[116.11108398400002,34.950927734],[116.09967041000002,34.982299805],[116.08929443400001,35.016906738],[116.11749267600001,35.047302246],[116.14288330100001,35.092102051],[116.15588378900001,35.120727539],[116.18292236300002,35.153930664],[116.20648193400001,35.200683594],[116.20892334000001,35.25012207],[116.19732666000002,35.279296875],[116.18572998000002,35.327087402],[116.20410156200002,35.35369873],[116.21527099600002,35.385925293],[116.20489502,35.414672852],[116.18450927700002,35.439086914],[116.13952636700002,35.459716797],[116.097473145,35.50769043],[116.09808349600002,35.536499023],[116.09808349600002,35.563110352],[116.10931396500001,35.628479004],[116.09552002,35.659118652],[116.07208252,35.68927002],[116.05548095700001,35.712890625],[116.02490234400001,35.744506836],[115.99432373000002,35.756713867],[115.96032714800002,35.769287109],[115.92352294900002,35.787109375],[115.84112548800002,35.864685059],[115.80767822300001,35.846130371],[115.73669433600001,35.839294434],[115.71051025400001,35.830505371],[115.67608642600001,35.796875],[115.62292480500001,35.723876953],[115.58508300800001,35.730529785],[115.56347656200002,35.741516113],[115.53088378900001,35.732910156],[115.50128173800002,35.721679687],[115.46771240200002,35.698120117],[115.44970703100002,35.668701172],[115.40588378900001,35.635314941],[115.36572265600002,35.606872559],[115.35870361300002,35.549499512],[115.28247070300002,35.555297852],[115.29968261700002,35.479125977],[115.19030761700002,35.410888672],[115.14031982400002,35.425476074],[114.97668457000002,35.354125977],[114.97607421900001,35.344116211],[114.96887207000002,35.281677246],[114.95092773400002,35.247070312],[114.90789794900002,35.218688965],[114.86907959000001,35.205078125],[114.80609130900001,35.159912109],[114.81451416000002,35.089294434],[114.81347656200002,35.07409668],[114.77209472700001,35.017883301],[114.77447509800001,35.005310059],[114.89550781200002,34.990905762],[114.95471191400001,34.972106934],[115.08392334000001,34.990905762],[115.11730957000002,34.978271484],[115.14068603500002,34.969482422],[115.16650390600002,34.9296875],[115.17211914100001,34.909118652],[115.179504395,34.900085449],[115.20349121100001,34.891296387],[115.20471191400001,34.870910645],[115.20611572300001,34.85748291],[115.23071289100001,34.854492187],[115.28350830100001,34.847717285],[115.34289550800001,34.833312988],[115.39349365200002,34.783691406],[115.40527343700002,34.717712402],[115.41851806600002,34.655273437],[115.42492675800001,34.631286621],[115.42529296900001,34.616699219],[115.45727539100001,34.577514648],[115.48413085900002,34.556274414],[115.52551269500002,34.56451416],[115.55352783200001,34.558105469],[115.57788085900002,34.546875],[115.62451171900001,34.53729248],[115.64392089800002,34.546508789],[115.64508056600002,34.561523437],[115.65167236300002,34.568725586],[115.66467285200001,34.573303223],[115.74468994100002,34.555725098],[115.75512695300002,34.551513672],[115.78448486300002,34.550292969],[115.82489013700001,34.55090332],[115.87048339800002,34.557312012],[115.89929199200002,34.570922852],[115.92529296900001,34.586914062],[115.97271728500002,34.598327637],[115.98669433600001,34.597717285],[116.00048828100002,34.594482422],[116.01788330100001,34.578674316],[116.06207275400001,34.590087891],[116.09429931600002,34.583679199],[116.10607910200001,34.5546875],[116.12731933600001,34.530090332],[116.14208984400001,34.540283203],[116.16107177700002,34.544494629],[116.24389648400002,34.573913574],[116.24908447300001,34.57611084],[116.27471923800002,34.587524414],[116.30590820300002,34.606506348],[116.33331298800002,34.62689209],[116.33691406200002,34.636901855],[116.35949707000002,34.658081055],[116.36511230500001,34.69152832],[116.33868408200001,34.729675293],[116.35351562500001,34.748474121],[116.35949707000002,34.772277832],[116.38049316400001,34.785522461],[116.38067627,34.820678711],[116.38171386700002,34.837524414]]]}}
