{"type":"Feature","id":"bulk-99377448B15778942471364","bbox":[106.59387207000002,23.686096191,109.15350341800001,25.606079102],"properties":{"id":"bulk-99377448B15778942471364","name":"Hechi","nameEn":"Hechi","fullName":"Hechi","level":"city","boundaryRole":"administrative-extent","boundaryQuality":"generalized-source-2020","boundaryYearRepresented":"2020","bounds":[[106.59387207000002,23.686096191],[109.15350341800001,25.606079102]],"center":[107.87368774400002,24.6460876465],"centerMethod":"bounding-box midpoint; camera framing only","license":"CC-BY-3.0-IGO","attribution":"geoBoundaries / HDX, China administrative boundaries (2020)","source":{"provider":"geoBoundaries gbHumanitarian / HDX","url":"https://github.com/wmgeolab/geoBoundaries/raw/9469f09/releaseData/gbHumanitarian/CHN/ADM2/geoBoundaries-CHN-ADM2.geojson","metadataUrl":"https://www.geoboundaries.org/api/current/gbHumanitarian/CHN/ADM2/","shapeID":"99377448B15778942471364","shapeName":"Hechi","boundaryID":"CHN-ADM2-99377448","commit":"9469f09"},"geometryCounts":{"coordinates":243,"components":1,"holes":0},"boundaryNotice":"geoBoundaries / HDX 2020 年行政区数据，海岸和边界经过源数据概化，并非当前测绘成果。"},"geometry":{"type":"Polygon","coordinates":[[[107.80871582000002,23.734313965],[107.81652832000002,23.727478027],[107.82867431600002,23.692687988],[107.85150146500001,23.686096191],[107.88891601600001,23.700927734],[107.91748046900001,23.708129883],[107.95690918000001,23.709106445],[107.99090576200001,23.709899902],[108.01312255900001,23.724304199],[108.02770996100001,23.752685547],[108.03851318400001,23.780883789],[108.07208252,23.795471191],[108.09448242200001,23.817077637],[108.105285645,23.838317871],[108.12768554700001,23.852722168],[108.15069580100001,23.846130371],[108.17352294900002,23.839477539],[108.20727539100001,23.847106934],[108.22949218700002,23.87890625],[108.26672363300001,23.914672852],[108.27789306600002,23.928894043],[108.31127929700001,23.957519531],[108.33410644500002,23.957885742],[108.35607910200001,23.993286133],[108.38989257800002,24.014892578],[108.42388916000002,24.029296875],[108.43530273400002,24.02947998],[108.51568603500002,24.040710449],[108.55090332000002,24.0546875],[108.56951904300001,24.082519531],[108.57189941400001,24.127319336],[108.58129882800002,24.164672852],[108.60607910200001,24.179504395],[108.65588378900001,24.186889648],[108.679504395,24.239501953],[108.66271972700001,24.298706055],[108.71148681600002,24.350891113],[108.72009277300002,24.386291504],[108.73571777300002,24.415710449],[108.77490234400001,24.392883301],[108.80267334000001,24.383300781],[108.83410644500002,24.356506348],[108.84271240200002,24.317504883],[108.86029052700002,24.289489746],[108.89630127,24.328918457],[108.89910888700001,24.365905762],[108.91247558600001,24.390319824],[108.94787597700001,24.419311523],[108.99212646500001,24.4375],[109.00811767600001,24.45892334],[108.96112060500002,24.473876953],[108.93450927700002,24.473693848],[108.90747070300002,24.490905762],[108.85412597700001,24.49029541],[108.82727050800001,24.507507324],[108.82708740200002,24.525085449],[108.82647705100001,24.560119629],[108.89770507800002,24.644714355],[108.93170166000002,24.661315918],[108.94873046900001,24.69708252],[108.92907714800002,24.725280762],[108.94152832000002,24.751525879],[108.94671630900001,24.785095215],[108.97570800800001,24.819274902],[108.99871826200001,24.841491699],[109.03051757800002,24.854492187],[109.06787109400001,24.842712402],[109.11450195300002,24.833129883],[109.15350341800001,24.868896484],[109.13330078100002,24.897705078],[109.11407470700001,24.926879883],[109.10131835900002,24.957702637],[109.08032226600001,24.993713379],[109.04931640600002,24.974121094],[109.02368164100001,24.95892334],[108.99072265600002,24.967102051],[108.97528076200001,25.000915527],[109.00250244100002,25.014709473],[109.046691895,25.045288086],[109.06628418000001,25.076477051],[109.07891845700001,25.104675293],[109.07409668000001,25.145080566],[109.06390380900001,25.18951416],[109.05047607400002,25.222106934],[109.01287841800001,25.213928223],[108.95489502,25.170471191],[108.93127441400001,25.152282715],[108.89508056600002,25.169311523],[108.85131835900002,25.187072754],[108.82250976600001,25.17590332],[108.78411865200002,25.15447998],[108.74810791000002,25.149902344],[108.71612548800002,25.142272949],[108.65887451200001,25.139892578],[108.67370605500001,25.190673828],[108.69091796900001,25.224914551],[108.66052246100001,25.238525391],[108.64007568400001,25.258728027],[108.63787841800001,25.287475586],[108.63128662100002,25.319274902],[108.61169433600001,25.342102051],[108.60571289100001,25.347473145],[108.60748291000002,25.332885742],[108.57208252,25.35748291],[108.52947998000002,25.424926758],[108.49108886700002,25.445678711],[108.42828369100002,25.455078125],[108.35931396500001,25.497680664],[108.31170654300001,25.528076172],[108.30389404300001,25.52331543],[108.26568603500002,25.50012207],[108.22607421900001,25.460327148],[108.18109130900001,25.469299316],[108.17327880900001,25.430297852],[108.15368652300002,25.416320801],[108.12927246100001,25.370727539],[108.13891601600001,25.323303223],[108.14672851600001,25.264099121],[108.12890625000001,25.22668457],[108.06091308600001,25.182678223],[107.96789550800001,25.173095703],[107.89208984400001,25.157470703],[107.85009765600002,25.137329102],[107.83911132800002,25.136108398],[107.76330566400001,25.12689209],[107.77270507800002,25.166687012],[107.75390625000001,25.194091797],[107.76232910200001,25.237487793],[107.74047851600001,25.234313965],[107.68151855500001,25.192871094],[107.67150878900001,25.223327637],[107.64190673800002,25.297119141],[107.63690185500002,25.299682617],[107.62988281200002,25.303100586],[107.59368896500001,25.284118652],[107.55810546900001,25.229919434],[107.48712158200001,25.215881348],[107.42871093700002,25.262695312],[107.43829345700001,25.322509766],[107.38867187500001,25.392883301],[107.35192871100001,25.397277832],[107.31188964800002,25.428283691],[107.32312011700002,25.468322754],[107.30133056600002,25.509094238],[107.29290771500001,25.524902344],[107.25811767600001,25.549926758],[107.22949218700002,25.563293457],[107.21588134800001,25.606079102],[107.15612793000001,25.581481934],[107.13409423800002,25.554077148],[107.06451416000002,25.579101562],[107.04870605500001,25.507324219],[106.95709228500002,25.396728516],[106.98211669900002,25.36151123],[106.99108886700002,25.325683594],[106.98468017600001,25.282287598],[106.97772216800001,25.253295898],[106.96289062500001,25.223876953],[106.93908691400001,25.223327637],[106.93872070300002,25.237670898],[106.93072509800001,25.237487793],[106.91571044900002,25.215515137],[106.91711425800001,25.172302246],[106.87750244100002,25.171081543],[106.85351562500001,25.17767334],[106.82189941400001,25.176879883],[106.79827880900001,25.168884277],[106.75091552700002,25.167480469],[106.73510742200001,25.167114258],[106.69531250000001,25.173095703],[106.64788818400001,25.164489746],[106.61749267600001,25.13470459],[106.59387207000002,25.100891113],[106.61132812500001,25.08972168],[106.64910888700001,25.09552002],[106.67968750000001,25.105102539],[106.71087646500001,25.116516113],[106.74267578100002,25.090515137],[106.73968505900001,25.062927246],[106.71307373000002,25.017272949],[106.75109863300001,24.976318359],[106.78350830100001,24.946472168],[106.83148193400001,24.934875488],[106.86212158200001,24.901916504],[106.82910156200002,24.873291016],[106.78747558600001,24.856506348],[106.77587890600002,24.827880859],[106.73687744100002,24.833312988],[106.68908691400001,24.840515137],[106.64691162100002,24.80291748],[106.67108154300001,24.777893066],[106.70892334000001,24.754699707],[106.76007080100001,24.730102539],[106.79888916000002,24.708312988],[106.77307128900001,24.68371582],[106.71331787100002,24.657897949],[106.73669433600001,24.631286621],[106.75250244100002,24.586914062],[106.76867675800001,24.561523437],[106.77648925800001,24.530517578],[106.78588867200001,24.495300293],[106.81152343700002,24.468505859],[106.85412597700001,24.46270752],[106.87268066400001,24.438293457],[106.86071777300002,24.405700684],[106.84088134800001,24.370727539],[106.85192871100001,24.331481934],[106.87371826200001,24.311279297],[106.88848877,24.287475586],[106.90087890600002,24.255493164],[106.86853027300002,24.247070312],[106.85968017600001,24.182128906],[106.88128662100002,24.148681641],[106.95251464800002,24.120727539],[106.98272705100001,24.084472656],[107.01312255900001,24.06628418],[107.04510498000002,24.083129883],[107.07611084000001,24.100280762],[107.10632324200002,24.07409668],[107.12432861300002,24.038696289],[107.15087890600002,24.020324707],[107.18670654300001,24.008728027],[107.21972656200002,24.014282227],[107.26269531200002,24.024719238],[107.28607177700002,23.99810791],[107.30169677700002,23.960693359],[107.34527587900001,23.959899902],[107.36853027300002,23.935913086],[107.39227294900002,23.910095215],[107.41088867200001,23.886474609],[107.44207763700001,23.878723145],[107.48248291000002,23.905700684],[107.51812744100002,23.922485352],[107.53271484400001,23.876525879],[107.54949951200001,23.832702637],[107.56872558600001,23.799072266],[107.60748291000002,23.784301758],[107.64648437500001,23.803100586],[107.68347168000001,23.796691895],[107.71392822300001,23.784729004],[107.75347900400001,23.770874023],[107.78088378900001,23.751098633],[107.80871582000002,23.734313965]]]}}
