{"type":"Feature","id":"bulk-99377448B81215637006482","bbox":[109.39727783200001,18.38470459,109.84448242200001,18.825683594],"properties":{"id":"bulk-99377448B81215637006482","name":"Baoting Li and Miao Autonomous County","nameEn":"Baoting Li and Miao Autonomous County","fullName":"Baoting Li and Miao Autonomous County","level":"city","boundaryRole":"administrative-extent","boundaryQuality":"generalized-source-2020","boundaryYearRepresented":"2020","bounds":[[109.39727783200001,18.38470459],[109.84448242200001,18.825683594]],"center":[109.62088012700002,18.605194091999998],"centerMethod":"bounding-box midpoint; camera framing only","license":"CC-BY-3.0-IGO","attribution":"geoBoundaries / HDX, China administrative boundaries (2020)","source":{"provider":"geoBoundaries gbHumanitarian / HDX","url":"https://github.com/wmgeolab/geoBoundaries/raw/9469f09/releaseData/gbHumanitarian/CHN/ADM2/geoBoundaries-CHN-ADM2.geojson","metadataUrl":"https://www.geoboundaries.org/api/current/gbHumanitarian/CHN/ADM2/","shapeID":"99377448B81215637006482","shapeName":"Baoting Li and Miao Autonomous County","boundaryID":"CHN-ADM2-99377448","commit":"9469f09"},"geometryCounts":{"coordinates":199,"components":1,"holes":0},"boundaryNotice":"geoBoundaries / HDX 2020 年行政区数据，海岸和边界经过源数据概化，并非当前测绘成果。"},"geometry":{"type":"Polygon","coordinates":[[[109.77471923800002,18.507873535],[109.77752685500002,18.506713867],[109.78308105500001,18.509277344],[109.78692627,18.512878418],[109.79107666000002,18.514099121],[109.79528808600001,18.511474609],[109.79809570300002,18.506103516],[109.79992675800001,18.504699707],[109.80590820300002,18.500915527],[109.81488037100002,18.502502441],[109.82629394500002,18.512512207],[109.82867431600002,18.522888184],[109.82952880900001,18.532470703],[109.83728027300002,18.538085937],[109.84429931600002,18.545715332],[109.84448242200001,18.555114746],[109.84051513700001,18.563476562],[109.83648681600002,18.56628418],[109.83111572300001,18.565307617],[109.82611084000001,18.563903809],[109.81988525400001,18.56451416],[109.81512451200001,18.574523926],[109.81048584000001,18.578125],[109.80371093700002,18.579528809],[109.80133056600002,18.584716797],[109.79907226600001,18.591674805],[109.796691895,18.602905273],[109.79827880900001,18.614685059],[109.79949951200001,18.617919922],[109.80230712900001,18.620483398],[109.80670166000002,18.623718262],[109.81530761700002,18.627502441],[109.82110595700001,18.634887695],[109.82031250000001,18.644897461],[109.82330322300001,18.65447998],[109.82928466800001,18.666320801],[109.83087158200001,18.674499512],[109.82690429700001,18.683898926],[109.82171630900001,18.689697266],[109.81628418000001,18.701477051],[109.80871582000002,18.710327148],[109.80389404300001,18.713500977],[109.79748535200001,18.71307373],[109.79211425800001,18.711914062],[109.78430175800001,18.709716797],[109.77709960900002,18.710083008],[109.76892089800002,18.715881348],[109.76550293000001,18.72088623],[109.76330566400001,18.725524902],[109.76312255900001,18.733520508],[109.76391601600001,18.736083984],[109.76629638700001,18.743103027],[109.76812744100002,18.750305176],[109.76593017600001,18.754516602],[109.76007080100001,18.755493164],[109.75250244100002,18.758911133],[109.74951171900001,18.770874023],[109.74890136700002,18.778503418],[109.75170898400002,18.786499023],[109.75988769500002,18.795715332],[109.76208496100001,18.799499512],[109.76312255900001,18.801513672],[109.76593017600001,18.804870605],[109.76428222700001,18.811096191],[109.75610351600001,18.813720703],[109.74450683600001,18.814086914],[109.73712158200001,18.814880371],[109.72692871100001,18.820678711],[109.72009277300002,18.823913574],[109.71130371100001,18.825683594],[109.70788574200002,18.825683594],[109.61730957000002,18.78112793],[109.57849121100001,18.760925293],[109.54632568400001,18.695678711],[109.39727783200001,18.619689941],[109.40069580100001,18.618103027],[109.40307617200001,18.610290527],[109.40649414100001,18.600708008],[109.40887451200001,18.593505859],[109.41247558600001,18.585693359],[109.41491699200002,18.579711914],[109.41748046900001,18.570678711],[109.41931152300002,18.563903809],[109.42248535200001,18.562316895],[109.42687988300001,18.564697266],[109.42968750000001,18.564697266],[109.43688964800002,18.563110352],[109.44329834000001,18.559875488],[109.44750976600001,18.555908203],[109.45471191400001,18.554077148],[109.46130371100001,18.554870605],[109.46691894500002,18.556884766],[109.47528076200001,18.557312012],[109.48107910200001,18.556274414],[109.48571777300002,18.5546875],[109.48828125000001,18.551879883],[109.49548339800002,18.552307129],[109.49932861300002,18.55267334],[109.50152587900001,18.551086426],[109.50268554700001,18.549499512],[109.50653076200001,18.542907715],[109.50848388700001,18.536499023],[109.51428222700001,18.535095215],[109.52172851600001,18.534729004],[109.52728271500001,18.530517578],[109.53070068400001,18.521484375],[109.53149414100001,18.511474609],[109.53228759800001,18.502319336],[109.53210449200002,18.492126465],[109.53051757800002,18.486083984],[109.52471923800002,18.477722168],[109.51947021500001,18.471679687],[109.51812744100002,18.466674805],[109.51947021500001,18.457519531],[109.52307128900001,18.451293945],[109.52447509800001,18.445922852],[109.52227783200001,18.43927002],[109.51550293000001,18.438476562],[109.51312255900001,18.436889648],[109.51190185500002,18.429504395],[109.51568603500002,18.424316406],[109.52508544900002,18.419677734],[109.52893066400001,18.414672852],[109.53210449200002,18.40447998],[109.53472900400001,18.398681641],[109.54309082000002,18.394287109],[109.54791259800001,18.392700195],[109.55932617200001,18.39251709],[109.56768798800002,18.39050293],[109.58032226600001,18.392700195],[109.58691406200002,18.394287109],[109.59368896500001,18.39050293],[109.59771728500002,18.386291504],[109.60491943400001,18.38470459],[109.61669921900001,18.390930176],[109.62329101600001,18.395324707],[109.63208007800002,18.396728516],[109.64031982400002,18.391723633],[109.64550781200002,18.387695312],[109.65447998000002,18.387695312],[109.66229248000002,18.391479492],[109.66650390600002,18.393920898],[109.67108154300001,18.394714355],[109.67730712900001,18.394714355],[109.68151855500001,18.396911621],[109.68670654300001,18.403076172],[109.68811035200001,18.409118652],[109.68908691400001,18.414672852],[109.68908691400001,18.417724609],[109.68951416000002,18.422729492],[109.69012451200001,18.425720215],[109.69049072300001,18.428283691],[109.69152832000002,18.432128906],[109.69427490200002,18.435302734],[109.69628906200002,18.436279297],[109.70111084000001,18.43572998],[109.70532226600001,18.435119629],[109.70770263700001,18.436279297],[109.70709228500002,18.438720703],[109.70550537100002,18.440124512],[109.70410156200002,18.441711426],[109.70269775400001,18.444885254],[109.703125,18.447509766],[109.70391845700001,18.450683594],[109.70568847700001,18.454284668],[109.70751953100002,18.457092285],[109.70892334000001,18.45892334],[109.71051025400001,18.460327148],[109.71392822300001,18.463500977],[109.71588134800001,18.464477539],[109.71929931600002,18.466125488],[109.72528076200001,18.47052002],[109.72631835900002,18.47467041],[109.72448730500001,18.478881836],[109.72052002,18.480895996],[109.71752929700001,18.481872559],[109.71710205100001,18.484680176],[109.71807861300002,18.489318848],[109.71948242200001,18.492492676],[109.72290039100001,18.497497559],[109.72528076200001,18.500305176],[109.72668457000002,18.501708984],[109.72991943400001,18.50390625],[109.73590087900001,18.50567627],[109.74249267600001,18.505493164],[109.74707031200002,18.505126953],[109.75189209000001,18.506103516],[109.75347900400001,18.507324219],[109.75488281200002,18.508911133],[109.75610351600001,18.511108398],[109.75732421900001,18.514892578],[109.75787353500002,18.516906738],[109.75872802700002,18.518676758],[109.76171875000001,18.522521973],[109.76470947300001,18.52532959],[109.76708984400001,18.526306152],[109.77069091800001,18.52532959],[109.77349853500002,18.522888184],[109.77471923800002,18.507873535]]]}}
