{"type":"Feature","id":"bulk-99377448B69403720896143","bbox":[113.83990478500002,27.515319824,116.12109375000001,29.097473145],"properties":{"id":"bulk-99377448B69403720896143","name":"Yichun","nameEn":"Yichun","fullName":"Yichun","level":"city","boundaryRole":"administrative-extent","boundaryQuality":"generalized-source-2020","boundaryYearRepresented":"2020","bounds":[[113.83990478500002,27.515319824],[116.12109375000001,29.097473145]],"center":[114.98049926750002,28.3063964845],"centerMethod":"bounding-box midpoint; camera framing only","license":"CC-BY-3.0-IGO","attribution":"geoBoundaries / HDX, China administrative boundaries (2020)","source":{"provider":"geoBoundaries gbHumanitarian / HDX","url":"https://github.com/wmgeolab/geoBoundaries/raw/9469f09/releaseData/gbHumanitarian/CHN/ADM2/geoBoundaries-CHN-ADM2.geojson","metadataUrl":"https://www.geoboundaries.org/api/current/gbHumanitarian/CHN/ADM2/","shapeID":"99377448B69403720896143","shapeName":"Yichun","boundaryID":"CHN-ADM2-99377448","commit":"9469f09"},"geometryCounts":{"coordinates":238,"components":1,"holes":0},"boundaryNotice":"geoBoundaries / HDX 2020 年行政区数据，海岸和边界经过源数据概化，并非当前测绘成果。"},"geometry":{"type":"Polygon","coordinates":[[[116.11029052700002,28.230102539],[116.08032226600001,28.247680664],[116.07312011700002,28.30090332],[116.02868652300002,28.272888184],[115.99487304700001,28.259277344],[115.95751953100002,28.256713867],[115.91790771500001,28.272705078],[115.88787841800001,28.28692627],[115.85791015600002,28.30847168],[115.84149169900002,28.335083008],[115.812316895,28.352478027],[115.77087402300002,28.333129883],[115.72949218700002,28.330871582],[115.68908691400001,28.342712402],[115.65472412100002,28.332275391],[115.63171386700002,28.311279297],[115.60748291000002,28.335876465],[115.60229492200001,28.364929199],[115.57727050800001,28.387084961],[115.55047607400002,28.368286133],[115.51568603500002,28.376525879],[115.52429199200002,28.40612793],[115.53228759800001,28.433288574],[115.54388427700002,28.464477539],[115.55133056600002,28.495117187],[115.55749511700002,28.529296875],[115.56268310500002,28.56451416],[115.55090332000002,28.593078613],[115.53692627,28.627319336],[115.54827880900001,28.676696777],[115.55609130900001,28.708129883],[115.52911377,28.729675293],[115.49450683600001,28.715515137],[115.44628906200002,28.729492187],[115.43652343700002,28.759277344],[115.46270752,28.792907715],[115.47827148400002,28.81628418],[115.49932861300002,28.857299805],[115.51770019500002,28.883911133],[115.50292968700002,28.91027832],[115.48510742200001,28.945129395],[115.46972656200002,28.985900879],[115.47491455100001,29.016113281],[115.44628906200002,29.029724121],[115.43048095700001,29.078674316],[115.37609863300001,29.07232666],[115.34088134800001,29.089111328],[115.29052734400001,29.097473145],[115.24407959000001,29.095703125],[115.20147705100001,29.086914062],[115.15991210900002,29.077697754],[115.11950683600001,29.0625],[115.07489013700001,29.048278809],[115.03967285200001,29.032714844],[114.99969482400002,29.00769043],[114.98187255900001,28.979919434],[114.97290039100001,28.944885254],[114.96270752,28.913879395],[114.93029785200001,28.909301758],[114.91510009800001,28.857299805],[114.90270996100001,28.816894531],[114.88989257800002,28.786071777],[114.86328125000001,28.758300781],[114.82067871100001,28.756103516],[114.78771972700001,28.74810791],[114.77349853500002,28.717285156],[114.74810791000002,28.700317383],[114.70971679700001,28.6875],[114.67572021500001,28.661071777],[114.63671875000001,28.696289062],[114.61352539100001,28.714294434],[114.59088134800001,28.735290527],[114.57489013700001,28.75970459],[114.54290771500001,28.760498047],[114.50811767600001,28.751098633],[114.47467041000002,28.727478027],[114.46051025400001,28.696289062],[114.42089843700002,28.697875977],[114.37829589800002,28.704101562],[114.33410644500002,28.708679199],[114.304504395,28.732299805],[114.28790283200001,28.761291504],[114.26849365200002,28.793273926],[114.23187255900001,28.815917969],[114.20068359400001,28.829284668],[114.18371582000002,28.792297363],[114.13629150400001,28.762329102],[114.13592529300001,28.75970459],[114.13372802700002,28.725891113],[114.12890625000001,28.680480957],[114.11627197300001,28.645324707],[114.10809326200001,28.618713379],[114.09411621100001,28.601318359],[114.07788085900002,28.581115723],[114.08087158200001,28.553283691],[114.10290527300002,28.539916992],[114.11108398400002,28.534729004],[114.14727783200001,28.509521484],[114.19952392600001,28.50012207],[114.20068359400001,28.478515625],[114.18347168000001,28.456726074],[114.15728759800001,28.44329834],[114.171875,28.419677734],[114.20550537100002,28.414123535],[114.21447753900001,28.40411377],[114.24127197300001,28.36907959],[114.24688720700001,28.362121582],[114.21728515600002,28.31652832],[114.19451904300001,28.284118652],[114.13507080100001,28.262512207],[114.09527587900001,28.238708496],[114.07287597700001,28.218688965],[114.05151367200001,28.193481445],[113.97192382800002,28.174316406],[113.97027587900001,28.162719727],[113.99169921900001,28.124511719],[114.02752685500002,28.093078613],[114.02307128900001,28.077087402],[114.02032470700001,28.06652832],[114.00549316400001,28.049072266],[113.98229980500001,28.033691406],[113.93267822300001,28.019897461],[113.89770507800002,28.017272949],[113.88610839800002,28.004882812],[113.83990478500002,27.996704102],[113.929504395,27.948120117],[113.96472168000001,27.931518555],[113.98168945300002,27.901123047],[113.95471191400001,27.873474121],[113.92150878900001,27.852905273],[113.89868164100001,27.832702637],[113.89587402300002,27.804870605],[113.92712402300002,27.783081055],[113.94830322300001,27.760070801],[113.95391845700001,27.731506348],[113.98492431600002,27.717712402],[114.02832031200002,27.715270996],[114.06567382800002,27.719299316],[114.10992431600002,27.728881836],[114.14190673800002,27.718078613],[114.16748046900001,27.697692871],[114.19470214800002,27.674316406],[114.20288085900002,27.641906738],[114.20288085900002,27.614074707],[114.21649169900002,27.584106445],[114.25030517600001,27.561706543],[114.28271484400001,27.546875],[114.32373046900001,27.54309082],[114.36010742200001,27.549682617],[114.38348388700001,27.52532959],[114.41369628900001,27.515319824],[114.44769287100002,27.538879395],[114.48547363300001,27.557495117],[114.52087402300002,27.575073242],[114.52569580100001,27.604492187],[114.53912353500002,27.638671875],[114.54888916000002,27.664672852],[114.55731201200001,27.693725586],[114.56451416000002,27.727478027],[114.56732177700002,27.758911133],[114.57147216800001,27.786071777],[114.54949951200001,27.806884766],[114.51788330100001,27.796875],[114.48510742200001,27.812072754],[114.47607421900001,27.847106934],[114.48229980500001,27.874511719],[114.50152587900001,27.895874023],[114.52893066400001,27.909729004],[114.55749511700002,27.920288086],[114.57928466800001,27.940917969],[114.57348632800002,27.973876953],[114.55407714800002,28.026489258],[114.60290527300002,28.054321289],[114.64428710900002,28.060913086],[114.68627929700001,28.0703125],[114.72192382800002,28.072692871],[114.75653076200001,28.065673828],[114.77252197300001,28.040283203],[114.78491210900002,28.010925293],[114.84991455100001,28.010681152],[114.90228271500001,28.039489746],[114.93267822300001,28.054321289],[114.96850585900002,28.053894043],[115.02148437500001,28.05847168],[115.04809570300002,28.043518066],[115.08007812500001,28.046508789],[115.12109375000001,28.04510498],[115.14807128900001,28.029724121],[115.13287353500002,27.99407959],[115.11047363300001,27.967712402],[115.10968017600001,27.953918457],[115.08709716800001,27.927307129],[115.08551025400001,27.899902344],[115.10552978500002,27.885314941],[115.12567138700001,27.870483398],[115.14752197300001,27.883300781],[115.18927002,27.881286621],[115.21087646500001,27.894287109],[115.23187255900001,27.893310547],[115.27288818400001,27.877502441],[115.31390380900001,27.861877441],[115.33471679700001,27.860900879],[115.37652587900001,27.853088379],[115.39312744100002,27.912475586],[115.43969726600001,27.891723633],[115.46771240200002,27.909484863],[115.49353027300002,27.926086426],[115.51727294900002,27.906677246],[115.51489257800002,27.873901367],[115.53991699200002,27.857116699],[115.56512451200001,27.83807373],[115.60052490200002,27.817077637],[115.62969970700001,27.805480957],[115.65771484400001,27.789123535],[115.68389892600001,27.767883301],[115.70989990200002,27.743896484],[115.73712158200001,27.722900391],[115.82891845700001,27.716674805],[115.84710693400001,27.746704102],[115.85052490200002,27.775512695],[115.84869384800001,27.803283691],[115.85388183600001,27.831481934],[115.87432861300002,27.852111816],[115.90008544900002,27.868896484],[115.93829345700001,27.879882812],[115.96868896500001,27.876281738],[116.00268554700001,27.88470459],[116.06127929700001,27.926086426],[116.07348632800002,27.951293945],[116.08929443400001,27.980285645],[116.10467529300001,28.01550293],[116.12109375000001,28.050109863],[116.11968994100002,28.087890625],[116.10968017600001,28.121887207],[116.07232666000002,28.132873535],[116.06109619100002,28.159118652],[116.08929443400001,28.186889648],[116.11029052700002,28.230102539]]]}}
