{"type":"Feature","id":"bulk-99377448B13417857960908","bbox":[103.59552002,22.69708252,106.19189453100002,24.462280273],"properties":{"id":"bulk-99377448B13417857960908","name":"Wenshan Zhuang and Miao Autonomous Prefecture","nameEn":"Wenshan Zhuang and Miao Autonomous Prefecture","fullName":"Wenshan Zhuang and Miao Autonomous Prefecture","level":"city","boundaryRole":"administrative-extent","boundaryQuality":"generalized-source-2020","boundaryYearRepresented":"2020","bounds":[[103.59552002,22.69708252],[106.19189453100002,24.462280273]],"center":[104.8937072755,23.5796813965],"centerMethod":"bounding-box midpoint; camera framing only","license":"CC-BY-3.0-IGO","attribution":"geoBoundaries / HDX, China administrative boundaries (2020)","source":{"provider":"geoBoundaries gbHumanitarian / HDX","url":"https://github.com/wmgeolab/geoBoundaries/raw/9469f09/releaseData/gbHumanitarian/CHN/ADM2/geoBoundaries-CHN-ADM2.geojson","metadataUrl":"https://www.geoboundaries.org/api/current/gbHumanitarian/CHN/ADM2/","shapeID":"99377448B13417857960908","shapeName":"Wenshan Zhuang and Miao Autonomous Prefecture","boundaryID":"CHN-ADM2-99377448","commit":"9469f09"},"geometryCounts":{"coordinates":321,"components":1,"holes":0},"boundaryNotice":"geoBoundaries / HDX 2020 年行政区数据，海岸和边界经过源数据概化，并非当前测绘成果。"},"geometry":{"type":"Polygon","coordinates":[[[104.54052734400001,24.445678711],[104.51391601600001,24.440490723],[104.49890136700002,24.440673828],[104.45629882800002,24.444519043],[104.42590332000002,24.4296875],[104.40972900400001,24.40612793],[104.39111328100002,24.38067627],[104.35968017600001,24.391723633],[104.32348632800002,24.38067627],[104.28387451200001,24.365112305],[104.25030517600001,24.356079102],[104.23291015600002,24.381103516],[104.24090576200001,24.410095215],[104.22070312500001,24.445495605],[104.18609619100002,24.45111084],[104.15588378900001,24.452697754],[104.12292480500001,24.451721191],[104.08270263700001,24.450683594],[104.05371093700002,24.460693359],[103.98449707000002,24.445678711],[103.95971679700001,24.429870605],[103.94708252,24.400512695],[103.91070556600002,24.371887207],[103.87249755900001,24.351501465],[103.84429931600002,24.319885254],[103.81488037100002,24.281921387],[103.80407714800002,24.210083008],[103.77130127,24.196289062],[103.73388671900001,24.197509766],[103.70129394500002,24.172302246],[103.66967773400002,24.155883789],[103.64050293000001,24.125488281],[103.61529541000002,24.100524902],[103.62170410200001,24.071105957],[103.62231445300002,24.069885254],[103.64508056600002,24.019714355],[103.663085937,23.978271484],[103.69830322300001,23.920715332],[103.67687988300001,23.884094238],[103.65490722700001,23.862915039],[103.63952636700002,23.837280273],[103.64508056600002,23.809509277],[103.65209960900002,23.774108887],[103.65148925800001,23.731872559],[103.63452148400002,23.69732666],[103.613098145,23.664489746],[103.59552002,23.632080078],[103.59570312500001,23.596679687],[103.622070312,23.548278809],[103.67047119100002,23.547912598],[103.70849609400001,23.56451416],[103.74749755900001,23.559509277],[103.76867675800001,23.525878906],[103.79992675800001,23.524475098],[103.81671142600001,23.489929199],[103.82409668000001,23.439086914],[103.82373046900001,23.409484863],[103.83050537100002,23.377319336],[103.85888671900001,23.364501953],[103.89111328100002,23.346679687],[103.91448974600002,23.32409668],[103.92828369100002,23.289123535],[103.92468261700002,23.261108398],[103.91851806600002,23.231506348],[103.90972900400001,23.205322266],[103.92370605500001,23.171325684],[103.94207763700001,23.144470215],[103.94348144500002,23.078674316],[103.95031738300001,23.031921387],[103.95172119100002,22.998291016],[103.92889404300001,22.971923828],[103.91271972700001,22.9453125],[103.91528320300002,22.914123535],[103.91888427700002,22.878723145],[103.90228271500001,22.841125488],[103.89050293000001,22.808288574],[103.89672851600001,22.764526367],[103.91607666000002,22.735473633],[103.94488525400001,22.716308594],[103.98571777300002,22.72467041],[104.01812744100002,22.754516602],[104.04211425800001,22.77911377],[104.0625,22.807495117],[104.09252929700001,22.847473145],[104.09967041000002,22.888916016],[104.11029052700002,22.924316406],[104.13952636700002,22.916870117],[104.17852783200001,22.896484375],[104.20727539100001,22.900512695],[104.26092529300001,22.903686523],[104.28869628900001,22.883911133],[104.27331543000001,22.835876465],[104.27569580100001,22.834289551],[104.27349853500002,22.830688477],[104.27008056600002,22.794921875],[104.26788330100001,22.75592041],[104.27172851600001,22.755126953],[104.27130127,22.746276855],[104.27307128900001,22.740905762],[104.28051757800002,22.741088867],[104.30371093700002,22.729309082],[104.32092285200001,22.731079102],[104.34130859400001,22.721130371],[104.34368896500001,22.711120605],[104.347473145,22.702514648],[104.36987304700001,22.69708252],[104.41650390600002,22.736694336],[104.44787597700001,22.753295898],[104.47808837900001,22.78729248],[104.52893066400001,22.836486816],[104.54589843700002,22.847473145],[104.57373046900001,22.860107422],[104.59130859400001,22.861083984],[104.59729003900001,22.847900391],[104.60070800800001,22.846313477],[104.60089111300002,22.842895508],[104.61730957000002,22.840270996],[104.63751220700001,22.846130371],[104.65991210900002,22.834899902],[104.66607666000002,22.83190918],[104.70489502,22.838684082],[104.72851562500001,22.855712891],[104.73632812500001,22.886474609],[104.77111816400001,22.898681641],[104.80908203100002,22.920898437],[104.84527587900001,22.928894043],[104.84552002,22.929077148],[104.84667968700002,22.934875488],[104.85571289100001,22.942687988],[104.84851074200002,22.970275879],[104.84667968700002,22.97088623],[104.84088134800001,22.976318359],[104.84252929700001,22.979492187],[104.84631347700001,22.979309082],[104.84448242200001,22.98651123],[104.83868408200001,22.99407959],[104.83111572300001,23.001281738],[104.83068847700001,23.013916016],[104.83489990200002,23.019104004],[104.80529785200001,23.093505859],[104.80651855500001,23.10748291],[104.82110595700001,23.115905762],[104.82128906200002,23.118530273],[104.82611084000001,23.118896484],[104.82727050800001,23.119689941],[104.85888671900001,23.122314453],[104.87072753900001,23.127502441],[104.87152099600002,23.128112793],[104.87268066400001,23.128295898],[104.87512207000002,23.129272461],[104.88269043000001,23.143676758],[104.88311767600001,23.145690918],[104.88067627,23.151306152],[104.88507080100001,23.157714844],[104.88067627,23.167297363],[104.88891601600001,23.172302246],[104.89331054700001,23.179504395],[104.90087890600002,23.179321289],[104.90728759800001,23.185119629],[104.91772460900002,23.1875],[104.92810058600001,23.184326172],[104.94891357400002,23.17388916],[104.95050048800002,23.174499512],[104.95727539100001,23.194091797],[104.96411132800002,23.201904297],[104.97088623000002,23.199523926],[104.97369384800001,23.196289062],[104.98168945300002,23.198120117],[104.98291015600002,23.200317383],[104.98968505900001,23.202697754],[104.99792480500001,23.203125],[104.99829101600001,23.211303711],[105.00012207000002,23.214477539],[105.00610351600001,23.218322754],[105.01049804700001,23.216491699],[105.02429199200002,23.219116211],[105.02850341800001,23.221679687],[105.02868652300002,23.225891113],[105.03570556600002,23.23248291],[105.04168701200001,23.234130859],[105.046691895,23.239929199],[105.04791259800001,23.245300293],[105.05249023400002,23.250305176],[105.06048584000001,23.25567627],[105.06951904300001,23.257507324],[105.07049560500002,23.262084961],[105.08331298800002,23.267883301],[105.09667968700002,23.263305664],[105.10327148400002,23.26348877],[105.10791015600002,23.253479004],[105.11407470700001,23.24987793],[105.13592529300001,23.256530762],[105.13732910200001,23.260070801],[105.14990234400001,23.266113281],[105.15490722700001,23.266479492],[105.15972900400001,23.278503418],[105.17230224600002,23.289672852],[105.17932128900001,23.288513184],[105.187316895,23.285522461],[105.19909668000001,23.280883789],[105.20147705100001,23.270874023],[105.21051025400001,23.275695801],[105.21630859400001,23.275085449],[105.21990966800001,23.270507812],[105.22668457000002,23.276123047],[105.23187255900001,23.275085449],[105.23529052700002,23.283508301],[105.22790527300002,23.28692627],[105.22949218700002,23.289672852],[105.23547363300001,23.289672852],[105.24212646500001,23.292480469],[105.24291992200001,23.293273926],[105.24310302700002,23.301330566],[105.25030517600001,23.304504395],[105.24987793000001,23.31072998],[105.25653076200001,23.313720703],[105.26068115200002,23.32208252],[105.26031494100002,23.323730469],[105.25152587900001,23.333679199],[105.25671386700002,23.342529297],[105.26147460900002,23.344299316],[105.26831054700001,23.342102051],[105.28668212900001,23.356323242],[105.28808593700002,23.35748291],[105.28808593700002,23.359680176],[105.29229736300002,23.360717773],[105.29711914100001,23.364501953],[105.29870605500001,23.370483398],[105.30432128900001,23.372070312],[105.30908203100002,23.378112793],[105.31011962900001,23.381896973],[105.3125,23.382507324],[105.32330322300001,23.392883301],[105.32751464800002,23.390075684],[105.33148193400001,23.382873535],[105.34570312500001,23.372070312],[105.34692382800002,23.371887207],[105.34808349600002,23.369873047],[105.35089111300002,23.365905762],[105.35070800800001,23.36529541],[105.36547851600001,23.340270996],[105.38452148400002,23.336730957],[105.40307617200001,23.319885254],[105.42132568400001,23.304321289],[105.42370605500001,23.306884766],[105.42852783200001,23.305725098],[105.43530273400002,23.30267334],[105.44592285200001,23.283325195],[105.46771240200002,23.297119141],[105.47271728500002,23.276123047],[105.47570800800001,23.257873535],[105.49407959000001,23.230102539],[105.51208496100001,23.208679199],[105.54608154300001,23.241882324],[105.56268310500002,23.279907227],[105.59332275400001,23.310119629],[105.63171386700002,23.320922852],[105.69268798800002,23.346923828],[105.65570068400001,23.386291504],[105.68127441400001,23.400085449],[105.74267578100002,23.419677734],[105.78668212900001,23.456115723],[105.84167480500001,23.51348877],[105.88012695300002,23.522277832],[105.93011474600002,23.49609375],[105.99072265600002,23.48828125],[106.00769043000001,23.457275391],[106.02008056600002,23.46307373],[106.03808593700002,23.47467041],[106.05767822300001,23.496276855],[106.07330322300001,23.509521484],[106.09613037100002,23.528686523],[106.12988281200002,23.577697754],[106.13470459000001,23.584472656],[106.12609863300001,23.616088867],[106.11968994100002,23.640075684],[106.15252685500002,23.713928223],[106.13769531200002,23.766906738],[106.15472412100002,23.80291748],[106.17572021500001,23.835510254],[106.19189453100002,23.869506836],[106.15911865200002,23.908325195],[106.08428955100001,23.942687988],[106.10107421900001,23.979125977],[106.11291503900001,24.004516602],[106.07427978500002,24.033874512],[106.02410888700001,24.062072754],[106.02709960900002,24.083129883],[105.96173095700001,24.123291016],[105.87310791000002,24.087280273],[105.86529541000002,24.045288086],[105.73309326200001,24.086303711],[105.65087890600002,24.039489746],[105.64990234400001,24.061279297],[105.60632324200002,24.112121582],[105.57110595700001,24.091674805],[105.54248046900001,24.075073242],[105.49627685500002,24.040710449],[105.47149658200001,24.022277832],[105.40930175800001,24.051330566],[105.355285645,24.091674805],[105.26007080100001,24.075683594],[105.18450927700002,24.134094238],[105.19812011700002,24.172729492],[105.23889160200001,24.201721191],[105.20068359400001,24.31048584],[105.19232177700002,24.374511719],[105.12152099600002,24.391296387],[105.07672119100002,24.437072754],[105.02191162100002,24.432922363],[104.94610595700001,24.414916992],[104.91131591800001,24.422302246],[104.83190918000001,24.452087402],[104.79650878900001,24.431274414],[104.77807617200001,24.462280273],[104.73608398400002,24.43927002],[104.72332763700001,24.387878418],[104.67291259800001,24.324890137],[104.61492919900002,24.374511719],[104.57727050800001,24.410705566],[104.54052734400001,24.445678711]]]}}
