{"type":"Feature","id":"bulk-99377448B49342377957934","bbox":[116.08630371100001,38.473083496,117.23291015600002,40.084899902],"properties":{"id":"bulk-99377448B49342377957934","name":"Langfang","nameEn":"Langfang","fullName":"Langfang","level":"city","boundaryRole":"administrative-extent","boundaryQuality":"generalized-source-2020","boundaryYearRepresented":"2020","bounds":[[116.08630371100001,38.473083496],[117.23291015600002,40.084899902]],"center":[116.65960693350002,39.278991699],"centerMethod":"bounding-box midpoint; camera framing only","license":"CC-BY-3.0-IGO","attribution":"geoBoundaries / HDX, China administrative boundaries (2020)","source":{"provider":"geoBoundaries gbHumanitarian / HDX","url":"https://github.com/wmgeolab/geoBoundaries/raw/9469f09/releaseData/gbHumanitarian/CHN/ADM2/geoBoundaries-CHN-ADM2.geojson","metadataUrl":"https://www.geoboundaries.org/api/current/gbHumanitarian/CHN/ADM2/","shapeID":"99377448B49342377957934","shapeName":"Langfang","boundaryID":"CHN-ADM2-99377448","commit":"9469f09"},"geometryCounts":{"coordinates":171,"components":2,"holes":0},"boundaryNotice":"geoBoundaries / HDX 2020 年行政区数据，海岸和边界经过源数据概化，并非当前测绘成果。"},"geometry":{"type":"MultiPolygon","coordinates":[[[[116.21887207000002,39.492919922],[116.15747070300002,39.470275879],[116.12268066400001,39.458312988],[116.10388183600001,39.431518555],[116.09472656200002,39.401306152],[116.08630371100001,39.366516113],[116.11791992200001,39.321472168],[116.15631103500002,39.307922363],[116.17352294900002,39.276672363],[116.18072509800001,39.245483398],[116.187316895,39.199279785],[116.19012451200001,39.172119141],[116.19732666000002,39.145507812],[116.24987793000001,39.12109375],[116.29431152300002,39.065490723],[116.31091308600001,39.039916992],[116.32727050800001,38.998901367],[116.28588867200001,38.951904297],[116.25347900400001,38.930297852],[116.22088623000002,38.914306641],[116.195129395,38.91607666],[116.19567871100001,38.843688965],[116.22192382800002,38.815307617],[116.27429199200002,38.796081543],[116.31127929700001,38.789916992],[116.34588623000002,38.782897949],[116.39971923800002,38.756713867],[116.39050293000001,38.694274902],[116.35827636700002,38.668273926],[116.33892822300001,38.641906738],[116.37231445300002,38.597900391],[116.40948486300002,38.569091797],[116.41992187500001,38.542297363],[116.43072509800001,38.506713867],[116.47412109400001,38.475708008],[116.52612304700001,38.476318359],[116.56427002,38.473083496],[116.59350585900002,38.496520996],[116.61511230500001,38.527282715],[116.62792968700002,38.55267334],[116.64990234400001,38.581115723],[116.69329834000001,38.605529785],[116.71508789100001,38.627075195],[116.73211669900002,38.657714844],[116.71649169900002,38.682922363],[116.72528076200001,38.747314453],[116.71368408200001,38.760498047],[116.67907714800002,38.799072266],[116.67468261700002,38.826293945],[116.67108154300001,38.848083496],[116.66949462900001,38.903930664],[116.66168212900001,38.925476074],[116.65789794900002,38.953125],[116.679504395,38.992126465],[116.72747802700002,39.000488281],[116.74487304700001,39.008483887],[116.83489990200002,39.034118652],[116.88769531200002,39.042114258],[116.90771484400001,39.053527832],[116.91552734400001,39.062072754],[116.91888427700002,39.072509766],[116.91827392600001,39.090515137],[116.91271972700001,39.108520508],[116.90228271500001,39.119873047],[116.89288330100001,39.131103516],[116.85510253900001,39.143310547],[116.83288574200002,39.162109375],[116.80529785200001,39.184509277],[116.81927490200002,39.19708252],[116.82611084000001,39.223510742],[116.83770752,39.267089844],[116.84588623000002,39.281677246],[116.83190918000001,39.311706543],[116.82470703100002,39.325317383],[116.80731201200001,39.331298828],[116.79010009800001,39.351501465],[116.79388427700002,39.399108887],[116.81109619100002,39.423095703],[116.83770752,39.430908203],[116.80389404300001,39.452697754],[116.79272460900002,39.475280762],[116.77508544900002,39.507873535],[116.76867675800001,39.533081055],[116.77209472700001,39.544311523],[116.78131103500002,39.555480957],[116.78747558600001,39.562316895],[116.77008056600002,39.578918457],[116.74108886700002,39.603271484],[116.73187255900001,39.608093262],[116.71173095700001,39.606323242],[116.69250488300001,39.586914062],[116.687316895,39.581726074],[116.66412353500002,39.57208252],[116.60687255900001,39.583496094],[116.58728027300002,39.605529785],[116.53509521500001,39.590087891],[116.52770996100001,39.570922852],[116.50207519500002,39.546325684],[116.43792724600002,39.526916504],[116.40527343700002,39.50189209],[116.40069580100001,39.49810791],[116.39147949200002,39.490905762],[116.39447021500001,39.482727051],[116.42388916000002,39.463928223],[116.42871093700002,39.43347168],[116.42767334000001,39.429077148],[116.38647460900002,39.417114258],[116.38409423800002,39.417297363],[116.34887695300002,39.422485352],[116.29571533200001,39.441101074],[116.26593017600001,39.455078125],[116.23669433600001,39.476074219],[116.21887207000002,39.492919922]]],[[[116.90130615200002,39.680297852],[116.92230224600002,39.675720215],[116.92071533200001,39.657897949],[116.92590332000002,39.636291504],[116.93969726600001,39.631896973],[116.97607421900001,39.637084961],[117.01971435500002,39.618896484],[117.12609863300001,39.582702637],[117.14971923800002,39.611877441],[117.14489746100001,39.625488281],[117.14251709000001,39.640686035],[117.13909912100002,39.670898437],[117.14709472700001,39.709472656],[117.16668701200001,39.729675293],[117.171691895,39.733093262],[117.15228271500001,39.772094727],[117.14349365200002,39.792480469],[117.17431640600002,39.81048584],[117.20330810500002,39.8125],[117.23291015600002,39.821472168],[117.21990966800001,39.836486816],[117.19091796900001,39.834472656],[117.16271972700001,39.83972168],[117.13488769500002,39.848327637],[117.11669921900001,39.883300781],[117.11169433600001,39.906677246],[117.11328125000001,39.922729492],[117.12969970700001,39.945129395],[117.16168212900001,39.979125977],[117.18011474600002,40.019104004],[117.19732666000002,40.048522949],[117.22070312500001,40.067077637],[117.21429443400001,40.084899902],[116.97229003900001,40.024475098],[116.94787597700001,40.026123047],[116.87591552700002,40.028076172],[116.82550048800002,40.027099609],[116.78149414100001,40.018676758],[116.75109863300001,40.002319336],[116.74310302700002,39.992126465],[116.73449707000002,39.976501465],[116.72509765600002,39.953674316],[116.72412109400001,39.942871094],[116.73730468700002,39.928100586],[116.75091552700002,39.920288086],[116.75347900400001,39.870117187],[116.77368164100001,39.854675293],[116.79388427700002,39.839477539],[116.82110595700001,39.823730469],[116.85650634800001,39.818481445],[116.88592529300001,39.82409668],[116.89312744100002,39.825500488],[116.91271972700001,39.8046875],[116.90991210900002,39.772705078],[116.89990234400001,39.742919922],[116.88208007800002,39.706298828],[116.88787841800001,39.691711426],[116.90130615200002,39.680297852]]]]}}
