{"type":"Feature","id":"bulk-99377448B47318058060683","bbox":[121.09112548800002,38.721313477,123.47113037100002,40.172485352],"properties":{"id":"bulk-99377448B47318058060683","name":"Dalian","nameEn":"Dalian","fullName":"Dalian","level":"city","boundaryRole":"administrative-extent","boundaryQuality":"generalized-source-2020","boundaryYearRepresented":"2020","bounds":[[121.09112548800002,38.721313477],[123.47113037100002,40.172485352]],"center":[122.28112792950002,39.4468994145],"centerMethod":"bounding-box midpoint; camera framing only","license":"CC-BY-3.0-IGO","attribution":"geoBoundaries / HDX, China administrative boundaries (2020)","source":{"provider":"geoBoundaries gbHumanitarian / HDX","url":"https://github.com/wmgeolab/geoBoundaries/raw/9469f09/releaseData/gbHumanitarian/CHN/ADM2/geoBoundaries-CHN-ADM2.geojson","metadataUrl":"https://www.geoboundaries.org/api/current/gbHumanitarian/CHN/ADM2/","shapeID":"99377448B47318058060683","shapeName":"Dalian","boundaryID":"CHN-ADM2-99377448","commit":"9469f09"},"geometryCounts":{"coordinates":1045,"components":19,"holes":0},"boundaryNotice":"geoBoundaries / HDX 2020 年行政区数据，海岸和边界经过源数据概化，并非当前测绘成果。"},"geometry":{"type":"MultiPolygon","coordinates":[[[[121.25012207000002,38.783874512],[121.25012207000002,38.787475586],[121.24688720700001,38.789916992],[121.24371337900001,38.789489746],[121.23852539100001,38.786682129],[121.25012207000002,38.783874512]]],[[[123.14227294900002,39.041320801],[123.16210937500001,39.05267334],[123.15612793000001,39.061706543],[123.15087890600002,39.064086914],[123.14410400400001,39.056518555],[123.14709472700001,39.05291748],[123.14227294900002,39.041320801]]],[[[123.16430664100001,39.071899414],[123.15411377,39.079528809],[123.13647460900002,39.084289551],[123.13348388700001,39.08392334],[123.13287353500002,39.082275391],[123.13830566400001,39.078918457],[123.13848877,39.072875977],[123.14129638700001,39.073486328],[123.14770507800002,39.074707031],[123.15911865200002,39.070922852],[123.16552734400001,39.065917969],[123.16827392600001,39.056274414],[123.17309570300002,39.059082031],[123.16430664100001,39.071899414]]],[[[121.57409668000001,39.178894043],[121.57849121100001,39.180480957],[121.57928466800001,39.182678223],[121.57629394500002,39.185913086],[121.56689453100002,39.187683105],[121.56732177700002,39.182128906],[121.57409668000001,39.178894043]]],[[[122.32910156200002,39.149475098],[122.36169433600001,39.161682129],[122.34869384800001,39.200073242],[122.34869384800001,39.200683594],[122.34692382800002,39.199279785],[122.34588623000002,39.19128418],[122.33789062500001,39.189086914],[122.32867431600002,39.180480957],[122.31768798800002,39.1796875],[122.31652832000002,39.177307129],[122.320129395,39.171081543],[122.31469726600001,39.165283203],[122.31652832000002,39.156921387],[122.32330322300001,39.15447998],[122.32531738300001,39.153686523],[122.32910156200002,39.149475098]]],[[[122.61212158200001,39.216491699],[122.60949707000002,39.220275879],[122.60589599600002,39.222106934],[122.60308837900001,39.219726562],[122.60327148400002,39.217102051],[122.59472656200002,39.218078613],[122.59307861300002,39.215698242],[122.59411621100001,39.212890625],[122.59771728500002,39.212524414],[122.60949707000002,39.21270752],[122.61212158200001,39.216491699]]],[[[122.68872070300002,39.206115723],[122.69708252,39.208679199],[122.70989990200002,39.220092773],[122.70770263700001,39.228515625],[122.69207763700001,39.229125977],[122.69732666000002,39.227294922],[122.69812011700002,39.226928711],[122.70129394500002,39.225097656],[122.70227050800001,39.221923828],[122.68927002,39.208312988],[122.68872070300002,39.206115723]]],[[[122.68487548800002,39.229309082],[122.67407226600001,39.229919434],[122.65289306600002,39.232727051],[122.62707519500002,39.231689453],[122.63110351600001,39.227294922],[122.63031005900001,39.224304199],[122.63287353500002,39.223083496],[122.64471435500002,39.223876953],[122.65289306600002,39.228088379],[122.66229248000002,39.227111816],[122.66912841800001,39.229492187],[122.67230224600002,39.229125977],[122.67449951200001,39.224914551],[122.68487548800002,39.229309082]]],[[[121.68688964800002,39.289306641],[121.69049072300001,39.289489746],[121.68890380900001,39.292297363],[121.68548584000001,39.291320801],[121.68688964800002,39.289306641]]],[[[122.63568115200002,39.264282227],[122.61669921900001,39.269470215],[122.59167480500001,39.271911621],[122.57049560500002,39.274719238],[122.54650878900001,39.282287598],[122.52532959000001,39.286071777],[122.49969482400002,39.292114258],[122.495910645,39.292907715],[122.49432373000002,39.291503906],[122.51208496100001,39.282714844],[122.52972412100002,39.281494141],[122.55230712900001,39.269714355],[122.5625,39.269104004],[122.56988525400001,39.266723633],[122.57592773400002,39.262512207],[122.57409668000001,39.257324219],[122.58868408200001,39.257873535],[122.58673095700001,39.263122559],[122.58972168000001,39.266113281],[122.59027099600002,39.266296387],[122.60467529300001,39.267272949],[122.61389160200001,39.264526367],[122.62890625000001,39.263305664],[122.63568115200002,39.264282227]]],[[[121.74407959000001,39.316101074],[121.73852539100001,39.325927734],[121.74029541000002,39.329284668],[121.73907470700001,39.331298828],[121.72991943400001,39.334289551],[121.72229003900001,39.332092285],[121.72888183600001,39.322692871],[121.72747802700002,39.31829834],[121.72967529300001,39.315917969],[121.73651123000002,39.316894531],[121.74212646500001,39.313476562],[121.74407959000001,39.316101074]]],[[[121.44128418000001,39.403930664],[121.44287109400001,39.409729004],[121.44250488300001,39.41027832],[121.43951416000002,39.413513184],[121.44067382800002,39.405517578],[121.44128418000001,39.403930664]]],[[[121.47747802700002,39.403686523],[121.47888183600001,39.405273437],[121.46331787100002,39.419494629],[121.45751953100002,39.418273926],[121.45611572300001,39.415283203],[121.46270752,39.408874512],[121.46331787100002,39.404907227],[121.47747802700002,39.403686523]]],[[[121.42687988300001,39.503112793],[121.42987060500002,39.504516602],[121.42547607400002,39.503295898],[121.42687988300001,39.503112793]]],[[[122.99127197300001,39.527893066],[122.98632812500001,39.528320312],[122.98571777300002,39.533325195],[122.98168945300002,39.536315918],[122.97888183600001,39.536499023],[122.97827148400002,39.538879395],[122.97808837900001,39.539123535],[122.96612548800002,39.545288086],[122.96527099600002,39.544921875],[122.96331787100002,39.541687012],[122.96252441400001,39.526916504],[122.95410156200002,39.532714844],[122.94329834000001,39.516906738],[122.94750976600001,39.514282227],[122.95391845700001,39.516479492],[122.96429443400001,39.514282227],[122.97369384800001,39.499511719],[122.97991943400001,39.507080078],[122.98608398400002,39.514709473],[122.99188232400002,39.528686523],[122.99127197300001,39.527893066]]],[[[121.51068115200002,39.61907959],[121.49810791000002,39.629699707],[121.49468994100002,39.630493164],[121.50030517600001,39.612915039],[121.51727294900002,39.604309082],[121.52587890600002,39.598083496],[121.51251220700001,39.580322266],[121.49951171900001,39.566894531],[121.48968505900001,39.548706055],[121.48907470700001,39.543273926],[121.49670410200001,39.549682617],[121.50329589800002,39.546508789],[121.51007080100001,39.547485352],[121.51788330100001,39.551330566],[121.52612304700001,39.558288574],[121.53527832000002,39.571716309],[121.53472900400001,39.573913574],[121.53289794900002,39.580871582],[121.53747558600001,39.595703125],[121.52532959000001,39.612915039],[121.52307128900001,39.618713379],[121.51629638700001,39.621276855],[121.51068115200002,39.61907959]]],[[[121.50811767600001,39.631286621],[121.51110839800002,39.631713867],[121.51007080100001,39.635681152],[121.50567627,39.639526367],[121.50512695300002,39.642883301],[121.50750732400002,39.646911621],[121.50567627,39.649291992],[121.49969482400002,39.648498535],[121.49731445300002,39.645324707],[121.49688720700001,39.639099121],[121.50811767600001,39.631286621]]],[[[123.26788330100001,39.784484863],[123.26672363300001,39.785522461],[123.25988769500002,39.788879395],[123.25549316400001,39.792724609],[123.23767089800002,39.79888916],[123.25012207000002,39.786499023],[123.26788330100001,39.784484863]]],[[[122.88208007800002,40.172485352],[122.84167480500001,40.134887695],[122.81970214800002,40.106323242],[122.78869628900001,40.078125],[122.75311279300001,40.067504883],[122.70629882800002,40.057312012],[122.65148925800001,40.047302246],[122.58007812500001,40.043273926],[122.51831054700001,40.026672363],[122.50653076200001,40.019897461],[122.50988769500002,39.985107422],[122.472473145,39.94708252],[122.47790527300002,39.904907227],[122.44390869100002,39.91809082],[122.40612793000001,39.927490234],[122.36791992200001,39.938903809],[122.32031250000001,39.947875977],[122.27252197300001,39.93170166],[122.22967529300001,39.940673828],[122.21087646500001,39.99230957],[122.15252685500002,39.989685059],[122.13049316400001,40.01171875],[122.09588623000002,40.023071289],[122.05828857400002,40.021911621],[122.01593017600001,40.022521973],[121.97351074200002,40.034484863],[121.95269775400001,40.063903809],[121.94152832000002,40.091125488],[121.93450927700002,40.084289551],[121.93127441400001,40.078491211],[121.93048095700001,40.075317383],[121.93389892600001,40.068481445],[121.93188476600001,40.063903809],[121.91650390600002,40.051086426],[121.90789794900002,40.048522949],[121.89392089800002,40.037719727],[121.88568115200002,40.03112793],[121.87030029300001,40.022094727],[121.85827636700002,40.01751709],[121.84130859400001,40.016296387],[121.82971191400001,40.01751709],[121.84008789100001,40.004089355],[121.84710693400001,40.001525879],[121.86431884800001,40.001525879],[121.87249755900001,40.00189209],[121.88647460900002,40.00769043],[121.88671875000001,40.002685547],[121.89630127,40.00012207],[121.89611816400001,39.999511719],[121.89489746100001,39.99609375],[121.88787841800001,39.98651123],[121.88049316400001,39.981079102],[121.87548828100002,39.979309082],[121.86627197300001,39.979492187],[121.86108398400002,39.977111816],[121.84350585900002,39.960876465],[121.83312988300001,39.958129883],[121.828125,39.957885742],[121.82189941400001,39.960510254],[121.81787109400001,39.959899902],[121.81188964800002,39.952880859],[121.79870605500001,39.94708252],[121.79107666000002,39.941101074],[121.78851318400001,39.9375],[121.79510498000002,39.931884766],[121.80133056600002,39.933898926],[121.80432128900001,39.934875488],[121.81292724600002,39.932922363],[121.80871582000002,39.927490234],[121.80712890600002,39.925292969],[121.79547119100002,39.924682617],[121.78729248000002,39.92010498],[121.77832031200002,39.911315918],[121.75970459000001,39.908081055],[121.72729492200001,39.906494141],[121.71728515600002,39.912902832],[121.70288085900002,39.911682129],[121.69287109400001,39.913696289],[121.68371582000002,39.906494141],[121.67633056600002,39.907104492],[121.671875,39.901306152],[121.66967773400002,39.89831543],[121.66168212900001,39.892089844],[121.64971923800002,39.889526367],[121.63348388700001,39.892272949],[121.63690185500002,39.886291504],[121.63647460900002,39.880310059],[121.63110351600001,39.872314453],[121.61212158200001,39.859313965],[121.57067871100001,39.848327637],[121.56011962900001,39.847900391],[121.55029296900001,39.851074219],[121.54211425800001,39.853881836],[121.53247070300002,39.836303711],[121.52148437500001,39.829528809],[121.50531005900001,39.811096191],[121.49731445300002,39.805297852],[121.47808837900001,39.798278809],[121.47308349600002,39.792114258],[121.47528076200001,39.789489746],[121.48089599600002,39.787475586],[121.48492431600002,39.783081055],[121.48632812500001,39.776672363],[121.49548339800002,39.763671875],[121.49090576200001,39.752929687],[121.480285645,39.743530273],[121.47387695300002,39.741882324],[121.46508789100001,39.740112305],[121.46032714800002,39.736877441],[121.46008300800001,39.733886719],[121.46209716800001,39.731323242],[121.47387695300002,39.726928711],[121.48352050800001,39.715881348],[121.49450683600001,39.707275391],[121.51208496100001,39.700500488],[121.52050781200002,39.682678223],[121.52368164100001,39.682312012],[121.52569580100001,39.685302734],[121.52111816400001,39.693725586],[121.52368164100001,39.697692871],[121.52569580100001,39.696899414],[121.53009033200001,39.686889648],[121.53668212900001,39.682922363],[121.54290771500001,39.674499512],[121.55212402300002,39.670715332],[121.55267334000001,39.668518066],[121.54632568400001,39.663879395],[121.53747558600001,39.646484375],[121.53472900400001,39.645324707],[121.52947998000002,39.646484375],[121.52728271500001,39.64251709],[121.53692627,39.623474121],[121.546875,39.616271973],[121.54931640600002,39.609680176],[121.54571533200001,39.602294922],[121.546691895,39.59967041],[121.55310058600001,39.599487305],[121.56488037100002,39.602722168],[121.57269287100002,39.600891113],[121.56787109400001,39.596923828],[121.55749511700002,39.594299316],[121.55230712900001,39.58807373],[121.54870605500001,39.585876465],[121.53808593700002,39.584106445],[121.53930664100001,39.571105957],[121.53509521500001,39.561706543],[121.53369140600002,39.558288574],[121.53747558600001,39.55267334],[121.54431152300002,39.547302246],[121.54632568400001,39.547302246],[121.54589843700002,39.546081543],[121.55230712900001,39.538330078],[121.54052734400001,39.54510498],[121.53332519500002,39.549316406],[121.52709960900002,39.549499512],[121.51489257800002,39.542480469],[121.49407959000001,39.532897949],[121.50207519500002,39.525878906],[121.50231933600001,39.523071289],[121.48870849600002,39.517272949],[121.48211669900002,39.510498047],[121.47570800800001,39.511474609],[121.47387695300002,39.508483887],[121.44671630900001,39.507324219],[121.44232177700002,39.505126953],[121.44549560500002,39.499511719],[121.44372558600001,39.493286133],[121.445129395,39.483276367],[121.44989013700001,39.473510742],[121.46228027300002,39.464477539],[121.46807861300002,39.455505371],[121.46588134800001,39.450073242],[121.45690918000001,39.45111084],[121.45288085900002,39.457885742],[121.44989013700001,39.463500977],[121.43572998000002,39.472106934],[121.41888427700002,39.472900391],[121.41589355500001,39.475280762],[121.41491699200002,39.477478027],[121.40911865200002,39.478881836],[121.40911865200002,39.47869873],[121.41931152300002,39.465881348],[121.42687988300001,39.451904297],[121.43267822300001,39.44128418],[121.43487548800002,39.435302734],[121.437316895,39.435302734],[121.44891357400002,39.431091309],[121.45208740200002,39.431884766],[121.45452880900001,39.4375],[121.46087646500001,39.443725586],[121.47131347700001,39.440490723],[121.47387695300002,39.429077148],[121.47827148400002,39.422119141],[121.48608398400002,39.415893555],[121.48950195300002,39.409484863],[121.48669433600001,39.40032959],[121.48767089800002,39.394897461],[121.49468994100002,39.387695312],[121.50250244100002,39.386901855],[121.50109863300001,39.378112793],[121.50292968700002,39.374084473],[121.50189209000001,39.372924805],[121.51007080100001,39.363525391],[121.51867675800001,39.360717773],[121.51971435500002,39.360900879],[121.53350830100001,39.365112305],[121.55548095700001,39.366882324],[121.56909179700001,39.36932373],[121.57611084000001,39.365478516],[121.59991455100001,39.365905762],[121.60510253900001,39.365478516],[121.61328125000001,39.370727539],[121.62127685500002,39.364685059],[121.62847900400001,39.365112305],[121.63391113300001,39.362121582],[121.65509033200001,39.371887207],[121.663879395,39.405700684],[121.70471191400001,39.380493164],[121.70867919900002,39.380493164],[121.69531250000001,39.398681641],[121.69708252,39.405517578],[121.70269775400001,39.405273437],[121.70989990200002,39.402099609],[121.71667480500001,39.401672363],[121.72607421900001,39.391113281],[121.73248291000002,39.387084961],[121.74627685500002,39.384887695],[121.75170898400002,39.380310059],[121.75732421900001,39.380126953],[121.76208496100001,39.382873535],[121.76568603500002,39.381286621],[121.78308105500001,39.384521484],[121.79571533200001,39.384094238],[121.79730224600002,39.394287109],[121.81567382800002,39.39630127],[121.83288574200002,39.39831543],[121.84832763700001,39.404296875],[121.86767578100002,39.412475586],[121.87292480500001,39.412109375],[121.88189697300001,39.411315918],[121.92071533200001,39.404296875],[121.91131591800001,39.400878906],[121.91210937500001,39.400512695],[121.92687988300001,39.399475098],[121.93627929700001,39.40032959],[121.93688964800002,39.399108887],[121.92852783200001,39.394470215],[121.92828369100002,39.391113281],[121.92108154300001,39.389526367],[121.91088867200001,39.384094238],[121.88592529300001,39.383483887],[121.88189697300001,39.381530762],[121.87811279300001,39.375671387],[121.86047363300001,39.36328125],[121.85467529300001,39.362121582],[121.84649658200001,39.361877441],[121.83288574200002,39.365112305],[121.81372070300002,39.361877441],[121.81091308600001,39.356872559],[121.77429199200002,39.361877441],[121.75549316400001,39.360107422],[121.75329589800002,39.35748291],[121.74511718700002,39.352294922],[121.74328613300001,39.348510742],[121.74511718700002,39.342102051],[121.74389648400002,39.339904785],[121.75012207000002,39.336486816],[121.74511718700002,39.327697754],[121.74688720700001,39.32409668],[121.75469970700001,39.319702148],[121.75152587900001,39.314086914],[121.73150634800001,39.299499512],[121.73608398400002,39.291687012],[121.73547363300001,39.289489746],[121.73168945300002,39.290100098],[121.72412109400001,39.297912598],[121.71807861300002,39.293701172],[121.70367431600002,39.289306641],[121.69531250000001,39.283691406],[121.69207763700001,39.281311035],[121.68347168000001,39.274108887],[121.67669677700002,39.271484375],[121.66491699200002,39.270507812],[121.65148925800001,39.271118164],[121.65130615200002,39.265930176],[121.64892578100002,39.264709473],[121.64447021500001,39.265930176],[121.62890625000001,39.275085449],[121.61492919900002,39.265075684],[121.59210205100001,39.264099121],[121.59008789100001,39.262878418],[121.59051513700001,39.258117676],[121.59350585900002,39.253723145],[121.60052490200002,39.25592041],[121.60888671900001,39.252319336],[121.61712646500001,39.239929199],[121.62152099600002,39.243530273],[121.63128662100002,39.236877441],[121.63391113300001,39.235290527],[121.63488769500002,39.232116699],[121.63269043000001,39.226501465],[121.63110351600001,39.220092773],[121.63208007800002,39.215881348],[121.63031005900001,39.214477539],[121.62652587900001,39.214477539],[121.59429931600002,39.22052002],[121.59411621100001,39.215698242],[121.61492919900002,39.204284668],[121.60290527300002,39.193725586],[121.58892822300001,39.196899414],[121.58410644500002,39.188476562],[121.58489990200002,39.184692383],[121.59808349600002,39.181274414],[121.60510253900001,39.17010498],[121.60668945300002,39.169677734],[121.61071777300002,39.168518066],[121.62188720700001,39.169921875],[121.62811279300001,39.167907715],[121.63470459000001,39.162719727],[121.63671875000001,39.150878906],[121.64068603500002,39.151306152],[121.64550781200002,39.154907227],[121.64971923800002,39.145507812],[121.65191650400001,39.144714355],[121.65649414100001,39.145874023],[121.65930175800001,39.150085449],[121.66333007800002,39.147277832],[121.66247558600001,39.140075684],[121.67291259800001,39.138305664],[121.68048095700001,39.134094238],[121.69012451200001,39.12310791],[121.69171142600001,39.11932373],[121.68609619100002,39.110107422],[121.68707275400001,39.104125977],[121.68591308600001,39.102294922],[121.67968750000001,39.101501465],[121.66851806600002,39.093688965],[121.65930175800001,39.081481934],[121.65332031200002,39.076904297],[121.65209960900002,39.075927734],[121.63751220700001,39.070922852],[121.60748291000002,39.067687988],[121.59387207000002,39.064086914],[121.56909179700001,39.050476074],[121.56030273400002,39.048278809],[121.54150390600002,39.048278809],[121.53552246100001,39.046508789],[121.50769043000001,39.030700684],[121.49768066400001,39.025085449],[121.45989990200002,39.014282227],[121.45867919900002,39.013305664],[121.45410156200002,39.01348877],[121.44488525400001,39.012084961],[121.43829345700001,39.012878418],[121.4375,39.01348877],[121.37707519500002,39.013916016],[121.37432861300002,39.035888672],[121.36389160200001,39.040710449],[121.36212158200001,39.039672852],[121.34472656200002,39.035705566],[121.34130859400001,39.033325195],[121.34332275400001,39.029296875],[121.33972168000001,39.024719238],[121.33367919900002,39.022094727],[121.33172607400002,39.018127441],[121.32788085900002,39.01550293],[121.32690429700001,39.008728027],[121.31988525400001,39.007324219],[121.31829834000001,39.002502441],[121.31951904300001,38.99987793],[121.32727050800001,39.002319336],[121.32312011700002,38.997314453],[121.32232666000002,38.993896484],[121.32611084000001,38.993103027],[121.33148193400001,38.99609375],[121.33587646500001,38.996520996],[121.34112548800002,38.99407959],[121.34448242200001,38.990905762],[121.34710693400001,38.98828125],[121.34771728500002,38.985473633],[121.34130859400001,38.972900391],[121.33587646500001,38.969482422],[121.30847168000001,38.960510254],[121.29528808600001,38.963317871],[121.28228759800001,38.96270752],[121.27569580100001,38.960083008],[121.26507568400001,38.951904297],[121.245910645,38.944702148],[121.23748779300001,38.944702148],[121.23309326200001,38.94128418],[121.23052978500002,38.932495117],[121.22851562500001,38.930908203],[121.20727539100001,38.929504395],[121.19549560500002,38.932678223],[121.19409179700001,38.935119629],[121.18792724600002,38.932678223],[121.12890625000001,38.93951416],[121.12170410200001,38.939697266],[121.12072753900001,38.934509277],[121.11767578100002,38.932128906],[121.10968017600001,38.930725098],[121.09710693400001,38.922485352],[121.09429931600002,38.918701172],[121.09112548800002,38.904724121],[121.09167480500001,38.895507812],[121.09631347700001,38.888671875],[121.10308837900001,38.886108398],[121.11010742200001,38.889099121],[121.12127685500002,38.885498047],[121.13287353500002,38.890075684],[121.14288330100001,38.890686035],[121.14410400400001,38.889099121],[121.14270019500002,38.883911133],[121.14648437500001,38.875915527],[121.15167236300002,38.873718262],[121.15771484400001,38.875305176],[121.15728759800001,38.865478516],[121.14971923800002,38.867919922],[121.14111328100002,38.871520996],[121.13751220700001,38.870910645],[121.12670898400002,38.863708496],[121.11688232400002,38.863098145],[121.11511230500001,38.858276367],[121.10931396500001,38.853271484],[121.11132812500001,38.846679687],[121.11047363300001,38.841125488],[121.11547851600001,38.828674316],[121.11730957000002,38.812683105],[121.11987304700001,38.809082031],[121.12890625000001,38.803894043],[121.13372802700002,38.80847168],[121.13708496100001,38.808288574],[121.13909912100002,38.8046875],[121.13751220700001,38.799926758],[121.14648437500001,38.791687012],[121.14752197300001,38.789306641],[121.14892578100002,38.786499023],[121.14587402300002,38.780273437],[121.13647460900002,38.774475098],[121.12792968700002,38.774475098],[121.11572265600002,38.777099609],[121.113098145,38.773071289],[121.11590576200001,38.766906738],[121.12792968700002,38.75390625],[121.13269043000001,38.744873047],[121.13671875000001,38.724914551],[121.14068603500002,38.721313477],[121.16168212900001,38.723510742],[121.21051025400001,38.772888184],[121.17590332000002,38.772888184],[121.19708252,38.796508789],[121.22308349600002,38.790283203],[121.22387695300002,38.794311523],[121.22967529300001,38.799682617],[121.23510742200001,38.801513672],[121.24450683600001,38.801879883],[121.24932861300002,38.799682617],[121.26147460900002,38.788513184],[121.26568603500002,38.788085937],[121.26971435500002,38.788696289],[121.29327392600001,38.808288574],[121.31207275400001,38.813293457],[121.32989502,38.812683105],[121.33111572300001,38.812683105],[121.33349609400001,38.813476562],[121.34588623000002,38.81451416],[121.35491943400001,38.818115234],[121.35992431600002,38.814697266],[121.36608886700002,38.814880371],[121.39392089800002,38.81427002],[121.39587402300002,38.817077637],[121.39727783200001,38.831115723],[121.39990234400001,38.832519531],[121.40167236300002,38.832092285],[121.40368652300002,38.814697266],[121.42407226600001,38.816101074],[121.43048095700001,38.819519043],[121.43170166000002,38.817077637],[121.43109130900001,38.816711426],[121.43212890600002,38.816711426],[121.46368408200001,38.812683105],[121.46392822300001,38.812927246],[121.47631835900002,38.812316895],[121.47790527300002,38.81427002],[121.47668457000002,38.834716797],[121.50787353500002,38.842895508],[121.52630615200002,38.853881836],[121.55407714800002,38.880493164],[121.56829834000001,38.875671387],[121.57269287100002,38.877685547],[121.58148193400001,38.878295898],[121.58709716800001,38.876281738],[121.59149169900002,38.867675781],[121.59167480500001,38.867675781],[121.61688232400002,38.858886719],[121.64331054700001,38.875671387],[121.66851806600002,38.868103027],[121.68090820300002,38.886901855],[121.67889404300001,38.897888184],[121.66510009800001,38.909118652],[121.64630127,38.919677734],[121.62347412100002,38.92791748],[121.61853027300002,38.9296875],[121.61328125000001,38.926879883],[121.60949707000002,38.926330566],[121.60852050800001,38.927124023],[121.60650634800001,38.928283691],[121.60510253900001,38.934326172],[121.59210205100001,38.938720703],[121.59069824200002,38.938293457],[121.58630371100001,38.93951416],[121.58508300800001,38.941101074],[121.55627441400001,38.950927734],[121.62548828100002,38.973876953],[121.58648681600002,39.001708984],[121.59967041000002,39.006286621],[121.63348388700001,39.018493652],[121.65447998000002,39.00970459],[121.65850830100001,39.015075684],[121.66229248000002,39.015075684],[121.67651367200001,39.00769043],[121.68090820300002,39.008300781],[121.68231201200001,39.01348877],[121.68432617200001,39.014526367],[121.69012451200001,39.014099121],[121.67547607400002,39.026489258],[121.66607666000002,39.035522461],[121.67211914100001,39.044128418],[121.68469238300001,39.048522949],[121.70172119100002,39.041503906],[121.70227050800001,39.041503906],[121.69848632800002,39.047119141],[121.70129394500002,39.053283691],[121.70587158200001,39.05670166],[121.70928955100001,39.056274414],[121.71032714800002,39.046325684],[121.71527099600002,39.043273926],[121.72509765600002,39.044128418],[121.72888183600001,39.043273926],[121.73211669900002,39.041320801],[121.74127197300001,39.035888672],[121.75787353500002,39.034484863],[121.76409912100002,39.024902344],[121.76867675800001,39.022888184],[121.78948974600002,39.018676758],[121.79168701200001,39.015075684],[121.78912353500002,39.009277344],[121.79010009800001,39.004882812],[121.79870605500001,38.998474121],[121.80328369100002,38.992919922],[121.80731201200001,38.980285645],[121.812316895,38.975524902],[121.83587646500001,38.962524414],[121.83789062500001,38.959106445],[121.82751464800002,38.953674316],[121.83050537100002,38.950317383],[121.83172607400002,38.949890137],[121.84008789100001,38.94909668],[121.85449218700002,38.95690918],[121.855285645,38.970275879],[121.84191894500002,38.984313965],[121.83068847700001,38.988891602],[121.81549072300001,38.999084473],[121.80468750000001,39.008300781],[121.79852294900002,39.022277832],[121.79412841800001,39.033508301],[121.80151367200001,39.041870117],[121.82287597700001,39.04107666],[121.82751464800002,39.040283203],[121.82830810500002,39.041870117],[121.83331298800002,39.045288086],[121.86267089800002,39.042114258],[121.86828613300001,39.042297363],[121.86151123000002,39.057678223],[121.88153076200001,39.049316406],[121.88348388700001,39.054504395],[121.89251709000001,39.059326172],[121.89569091800001,39.063720703],[121.89569091800001,39.069885254],[121.89849853500002,39.071105957],[121.90069580100001,39.070129395],[121.90472412100002,39.068908691],[121.91027832000002,39.069274902],[121.92047119100002,39.05267334],[121.93310546900001,39.044494629],[121.94012451200001,39.052490234],[121.95190429700001,39.05871582],[121.96691894500002,39.063720703],[121.98291015600002,39.065124512],[121.98388671900001,39.064880371],[121.98492431600002,39.065917969],[121.99310302700002,39.069091797],[122.00268554700001,39.07232666],[122.01129150400001,39.075073242],[121.99932861300002,39.117919922],[122.01531982400002,39.103881836],[122.03027343700002,39.09967041],[122.038879395,39.104125977],[122.03851318400001,39.105102539],[122.03228759800001,39.10949707],[122.03131103500002,39.12310791],[122.03112793000001,39.125671387],[122.03930664100001,39.127929687],[122.04327392600001,39.126098633],[122.054504395,39.118713379],[122.05731201200001,39.113098145],[122.09149169900002,39.129699707],[122.10968017600001,39.138916016],[122.10308837900001,39.151306152],[122.08770752,39.152526855],[122.06872558600001,39.153320312],[122.05627441400001,39.158874512],[122.04229736300002,39.162109375],[122.03448486300002,39.173522949],[122.04492187500001,39.179077148],[122.06292724600002,39.178283691],[122.07928466800001,39.179321289],[122.07690429700001,39.180297852],[122.07067871100001,39.184509277],[122.06732177700002,39.191894531],[122.06768798800002,39.195129395],[122.07592773400002,39.192077637],[122.07568359400001,39.190307617],[122.07952880900001,39.187683105],[122.07849121100001,39.19329834],[122.07672119100002,39.205078125],[122.08831787100002,39.217712402],[122.10852050800001,39.231323242],[122.12689209000001,39.240478516],[122.14208984400001,39.246276855],[122.16412353500002,39.256286621],[122.18572998000002,39.263305664],[122.20227050800001,39.269104004],[122.21130371100001,39.280090332],[122.21527099600002,39.290527344],[122.20812988300001,39.305725098],[122.20507812500001,39.31048584],[122.19647216800001,39.323913574],[122.23870849600002,39.323730469],[122.24090576200001,39.325683594],[122.23907470700001,39.327514648],[122.23150634800001,39.334106445],[122.22467041000002,39.334899902],[122.21148681600002,39.33392334],[122.21911621100001,39.338684082],[122.22692871100001,39.339904785],[122.24047851600001,39.333496094],[122.24389648400002,39.328491211],[122.34631347700001,39.423522949],[122.38751220700001,39.416503906],[122.38531494100002,39.419677734],[122.38372802700002,39.424926758],[122.38507080100001,39.429321289],[122.38549804700001,39.430297852],[122.38610839800002,39.42791748],[122.39587402300002,39.419311523],[122.40771484400001,39.421691895],[122.42651367200001,39.421325684],[122.43170166000002,39.418884277],[122.43109130900001,39.414672852],[122.43267822300001,39.412475586],[122.43969726600001,39.41229248],[122.44427490200002,39.413085937],[122.45971679700001,39.422302246],[122.48413085900002,39.430908203],[122.50769043000001,39.442321777],[122.52008056600002,39.452087402],[122.51989746100001,39.472900391],[122.55688476600001,39.463317871],[122.55712890600002,39.463317871],[122.56347656200002,39.468322754],[122.56530761700002,39.471496582],[122.562316895,39.47467041],[122.55328369100002,39.477905273],[122.55249023400002,39.479492187],[122.55871582000002,39.483886719],[122.56671142600001,39.483886719],[122.58190918000001,39.482727051],[122.59008789100001,39.489074707],[122.58428955100001,39.512329102],[122.61291503900001,39.538696289],[122.63507080100001,39.513671875],[122.63592529300001,39.517700195],[122.64190673800002,39.520874023],[122.64227294900002,39.527526855],[122.64587402300002,39.532714844],[122.65032959000001,39.535522461],[122.65228271500001,39.536682129],[122.65570068400001,39.535888672],[122.65667724600002,39.535888672],[122.663879395,39.547485352],[122.67309570300002,39.55847168],[122.68432617200001,39.553710937],[122.69250488300001,39.544921875],[122.70751953100002,39.549499512],[122.71051025400001,39.550476074],[122.72149658200001,39.55847168],[122.73852539100001,39.566894531],[122.74987793000001,39.5703125],[122.76989746100001,39.577880859],[122.76751709000001,39.580505371],[122.76049804700001,39.578674316],[122.75811767600001,39.581298828],[122.75329589800002,39.592285156],[122.75469970700001,39.594726562],[122.75848388700001,39.593322754],[122.76269531200002,39.588500977],[122.77148437500001,39.585083008],[122.77612304700001,39.582275391],[122.78369140600002,39.590698242],[122.80487060500002,39.624084473],[122.82708740200002,39.611877441],[122.86187744100002,39.616088867],[122.88311767600001,39.620300293],[122.90527343700002,39.621887207],[122.93048095700001,39.621276855],[122.93212890600002,39.622680664],[122.93151855500001,39.623291016],[122.93389892600001,39.626098633],[122.937316895,39.627075195],[122.95587158200001,39.64251709],[122.92712402300002,39.665100098],[122.95391845700001,39.673522949],[122.98309326200001,39.66607666],[122.99212646500001,39.668884277],[122.99267578100002,39.67010498],[122.99310302700002,39.671691895],[122.99670410200001,39.67010498],[122.99951171900001,39.670898437],[123.00390625000001,39.671508789],[123.00610351600001,39.678100586],[123.01092529300001,39.679077148],[123.01849365200002,39.676696777],[123.01971435500002,39.674499512],[123.01928710900002,39.673095703],[123.03411865200002,39.67388916],[123.03833007800002,39.673278809],[123.04351806600002,39.674499512],[123.04907226600001,39.67388916],[123.05010986300002,39.671691895],[123.05187988300001,39.671325684],[123.05310058600001,39.693115234],[123.06909179700001,39.686889648],[123.08172607400002,39.675720215],[123.08349609400001,39.673278809],[123.08587646500001,39.676696777],[123.09191894500002,39.680114746],[123.10028076200001,39.680480957],[123.10668945300002,39.678710937],[123.11328125000001,39.675109863],[123.11987304700001,39.679321289],[123.14727783200001,39.683105469],[123.16607666000002,39.679504395],[123.17572021500001,39.700317383],[123.21392822300001,39.692687988],[123.21411132800002,39.692687988],[123.21789550800001,39.693725586],[123.22491455100001,39.690490723],[123.22570800800001,39.690307617],[123.23071289100001,39.691101074],[123.23608398400002,39.690124512],[123.24407959000001,39.688476562],[123.21368408200001,39.724304199],[123.203125,39.722473145],[123.19989013700001,39.725524902],[123.20349121100001,39.727722168],[123.16467285200001,39.727722168],[123.18530273400002,39.756530762],[123.20989990200002,39.75769043],[123.22290039100001,39.762878418],[123.22668457000002,39.771484375],[123.22552490200002,39.78527832],[123.22070312500001,39.799316406],[123.230285645,39.806518555],[123.23748779300001,39.799316406],[123.23968505900001,39.804321289],[123.24310302700002,39.808898926],[123.24652099600002,39.808288574],[123.25512695300002,39.802307129],[123.28308105500001,39.787902832],[123.28588867200001,39.788085937],[123.28747558600001,39.792480469],[123.28411865200002,39.804504395],[123.28210449200002,39.811706543],[123.28247070300002,39.822692871],[123.28387451200001,39.82611084],[123.28668212900001,39.828125],[123.28869628900001,39.827880859],[123.29028320300002,39.808288574],[123.29327392600001,39.790100098],[123.29492187500001,39.782287598],[123.29528808600001,39.781494141],[123.32330322300001,39.778503418],[123.33172607400002,39.779296875],[123.36132812500001,39.8046875],[123.37188720700001,39.795471191],[123.37530517600001,39.78112793],[123.38049316400001,39.78112793],[123.39031982400002,39.783508301],[123.40570068400001,39.781677246],[123.41931152300002,39.761474609],[123.41949462900001,39.75769043],[123.41748046900001,39.755126953],[123.40527343700002,39.750305176],[123.40710449200002,39.745727539],[123.40289306600002,39.739074707],[123.40332031200002,39.738098145],[123.41650390600002,39.744873047],[123.42230224600002,39.757080078],[123.42633056600002,39.772888184],[123.42590332000002,39.784729004],[123.43011474600002,39.794311523],[123.45031738300001,39.798706055],[123.46331787100002,39.803710937],[123.47113037100002,39.805480957],[123.44647216800001,39.83190918],[123.44030761700002,39.862487793],[123.44110107400002,39.892089844],[123.41088867200001,39.912719727],[123.37072753900001,39.919494629],[123.35247802700002,39.944091797],[123.39367675800001,39.986083984],[123.35687255900001,39.996276855],[123.31549072300001,39.996276855],[123.25848388700001,40.002685547],[123.22009277300002,40.025878906],[123.21331787100002,40.053894043],[123.19390869100002,40.079101562],[123.15112304700001,40.078674316],[123.11468505900001,40.06048584],[123.08752441400001,40.040283203],[123.05310058600001,40.019104004],[123.01031494100002,40.041687012],[122.97210693400001,40.071899414],[122.95111084000001,40.099121094],[122.93951416000002,40.134521484],[122.90588378900001,40.147888184],[122.88208007800002,40.172485352]]]]}}
