{"type":"Feature","id":"bulk-99377448B96523532145484","bbox":[101.86090087900001,36.444885254,104.20709228500002,39.43927002],"properties":{"id":"bulk-99377448B96523532145484","name":"Wuwei","nameEn":"Wuwei","fullName":"Wuwei","level":"city","boundaryRole":"administrative-extent","boundaryQuality":"generalized-source-2020","boundaryYearRepresented":"2020","bounds":[[101.86090087900001,36.444885254],[104.20709228500002,39.43927002]],"center":[103.03399658200001,37.942077637],"centerMethod":"bounding-box midpoint; camera framing only","license":"CC-BY-3.0-IGO","attribution":"geoBoundaries / HDX, China administrative boundaries (2020)","source":{"provider":"geoBoundaries gbHumanitarian / HDX","url":"https://github.com/wmgeolab/geoBoundaries/raw/9469f09/releaseData/gbHumanitarian/CHN/ADM2/geoBoundaries-CHN-ADM2.geojson","metadataUrl":"https://www.geoboundaries.org/api/current/gbHumanitarian/CHN/ADM2/","shapeID":"99377448B96523532145484","shapeName":"Wuwei","boundaryID":"CHN-ADM2-99377448","commit":"9469f09"},"geometryCounts":{"coordinates":210,"components":1,"holes":0},"boundaryNotice":"geoBoundaries / HDX 2020 年行政区数据，海岸和边界经过源数据概化，并非当前测绘成果。"},"geometry":{"type":"Polygon","coordinates":[[[101.98931884800001,38.984313965],[102.03131103500002,38.985900879],[102.07208252,38.980895996],[102.11590576200001,38.966308594],[102.18188476600001,38.942871094],[102.22888183600001,38.934875488],[102.26489257800002,38.930480957],[102.31091308600001,38.926513672],[102.36047363300001,38.912109375],[102.39410400400001,38.899475098],[102.42449951200001,38.870727539],[102.41528320300002,38.837890625],[102.39770507800002,38.806091309],[102.40771484400001,38.774291992],[102.40930175800001,38.733886719],[102.40472412100002,38.703674316],[102.42468261700002,38.671081543],[102.42211914100001,38.633117676],[102.429504395,38.603881836],[102.44311523400002,38.569519043],[102.46911621100001,38.545715332],[102.495910645,38.525878906],[102.52807617200001,38.503479004],[102.53570556600002,38.459289551],[102.55969238300001,38.424682617],[102.59368896500001,38.409729004],[102.64227294900002,38.407104492],[102.68548584000001,38.396911621],[102.722473145,38.355285645],[102.73010253900001,38.320678711],[102.74127197300001,38.273498535],[102.74389648400002,38.23651123],[102.71228027300002,38.205688477],[102.65631103500002,38.176513672],[102.59948730500001,38.183898926],[102.54168701200001,38.179321289],[102.48608398400002,38.163879395],[102.43670654300001,38.15447998],[102.38171386700002,38.149108887],[102.32287597700001,38.133483887],[102.28131103500002,38.126525879],[102.24328613300001,38.114318848],[102.21649169900002,38.08392334],[102.17749023400002,38.056091309],[102.11950683600001,38.034912109],[102.07830810500002,38.010498047],[102.120117187,37.998718262],[102.14788818400001,37.978088379],[102.11187744100002,37.959472656],[102.07409668000001,37.952514648],[102.09967041000002,37.902526855],[102.12731933600001,37.876525879],[102.14709472700001,37.844726562],[102.15728759800001,37.81048584],[102.15649414100001,37.783508301],[102.14727783200001,37.744689941],[102.10888671900001,37.709899902],[102.07269287100002,37.69708252],[102.05548095700001,37.659729004],[102.07952880900001,37.606079102],[102.07928466800001,37.580688477],[102.07891845700001,37.523498535],[102.03289794900002,37.455871582],[102.09167480500001,37.4453125],[102.16290283200001,37.403503418],[102.19470214800002,37.408874512],[102.26428222700001,37.370483398],[102.344726562,37.304321289],[102.40228271500001,37.292480469],[102.42529296900001,37.280700684],[102.49011230500001,37.240905762],[102.51068115200002,37.195129395],[102.57568359400001,37.15447998],[102.594726562,37.122680664],[102.56427002,37.108703613],[102.51049804700001,37.083129883],[102.49572753900001,37.070129395],[102.49688720700001,37.057678223],[102.51489257800002,37.03729248],[102.51647949200002,37.021911621],[102.49688720700001,36.977722168],[102.49847412100002,36.962280273],[102.53192138700001,36.945922852],[102.56469726600001,36.93548584],[102.58288574200002,36.91192627],[102.60150146500001,36.885314941],[102.62628173800002,36.874328613],[102.65911865200002,36.863891602],[102.67669677700002,36.846496582],[102.68048095700001,36.80670166],[102.69848632800002,36.786071777],[102.69171142600001,36.77331543],[102.64727783200001,36.738708496],[102.61108398400002,36.704101562],[102.59771728500002,36.678710937],[102.60668945300002,36.666870117],[102.64788818400001,36.650695801],[102.69091796900001,36.616271973],[102.72772216800001,36.562927246],[102.75012207000002,36.493286133],[102.75671386700002,36.444885254],[102.78631591800001,36.481689453],[102.812316895,36.513916016],[102.811523437,36.542724609],[102.80389404300001,36.570129395],[102.78387451200001,36.593688965],[102.76647949200002,36.622497559],[102.76287841800001,36.657714844],[102.79211425800001,36.678283691],[102.82867431600002,36.629516602],[102.87652587900001,36.621276855],[102.86889648400002,36.658081055],[102.84930419900002,36.685119629],[102.82269287100002,36.716918945],[102.82269287100002,36.751708984],[102.84411621100001,36.777893066],[102.85772705100001,36.806274414],[102.86871337900001,36.838317871],[102.90270996100001,36.830078125],[102.93572998000002,36.80847168],[102.96807861300002,36.821289062],[102.96087646500001,36.852905273],[102.96307373000002,36.882080078],[102.99029541000002,36.909484863],[103.03607177700002,36.930480957],[103.08508300800001,36.945678711],[103.14447021500001,36.935913086],[103.171691895,36.918273926],[103.21130371100001,36.924682617],[103.19812011700002,36.951477051],[103.17608642600001,36.983276367],[103.17028808600001,37.009887695],[103.21008300800001,37.01550293],[103.22552490200002,36.991088867],[103.26928710900002,36.942687988],[103.32312011700002,36.930908203],[103.35791015600002,36.918518066],[103.38128662100002,36.892883301],[103.38848877,36.857910156],[103.413879395,36.82232666],[103.45172119100002,36.848876953],[103.48010253900001,36.864685059],[103.52972412100002,36.867675781],[103.57189941400001,36.855102539],[103.60791015600002,36.852478027],[103.594726562,36.913696289],[103.58850097700001,36.942077637],[103.579101562,36.990905762],[103.58007812500001,37.035705566],[103.59271240200002,37.064086914],[103.60888671900001,37.090881348],[103.63012695300002,37.118896484],[103.64971923800002,37.141479492],[103.66772460900002,37.167480469],[103.69091796900001,37.205871582],[103.70849609400001,37.238891602],[103.75329589800002,37.25592041],[103.78729248000002,37.264526367],[103.795898437,37.293884277],[103.79248046900001,37.323730469],[103.77172851600001,37.356689453],[103.75750732400002,37.382873535],[103.76312255900001,37.416503906],[103.77929687500001,37.449279785],[103.78228759800001,37.49029541],[103.78930664100001,37.53527832],[103.79510498000002,37.577087402],[103.83270263700001,37.62310791],[103.80651855500001,37.658508301],[103.77392578100002,37.707702637],[103.71270752,37.748474121],[103.56872558600001,37.791687012],[103.42028808600001,37.830688477],[103.41912841800001,37.835083008],[103.36828613300001,38.00567627],[103.37548828100002,38.053710937],[103.37707519500002,38.063476562],[103.43072509800001,38.106872559],[103.53308105500001,38.110900879],[103.53747558600001,38.240478516],[103.50567627,38.324523926],[103.42431640600002,38.388671875],[103.55627441400001,38.452270508],[103.68890380900001,38.511108398],[103.80609130900001,38.569274902],[103.89648437500001,38.605712891],[103.97430419900002,38.749511719],[104.02288818400001,38.847290039],[104.09387207000002,38.877502441],[104.17968750000001,38.936096191],[104.20709228500002,39.073486328],[104.07928466800001,39.273071289],[104.09613037100002,39.392272949],[104.09350585900002,39.39831543],[103.84210205100001,39.43927002],[103.66851806600002,39.394470215],[103.51367187500001,39.357299805],[103.37451171900001,39.290893555],[103.280273437,39.214294434],[103.18090820300002,39.166320801],[103.03009033200001,39.085510254],[102.90148925800001,39.093688965],[102.75408935500002,39.12512207],[102.63928222700001,39.15411377],[102.52447509800001,39.226318359],[102.33850097700001,39.184509277],[102.17932128900001,39.142883301],[102.08807373000002,39.103271484],[101.86090087900001,39.113708496],[101.98931884800001,38.984313965]]]}}
