{"type":"Feature","id":"bulk-99377448B94188017806417","bbox":[112.30529785200001,28.409912109,114.14068603500002,29.80267334],"properties":{"id":"bulk-99377448B94188017806417","name":"Yueyang","nameEn":"Yueyang","fullName":"Yueyang","level":"city","boundaryRole":"administrative-extent","boundaryQuality":"generalized-source-2020","boundaryYearRepresented":"2020","bounds":[[112.30529785200001,28.409912109],[114.14068603500002,29.80267334]],"center":[113.2229919435,29.1062927245],"centerMethod":"bounding-box midpoint; camera framing only","license":"CC-BY-3.0-IGO","attribution":"geoBoundaries / HDX, China administrative boundaries (2020)","source":{"provider":"geoBoundaries gbHumanitarian / HDX","url":"https://github.com/wmgeolab/geoBoundaries/raw/9469f09/releaseData/gbHumanitarian/CHN/ADM2/geoBoundaries-CHN-ADM2.geojson","metadataUrl":"https://www.geoboundaries.org/api/current/gbHumanitarian/CHN/ADM2/","shapeID":"99377448B94188017806417","shapeName":"Yueyang","boundaryID":"CHN-ADM2-99377448","commit":"9469f09"},"geometryCounts":{"coordinates":236,"components":1,"holes":0},"boundaryNotice":"geoBoundaries / HDX 2020 年行政区数据，海岸和边界经过源数据概化，并非当前测绘成果。"},"geometry":{"type":"Polygon","coordinates":[[[113.921875,29.073730469],[113.89050293000001,29.07409668],[113.88372802700002,29.056518555],[113.85992431600002,29.02947998],[113.83312988300001,29.032897949],[113.80688476600001,29.054077148],[113.78790283200001,29.07409668],[113.78649902300002,29.099121094],[113.78051757800002,29.105529785],[113.75311279300001,29.120483398],[113.74932861300002,29.102722168],[113.73730468700002,29.081726074],[113.72772216800001,29.075683594],[113.71649169900002,29.072509766],[113.70788574200002,29.069885254],[113.70452880900001,29.099487305],[113.67352294900002,29.101928711],[113.66052246100001,29.081726074],[113.63208007800002,29.104675293],[113.64831543000001,29.123901367],[113.60229492200001,29.146484375],[113.61767578100002,29.172912598],[113.64831543000001,29.188110352],[113.65710449200002,29.206481934],[113.64630127,29.225524902],[113.61987304700001,29.243103027],[113.57427978500002,29.276489258],[113.56152343700002,29.270874023],[113.56988525400001,29.276489258],[113.60571289100001,29.322875977],[113.63067627,29.356079102],[113.65447998000002,29.385681152],[113.67468261700002,29.396911621],[113.68408203100002,29.409118652],[113.71270752,29.445922852],[113.72290039100001,29.474121094],[113.70227050800001,29.482299805],[113.66748046900001,29.495910645],[113.64147949200002,29.499084473],[113.59509277300002,29.517272949],[113.60290527300002,29.532287598],[113.66912841800001,29.581298828],[113.66467285200001,29.605529785],[113.63427734400001,29.667724609],[113.59631347700001,29.689880371],[113.55267334000001,29.700683594],[113.53271484400001,29.695922852],[113.51593017600001,29.689086914],[113.50250244100002,29.731323242],[113.47229003900001,29.770507812],[113.43847656200002,29.774475098],[113.40948486300002,29.748291016],[113.35369873000002,29.6953125],[113.30987548800002,29.66027832],[113.31207275400001,29.659118652],[113.30590820300002,29.656677246],[113.25549316400001,29.636108398],[113.23492431600002,29.608886719],[113.18511962900001,29.539489746],[113.17431640600002,29.52911377],[113.14831543000001,29.490478516],[113.12127685500002,29.456115723],[113.11712646500001,29.442321777],[113.07928466800001,29.479309082],[113.04272460900002,29.43548584],[113.03833007800002,29.440917969],[113.01452636700002,29.470703125],[112.98370361300002,29.492675781],[112.93530273400002,29.470275879],[112.88311767600001,29.512329102],[112.86828613300001,29.597106934],[112.89831543000001,29.62512207],[112.95629882800002,29.651489258],[112.95611572300001,29.688110352],[112.97167968700002,29.727905273],[112.98748779300001,29.776489258],[112.99810791000002,29.788879395],[112.96710205100001,29.80267334],[112.94268798800002,29.781677246],[112.89172363300001,29.748901367],[112.863098145,29.720092773],[112.84112548800002,29.734680176],[112.85888671900001,29.778686523],[112.83929443400001,29.793273926],[112.79272460900002,29.763916016],[112.75891113300001,29.743103027],[112.74389648400002,29.730895996],[112.73327636700002,29.713684082],[112.72991943400001,29.707885742],[112.70727539100001,29.675476074],[112.68170166000002,29.650878906],[112.64892578100002,29.627319336],[112.61407470700001,29.605712891],[112.58288574200002,29.608703613],[112.56530761700002,29.617126465],[112.51727294900002,29.620483398],[112.49011230500001,29.618103027],[112.46649169900002,29.635314941],[112.42669677700002,29.634094238],[112.39788818400001,29.591674805],[112.37567138700001,29.572509766],[112.34307861300002,29.564880371],[112.31909179700001,29.551879883],[112.30529785200001,29.542114258],[112.30987548800002,29.481872559],[112.33032226600001,29.449890137],[112.36712646500001,29.446105957],[112.39288330100001,29.41607666],[112.41711425800001,29.371704102],[112.45190429700001,29.354675293],[112.47167968700002,29.330078125],[112.50628662100002,29.312072754],[112.54187011700002,29.31628418],[112.57830810500002,29.327880859],[112.62127685500002,29.340881348],[112.64892578100002,29.312316895],[112.65991210900002,29.278503418],[112.65472412100002,29.235717773],[112.64508056600002,29.208496094],[112.66967773400002,29.190673828],[112.73211669900002,29.185913086],[112.75329589800002,29.172302246],[112.74951171900001,29.145507812],[112.72552490200002,29.098693848],[112.73968505900001,29.025085449],[112.75469970700001,29.061279297],[112.75531005900001,29.082275391],[112.76831054700001,29.149108887],[112.79589843700002,29.174682617],[112.81512451200001,29.165893555],[112.83673095700001,29.160888672],[112.85571289100001,29.158081055],[112.87011718700002,29.147277832],[112.88269043000001,29.119873047],[112.88867187500001,29.08190918],[112.90350341800001,29.055480957],[112.90832519500002,29.046081543],[112.88287353500002,29.024719238],[112.86627197300001,29.006103516],[112.86071777300002,28.993103027],[112.81970214800002,28.957275391],[112.80871582000002,28.951904297],[112.77728271500001,28.94708252],[112.76110839800002,28.949279785],[112.73651123000002,28.938720703],[112.71972656200002,28.927490234],[112.74230957000002,28.918701172],[112.78552246100001,28.931091309],[112.81988525400001,28.934082031],[112.78472900400001,28.917724609],[112.70892334000001,28.902099609],[112.67889404300001,28.903320312],[112.67608642600001,28.897277832],[112.64831543000001,28.867492676],[112.61328125000001,28.770507812],[112.55249023400002,28.723876953],[112.52172851600001,28.702697754],[112.48712158200001,28.674072266],[112.47772216800001,28.639709473],[112.49670410200001,28.608276367],[112.53070068400001,28.610717773],[112.54449462900001,28.58392334],[112.538879395,28.555725098],[112.54272460900002,28.528076172],[112.57989502,28.52331543],[112.61230468700002,28.547729492],[112.64770507800002,28.564086914],[112.68072509800001,28.556274414],[112.65350341800001,28.519104004],[112.64147949200002,28.489685059],[112.671691895,28.480102539],[112.71490478500002,28.486083984],[112.73712158200001,28.504882812],[112.77868652300002,28.502929687],[112.80371093700002,28.478515625],[112.84191894500002,28.481689453],[112.87408447300001,28.493286133],[112.91149902300002,28.494506836],[112.93969726600001,28.432312012],[112.98767089800002,28.452087402],[113.01788330100001,28.471679687],[113.05310058600001,28.481689453],[113.08850097700001,28.460876465],[113.11712646500001,28.447692871],[113.15112304700001,28.476928711],[113.15692138700001,28.512878418],[113.15069580100001,28.545288086],[113.14947509800001,28.577697754],[113.18072509800001,28.623901367],[113.21728515600002,28.596313477],[113.25091552700002,28.596923828],[113.28771972700001,28.587890625],[113.34967041000002,28.599121094],[113.37731933600001,28.57409668],[113.43347168000001,28.555908203],[113.45147705100001,28.533081055],[113.46789550800001,28.506103516],[113.51507568400001,28.498291016],[113.55529785200001,28.498291016],[113.59271240200002,28.481323242],[113.60589599600002,28.450683594],[113.62072753900001,28.42010498],[113.67492675800001,28.409912109],[113.72332763700001,28.412109375],[113.75891113300001,28.42388916],[113.77789306600002,28.448913574],[113.81970214800002,28.467529297],[113.86810302700002,28.46472168],[113.90527343700002,28.471679687],[113.93627929700001,28.48828125],[113.96887207000002,28.51550293],[114.00988769500002,28.513305664],[114.04327392600001,28.50769043],[114.10290527300002,28.539916992],[114.08087158200001,28.553283691],[114.07788085900002,28.581115723],[114.09411621100001,28.601318359],[114.10809326200001,28.618713379],[114.11627197300001,28.645324707],[114.12890625000001,28.680480957],[114.13372802700002,28.725891113],[114.13592529300001,28.75970459],[114.13629150400001,28.762329102],[114.14068603500002,28.801513672],[114.13769531200002,28.83190918],[114.12670898400002,28.845703125],[114.08612060500002,28.837097168],[114.06408691400001,28.857299805],[114.03930664100001,28.886474609],[113.98187255900001,28.934509277],[113.95349121100001,28.946716309],[113.92248535200001,28.978881836],[113.91729736300002,29.011108398],[113.91107177700002,29.040710449],[113.92150878900001,29.071472168],[113.921875,29.073730469]]]}}
