{"type":"Feature","id":"bulk-99377448B47240320758756","bbox":[104.64508056600002,31.533508301,106.753723145,32.907897949],"properties":{"id":"bulk-99377448B47240320758756","name":"Guangyuan","nameEn":"Guangyuan","fullName":"Guangyuan","level":"city","boundaryRole":"administrative-extent","boundaryQuality":"generalized-source-2020","boundaryYearRepresented":"2020","bounds":[[104.64508056600002,31.533508301],[106.753723145,32.907897949]],"center":[105.69940185550001,32.220703125],"centerMethod":"bounding-box midpoint; camera framing only","license":"CC-BY-3.0-IGO","attribution":"geoBoundaries / HDX, China administrative boundaries (2020)","source":{"provider":"geoBoundaries gbHumanitarian / HDX","url":"https://github.com/wmgeolab/geoBoundaries/raw/9469f09/releaseData/gbHumanitarian/CHN/ADM2/geoBoundaries-CHN-ADM2.geojson","metadataUrl":"https://www.geoboundaries.org/api/current/gbHumanitarian/CHN/ADM2/","shapeID":"99377448B47240320758756","shapeName":"Guangyuan","boundaryID":"CHN-ADM2-99377448","commit":"9469f09"},"geometryCounts":{"coordinates":167,"components":1,"holes":0},"boundaryNotice":"geoBoundaries / HDX 2020 年行政区数据，海岸和边界经过源数据概化，并非当前测绘成果。"},"geometry":{"type":"Polygon","coordinates":[[[106.63067627,32.702880859],[106.62432861300002,32.70111084],[106.56152343700002,32.676330566],[106.55328369100002,32.675476074],[106.48291015600002,32.669677734],[106.46228027300002,32.641479492],[106.40368652300002,32.623718262],[106.31390380900001,32.671691895],[106.30371093700002,32.672485352],[106.22808837900001,32.678894043],[106.13610839800002,32.720275879],[106.07568359400001,32.759277344],[106.08251953100002,32.774719238],[106.09948730500001,32.808105469],[106.06927490200002,32.845275879],[106.02532959000001,32.838500977],[105.95330810500002,32.824523926],[105.89489746100001,32.819885254],[105.84490966800001,32.823486328],[105.82312011700002,32.825500488],[105.82788085900002,32.795471191],[105.78747558600001,32.75769043],[105.73529052700002,32.743530273],[105.66589355500001,32.724121094],[105.63909912100002,32.717285156],[105.61230468700002,32.710693359],[105.57452392600001,32.708496094],[105.53228759800001,32.768127441],[105.50427246100001,32.80267334],[105.49627685500002,32.849487305],[105.50427246100001,32.903930664],[105.49291992200001,32.907897949],[105.43347168000001,32.903076172],[105.40289306600002,32.850524902],[105.40191650400001,32.837280273],[105.41632080100001,32.773925781],[105.43249511700002,32.774475098],[105.46868896500001,32.762695312],[105.45050048800002,32.743530273],[105.35687255900001,32.684326172],[105.29809570300002,32.639709473],[105.27227783200001,32.638671875],[105.20050048800002,32.651916504],[105.10870361300002,32.603515625],[105.05749511700002,32.624511719],[105.04571533200001,32.640930176],[104.92352294900002,32.587097168],[104.85150146500001,32.647094727],[104.74310302700002,32.633483887],[104.67407226600001,32.67590332],[104.65631103500002,32.676879883],[104.64508056600002,32.622314453],[104.66149902300002,32.587097168],[104.69067382800002,32.572875977],[104.71948242200001,32.558288574],[104.75128173800002,32.542724609],[104.77148437500001,32.513916016],[104.76947021500001,32.481323242],[104.76727294900002,32.440490723],[104.77990722700001,32.404296875],[104.80950927700002,32.380493164],[104.84490966800001,32.368530273],[104.88208007800002,32.369506836],[104.92767334000001,32.354492187],[104.95788574200002,32.329284668],[104.98352050800001,32.293273926],[104.98852539100001,32.257873535],[105.03387451200001,32.269104004],[105.07672119100002,32.287109375],[105.10229492200001,32.307678223],[105.14093017600001,32.31451416],[105.17590332000002,32.31628418],[105.24609375000001,32.319274902],[105.25610351600001,32.293273926],[105.27368164100001,32.26550293],[105.27209472700001,32.234313965],[105.27532959000001,32.200317383],[105.26593017600001,32.158325195],[105.30627441400001,32.142272949],[105.28607177700002,32.120483398],[105.26348877,32.073730469],[105.26312255900001,32.036499023],[105.22290039100001,32.030090332],[105.18847656200002,32.009521484],[105.20208740200002,31.967712402],[105.21289062500001,31.933898926],[105.20849609400001,31.903076172],[105.22888183600001,31.879272461],[105.23150634800001,31.846313477],[105.25128173800002,31.8203125],[105.26452636700002,31.794128418],[105.30548095700001,31.785095215],[105.30328369100002,31.74987793],[105.28607177700002,31.721313477],[105.31311035200001,31.704528809],[105.347473145,31.699890137],[105.34808349600002,31.665893555],[105.35388183600001,31.633300781],[105.37890625000001,31.599121094],[105.40710449200002,31.579528809],[105.42028808600001,31.553527832],[105.45568847700001,31.533508301],[105.47888183600001,31.555908203],[105.503723145,31.575927734],[105.53869628900001,31.564697266],[105.57690429700001,31.573303223],[105.61511230500001,31.562072754],[105.65307617200001,31.610473633],[105.70910644500002,31.605712891],[105.70648193400001,31.63269043],[105.71850585900002,31.663696289],[105.72930908200001,31.709472656],[105.74127197300001,31.737487793],[105.78308105500001,31.720275879],[105.79052734400001,31.68572998],[105.80310058600001,31.652282715],[105.82269287100002,31.622497559],[105.85870361300002,31.605712891],[105.86572265600002,31.637878418],[105.91027832000002,31.629882812],[105.93890380900001,31.646728516],[105.97827148400002,31.66809082],[106.00811767600001,31.680725098],[106.04132080100001,31.686279297],[106.06988525400001,31.708496094],[106.10192871100001,31.733886719],[106.12347412100002,31.766723633],[106.12072753900001,31.799316406],[106.18530273400002,31.820678711],[106.21191406200002,31.778930664],[106.25311279300001,31.783691406],[106.27868652300002,31.801696777],[106.30688476600001,31.825317383],[106.347473145,31.837280273],[106.39752197300001,31.835327148],[106.40270996100001,31.866882324],[106.41711425800001,31.906311035],[106.43792724600002,31.933105469],[106.45031738300001,31.991699219],[106.48327636700002,31.99609375],[106.48870849600002,32.024719238],[106.49707031200002,32.051330566],[106.51690673800002,32.075073242],[106.55187988300001,32.093078613],[106.56848144500002,32.120300293],[106.55029296900001,32.151916504],[106.54150390600002,32.18548584],[106.56347656200002,32.210876465],[106.60229492200001,32.225524902],[106.63409423800002,32.233276367],[106.66052246100001,32.250671387],[106.69812011700002,32.274291992],[106.722473145,32.295288086],[106.753723145,32.313293457],[106.71710205100001,32.330688477],[106.68310546900001,32.355529785],[106.67071533200001,32.38269043],[106.67828369100002,32.412109375],[106.68572998000002,32.452514648],[106.67932128900001,32.486083984],[106.64788818400001,32.512695312],[106.62310791000002,32.536682129],[106.63549804700001,32.569274902],[106.64630127,32.599487305],[106.64910888700001,32.629882812],[106.63867187500001,32.656494141],[106.63067627,32.702880859]]]}}
