{"type":"Feature","id":"bulk-99377448B3919425789377","bbox":[108.41607666000002,23.306884766,110.23309326200001,24.415710449],"properties":{"id":"bulk-99377448B3919425789377","name":"Laibin","nameEn":"Laibin","fullName":"Laibin","level":"city","boundaryRole":"administrative-extent","boundaryQuality":"generalized-source-2020","boundaryYearRepresented":"2020","bounds":[[108.41607666000002,23.306884766],[110.23309326200001,24.415710449]],"center":[109.32458496100001,23.8612976075],"centerMethod":"bounding-box midpoint; camera framing only","license":"CC-BY-3.0-IGO","attribution":"geoBoundaries / HDX, China administrative boundaries (2020)","source":{"provider":"geoBoundaries gbHumanitarian / HDX","url":"https://github.com/wmgeolab/geoBoundaries/raw/9469f09/releaseData/gbHumanitarian/CHN/ADM2/geoBoundaries-CHN-ADM2.geojson","metadataUrl":"https://www.geoboundaries.org/api/current/gbHumanitarian/CHN/ADM2/","shapeID":"99377448B3919425789377","shapeName":"Laibin","boundaryID":"CHN-ADM2-99377448","commit":"9469f09"},"geometryCounts":{"coordinates":125,"components":1,"holes":0},"boundaryNotice":"geoBoundaries / HDX 2020 年行政区数据，海岸和边界经过源数据概化，并非当前测绘成果。"},"geometry":{"type":"Polygon","coordinates":[[[110.23309326200001,23.926696777],[109.73590087900001,24.222717285],[109.73608398400002,24.191101074],[109.73608398400002,24.173522949],[109.70971679700001,24.13848877],[109.68310546900001,24.155883789],[109.60327148400002,24.13470459],[109.57690429700001,24.099487305],[109.55047607400002,24.06427002],[109.49768066400001,24.028930664],[109.47131347700001,23.976318359],[109.41168212900001,23.935913086],[109.38269043000001,23.930297852],[109.34692382800002,23.945678711],[109.32769775400001,23.971923828],[109.30810546900001,24.027099609],[109.28631591800001,24.066894531],[109.25653076200001,24.085083008],[109.21392822300001,24.081115723],[109.18371582000002,24.061279297],[109.15130615200002,24.047912598],[109.11627197300001,24.053710937],[109.10211181600002,24.086486816],[109.11907959000001,24.124328613],[109.07769775400001,24.131103516],[109.03607177700002,24.132324219],[108.99328613300001,24.151489258],[108.95147705100001,24.143127441],[108.92608642600001,24.168701172],[108.93811035200001,24.194274902],[108.93432617200001,24.236328125],[108.95092773400002,24.26751709],[108.89630127,24.328918457],[108.86029052700002,24.289489746],[108.84271240200002,24.317504883],[108.83410644500002,24.356506348],[108.80267334000001,24.383300781],[108.77490234400001,24.392883301],[108.73571777300002,24.415710449],[108.72009277300002,24.386291504],[108.71148681600002,24.350891113],[108.66271972700001,24.298706055],[108.679504395,24.239501953],[108.65588378900001,24.186889648],[108.60607910200001,24.179504395],[108.58129882800002,24.164672852],[108.57189941400001,24.127319336],[108.56951904300001,24.082519531],[108.55090332000002,24.0546875],[108.51568603500002,24.040710449],[108.43530273400002,24.02947998],[108.42987060500002,23.982299805],[108.41949462900001,23.932128906],[108.43609619100002,23.895507812],[108.41967773400002,23.865722656],[108.41607666000002,23.827880859],[108.42810058600001,23.797119141],[108.44628906200002,23.770507812],[108.47930908200001,23.745300293],[108.47631835900002,23.707519531],[108.50927734400001,23.675476074],[108.54528808600001,23.688903809],[108.57849121100001,23.717102051],[108.60009765600002,23.736694336],[108.62689209000001,23.765075684],[108.65087890600002,23.781311035],[108.68688964800002,23.809082031],[108.72027587900001,23.823486328],[108.76892089800002,23.778686523],[108.77349853500002,23.745483398],[108.76593017600001,23.711303711],[108.77709960900002,23.669311523],[108.78649902300002,23.637878418],[108.79931640600002,23.603515625],[108.812316895,23.578491211],[108.82830810500002,23.553527832],[108.855285645,23.513916016],[108.85870361300002,23.471313477],[108.85931396500001,23.442871094],[108.87670898400002,23.413879395],[108.91168212900001,23.402099609],[108.95391845700001,23.403320312],[108.99768066400001,23.396728516],[109.03051757800002,23.378112793],[109.05889892600001,23.367492676],[109.09350585900002,23.367492676],[109.10772705100001,23.328918457],[109.13208007800002,23.311279297],[109.17010498000002,23.306884766],[109.21990966800001,23.311889648],[109.22009277300002,23.37512207],[109.25750732400002,23.388305664],[109.28808593700002,23.408508301],[109.32910156200002,23.417724609],[109.36132812500001,23.395690918],[109.39550781200002,23.389709473],[109.44390869100002,23.405273437],[109.48968505900001,23.371887207],[109.50689697300001,23.347717285],[109.55187988300001,23.351501465],[109.58673095700001,23.37890625],[109.61572265600002,23.406677246],[109.66412353500002,23.436279297],[109.68652343700002,23.455688477],[109.73852539100001,23.468078613],[109.79132080100001,23.468322754],[109.81768798800002,23.468322754],[109.84490966800001,23.490905762],[109.86071777300002,23.489074707],[109.87329101600001,23.516906738],[109.87170410200001,23.546325684],[109.88250732400002,23.579101562],[109.89587402300002,23.613891602],[109.90393066400001,23.648681641],[109.91607666000002,23.690307617],[109.89752197300001,23.727478027],[109.94732666000002,23.780517578],[109.98248291000002,23.803710937],[110.04431152300002,23.816101074],[110.06207275400001,23.847106934],[110.09387207000002,23.873474121],[110.13647460900002,23.890930176],[110.17028808600001,23.891906738],[110.19812011700002,23.913879395],[110.23309326200001,23.926696777]]]}}
