{"type":"Feature","id":"bulk-99377448B43250784793113","bbox":[102.91632080100001,28.415527344,104.27532959000001,29.90612793],"properties":{"id":"bulk-99377448B43250784793113","name":"Leshan","nameEn":"Leshan","fullName":"Leshan","level":"city","boundaryRole":"administrative-extent","boundaryQuality":"generalized-source-2020","boundaryYearRepresented":"2020","bounds":[[102.91632080100001,28.415527344],[104.27532959000001,29.90612793]],"center":[103.59582519550001,29.160827637],"centerMethod":"bounding-box midpoint; camera framing only","license":"CC-BY-3.0-IGO","attribution":"geoBoundaries / HDX, China administrative boundaries (2020)","source":{"provider":"geoBoundaries gbHumanitarian / HDX","url":"https://github.com/wmgeolab/geoBoundaries/raw/9469f09/releaseData/gbHumanitarian/CHN/ADM2/geoBoundaries-CHN-ADM2.geojson","metadataUrl":"https://www.geoboundaries.org/api/current/gbHumanitarian/CHN/ADM2/","shapeID":"99377448B43250784793113","shapeName":"Leshan","boundaryID":"CHN-ADM2-99377448","commit":"9469f09"},"geometryCounts":{"coordinates":158,"components":1,"holes":0},"boundaryNotice":"geoBoundaries / HDX 2020 年行政区数据，海岸和边界经过源数据概化，并非当前测绘成果。"},"geometry":{"type":"Polygon","coordinates":[[[104.27532959000001,29.619873047],[104.24310302700002,29.651672363],[104.21527099600002,29.672729492],[104.18627929700001,29.700317383],[104.15191650400001,29.702880859],[104.12548828100002,29.724914551],[104.09710693400001,29.751525879],[104.07269287100002,29.777893066],[104.08068847700001,29.809326172],[104.07507324200002,29.839294434],[104.08349609400001,29.871276855],[104.03912353500002,29.871276855],[103.98632812500001,29.877685547],[103.94592285200001,29.82208252],[103.92492675800001,29.79107666],[103.937316895,29.746704102],[103.87390136700002,29.734924316],[103.84008789100001,29.732299805],[103.80871582000002,29.714904785],[103.77008056600002,29.70111084],[103.70068359400001,29.739929199],[103.69488525400001,29.773498535],[103.72747802700002,29.781311035],[103.73931884800001,29.806518555],[103.73852539100001,29.854492187],[103.68572998000002,29.874511719],[103.60388183600001,29.90612793],[103.53088378900001,29.868103027],[103.51831054700001,29.83972168],[103.47808837900001,29.822875977],[103.44567871100001,29.794311523],[103.42309570300002,29.772888184],[103.40509033200001,29.80291748],[103.37768554700001,29.823913574],[103.34649658200001,29.806274414],[103.31427002,29.770874023],[103.30432128900001,29.732727051],[103.30047607400002,29.696899414],[103.34692382800002,29.66027832],[103.362304687,29.626281738],[103.34509277300002,29.599487305],[103.30047607400002,29.593505859],[103.27172851600001,29.578918457],[103.26452636700002,29.540283203],[103.28869628900001,29.519714355],[103.296691895,29.49029541],[103.26751709000001,29.466491699],[103.23010253900001,29.474487305],[103.204101562,29.449279785],[103.19470214800002,29.417114258],[103.12048339800002,29.430297852],[103.09069824200002,29.417724609],[103.06311035200001,29.432678223],[103.02929687500001,29.455688477],[102.99169921900001,29.431884766],[102.98510742200001,29.402526855],[102.99291992200001,29.36529541],[102.99652099600002,29.329284668],[103.00207519500002,29.296325684],[103.03131103500002,29.272705078],[103.02252197300001,29.24609375],[102.98852539100001,29.226501465],[102.96051025400001,29.201477051],[102.94409179700001,29.174682617],[102.93688964800002,29.14630127],[102.94049072300001,29.111328125],[102.96112060500002,29.080505371],[102.95269775400001,29.047729492],[102.92272949200002,29.03112793],[102.91632080100001,29.001708984],[102.93688964800002,28.959472656],[102.94030761700002,28.926086426],[102.94030761700002,28.878479004],[102.93212890600002,28.841674805],[102.92510986300002,28.813293457],[102.92248535200001,28.778930664],[102.92810058600001,28.741699219],[102.94390869100002,28.702270508],[102.96868896500001,28.678527832],[103.00128173800002,28.664672852],[103.03308105500001,28.669494629],[103.06768798800002,28.690490723],[103.08251953100002,28.722473145],[103.09307861300002,28.762512207],[103.11248779300001,28.79510498],[103.14611816400001,28.805725098],[103.22149658200001,28.80670166],[103.26892089800002,28.77331543],[103.28869628900001,28.744689941],[103.29748535200001,28.703674316],[103.29052734400001,28.671691895],[103.26171875000001,28.65411377],[103.24932861300002,28.61730957],[103.25610351600001,28.588684082],[103.25189209000001,28.556518555],[103.24627685500002,28.526672363],[103.24072265600002,28.499511719],[103.23748779300001,28.470703125],[103.26190185500002,28.4375],[103.33111572300001,28.431091309],[103.37469482400002,28.419494629],[103.40692138700001,28.415527344],[103.43572998000002,28.426696777],[103.453125,28.455688477],[103.45672607400002,28.485473633],[103.45947265600002,28.516296387],[103.47271728500002,28.543884277],[103.49829101600001,28.566101074],[103.52807617200001,28.58190918],[103.56109619100002,28.602905273],[103.61950683600001,28.614685059],[103.66912841800001,28.651489258],[103.68469238300001,28.676330566],[103.69671630900001,28.703491211],[103.71728515600002,28.735473633],[103.74487304700001,28.76171875],[103.77911377,28.785705566],[103.79711914100001,28.834716797],[103.84710693400001,28.823303223],[103.87048339800002,28.801696777],[103.90411377,28.770507812],[103.93011474600002,28.752075195],[103.95947265600002,28.769104004],[103.980285645,28.793701172],[104.00189209000001,28.815917969],[104.02191162100002,28.840881348],[104.01507568400001,28.874084473],[104.05371093700002,28.880493164],[104.06567382800002,28.911682129],[104.07067871100001,28.948730469],[104.11047363300001,28.936279297],[104.12792968700002,28.959289551],[104.12609863300001,28.98651123],[104.13250732400002,29.015319824],[104.15069580100001,29.052307129],[104.15911865200002,29.078308105],[104.15972900400001,29.111694336],[104.16088867200001,29.144897461],[104.179504395,29.200317383],[104.14868164100001,29.22088623],[104.15148925800001,29.251098633],[104.13470459000001,29.29510498],[104.10327148400002,29.312927246],[104.11669921900001,29.339904785],[104.15612793000001,29.343078613],[104.16931152300002,29.373474121],[104.13452148400002,29.383300781],[104.10131835900002,29.401123047],[104.09967041000002,29.433288574],[104.09613037100002,29.466125488],[104.12127685500002,29.483276367],[104.15747070300002,29.471496582],[104.16369628900001,29.506896973],[104.16247558600001,29.534118652],[104.15551757800002,29.571716309],[104.18572998000002,29.595092773],[104.21191406200002,29.610900879],[104.27532959000001,29.619873047]]]}}
