{"type":"Feature","id":"bulk-99377448B2718936273567","bbox":[116.65789794900002,38.54888916,118.02630615200002,40.194091797],"properties":{"id":"bulk-99377448B2718936273567","name":"Tianjin Municipality","nameEn":"Tianjin Municipality","fullName":"Tianjin Municipality","level":"city","boundaryRole":"administrative-extent","boundaryQuality":"generalized-source-2020","boundaryYearRepresented":"2020","bounds":[[116.65789794900002,38.54888916],[118.02630615200002,40.194091797]],"center":[117.34210205050002,39.3714904785],"centerMethod":"bounding-box midpoint; camera framing only","license":"CC-BY-3.0-IGO","attribution":"geoBoundaries / HDX, China administrative boundaries (2020)","source":{"provider":"geoBoundaries gbHumanitarian / HDX","url":"https://github.com/wmgeolab/geoBoundaries/raw/9469f09/releaseData/gbHumanitarian/CHN/ADM2/geoBoundaries-CHN-ADM2.geojson","metadataUrl":"https://www.geoboundaries.org/api/current/gbHumanitarian/CHN/ADM2/","shapeID":"99377448B2718936273567","shapeName":"Tianjin Municipality","boundaryID":"CHN-ADM2-99377448","commit":"9469f09"},"geometryCounts":{"coordinates":246,"components":1,"holes":0},"boundaryNotice":"geoBoundaries / HDX 2020 年行政区数据，海岸和边界经过源数据概化，并非当前测绘成果。"},"geometry":{"type":"Polygon","coordinates":[[[116.78747558600001,39.562316895],[116.78131103500002,39.555480957],[116.77209472700001,39.544311523],[116.76867675800001,39.533081055],[116.77508544900002,39.507873535],[116.79272460900002,39.475280762],[116.80389404300001,39.452697754],[116.83770752,39.430908203],[116.81109619100002,39.423095703],[116.79388427700002,39.399108887],[116.79010009800001,39.351501465],[116.80731201200001,39.331298828],[116.82470703100002,39.325317383],[116.83190918000001,39.311706543],[116.84588623000002,39.281677246],[116.83770752,39.267089844],[116.82611084000001,39.223510742],[116.81927490200002,39.19708252],[116.80529785200001,39.184509277],[116.83288574200002,39.162109375],[116.85510253900001,39.143310547],[116.89288330100001,39.131103516],[116.90228271500001,39.119873047],[116.91271972700001,39.108520508],[116.91827392600001,39.090515137],[116.91888427700002,39.072509766],[116.91552734400001,39.062072754],[116.90771484400001,39.053527832],[116.88769531200002,39.042114258],[116.83489990200002,39.034118652],[116.74487304700001,39.008483887],[116.72747802700002,39.000488281],[116.679504395,38.992126465],[116.65789794900002,38.953125],[116.66168212900001,38.925476074],[116.66949462900001,38.903930664],[116.67108154300001,38.848083496],[116.67468261700002,38.826293945],[116.67907714800002,38.799072266],[116.71368408200001,38.760498047],[116.72528076200001,38.747314453],[116.73309326200001,38.738525391],[116.74871826200001,38.728881836],[116.78027343700002,38.715087891],[116.80432128900001,38.706115723],[116.81951904300001,38.69128418],[116.82952880900001,38.68371582],[116.86907959000001,38.681884766],[116.90032959000001,38.676879883],[116.94989013700001,38.68170166],[117.00268554700001,38.681884766],[117.02569580100001,38.663085937],[117.03247070300002,38.63092041],[117.03271484400001,38.603515625],[117.10809326200001,38.583129883],[117.11450195300002,38.58807373],[117.11987304700001,38.591918945],[117.16027832000002,38.619506836],[117.19451904300001,38.622314453],[117.22607421900001,38.608276367],[117.20330810500002,38.588317871],[117.18212890600002,38.571472168],[117.20947265600002,38.55090332],[117.22808837900001,38.54888916],[117.28308105500001,38.563110352],[117.32128906200002,38.557678223],[117.36767578100002,38.555480957],[117.39428710900002,38.563903809],[117.43450927700002,38.583129883],[117.46087646500001,38.591491699],[117.51232910200001,38.590698242],[117.52032470700001,38.589477539],[117.50787353500002,38.601318359],[117.51593017600001,38.622497559],[117.52508544900002,38.645324707],[117.53027343700002,38.660522461],[117.53192138700001,38.662719727],[117.52148437500001,38.686279297],[117.52551269500002,38.685119629],[117.53472900400001,38.68548584],[117.54248046900001,38.687927246],[117.54571533200001,38.699890137],[117.54870605500001,38.736328125],[117.554504395,38.736083984],[117.55487060500002,38.745483398],[117.54089355500001,38.762512207],[117.57330322300001,38.790527344],[117.57427978500002,38.799499512],[117.57727050800001,38.819885254],[117.58587646500001,38.83392334],[117.60028076200001,38.848510742],[117.61767578100002,38.868286133],[117.63189697300001,38.879699707],[117.64508056600002,38.894287109],[117.65808105500001,38.908508301],[117.65991210900002,38.907714844],[117.66351318400001,38.906311035],[117.66448974600002,38.907104492],[117.67211914100001,38.924682617],[117.69110107400002,38.960510254],[117.69708252,38.972900391],[117.70910644500002,38.973510742],[117.70050048800002,38.984680176],[117.70269775400001,38.986328125],[117.71868896500001,38.985900879],[117.72650146500001,38.980102539],[117.72967529300001,38.980285645],[117.73211669900002,38.982299805],[117.71630859400001,38.998901367],[117.70788574200002,39.011108398],[117.71411132800002,39.026916504],[117.71868896500001,39.035705566],[117.71771240200002,39.051086426],[117.71148681600002,39.062072754],[117.70147705100001,39.081726074],[117.69909668000001,39.094299316],[117.74768066400001,39.114074707],[117.76348877,39.116088867],[117.77569580100001,39.13067627],[117.79052734400001,39.146911621],[117.80908203100002,39.165710449],[117.82171630900001,39.171325684],[117.82507324200002,39.172302246],[117.83630371100001,39.179870605],[117.85510253900001,39.188476562],[117.88452148400002,39.200073242],[117.91430664100001,39.209899902],[117.93267822300001,39.210693359],[117.94067382800002,39.210876465],[117.96270752,39.216918945],[117.98089599600002,39.220092773],[118.01727294900002,39.22467041],[118.02630615200002,39.239929199],[118.02008056600002,39.260498047],[118.01831054700001,39.266906738],[118.01428222700001,39.288330078],[118.01092529300001,39.326477051],[118.00170898400002,39.35369873],[117.97808837900001,39.36730957],[117.92047119100002,39.382873535],[117.87249755900001,39.375488281],[117.84210205100001,39.366516113],[117.84667968700002,39.377929687],[117.85327148400002,39.397888184],[117.86029052700002,39.423095703],[117.87829589800002,39.463928223],[117.88549804700001,39.515686035],[117.88311767600001,39.540710449],[117.88110351600001,39.563110352],[117.85131835900002,39.575683594],[117.79510498000002,39.586120605],[117.75067138700001,39.59588623],[117.70727539100001,39.593078613],[117.70031738300001,39.546875],[117.69171142600001,39.533081055],[117.67108154300001,39.518310547],[117.65991210900002,39.526123047],[117.68267822300001,39.562316895],[117.66589355500001,39.568115234],[117.60711669900002,39.5703125],[117.59808349600002,39.57611084],[117.59448242200001,39.587097168],[117.59552002,39.59588623],[117.61767578100002,39.626708984],[117.62591552700002,39.66027832],[117.61791992200001,39.674926758],[117.58251953100002,39.680480957],[117.562316895,39.692504883],[117.55407714800002,39.705505371],[117.55267334000001,39.716308594],[117.55627441400001,39.728515625],[117.55651855500001,39.730285645],[117.546875,39.745727539],[117.54949951200001,39.75970459],[117.54827880900001,39.786315918],[117.51171875000001,39.817504883],[117.49389648400002,39.858093262],[117.49188232400002,39.875915527],[117.49468994100002,39.894287109],[117.48571777300002,39.913513184],[117.48748779300001,39.934692383],[117.50250244100002,39.967529297],[117.64068603500002,39.955322266],[117.70910644500002,39.933105469],[117.76568603500002,39.926696777],[117.77532959000001,39.946289062],[117.77252197300001,39.966125488],[117.75848388700001,39.97052002],[117.73828125000001,39.98248291],[117.73272705100001,39.998901367],[117.74951171900001,40.021118164],[117.73712158200001,40.039672852],[117.70190429700001,40.04888916],[117.65692138700001,40.055114746],[117.62310791000002,40.076721191],[117.59887695300002,40.122680664],[117.57489013700001,40.17010498],[117.56427002,40.18371582],[117.52868652300002,40.18927002],[117.44250488300001,40.194091797],[117.38208007800002,40.190307617],[117.31469726600001,40.180908203],[117.31988525400001,40.173095703],[117.32568359400001,40.169311523],[117.36730957000002,40.135498047],[117.31890869100002,40.119873047],[117.26593017600001,40.127929687],[117.24450683600001,40.114685059],[117.21447753900001,40.086120605],[117.21429443400001,40.084899902],[117.22070312500001,40.067077637],[117.19732666000002,40.048522949],[117.18011474600002,40.019104004],[117.16168212900001,39.979125977],[117.12969970700001,39.945129395],[117.11328125000001,39.922729492],[117.11169433600001,39.906677246],[117.11669921900001,39.883300781],[117.13488769500002,39.848327637],[117.16271972700001,39.83972168],[117.19091796900001,39.834472656],[117.21990966800001,39.836486816],[117.23291015600002,39.821472168],[117.20330810500002,39.8125],[117.17431640600002,39.81048584],[117.14349365200002,39.792480469],[117.15228271500001,39.772094727],[117.171691895,39.733093262],[117.16668701200001,39.729675293],[117.14709472700001,39.709472656],[117.13909912100002,39.670898437],[117.14251709000001,39.640686035],[117.14489746100001,39.625488281],[117.14971923800002,39.611877441],[117.12609863300001,39.582702637],[117.01971435500002,39.618896484],[116.97607421900001,39.637084961],[116.93969726600001,39.631896973],[116.92590332000002,39.636291504],[116.92071533200001,39.657897949],[116.92230224600002,39.675720215],[116.90130615200002,39.680297852],[116.84167480500001,39.646484375],[116.81048584000001,39.610717773],[116.80328369100002,39.579284668],[116.78747558600001,39.562316895]]]}}
