{"type":"Feature","id":"bulk-99377448B96618309703155","bbox":[109.43408203100002,31.487487793,111.54571533200001,33.264892578],"properties":{"id":"bulk-99377448B96618309703155","name":"Shiyan","nameEn":"Shiyan","fullName":"Shiyan","level":"city","boundaryRole":"administrative-extent","boundaryQuality":"generalized-source-2020","boundaryYearRepresented":"2020","bounds":[[109.43408203100002,31.487487793],[111.54571533200001,33.264892578]],"center":[110.48989868150002,32.3761901855],"centerMethod":"bounding-box midpoint; camera framing only","license":"CC-BY-3.0-IGO","attribution":"geoBoundaries / HDX, China administrative boundaries (2020)","source":{"provider":"geoBoundaries gbHumanitarian / HDX","url":"https://github.com/wmgeolab/geoBoundaries/raw/9469f09/releaseData/gbHumanitarian/CHN/ADM2/geoBoundaries-CHN-ADM2.geojson","metadataUrl":"https://www.geoboundaries.org/api/current/gbHumanitarian/CHN/ADM2/","shapeID":"99377448B96618309703155","shapeName":"Shiyan","boundaryID":"CHN-ADM2-99377448","commit":"9469f09"},"geometryCounts":{"coordinates":194,"components":1,"holes":0},"boundaryNotice":"geoBoundaries / HDX 2020 年行政区数据，海岸和边界经过源数据概化，并非当前测绘成果。"},"geometry":{"type":"Polygon","coordinates":[[[110.96728515600002,33.264892578],[110.93670654300001,33.245483398],[110.92370605500001,33.207519531],[110.88769531200002,33.205688477],[110.84527587900001,33.212890625],[110.80389404300001,33.165893555],[110.75708007800002,33.149108887],[110.72351074200002,33.114501953],[110.69287109400001,33.107299805],[110.66027832000002,33.117919922],[110.64672851600001,33.122070312],[110.61791992200001,33.131103516],[110.57727050800001,33.166503906],[110.57287597700001,33.195678711],[110.55627441400001,33.23449707],[110.52911377,33.243286133],[110.50512695300002,33.223693848],[110.43811035200001,33.203491211],[110.40191650400001,33.192504883],[110.34088134800001,33.177124023],[110.24627685500002,33.167907715],[110.10571289100001,33.180297852],[110.07427978500002,33.175720215],[109.95727539100001,33.198913574],[109.85668945300002,33.239685059],[109.81951904300001,33.238525391],[109.730285645,33.234130859],[109.66571044900002,33.252929687],[109.60308837900001,33.252319336],[109.54089355500001,33.215270996],[109.49090576200001,33.210327148],[109.46392822300001,33.195922852],[109.43707275400001,33.169921875],[109.43450927700002,33.155883789],[109.43408203100002,33.153930664],[109.46191406200002,33.124328613],[109.50347900400001,33.122070312],[109.57312011700002,33.121887207],[109.63647460900002,33.104919434],[109.69451904300001,33.083312988],[109.76129150400001,33.056518555],[109.73571777300002,33.012878418],[109.74969482400002,32.960876465],[109.730285645,32.938476562],[109.73107910200001,32.890686035],[109.75830078100002,32.871520996],[109.78430175800001,32.852294922],[109.80651855500001,32.852294922],[109.85089111300002,32.865905762],[109.89532470700001,32.879516602],[109.93988037100002,32.865905762],[109.98431396500001,32.852294922],[110.02868652300002,32.838684082],[110.07312011700002,32.838684082],[110.10229492200001,32.8125],[110.10052490200002,32.808288574],[110.10711669900002,32.808288574],[110.12011718700002,32.733520508],[110.10430908200001,32.707702637],[110.14630127,32.612304687],[110.13671875000001,32.606079102],[110.11950683600001,32.595275879],[110.08032226600001,32.609313965],[110.054504395,32.598510742],[110.03112793000001,32.568115234],[109.99768066400001,32.557312012],[109.93908691400001,32.57989502],[109.88171386700002,32.582885742],[109.85711669900002,32.566894531],[109.80529785200001,32.55670166],[109.74047851600001,32.545288086],[109.66589355500001,32.555480957],[109.59790039100001,32.553894043],[109.53747558600001,32.549682617],[109.51812744100002,32.484680176],[109.51867675800001,32.483520508],[109.54492187500001,32.431884766],[109.52587890600002,32.403320312],[109.48968505900001,32.378112793],[109.44189453100002,32.342102051],[109.48107910200001,32.253112793],[109.50872802700002,32.220703125],[109.54388427700002,32.205322266],[109.56610107400002,32.195678711],[109.56329345700001,32.174316406],[109.58068847700001,32.102722168],[109.55688476600001,32.05291748],[109.58068847700001,31.966308594],[109.55688476600001,31.864929199],[109.56451416000002,31.852478027],[109.58612060500002,31.836914062],[109.597473145,31.797912598],[109.554504395,31.750488281],[109.538879395,31.722900391],[109.54608154300001,31.721679687],[109.56347656200002,31.718688965],[109.59429931600002,31.731506348],[109.63830566400001,31.732727051],[109.66308593700002,31.71270752],[109.70947265600002,31.627075195],[109.71307373000002,31.588928223],[109.69128418000001,31.547912598],[109.76312255900001,31.53527832],[109.78967285200001,31.533874512],[109.83331298800002,31.545715332],[109.88732910200001,31.502685547],[109.89208984400001,31.501708984],[109.92730712900001,31.487487793],[109.99951171900001,31.515075684],[110.04052734400001,31.524475098],[110.05291748000002,31.554504395],[110.03948974600002,31.580078125],[110.09527587900001,31.595703125],[110.14050293000001,31.606323242],[110.18872070300002,31.582702637],[110.22027587900001,31.597900391],[110.18792724600002,31.614929199],[110.20251464800002,31.641296387],[110.22290039100001,31.666320801],[110.21289062500001,31.697509766],[110.22967529300001,31.72869873],[110.25671386700002,31.753723145],[110.29309082000002,31.766479492],[110.33587646500001,31.76550293],[110.37609863300001,31.765686035],[110.39947509800001,31.785705566],[110.42010498000002,31.813903809],[110.47949218700002,31.824890137],[110.53027343700002,31.843078613],[110.56610107400002,31.852905273],[110.60272216800001,31.857727051],[110.64270019500002,31.850891113],[110.68188476600001,31.855529785],[110.72570800800001,31.849914551],[110.78308105500001,31.847900391],[110.82067871100001,31.85168457],[110.86749267600001,31.862487793],[110.90228271500001,31.876281738],[110.93908691400001,31.860900879],[110.96728515600002,31.83807373],[110.99188232400002,31.885070801],[110.96612548800002,31.927490234],[110.95812988300001,31.958679199],[110.96691894500002,31.995727539],[110.988098145,32.020324707],[111.02807617200001,32.019470215],[111.05212402300002,31.991271973],[111.08612060500002,32.006286621],[111.10852050800001,32.038330078],[111.07427978500002,32.054321289],[111.06329345700001,32.081481934],[111.11907959000001,32.104125977],[111.15911865200002,32.129882812],[111.19549560500002,32.150512695],[111.21807861300002,32.171691895],[111.22589111300002,32.205078125],[111.22167968700002,32.237915039],[111.20471191400001,32.264099121],[111.18707275400001,32.297912598],[111.20568847700001,32.320678711],[111.24108886700002,32.333496094],[111.28271484400001,32.350097656],[111.31347656200002,32.367492676],[111.34490966800001,32.389282227],[111.36450195300002,32.411071777],[111.40527343700002,32.417907715],[111.44128418000001,32.425292969],[111.453125,32.452880859],[111.51049804700001,32.504699707],[111.53369140600002,32.527893066],[111.54571533200001,32.56652832],[111.54370117200001,32.598327637],[111.52728271500001,32.596679687],[111.49932861300002,32.606506348],[111.47448730500001,32.625305176],[111.42291259800001,32.703491211],[111.38970947300001,32.766479492],[111.34448242200001,32.803894043],[111.28710937500001,32.838500977],[111.25030517600001,32.851928711],[111.21789550800001,32.905273437],[111.22167968700002,32.932678223],[111.22229003900001,32.937072754],[111.22027587900001,32.981323242],[111.19873046900001,33.023925781],[111.18347168000001,33.046875],[111.16088867200001,33.075317383],[111.12829589800002,33.098327637],[111.10650634800001,33.12310791],[111.08587646500001,33.158691406],[111.04571533200001,33.189697266],[111.02612304700001,33.204711914],[111.00653076200001,33.264099121],[110.96728515600002,33.264892578]]]}}
