{"type":"Feature","id":"bulk-99377448B12939555481154","bbox":[109.81170654300001,25.97668457,112.05511474600002,27.656494141],"properties":{"id":"bulk-99377448B12939555481154","name":"Shaoyang","nameEn":"Shaoyang","fullName":"Shaoyang","level":"city","boundaryRole":"administrative-extent","boundaryQuality":"generalized-source-2020","boundaryYearRepresented":"2020","bounds":[[109.81170654300001,25.97668457],[112.05511474600002,27.656494141]],"center":[110.93341064450001,26.8165893555],"centerMethod":"bounding-box midpoint; camera framing only","license":"CC-BY-3.0-IGO","attribution":"geoBoundaries / HDX, China administrative boundaries (2020)","source":{"provider":"geoBoundaries gbHumanitarian / HDX","url":"https://github.com/wmgeolab/geoBoundaries/raw/9469f09/releaseData/gbHumanitarian/CHN/ADM2/geoBoundaries-CHN-ADM2.geojson","metadataUrl":"https://www.geoboundaries.org/api/current/gbHumanitarian/CHN/ADM2/","shapeID":"99377448B12939555481154","shapeName":"Shaoyang","boundaryID":"CHN-ADM2-99377448","commit":"9469f09"},"geometryCounts":{"coordinates":189,"components":1,"holes":0},"boundaryNotice":"geoBoundaries / HDX 2020 年行政区数据，海岸和边界经过源数据概化，并非当前测绘成果。"},"geometry":{"type":"Polygon","coordinates":[[[112.05108642600001,27.194274902],[112.02130127,27.203674316],[112.01312255900001,27.238708496],[112.01007080100001,27.270690918],[111.98791503900001,27.296325684],[111.96411132800002,27.31652832],[111.929504395,27.345092773],[111.90008544900002,27.361328125],[111.86291503900001,27.392700195],[111.82672119100002,27.427307129],[111.79431152300002,27.458312988],[111.76330566400001,27.452514648],[111.73791503900001,27.469116211],[111.73791503900001,27.503112793],[111.70031738300001,27.510681152],[111.67108154300001,27.539489746],[111.63848877,27.597717285],[111.57489013700001,27.56652832],[111.53552246100001,27.61328125],[111.48791503900001,27.571289062],[111.45690918000001,27.5703125],[111.42431640600002,27.575927734],[111.38867187500001,27.556091309],[111.37512207000002,27.530517578],[111.32891845700001,27.513305664],[111.30468750000001,27.540100098],[111.28430175800001,27.574890137],[111.25207519500002,27.532470703],[111.20727539100001,27.514099121],[111.120910645,27.573486328],[111.07189941400001,27.584106445],[111.04968261700002,27.614685059],[111.02008056600002,27.627685547],[110.97528076200001,27.636291504],[110.93591308600001,27.650695801],[110.89868164100001,27.643676758],[110.84649658200001,27.656494141],[110.84649658200001,27.621704102],[110.82427978500002,27.597717285],[110.80249023400002,27.56628418],[110.77471923800002,27.544677734],[110.73211669900002,27.578674316],[110.70471191400001,27.603881836],[110.67047119100002,27.612121582],[110.628723145,27.585693359],[110.605285645,27.546508789],[110.59808349600002,27.511108398],[110.62030029300001,27.490722656],[110.64807128900001,27.469909668],[110.64270019500002,27.422729492],[110.63153076200001,27.385498047],[110.61267089800002,27.350708008],[110.59307861300002,27.307678223],[110.58447265600002,27.280700684],[110.54949951200001,27.276489258],[110.49627685500002,27.306518555],[110.44970703100002,27.268310547],[110.43371582000002,27.227905273],[110.40307617200001,27.20690918],[110.37591552700002,27.223083496],[110.33752441400001,27.221313477],[110.31488037100002,27.187927246],[110.28527832000002,27.171875],[110.23931884800001,27.163696289],[110.20147705100001,27.14831543],[110.18811035200001,27.115905762],[110.18090820300002,27.069091797],[110.14447021500001,27.064086914],[110.12072753900001,27.041687012],[110.11047363300001,27.006286621],[110.07629394500002,26.964477539],[110.06347656200002,26.927124023],[110.04888916000002,26.894104004],[110.03289794900002,26.842895508],[110.04107666000002,26.798095703],[110.04028320300002,26.764099121],[110.02587890600002,26.730712891],[110.00830078100002,26.70489502],[109.96173095700001,26.71307373],[109.91369628900001,26.730895996],[109.89929199200002,26.706115723],[109.87011718700002,26.688720703],[109.83227539100001,26.668701172],[109.81170654300001,26.642700195],[109.82910156200002,26.610717773],[109.83990478500002,26.580871582],[109.83312988300001,26.549316406],[109.85650634800001,26.514709473],[109.87371826200001,26.487670898],[109.90350341800001,26.504272461],[109.93029785200001,26.480529785],[109.94769287100002,26.446289062],[109.97387695300002,26.419921875],[109.99548339800002,26.39050293],[109.98828125000001,26.33392334],[109.99108886700002,26.294311523],[109.99670410200001,26.267089844],[109.96087646500001,26.18572998],[109.99609375000001,26.187683105],[110.05651855500001,26.166687012],[110.08367919900002,26.049072266],[110.12591552700002,26.032287598],[110.15692138700001,26.039672852],[110.17767334000001,26.065917969],[110.21588134800001,26.054504395],[110.23529052700002,26.006103516],[110.24951171900001,25.97668457],[110.27410888700001,25.982299805],[110.30828857400002,25.99029541],[110.33209228500002,26.024475098],[110.34692382800002,26.063293457],[110.38751220700001,26.146118164],[110.43847656200002,26.174072266],[110.49548339800002,26.190490723],[110.51428222700001,26.221923828],[110.51507568400001,26.254272461],[110.52111816400001,26.285705566],[110.53991699200002,26.301879883],[110.54309082000002,26.304504395],[110.57409668000001,26.313720703],[110.60729980500001,26.324523926],[110.64428710900002,26.330871582],[110.71368408200001,26.330078125],[110.74688720700001,26.264526367],[110.77612304700001,26.260070801],[110.82330322300001,26.261108398],[110.88153076200001,26.267272949],[110.88848877,26.277526855],[110.90252685500002,26.297912598],[110.91949462900001,26.381286621],[110.96868896500001,26.391113281],[110.97607421900001,26.38470459],[111.00952148400002,26.432922363],[111.03009033200001,26.471313477],[111.04388427700002,26.499084473],[111.04351806600002,26.547119141],[111.04010009800001,26.581298828],[111.06488037100002,26.619873047],[111.10913085900002,26.613525391],[111.10650634800001,26.57989502],[111.10589599600002,26.545715332],[111.14672851600001,26.475097656],[111.18389892600001,26.467285156],[111.23071289100001,26.467529297],[111.26727294900002,26.491088867],[111.26989746100001,26.528686523],[111.26470947300001,26.555480957],[111.25689697300001,26.588317871],[111.24487304700001,26.631286621],[111.25207519500002,26.673095703],[111.27148437500001,26.706298828],[111.29748535200001,26.735473633],[111.30688476600001,26.772277832],[111.30047607400002,26.809875488],[111.30169677700002,26.842285156],[111.31768798800002,26.872314453],[111.35028076200001,26.885498047],[111.37969970700001,26.873474121],[111.41467285200001,26.860473633],[111.44848632800002,26.853881836],[111.48107910200001,26.856506348],[111.51947021500001,26.849487305],[111.53710937500001,26.87689209],[111.53509521500001,26.905700684],[111.51531982400002,26.932495117],[111.54150390600002,26.950073242],[111.57592773400002,26.937072754],[111.613098145,26.962280273],[111.62310791000002,26.989685059],[111.64508056600002,27.031677246],[111.65332031200002,27.059509277],[111.69769287100002,27.065124512],[111.74389648400002,27.062072754],[111.78790283200001,27.046325684],[111.82727050800001,27.023925781],[111.85827636700002,26.991699219],[111.86688232400002,26.962097168],[111.87707519500002,26.92388916],[111.90472412100002,26.944091797],[111.94207763700001,26.939086914],[111.97088623000002,26.966308594],[111.99267578100002,26.986083984],[112.02648925800001,26.994506836],[112.054504395,27.008483887],[112.05511474600002,27.049682617],[112.04028320300002,27.073913574],[112.02929687500001,27.099487305],[112.02111816400001,27.145507812],[112.05108642600001,27.194274902]]]}}
