{"type":"Feature","id":"bulk-99377448B28963126457051","bbox":[92.17810058600001,28.120727539,98.76489257800002,30.672302246],"properties":{"id":"bulk-99377448B28963126457051","name":"Nyingchi","nameEn":"Nyingchi","fullName":"Nyingchi","level":"city","boundaryRole":"administrative-extent","boundaryQuality":"generalized-source-2020","boundaryYearRepresented":"2020","bounds":[[92.17810058600001,28.120727539],[98.76489257800002,30.672302246]],"center":[95.47149658200001,29.3965148925],"centerMethod":"bounding-box midpoint; camera framing only","license":"CC-BY-3.0-IGO","attribution":"geoBoundaries / HDX, China administrative boundaries (2020)","source":{"provider":"geoBoundaries gbHumanitarian / HDX","url":"https://github.com/wmgeolab/geoBoundaries/raw/9469f09/releaseData/gbHumanitarian/CHN/ADM2/geoBoundaries-CHN-ADM2.geojson","metadataUrl":"https://www.geoboundaries.org/api/current/gbHumanitarian/CHN/ADM2/","shapeID":"99377448B28963126457051","shapeName":"Nyingchi","boundaryID":"CHN-ADM2-99377448","commit":"9469f09"},"geometryCounts":{"coordinates":1190,"components":1,"holes":0},"boundaryNotice":"geoBoundaries / HDX 2020 年行政区数据，海岸和边界经过源数据概化，并非当前测绘成果。"},"geometry":{"type":"Polygon","coordinates":[[[98.72967529300001,28.426086426],[98.70428466800001,28.431091309],[98.66949462900001,28.445678711],[98.61688232400002,28.458312988],[98.59368896500001,28.466918945],[98.571289062,28.484313965],[98.54168701200001,28.512878418],[98.54028320300002,28.520690918],[98.53790283200001,28.528930664],[98.54272460900002,28.539123535],[98.55133056600002,28.543273926],[98.55468750000001,28.547485352],[98.54809570300002,28.558105469],[98.53948974600002,28.569519043],[98.51928710900002,28.580322266],[98.50048828100002,28.599487305],[98.48431396500001,28.631103516],[98.48010253900001,28.64630127],[98.48052978500002,28.669128418],[98.47552490200002,28.694091797],[98.47967529300001,28.705078125],[98.47930908200001,28.709472656],[98.47967529300001,28.717102051],[98.47412109400001,28.725097656],[98.45550537100002,28.762878418],[98.45007324200002,28.772094727],[98.43890380900001,28.776306152],[98.43707275400001,28.776916504],[98.41967773400002,28.775878906],[98.41088867200001,28.773925781],[98.39007568400001,28.765075684],[98.37731933600001,28.764282227],[98.370483398,28.768310547],[98.36590576200001,28.774719238],[98.35827636700002,28.784301758],[98.34948730500001,28.786499023],[98.33331298800002,28.792297363],[98.32531738300001,28.795898437],[98.32031250000001,28.799072266],[98.31628418000001,28.809875488],[98.31170654300001,28.833129883],[98.30468750000001,28.858886719],[98.29370117200001,28.876098633],[98.27850341800001,28.88269043],[98.26550293000001,28.888671875],[98.25811767600001,28.894287109],[98.25891113300001,28.895874023],[98.25927734400001,28.903503418],[98.25708007800002,28.906677246],[98.245117187,28.908508301],[98.24011230500001,28.913513184],[98.23748779300001,28.91809082],[98.23449707000002,28.920715332],[98.22851562500001,28.920288086],[98.22711181600002,28.915893555],[98.22888183600001,28.903320312],[98.22747802700002,28.897277832],[98.21008300800001,28.870117187],[98.20208740200002,28.861328125],[98.19049072300001,28.859680176],[98.17651367200001,28.862487793],[98.17291259800001,28.862304687],[98.16210937500001,28.859680176],[98.15130615200002,28.862487793],[98.145874023,28.865478516],[98.14569091800001,28.870483398],[98.14709472700001,28.87487793],[98.14849853500002,28.897705078],[98.14190673800002,28.90411377],[98.13592529300001,28.90612793],[98.13012695300002,28.907714844],[98.11029052700002,28.943481445],[98.09088134800001,28.966125488],[98.08673095700001,28.971679687],[98.086120605,28.980895996],[98.09490966800001,29.002502441],[98.08892822300001,29.014709473],[98.08587646500001,29.028076172],[98.08367919900002,29.033081055],[98.077514648,29.035095215],[98.06329345700001,29.029907227],[98.04870605500001,29.02911377],[98.04272460900002,29.032287598],[98.04010009800001,29.03729248],[98.03948974600002,29.043884277],[98.06530761700002,29.056274414],[98.09008789100001,29.083129883],[98.07568359400001,29.120910645],[98.04370117200001,29.12890625],[98.00592041000002,29.139526367],[97.95507812500001,29.110473633],[97.91668701200001,29.096496582],[97.87689209000001,29.089111328],[97.84387207000002,29.096679687],[97.82208252,29.122070312],[97.80688476600001,29.153503418],[97.79852294900002,29.181274414],[97.76727294900002,29.204711914],[97.73291015600002,29.230102539],[97.69152832000002,29.258911133],[97.663879395,29.27130127],[97.622070312,29.283325195],[97.57507324200002,29.278076172],[97.55047607400002,29.254699707],[97.53912353500002,29.223876953],[97.53369140600002,29.19708252],[97.54467773400002,29.160705566],[97.57391357400002,29.141113281],[97.57788085900002,29.113098145],[97.53552246100001,29.092102051],[97.502929687,29.088928223],[97.47070312500001,29.112487793],[97.46350097700001,29.141479492],[97.46447753900001,29.182922363],[97.46490478500002,29.225891113],[97.45172119100002,29.263916016],[97.43029785200001,29.29888916],[97.41687011700002,29.344726562],[97.40130615200002,29.373474121],[97.38031005900001,29.403503418],[97.38592529300001,29.434875488],[97.370483398,29.471679687],[97.33111572300001,29.472473145],[97.30352783200001,29.459716797],[97.27331543000001,29.446716309],[97.221679687,29.437316895],[97.17468261700002,29.431884766],[97.16772460900002,29.461914062],[97.13269043000001,29.495117187],[97.10913085900002,29.523498535],[97.08172607400002,29.503723145],[97.03228759800001,29.50567627],[96.99108886700002,29.489685059],[96.98468017600001,29.462280273],[96.95391845700001,29.440673828],[96.95971679700001,29.406494141],[96.99249267600001,29.39630127],[96.99810791000002,29.363891602],[96.99609375000001,29.319274902],[96.98449707000002,29.276916504],[96.99328613300001,29.244689941],[96.97851562500001,29.218688965],[96.94732666000002,29.173278809],[96.94110107400002,29.139099121],[96.90112304700001,29.122497559],[96.86871337900001,29.132873535],[96.83312988300001,29.156677246],[96.79827880900001,29.199279785],[96.77392578100002,29.224121094],[96.74890136700002,29.241088867],[96.71649169900002,29.24609375],[96.67449951200001,29.242126465],[96.65509033200001,29.265075684],[96.63671875000001,29.292297363],[96.61132812500001,29.321716309],[96.58172607400002,29.367126465],[96.57110595700001,29.395507812],[96.53588867200001,29.395324707],[96.495117187,29.395874023],[96.49090576200001,29.423278809],[96.47827148400002,29.460876465],[96.47412109400001,29.493896484],[96.49108886700002,29.517089844],[96.51611328100002,29.545715332],[96.54412841800001,29.576721191],[96.57568359400001,29.607910156],[96.59149169900002,29.632873535],[96.58892822300001,29.669677734],[96.57550048800002,29.694702148],[96.54931640600002,29.726501465],[96.52008056600002,29.757507324],[96.497070312,29.793273926],[96.50689697300001,29.821899414],[96.52789306600002,29.853515625],[96.54870605500001,29.883117676],[96.56652832000002,29.915100098],[96.571289062,29.957519531],[96.57891845700001,29.991271973],[96.62109375000001,29.996704102],[96.65850830100001,30.035095215],[96.66589355500001,30.066711426],[96.67547607400002,30.10168457],[96.66912841800001,30.146118164],[96.627929687,30.152099609],[96.59710693400001,30.1796875],[96.58587646500001,30.20690918],[96.58312988300001,30.240478516],[96.55969238300001,30.262084961],[96.52410888700001,30.253723145],[96.487304687,30.246520996],[96.47607421900001,30.272521973],[96.46588134800001,30.30670166],[96.43432617200001,30.331115723],[96.36767578100002,30.334899902],[96.32250976600001,30.310913086],[96.27532959000001,30.297485352],[96.245483398,30.285888672],[96.230285645,30.253295898],[96.21868896500001,30.227905273],[96.18408203100002,30.206481934],[96.14569091800001,30.195495605],[96.10211181600002,30.203491211],[96.08929443400001,30.23449707],[96.04870605500001,30.233886719],[96.00628662100002,30.225891113],[95.97210693400001,30.22467041],[95.94207763700001,30.244506836],[95.91467285200001,30.268676758],[95.887695312,30.293884277],[95.87750244100002,30.320678711],[95.86608886700002,30.351928711],[95.82269287100002,30.363098145],[95.80047607400002,30.387695312],[95.77447509800001,30.417480469],[95.75653076200001,30.442321777],[95.72711181600002,30.460083008],[95.704101562,30.486877441],[95.71392822300001,30.512329102],[95.71569824200002,30.544921875],[95.67749023400002,30.559692383],[95.64288330100001,30.561889648],[95.59448242200001,30.56829834],[95.553283691,30.585083008],[95.51708984400001,30.596313477],[95.46948242200001,30.608886719],[95.42749023400002,30.591308594],[95.40588378900001,30.570922852],[95.37310791000002,30.555114746],[95.33447265600002,30.564086914],[95.33868408200001,30.600708008],[95.35107421900001,30.633911133],[95.31610107400002,30.645507812],[95.28631591800001,30.660888672],[95.25030517600001,30.654907227],[95.22351074200002,30.63848877],[95.188476562,30.619689941],[95.17230224600002,30.644714355],[95.145080566,30.672302246],[95.10589599600002,30.667297363],[95.09967041000002,30.634277344],[95.11090087900001,30.602478027],[95.09967041000002,30.569885254],[95.05169677700002,30.555480957],[95.00207519500002,30.548095703],[94.96350097700001,30.546508789],[94.92327880900001,30.550109863],[94.87731933600001,30.575073242],[94.83868408200001,30.596130371],[94.80151367200001,30.613891602],[94.76287841800001,30.642272949],[94.72070312500001,30.661499023],[94.68389892600001,30.671081543],[94.64428710900002,30.65612793],[94.60028076200001,30.638122559],[94.55389404300001,30.621520996],[94.51251220700001,30.60369873],[94.48510742200001,30.588684082],[94.46887207000002,30.556518555],[94.43927002,30.535095215],[94.39971923800002,30.537719727],[94.38647460900002,30.5703125],[94.35852050800001,30.590698242],[94.32568359400001,30.580505371],[94.29412841800001,30.564880371],[94.24829101600001,30.541870117],[94.21130371100001,30.519714355],[94.17669677700002,30.502929687],[94.13012695300002,30.494506836],[94.14227294900002,30.458312988],[94.10412597700001,30.444702148],[94.11248779300001,30.413513184],[94.09448242200001,30.384887695],[94.05310058600001,30.379882812],[94.03247070300002,30.359130859],[94.03088378900001,30.330322266],[93.98791503900001,30.286499023],[93.94427490200002,30.292297363],[93.92370605500001,30.31628418],[93.89129638700001,30.32409668],[93.86291503900001,30.30267334],[93.82110595700001,30.301696777],[93.78930664100001,30.289672852],[93.75653076200001,30.277526855],[93.72308349600002,30.285095215],[93.69207763700001,30.276306152],[93.65631103500002,30.28527832],[93.62451171900001,30.274475098],[93.57470703100002,30.277709961],[93.54028320300002,30.29309082],[93.49688720700001,30.30847168],[93.45849609400001,30.313293457],[93.43151855500001,30.329101562],[93.429077148,30.376708984],[93.43170166000002,30.404296875],[93.41369628900001,30.442687988],[93.37347412100002,30.453918457],[93.33990478500002,30.473083496],[93.30731201200001,30.494689941],[93.268920898,30.490478516],[93.21411132800002,30.454101562],[93.18127441400001,30.418518066],[93.14807128900001,30.397277832],[93.121276855,30.426513672],[93.11669921900001,30.457885742],[93.10070800800001,30.485107422],[93.05767822300001,30.504089355],[93.03948974600002,30.527099609],[93.04388427700002,30.555480957],[93.02947998,30.585083008],[92.98468017600001,30.574707031],[92.961486816,30.596313477],[92.92370605500001,30.60369873],[92.90490722700001,30.571105957],[92.90411377,30.543884277],[92.87432861300002,30.532897949],[92.828308105,30.523071289],[92.80151367200001,30.50567627],[92.78167724600002,30.460327148],[92.79412841800001,30.428283691],[92.79412841800001,30.399475098],[92.76287841800001,30.372924805],[92.75152587900001,30.334899902],[92.71667480500001,30.329528809],[92.69927978500002,30.292297363],[92.63867187500001,30.292724609],[92.63830566400001,30.230712891],[92.63488769500002,30.18927002],[92.61291503900001,30.16192627],[92.55090332000002,30.122314453],[92.53088378900001,30.100524902],[92.49908447300001,30.096923828],[92.461914062,30.076293945],[92.46392822300001,30.044494629],[92.44830322300001,30.017700195],[92.41729736300002,29.998718262],[92.37451171900001,29.994689941],[92.34112548800002,30.016113281],[92.302490234,29.991516113],[92.27911377,29.968322754],[92.254882812,29.946472168],[92.22229003900001,29.926879883],[92.18450927700002,29.915527344],[92.17810058600001,29.887695312],[92.19671630900001,29.86529541],[92.24212646500001,29.837524414],[92.27728271500001,29.824523926],[92.32470703100002,29.808105469],[92.35668945300002,29.795898437],[92.37548828100002,29.789306641],[92.39270019500002,29.783325195],[92.43170166000002,29.77331543],[92.46789550800001,29.775085449],[92.49987793000001,29.769470215],[92.52508544900002,29.74029541],[92.53833007800002,29.708312988],[92.51849365200002,29.675292969],[92.49969482400002,29.644897461],[92.49328613300001,29.616088867],[92.50030517600001,29.580078125],[92.50567627,29.546325684],[92.54010009800001,29.559692383],[92.55828857400002,29.597106934],[92.57312011700002,29.625305176],[92.60229492200001,29.653320312],[92.63488769500002,29.65612793],[92.670898437,29.677307129],[92.70727539100001,29.68371582],[92.72290039100001,29.65612793],[92.75567627,29.640319824],[92.79248046900001,29.652282715],[92.82568359400001,29.659301758],[92.85888671900001,29.673278809],[92.905273437,29.696105957],[92.936096191,29.705505371],[92.96868896500001,29.68347168],[93.00567627,29.663879395],[93.01330566400001,29.620117187],[93.027526855,29.586730957],[93.06207275400001,29.5546875],[93.08807373,29.525878906],[93.10827636700002,29.495117187],[93.11108398400002,29.448486328],[93.10089111300002,29.408691406],[93.11010742200001,29.379882812],[93.13110351600001,29.34552002],[93.12072753900001,29.314086914],[93.08190918000001,29.291687012],[93.061523437,29.269104004],[93.03692627,29.234680176],[93.00952148400002,29.191711426],[92.98712158200001,29.160705566],[92.96252441400001,29.12310791],[92.93792724600002,29.105529785],[92.90631103500002,29.091674805],[92.86608886700002,29.079711914],[92.83807373,29.06072998],[92.81372070300002,29.02911377],[92.804504395,29.002929687],[92.79327392600001,28.968078613],[92.77667236300002,28.925720215],[92.75787353500002,28.901306152],[92.72808837900001,28.889892578],[92.701721191,28.869689941],[92.68292236300002,28.841491699],[92.66552734400001,28.800720215],[92.68627929700001,28.782897949],[92.69012451200001,28.77947998],[92.710693359,28.767700195],[92.73468017600001,28.751525879],[92.76129150400001,28.736877441],[92.78430175800001,28.716125488],[92.80548095700001,28.700317383],[92.83190918000001,28.692687988],[92.87591552700002,28.692687988],[92.90032959000001,28.699890137],[92.93792724600002,28.711303711],[92.96752929700001,28.727478027],[92.99047851600001,28.743286133],[93.003295898,28.74609375],[93.02368164100001,28.743713379],[93.06610107400002,28.737670898],[93.12188720700001,28.741882324],[93.15631103500002,28.745727539],[93.20288085900002,28.739929199],[93.25787353500002,28.74407959],[93.30810546900001,28.753723145],[93.35308837900001,28.759887695],[93.36370849600002,28.752685547],[93.36987304700001,28.743530273],[93.37847900400001,28.725524902],[93.386901855,28.722106934],[93.41009521500001,28.718322754],[93.44488525400001,28.703918457],[93.46612548800002,28.687927246],[93.49450683600001,28.676513672],[93.50048828100002,28.676513672],[93.51007080100001,28.67791748],[93.56829834000001,28.686096191],[93.59411621100001,28.684509277],[93.60589599600002,28.686279297],[93.61651611300002,28.68548584],[93.64111328100002,28.676879883],[93.65032959000001,28.676330566],[93.65393066400001,28.676086426],[93.66271972700001,28.673706055],[93.67291259800001,28.674316406],[93.68072509800001,28.677307129],[93.686889648,28.684509277],[93.68872070300002,28.698120117],[93.69067382800002,28.701293945],[93.70770263700001,28.703308105],[93.722473145,28.691101074],[93.73132324200002,28.68951416],[93.74267578100002,28.692077637],[93.76147460900002,28.704711914],[93.76452636700002,28.706726074],[93.826721191,28.764282227],[93.83892822300001,28.768676758],[93.86108398400002,28.770874023],[93.87487793000001,28.770874023],[93.88549804700001,28.770874023],[93.90930175800001,28.767700195],[93.93011474600002,28.766906738],[93.94067382800002,28.772094727],[93.94610595700001,28.776489258],[93.95111084000001,28.784484863],[93.952514648,28.794677734],[93.93548584000001,28.810119629],[93.93048095700001,28.819091797],[93.929504395,28.826293945],[93.93072509800001,28.827880859],[93.93267822300001,28.830871582],[93.93792724600002,28.834472656],[93.94927978500002,28.834472656],[93.96691894500002,28.845703125],[93.97607421900001,28.84588623],[93.99212646500001,28.838684082],[94.00427246100001,28.841491699],[94.01348877,28.847106934],[94.02288818400001,28.856872559],[94.03588867200001,28.862121582],[94.04388427700002,28.863525391],[94.04992675800001,28.867492676],[94.05230712900001,28.870727539],[94.05749511700002,28.878112793],[94.05651855500001,28.894470215],[94.03308105500001,28.967712402],[94.04290771500001,28.980285645],[94.052124023,28.985473633],[94.053283691,28.986083984],[94.078674316,28.987304687],[94.095092773,28.980285645],[94.12548828100002,28.955078125],[94.13189697300001,28.953918457],[94.13568115200002,28.955078125],[94.13928222700001,28.966125488],[94.143920898,28.972106934],[94.16351318400001,28.985717773],[94.16607666000002,28.987487793],[94.177124023,29.003295898],[94.18548584000001,29.023498535],[94.19488525400001,29.040893555],[94.20892334000001,29.056884766],[94.21649169900002,29.070129395],[94.22509765600002,29.079528809],[94.24029541000002,29.090087891],[94.24407959000001,29.092712402],[94.262695312,29.111694336],[94.26593017600001,29.11328125],[94.27532959000001,29.128723145],[94.28833007800002,29.138122559],[94.31091308600001,29.147888184],[94.33551025400001,29.146911621],[94.34210205100001,29.145080566],[94.355285645,29.145080566],[94.35748291000002,29.145324707],[94.36511230500001,29.148925781],[94.37109375000001,29.155700684],[94.38128662100002,29.175109863],[94.38952636700002,29.185302734],[94.40570068400001,29.19708252],[94.42388916000002,29.214111328],[94.43151855500001,29.216674805],[94.43969726600001,29.217285156],[94.44909668000001,29.213928223],[94.461120605,29.215881348],[94.48291015600002,29.228088379],[94.493530273,29.231079102],[94.50567627,29.230102539],[94.53009033200001,29.223510742],[94.53387451200001,29.223510742],[94.543518066,29.223693848],[94.55151367200001,29.228088379],[94.55987548800002,29.238098145],[94.57067871100001,29.254516602],[94.587280273,29.270080566],[94.61132812500001,29.283081055],[94.61688232400002,29.286682129],[94.62310791000002,29.293884277],[94.63507080100001,29.296081543],[94.65447998,29.305114746],[94.66412353500002,29.303100586],[94.68170166000002,29.312072754],[94.69152832000002,29.312072754],[94.70092773400002,29.307678223],[94.71008300800001,29.295471191],[94.72229003900001,29.289672852],[94.72808837900001,29.283691406],[94.73388671900001,29.271118164],[94.73608398400002,29.268127441],[94.74230957000002,29.260070801],[94.74810791000002,29.238098145],[94.75769043000001,29.227294922],[94.76770019500002,29.222106934],[94.79327392600001,29.215087891],[94.79571533200001,29.210876465],[94.79748535200001,29.194885254],[94.79632568400001,29.182678223],[94.79748535200001,29.173278809],[94.80029296900001,29.17010498],[94.80151367200001,29.168701172],[94.80511474600002,29.167114258],[94.828674316,29.179077148],[94.85150146500001,29.181274414],[94.87408447300001,29.180725098],[94.88751220700001,29.177124023],[94.89929199200002,29.169921875],[94.91052246100001,29.159301758],[94.91949462900001,29.158081055],[94.93029785200001,29.159729004],[94.94171142600001,29.161315918],[94.95611572300001,29.161315918],[94.970092773,29.156921387],[94.97491455100001,29.152709961],[94.98950195300002,29.140319824],[95.00012207000002,29.134277344],[95.00750732400002,29.129882812],[95.01611328100002,29.128479004],[95.01910400400001,29.13269043],[95.00988769500002,29.145324707],[95.00311279300001,29.166687012],[95.02691650400001,29.158691406],[95.03350830100001,29.15411377],[95.04449462900001,29.152709961],[95.05010986300002,29.151916504],[95.06427002,29.145080566],[95.08587646500001,29.145690918],[95.09252929700001,29.144287109],[95.09948730500001,29.139709473],[95.10949707000002,29.123901367],[95.111877441,29.112915039],[95.10913085900002,29.107299805],[95.10229492200001,29.101928711],[95.10327148400002,29.097900391],[95.10571289100001,29.09588623],[95.12329101600001,29.090270996],[95.13189697300001,29.090881348],[95.14068603500002,29.091674805],[95.16290283200001,29.100280762],[95.17572021500001,29.103271484],[95.18389892600001,29.103271484],[95.20709228500002,29.108886719],[95.21551513700001,29.108276367],[95.22369384800001,29.104675293],[95.237670898,29.090698242],[95.244689941,29.087097168],[95.25708007800002,29.075317383],[95.25848388700001,29.073913574],[95.26147460900002,29.072875977],[95.268920898,29.076477051],[95.26849365200002,29.099304199],[95.27532959000001,29.114074707],[95.30169677700002,29.14050293],[95.30688476600001,29.14050293],[95.31628418000001,29.132507324],[95.32208252,29.132873535],[95.33312988300001,29.137084961],[95.34271240200002,29.137084961],[95.38708496100001,29.137084961],[95.40087890600002,29.127929687],[95.40649414100001,29.127685547],[95.40991210900002,29.13470459],[95.40948486300002,29.142883301],[95.41448974600002,29.152709961],[95.41790771500001,29.164916992],[95.41687011700002,29.174316406],[95.42211914100001,29.182495117],[95.43048095700001,29.188110352],[95.436096191,29.191711426],[95.45288085900002,29.18927002],[95.45788574200002,29.18347168],[95.45208740200002,29.168884277],[95.45349121100001,29.155517578],[95.45831298800002,29.141296387],[95.46252441400001,29.139892578],[95.47772216800001,29.145324707],[95.48370361300002,29.144104004],[95.495910645,29.13470459],[95.503295898,29.131713867],[95.50970459000001,29.138305664],[95.51330566400001,29.151123047],[95.51232910200001,29.164306641],[95.50610351600001,29.180114746],[95.50128173800002,29.185913086],[95.50750732400002,29.190917969],[95.51568603500002,29.190673828],[95.553283691,29.179321289],[95.56707763700001,29.176513672],[95.576721191,29.1796875],[95.58148193400001,29.182678223],[95.58807373,29.186706543],[95.60107421900001,29.191711426],[95.60589599600002,29.197692871],[95.59887695300002,29.205688477],[95.59790039100001,29.210083008],[95.59887695300002,29.21270752],[95.595092773,29.22668457],[95.60150146500001,29.231872559],[95.61010742200001,29.235107422],[95.61608886700002,29.234130859],[95.62628173800002,29.229675293],[95.643127441,29.215698242],[95.64971923800002,29.214904785],[95.65869140600002,29.221496582],[95.661499023,29.223510742],[95.6875,29.227722168],[95.69848632800002,29.224304199],[95.70367431600002,29.219299316],[95.70489502,29.211486816],[95.70849609400001,29.207092285],[95.72772216800001,29.219482422],[95.737304687,29.216918945],[95.74212646500001,29.218078613],[95.74389648400002,29.22088623],[95.74328613300001,29.225280762],[95.729492187,29.23651123],[95.72851562500001,29.24230957],[95.73132324200002,29.247314453],[95.74572753900001,29.27130127],[95.746276855,29.286682129],[95.738098145,29.299316406],[95.74310302700002,29.309082031],[95.75848388700001,29.318115234],[95.80090332000002,29.336303711],[95.80169677700002,29.336730957],[95.81488037100002,29.345703125],[95.82287597700001,29.348327637],[95.83447265600002,29.344299316],[95.84027099600002,29.334472656],[95.83911132800002,29.32611084],[95.84332275400001,29.319274902],[95.84869384800001,29.316101074],[95.85510253900001,29.315917969],[95.86389160200001,29.317871094],[95.87408447300001,29.313903809],[95.886108398,29.327514648],[95.90667724600002,29.335510254],[95.92132568400001,29.341308594],[95.93109130900001,29.346496582],[95.937683105,29.356323242],[95.94891357400002,29.362121582],[95.95367431600002,29.362915039],[95.96588134800001,29.368896484],[95.97552490200002,29.371887207],[95.98211669900002,29.371887207],[95.99407959000001,29.367126465],[95.99871826200001,29.367126465],[96.01049804700001,29.377685547],[96.01647949200002,29.394714355],[96.01989746100001,29.404724121],[96.04492187500001,29.434692383],[96.06072998,29.448730469],[96.06549072300001,29.450683594],[96.087280273,29.453491211],[96.09808349600002,29.452514648],[96.10791015600002,29.44732666],[96.11511230500001,29.433288574],[96.118530273,29.426330566],[96.12707519500002,29.414123535],[96.14208984400001,29.40447998],[96.14208984400001,29.401123047],[96.17968750000001,29.355529785],[96.1875,29.343078613],[96.19049072300001,29.329284668],[96.19091796900001,29.327697754],[96.18908691400001,29.312072754],[96.19067382800002,29.304870605],[96.19787597700001,29.297485352],[96.21527099600002,29.269287109],[96.22650146500001,29.260070801],[96.23547363300001,29.249328613],[96.25189209000001,29.235900879],[96.25988769500002,29.234680176],[96.26672363300001,29.236694336],[96.27532959000001,29.239318848],[96.29290771500001,29.236083984],[96.29949951200001,29.238708496],[96.30609130900001,29.250488281],[96.31311035200001,29.257324219],[96.320129395,29.259521484],[96.34088134800001,29.262329102],[96.34771728500002,29.265075684],[96.36187744100002,29.283874512],[96.37567138700001,29.283325195],[96.37689209000001,29.27911377],[96.37951660200001,29.276672363],[96.38287353500002,29.27331543],[96.38470459000001,29.267089844],[96.394714355,29.25592041],[96.39672851600001,29.25189209],[96.39508056600002,29.244873047],[96.38348388700001,29.230102539],[96.37927246100001,29.221496582],[96.36627197300001,29.211486816],[96.36328125000001,29.203674316],[96.36248779300001,29.186706543],[96.35772705100001,29.181091309],[96.34588623,29.174072266],[96.34332275400001,29.173706055],[96.30548095700001,29.167907715],[96.28869628900001,29.162902832],[96.27947998,29.162475586],[96.26312255900001,29.166320801],[96.25769043000001,29.16607666],[96.25067138700001,29.161315918],[96.24011230500001,29.14831543],[96.22851562500001,29.150085449],[96.22308349600002,29.146911621],[96.22070312500001,29.137695312],[96.21667480500001,29.122680664],[96.19952392600001,29.094299316],[96.19091796900001,29.091308594],[96.17889404300001,29.092285156],[96.16967773400002,29.089904785],[96.15911865200002,29.084899902],[96.12927246100001,29.081481934],[96.12451171900001,29.076721191],[96.13330078100002,29.073730469],[96.14111328100002,29.071105957],[96.15447998,29.057922363],[96.16510009800001,29.034301758],[96.16729736300002,29.023681641],[96.179870605,29.009887695],[96.19268798800002,28.987670898],[96.19232177700002,28.979675293],[96.18670654300001,28.97088623],[96.18267822300001,28.969482422],[96.18231201200001,28.96887207],[96.17932128900001,28.965515137],[96.16027832000002,28.959899902],[96.155273437,28.954101562],[96.15692138700001,28.939880371],[96.15411377,28.931274414],[96.15710449200002,28.925292969],[96.16912841800001,28.914489746],[96.17327880900001,28.902526855],[96.17852783200001,28.90032959],[96.18951416000002,28.900695801],[96.20111084000001,28.911315918],[96.21087646500001,28.916320801],[96.23168945300002,28.926696777],[96.30249023400002,28.995300293],[96.31127929700001,29.005310059],[96.32147216800001,29.016906738],[96.33447265600002,29.021118164],[96.34613037100002,29.032287598],[96.35388183600001,29.037109375],[96.38952636700002,29.040527344],[96.42108154300001,29.039672852],[96.43151855500001,29.038085937],[96.43969726600001,29.038696289],[96.44348144500002,29.038879395],[96.45672607400002,29.046081543],[96.47052002,29.056518555],[96.50811767600001,29.075500488],[96.51550293000001,29.075317383],[96.51947021500001,29.069885254],[96.51812744100002,29.062072754],[96.50030517600001,29.031494141],[96.49749755900001,29.026489258],[96.48370361300002,28.995483398],[96.48107910200001,28.982299805],[96.49407959000001,28.961914062],[96.49688720700001,28.960083008],[96.50469970700001,28.959716797],[96.51788330100001,28.965515137],[96.52130127,28.959472656],[96.51910400400001,28.951721191],[96.519714355,28.942871094],[96.52288818400001,28.939880371],[96.53491210900002,28.929077148],[96.54150390600002,28.916687012],[96.54229736300002,28.906921387],[96.53930664100001,28.894897461],[96.54248046900001,28.87890625],[96.57427978500002,28.833496094],[96.57708740200002,28.828308105],[96.58087158200001,28.821289062],[96.59429931600002,28.809692383],[96.60913085900002,28.800292969],[96.61828613300001,28.789489746],[96.62268066400001,28.780090332],[96.62231445300002,28.769287109],[96.61669921900001,28.748474121],[96.60809326200001,28.732910156],[96.60308837900001,28.726318359],[96.59887695300002,28.723327637],[96.58911132800002,28.716308594],[96.56372070300002,28.705871582],[96.55511474600002,28.708496094],[96.54870605500001,28.712890625],[96.53851318400001,28.715087891],[96.53167724600002,28.714111328],[96.51989746100001,28.703918457],[96.50689697300001,28.688476562],[96.49792480500001,28.682678223],[96.479492187,28.681884766],[96.47607421900001,28.68170166],[96.47290039100001,28.679321289],[96.47369384800001,28.670288086],[96.49072265600002,28.653320312],[96.49468994100002,28.639709473],[96.48791503900001,28.627929687],[96.47027587900001,28.615722656],[96.44848632800002,28.597717285],[96.43371582000002,28.582519531],[96.42449951200001,28.578308105],[96.41528320300002,28.587280273],[96.40850830100001,28.58190918],[96.41589355500001,28.570678711],[96.41571044900002,28.56628418],[96.40631103500002,28.561096191],[96.39691162100002,28.56048584],[96.38012695300002,28.551879883],[96.36968994100002,28.54888916],[96.35607910200001,28.548706055],[96.34967041000002,28.54510498],[96.34307861300002,28.53692627],[96.33367919900002,28.529907227],[96.33172607400002,28.524475098],[96.33587646500001,28.51751709],[96.35870361300002,28.501281738],[96.370117187,28.483886719],[96.36627197300001,28.475708008],[96.33648681600002,28.456726074],[96.30310058600001,28.431091309],[96.29827880900001,28.427490234],[96.278320312,28.415100098],[96.27111816400001,28.407470703],[96.27569580100001,28.40447998],[96.28527832000002,28.406677246],[96.30169677700002,28.40447998],[96.31207275400001,28.397888184],[96.32067871100001,28.38269043],[96.32769775400001,28.38067627],[96.35589599600002,28.387878418],[96.35711669900002,28.388305664],[96.37188720700001,28.388305664],[96.37670898400002,28.382507324],[96.37652587900001,28.367919922],[96.379089355,28.362915039],[96.38568115200002,28.361328125],[96.38909912100002,28.357116699],[96.39288330100001,28.346496582],[96.39770507800002,28.341918945],[96.41430664100001,28.343322754],[96.42687988300001,28.346679687],[96.43249511700002,28.355712891],[96.43530273400002,28.37487793],[96.437683105,28.390319824],[96.44427490200002,28.398925781],[96.46270752,28.414672852],[96.47570800800001,28.419494629],[96.50567627,28.415893555],[96.51788330100001,28.416687012],[96.53350830100001,28.422912598],[96.54449462900001,28.430725098],[96.58087158200001,28.456481934],[96.59149169900002,28.460083008],[96.59912109400001,28.458679199],[96.60888671900001,28.452880859],[96.61547851600001,28.452270508],[96.62347412100002,28.457885742],[96.63629150400001,28.454284668],[96.65612793000001,28.455688477],[96.67071533200001,28.452087402],[96.67810058600001,28.448913574],[96.69873046900001,28.432312012],[96.70910644500002,28.42590332],[96.74407959000001,28.414306641],[96.75512695300002,28.404907227],[96.76208496100001,28.389526367],[96.76330566400001,28.376098633],[96.76531982400002,28.369689941],[96.76550293000001,28.36907959],[96.770874023,28.363891602],[96.77850341800001,28.36151123],[96.80047607400002,28.363525391],[96.81091308600001,28.359924316],[96.82312011700002,28.360900879],[96.82989502,28.357910156],[96.83807373,28.357299805],[96.84289550800001,28.355285645],[96.84948730500001,28.355712891],[96.862304687,28.366882324],[96.870483398,28.366271973],[96.88452148400002,28.373718262],[96.89447021500001,28.373718262],[96.90850830100001,28.368896484],[96.91571044900002,28.362121582],[96.91827392600001,28.350708008],[96.92749023400002,28.342102051],[96.972473145,28.328674316],[96.98272705100001,28.328491211],[97.003295898,28.318725586],[97.01312255900001,28.318481445],[97.01489257800002,28.318481445],[97.02392578100002,28.321105957],[97.062316895,28.346496582],[97.078125,28.360717773],[97.09051513700001,28.368530273],[97.11932373,28.370727539],[97.13629150400001,28.369689941],[97.14752197300001,28.364074707],[97.15270996100001,28.350708008],[97.15551757800002,28.33770752],[97.16107177700002,28.334472656],[97.17730712900001,28.335510254],[97.18408203100002,28.334289551],[97.18988037100002,28.328918457],[97.194702148,28.315490723],[97.20452880900001,28.30871582],[97.22271728500002,28.311889648],[97.22967529300001,28.310302734],[97.23431396500001,28.30670166],[97.23791503900001,28.284729004],[97.24249267600001,28.276672363],[97.25750732400002,28.263122559],[97.29107666000002,28.239929199],[97.30889892600001,28.231506348],[97.31591796900001,28.225708008],[97.327514648,28.219116211],[97.33050537100002,28.217529297],[97.34710693400001,28.208129883],[97.34588623,28.216125488],[97.34887695300002,28.225280762],[97.34967041000002,28.240722656],[97.35571289100001,28.24230957],[97.36712646500001,28.243286133],[97.370117187,28.242492676],[97.37292480500001,28.239074707],[97.38067627,28.23828125],[97.39569091800001,28.241516113],[97.40612793000001,28.249694824],[97.40911865200002,28.24987793],[97.41369628900001,28.252929687],[97.41430664100001,28.254089355],[97.41247558600001,28.261901855],[97.40112304700001,28.272888184],[97.40112304700001,28.282287598],[97.40447998,28.287109375],[97.41192627,28.291503906],[97.41369628900001,28.295471191],[97.42492675800001,28.297912598],[97.43151855500001,28.290710449],[97.44067382800002,28.282470703],[97.44207763700001,28.281677246],[97.44787597700001,28.287475586],[97.47210693400001,28.279907227],[97.47387695300002,28.282470703],[97.47827148400002,28.283508301],[97.47308349600002,28.289672852],[97.46588134800001,28.296875],[97.47027587900001,28.300292969],[97.48309326200001,28.304077148],[97.48828125000001,28.300476074],[97.48907470700001,28.296081543],[97.49487304700001,28.297912598],[97.50231933600001,28.310302734],[97.50708007800002,28.311096191],[97.504882812,28.313720703],[97.50268554700001,28.31451416],[97.50109863300001,28.325683594],[97.50787353500002,28.336303711],[97.50811767600001,28.341674805],[97.50347900400001,28.343078613],[97.49847412100002,28.346679687],[97.49847412100002,28.358703613],[97.49188232400002,28.364074707],[97.495910645,28.372924805],[97.50207519500002,28.374511719],[97.51330566400001,28.381286621],[97.51348877,28.393920898],[97.518920898,28.400512695],[97.51428222700001,28.407287598],[97.51049804700001,28.40612793],[97.50512695300002,28.407714844],[97.51147460900002,28.419311523],[97.51232910200001,28.42791748],[97.52410888700001,28.433898926],[97.51208496100001,28.448120117],[97.50970459000001,28.452087402],[97.50952148400002,28.457885742],[97.504089355,28.465881348],[97.503295898,28.46887207],[97.50567627,28.476928711],[97.503723145,28.487915039],[97.49987793000001,28.49230957],[97.50189209000001,28.494873047],[97.51092529300001,28.496520996],[97.51708984400001,28.493103027],[97.52148437500001,28.492492676],[97.52368164100001,28.49609375],[97.52069091800001,28.500305176],[97.52069091800001,28.503479004],[97.52429199200002,28.506713867],[97.53491210900002,28.50769043],[97.53851318400001,28.512878418],[97.53588867200001,28.521728516],[97.53833007800002,28.523498535],[97.54571533200001,28.527099609],[97.55310058600001,28.53112793],[97.55529785200001,28.534912109],[97.56591796900001,28.546508789],[97.58068847700001,28.547912598],[97.58392334000001,28.54309082],[97.59069824200002,28.539306641],[97.59588623,28.531677246],[97.59631347700001,28.528930664],[97.595092773,28.522277832],[97.61450195300002,28.529907227],[97.62030029300001,28.522521973],[97.62530517600001,28.525085449],[97.62487793000001,28.527709961],[97.62670898400002,28.531677246],[97.63311767600001,28.53692627],[97.63647460900002,28.535522461],[97.64489746100001,28.535522461],[97.65130615200002,28.538879395],[97.65209960900002,28.541870117],[97.66369628900001,28.538513184],[97.66772460900002,28.524902344],[97.67108154300001,28.525085449],[97.67211914100001,28.524291992],[97.68029785200001,28.524719238],[97.68908691400001,28.520690918],[97.69030761700002,28.518493652],[97.69067382800002,28.507507324],[97.69909668000001,28.503479004],[97.70489502,28.502685547],[97.71209716800001,28.50189209],[97.722473145,28.495727539],[97.72387695300002,28.492492676],[97.72387695300002,28.491271973],[97.74768066400001,28.479675293],[97.74432373,28.452880859],[97.74890136700002,28.414916992],[97.796875,28.346130371],[97.81170654300001,28.33392334],[97.81787109400001,28.334899902],[97.821289062,28.33392334],[97.82409668000001,28.329528809],[97.83709716800001,28.330078125],[97.84228515600002,28.328674316],[97.84771728500002,28.335083008],[97.84411621100001,28.347106934],[97.84429931600002,28.351318359],[97.85870361300002,28.356872559],[97.86010742200001,28.360473633],[97.86749267600001,28.365722656],[97.87249755900001,28.367492676],[97.87548828100002,28.367492676],[97.87731933600001,28.365905762],[97.886901855,28.365905762],[97.90612793000001,28.36907959],[97.90887451200001,28.368286133],[97.91369628900001,28.362487793],[97.91412353500002,28.357727051],[97.92810058600001,28.343688965],[97.937683105,28.339904785],[97.93811035200001,28.335693359],[97.94067382800002,28.330688477],[97.94671630900001,28.326477051],[97.95788574200002,28.326293945],[97.960327148,28.324523926],[97.96008300800001,28.321105957],[97.95812988300001,28.312683105],[97.95349121100001,28.306274414],[97.95928955100001,28.298278809],[97.96612548800002,28.29510498],[97.97509765600002,28.295288086],[97.98889160200001,28.293518066],[97.99407959000001,28.289123535],[97.99371337900001,28.284912109],[97.99829101600001,28.280517578],[98.00732421900001,28.276916504],[98.01171875000001,28.273681641],[98.01470947300001,28.266296387],[98.020507812,28.258300781],[98.02307128900001,28.249511719],[98.02349853500002,28.245483398],[98.01611328100002,28.245910645],[98.011901855,28.230529785],[98.03387451200001,28.190673828],[98.03509521500001,28.190490723],[98.04492187500001,28.191711426],[98.05187988300001,28.190490723],[98.05169677700002,28.194274902],[98.04931640600002,28.197875977],[98.05010986300002,28.203674316],[98.054870605,28.204711914],[98.06427002,28.204101562],[98.07672119100002,28.206481934],[98.08068847700001,28.205505371],[98.08990478500002,28.198913574],[98.09191894500002,28.191711426],[98.08972168000001,28.18548584],[98.09210205100001,28.178710937],[98.10668945300002,28.17590332],[98.14447021500001,28.168884277],[98.18109130900001,28.144287109],[98.18109130900001,28.145874023],[98.18951416000002,28.160095215],[98.20269775400001,28.192871094],[98.21087646500001,28.200073242],[98.22467041000002,28.204284668],[98.25610351600001,28.209289551],[98.28552246100001,28.243896484],[98.27770996100001,28.270874023],[98.25549316400001,28.303894043],[98.24151611300002,28.35369873],[98.23547363300001,28.382873535],[98.27490234400001,28.388671875],[98.31048584000001,28.408874512],[98.33508300800001,28.411071777],[98.35510253900001,28.385314941],[98.38427734400001,28.31427002],[98.41088867200001,28.262878418],[98.40612793000001,28.215698242],[98.41271972700001,28.120727539],[98.46929931600002,28.12109375],[98.52612304700001,28.159301758],[98.57391357400002,28.195678711],[98.63287353500002,28.179077148],[98.68530273400002,28.158081055],[98.68811035200001,28.164123535],[98.72790527300002,28.22869873],[98.76489257800002,28.317077637],[98.75531005900001,28.390075684],[98.72967529300001,28.426086426]]]}}
