{"type":"Feature","id":"bulk-99377448B46300266163068","bbox":[100.53387451200001,30.613525391,104.43627929700001,34.301086426],"properties":{"id":"bulk-99377448B46300266163068","name":"Ngawa Tibetan and Qiang Autonomous Prefecture","nameEn":"Ngawa Tibetan and Qiang Autonomous Prefecture","fullName":"Ngawa Tibetan and Qiang Autonomous Prefecture","level":"city","boundaryRole":"administrative-extent","boundaryQuality":"generalized-source-2020","boundaryYearRepresented":"2020","bounds":[[100.53387451200001,30.613525391],[104.43627929700001,34.301086426]],"center":[102.4850769045,32.4573059085],"centerMethod":"bounding-box midpoint; camera framing only","license":"CC-BY-3.0-IGO","attribution":"geoBoundaries / HDX, China administrative boundaries (2020)","source":{"provider":"geoBoundaries gbHumanitarian / HDX","url":"https://github.com/wmgeolab/geoBoundaries/raw/9469f09/releaseData/gbHumanitarian/CHN/ADM2/geoBoundaries-CHN-ADM2.geojson","metadataUrl":"https://www.geoboundaries.org/api/current/gbHumanitarian/CHN/ADM2/","shapeID":"99377448B46300266163068","shapeName":"Ngawa Tibetan and Qiang Autonomous Prefecture","boundaryID":"CHN-ADM2-99377448","commit":"9469f09"},"geometryCounts":{"coordinates":442,"components":1,"holes":0},"boundaryNotice":"geoBoundaries / HDX 2020 年行政区数据，海岸和边界经过源数据概化，并非当前测绘成果。"},"geometry":{"type":"Polygon","coordinates":[[[103.80548095700001,31.460693359],[103.81567382800002,31.489929199],[103.83508300800001,31.513305664],[103.86291503900001,31.564697266],[103.89587402300002,31.600280762],[103.93609619100002,31.629272461],[103.96472168000001,31.651123047],[104.00427246100001,31.6796875],[104.03552246100001,31.69128418],[104.07189941400001,31.693115234],[104.11828613300001,31.697692871],[104.15411377,31.717712402],[104.17687988300001,31.739929199],[104.16992187500001,31.775085449],[104.13610839800002,31.797912598],[104.11651611300002,31.822875977],[104.07550048800002,31.832519531],[104.04248046900001,31.843322754],[104.00067138700001,31.859924316],[103.96710205100001,31.874328613],[103.96173095700001,31.905517578],[103.94250488300001,31.932128906],[103.90130615200002,31.930297852],[103.86389160200001,31.92590332],[103.82867431600002,31.9375],[103.79168701200001,31.937927246],[103.75732421900001,31.952697754],[103.75512695300002,31.98449707],[103.77612304700001,32.013916016],[103.80212402300002,32.037109375],[103.83050537100002,32.0546875],[103.83111572300001,32.097106934],[103.81451416000002,32.134887695],[103.85668945300002,32.138122559],[103.88067627,32.162109375],[103.93670654300001,32.160095215],[103.96807861300002,32.152099609],[104.00610351600001,32.142272949],[104.03448486300002,32.127685547],[104.06970214800002,32.135925293],[104.10607910200001,32.127075195],[104.14788818400001,32.14630127],[104.17828369100002,32.159729004],[104.18908691400001,32.191711426],[104.21447753900001,32.208679199],[104.25067138700001,32.218688965],[104.23468017600001,32.246887207],[104.21948242200001,32.270874023],[104.21807861300002,32.301086426],[104.18328857400002,32.295898437],[104.16748046900001,32.265319824],[104.15368652300002,32.240112305],[104.12072753900001,32.225708008],[104.078125,32.230712891],[104.03967285200001,32.25012207],[104.01751709000001,32.271728516],[103.99731445300002,32.298522949],[103.95727539100001,32.312316895],[103.92828369100002,32.328674316],[103.90930175800001,32.350280762],[103.90728759800001,32.392883301],[103.91607666000002,32.434082031],[103.920898437,32.47052002],[103.91510009800001,32.498474121],[103.89312744100002,32.525085449],[103.87371826200001,32.55267334],[103.84991455100001,32.571289062],[103.85131835900002,32.607727051],[103.89532470700001,32.634094238],[103.94427490200002,32.644287109],[103.97650146500001,32.649108887],[104.01208496100001,32.65032959],[104.04748535200001,32.645080566],[104.07409668000001,32.613525391],[104.08569335900002,32.58807373],[104.10552978500002,32.555908203],[104.12628173800002,32.532897949],[104.12951660200001,32.498474121],[104.11108398400002,32.468078613],[104.16131591800001,32.465087891],[104.17547607400002,32.49432373],[104.17590332000002,32.537902832],[104.17871093700002,32.56652832],[104.17669677700002,32.601318359],[104.179504395,32.628112793],[104.18408203100002,32.66027832],[104.16448974600002,32.696716309],[104.13970947300001,32.725708008],[104.15069580100001,32.757080078],[104.13970947300001,32.796875],[104.10809326200001,32.818725586],[104.09527587900001,32.844482422],[104.06072998000002,32.840698242],[104.03369140600002,32.824523926],[103.99548339800002,32.814086914],[103.96868896500001,32.834106445],[103.99267578100002,32.862121582],[103.97790527300002,32.88848877],[103.97290039100001,32.937927246],[103.98052978500002,32.973083496],[103.98547363300001,33.002502441],[103.98010253900001,33.035888672],[104.01892089800002,33.042297363],[104.04589843700002,33.017272949],[104.07928466800001,33.00970459],[104.11492919900002,32.99987793],[104.15148925800001,32.961486816],[104.171691895,32.938903809],[104.21112060500002,32.911682129],[104.24407959000001,32.894897461],[104.29248046900001,32.892272949],[104.28729248000002,32.907287598],[104.36529541000002,32.955322266],[104.39147949200002,32.939697266],[104.42492675800001,32.989074707],[104.41467285200001,33.026916504],[104.370910645,33.045288086],[104.35467529300001,33.058898926],[104.38391113300001,33.109130859],[104.35571289100001,33.184082031],[104.32128906200002,33.284729004],[104.34448242200001,33.297912598],[104.42150878900001,33.289306641],[104.43627929700001,33.312072754],[104.38049316400001,33.330078125],[104.328125,33.329528809],[104.27691650400001,33.372314453],[104.22692871100001,33.399291992],[104.20007324200002,33.450500488],[104.18988037100002,33.51751709],[104.18151855500001,33.57208252],[104.05548095700001,33.679870605],[104.05151367200001,33.683288574],[104.02050781200002,33.687072754],[104.00592041000002,33.677490234],[103.90130615200002,33.681274414],[103.84167480500001,33.685302734],[103.78192138700001,33.664489746],[103.70489502,33.680297852],[103.627929687,33.695678711],[103.54168701200001,33.67791748],[103.53607177700002,33.676879883],[103.50848388700001,33.721496582],[103.51928710900002,33.831298828],[103.47711181600002,33.82208252],[103.45190429700001,33.781677246],[103.39111328100002,33.744689941],[103.32830810500002,33.76171875],[103.19287109400001,33.776489258],[103.17852783200001,33.815673828],[103.19012451200001,33.859924316],[103.19189453100002,33.915893555],[103.12310791000002,33.960876465],[103.16088867200001,34.020874023],[103.15368652300002,34.039916992],[103.18328857400002,34.078918457],[103.14129638700001,34.144897461],[103.08807373000002,34.173095703],[103.05352783200001,34.175476074],[103.00128173800002,34.192077637],[102.98229980500001,34.25592041],[102.96307373000002,34.274475098],[102.93988037100002,34.297119141],[102.90191650400001,34.301086426],[102.89611816400001,34.278686523],[102.87829589800002,34.255310059],[102.78228759800001,34.278320312],[102.77209472700001,34.268920898],[102.73529052700002,34.235473633],[102.72747802700002,34.211914062],[102.61987304700001,34.134521484],[102.65808105500001,34.103088379],[102.65850830100001,34.074707031],[102.57647705100001,34.088500977],[102.51348877,34.055297852],[102.47229003900001,34.082092285],[102.45587158200001,34.091674805],[102.40948486300002,34.069274902],[102.36907959000001,34.031311035],[102.33288574200002,34.015686035],[102.30468750000001,33.99987793],[102.26251220700001,34.00012207],[102.19708252,33.971496582],[102.18249511700002,33.964294434],[102.153320312,33.946899414],[102.15429687500001,33.937683105],[102.18792724600002,33.908691406],[102.222473145,33.870483398],[102.23950195300002,33.855895996],[102.262695312,33.854309082],[102.26428222700001,33.838928223],[102.26690673800002,33.811096191],[102.26910400400001,33.789489746],[102.30090332000002,33.778930664],[102.30969238300001,33.767089844],[102.29028320300002,33.728515625],[102.29187011700002,33.71307373],[102.31567382800002,33.705322266],[102.33807373000002,33.712890625],[102.35412597700001,33.626708984],[102.37152099600002,33.606079102],[102.39672851600001,33.582702637],[102.48492431600002,33.544677734],[102.48632812500001,33.52911377],[102.46612548800002,33.49987793],[102.47808837900001,33.453918457],[102.47131347700001,33.444274902],[102.44171142600001,33.433105469],[102.39208984400001,33.389526367],[102.36932373000002,33.388122559],[102.32928466800001,33.404296875],[102.30627441400001,33.405883789],[102.26251220700001,33.381530762],[102.24267578100002,33.349121094],[102.22772216800001,33.305297852],[102.22729492200001,33.270324707],[102.21447753900001,33.244506836],[102.19927978500002,33.243530273],[102.17230224600002,33.285522461],[102.15551757800002,33.299926758],[102.13330078100002,33.292297363],[102.11352539100001,33.259887695],[102.09490966800001,33.215087891],[102.05731201200001,33.209472656],[102.01312255900001,33.191101074],[101.98828125000001,33.133483887],[101.95892334000001,33.122070312],[101.92767334000001,33.129516602],[101.90289306600002,33.146484375],[101.86767578100002,33.190917969],[101.82611084000001,33.225280762],[101.82409668000001,33.243896484],[101.84631347700001,33.251708984],[101.905273437,33.274291992],[101.93072509800001,33.325683594],[101.94952392600001,33.367492676],[101.94329834000001,33.429321289],[101.94171142600001,33.444702148],[101.921875,33.490112305],[101.91528320300002,33.555114746],[101.89587402300002,33.594299316],[101.86267089800002,33.616882324],[101.84527587900001,33.637512207],[101.82452392600001,33.614501953],[101.80548095700001,33.575683594],[101.796875,33.525085449],[101.79748535200001,33.466308594],[101.721679687,33.42388916],[101.66967773400002,33.333129883],[101.67889404300001,33.309875488],[101.74188232400002,33.24987793],[101.66271972700001,33.149475098],[101.64630127,33.136901855],[101.62530517600001,33.12109375],[101.55609130900001,33.145690918],[101.50848388700001,33.214477539],[101.44287109400001,33.223083496],[101.40692138700001,33.151306152],[101.37707519500002,33.15447998],[101.27032470700001,33.192321777],[101.21850585900002,33.176879883],[101.20788574200002,33.162109375],[101.16748046900001,33.104675293],[101.12969970700001,33.040527344],[101.11071777300002,32.917114258],[101.22528076200001,32.835510254],[101.26629638700001,32.757324219],[101.21569824200002,32.683288574],[101.13592529300001,32.658508301],[101.12969970700001,32.656494141],[101.11267089800002,32.682128906],[101.02709960900002,32.640930176],[100.96911621100001,32.605529785],[100.94427490200002,32.604492187],[100.89849853500002,32.635925293],[100.85009765600002,32.650085449],[100.73370361300002,32.670715332],[100.72192382800002,32.641296387],[100.73229980500001,32.617126465],[100.66467285200001,32.601074219],[100.663085937,32.538696289],[100.65112304700001,32.502075195],[100.61669921900001,32.452880859],[100.57348632800002,32.415710449],[100.54388427700002,32.419494629],[100.53387451200001,32.372070312],[100.55108642600001,32.337524414],[100.59191894500002,32.303283691],[100.63049316400001,32.299682617],[100.67028808600001,32.307495117],[100.679870605,32.272521973],[100.67272949200002,32.239501953],[100.67010498,32.208129883],[100.68450927700002,32.182495117],[100.69250488300001,32.13092041],[100.696289062,32.102111816],[100.72930908200001,32.090270996],[100.75988769500002,32.078918457],[100.77807617200001,32.049926758],[100.80432128900001,32.027709961],[100.85711669900002,31.996704102],[100.88629150400001,31.979125977],[100.92608642600001,31.98651123],[100.971679687,31.987304687],[101.00250244100002,31.954284668],[101.00787353500002,31.914489746],[100.99548339800002,31.885314941],[100.96148681600002,31.864318848],[100.94812011700002,31.839294434],[100.93212890600002,31.815917969],[100.90490722700001,31.799499512],[100.89227294900002,31.748718262],[100.93048095700001,31.747680664],[100.95892334000001,31.724304199],[100.97210693400001,31.696716309],[100.99291992200001,31.672485352],[101.03051757800002,31.657470703],[101.06610107400002,31.637878418],[101.07690429700001,31.596130371],[101.07971191400001,31.562072754],[101.07928466800001,31.52947998],[101.097473145,31.495727539],[101.12170410200001,31.477905273],[101.15789794900002,31.496704102],[101.19610595700001,31.508117676],[101.24829101600001,31.518920898],[101.25787353500002,31.470275879],[101.26031494100002,31.432678223],[101.26971435500002,31.404907227],[101.29467773400002,31.380310059],[101.336914062,31.389526367],[101.36828613300001,31.37109375],[101.41192627,31.367919922],[101.44250488300001,31.355529785],[101.48107910200001,31.36907959],[101.51867675800001,31.38269043],[101.55389404300001,31.389709473],[101.57672119100002,31.366271973],[101.61328125000001,31.371887207],[101.64532470700001,31.38848877],[101.67810058600001,31.374084473],[101.69769287100002,31.341308594],[101.71173095700001,31.311523437],[101.74688720700001,31.303283691],[101.77868652300002,31.289916992],[101.83367919900002,31.297119141],[101.85711669900002,31.276916504],[101.87371826200001,31.239685059],[101.88391113300001,31.200500488],[101.89508056600002,31.172912598],[101.91809082000002,31.151123047],[101.94470214800002,31.178527832],[101.98370361300002,31.187316895],[102.01812744100002,31.171691895],[102.03332519500002,31.134887695],[102.03692627,31.100524902],[102.05749511700002,31.073730469],[102.09289550800001,31.089294434],[102.12268066400001,31.114929199],[102.15869140600002,31.138671875],[102.16607666000002,31.088317871],[102.16369628900001,31.056091309],[102.16888427700002,31.01751709],[102.18408203100002,30.99230957],[102.19909668000001,30.961914062],[102.20629882800002,30.924926758],[102.19769287100002,30.896484375],[102.16510009800001,30.891906738],[102.13232421900001,30.900878906],[102.09790039100001,30.891296387],[102.07867431600002,30.86328125],[102.078125,30.836120605],[102.07232666000002,30.797119141],[102.061523437,30.771911621],[102.04992675800001,30.723510742],[102.04168701200001,30.709289551],[102.07507324200002,30.660705566],[102.11407470700001,30.660888672],[102.14892578100002,30.634521484],[102.17687988300001,30.613525391],[102.21911621100001,30.624694824],[102.26007080100001,30.630310059],[102.29327392600001,30.650878906],[102.328125,30.684509277],[102.35510253900001,30.702514648],[102.39007568400001,30.712097168],[102.42370605500001,30.708679199],[102.46307373000002,30.713684082],[102.49389648400002,30.731506348],[102.48992919900002,30.768676758],[102.50030517600001,30.795715332],[102.53289794900002,30.819885254],[102.57110595700001,30.827697754],[102.60028076200001,30.851318359],[102.63287353500002,30.853271484],[102.66888427700002,30.853088379],[102.70007324200002,30.877075195],[102.70507812500001,30.905517578],[102.72808837900001,30.927490234],[102.77252197300001,30.927124023],[102.80767822300001,30.935119629],[102.84991455100001,30.94152832],[102.90228271500001,30.927490234],[102.88629150400001,30.897888184],[102.88372802700002,30.862304687],[102.87487793000001,30.834472656],[102.86907959000001,30.807922363],[102.89251709000001,30.772705078],[102.90710449200002,30.747497559],[102.96411132800002,30.768493652],[102.99749755900001,30.780700684],[103.03051757800002,30.788879395],[103.05590820300002,30.811889648],[103.09252929700001,30.812072754],[103.12628173800002,30.802490234],[103.15270996100001,30.824890137],[103.18267822300001,30.843322754],[103.23211669900002,30.839294434],[103.26788330100001,30.830871582],[103.31011962900001,30.823486328],[103.35229492200001,30.843505859],[103.38391113300001,30.857727051],[103.42248535200001,30.871704102],[103.45471191400001,30.906677246],[103.47747802700002,30.933105469],[103.50988769500002,30.969909668],[103.52471923800002,31.003295898],[103.52307128900001,31.030517578],[103.53051757800002,31.057495117],[103.54290771500001,31.083496094],[103.554504395,31.11328125],[103.56890869100002,31.139099121],[103.58410644500002,31.177124023],[103.58911132800002,31.211914062],[103.57550048800002,31.25012207],[103.58349609400001,31.278930664],[103.57788085900002,31.310119629],[103.57031250000001,31.34387207],[103.61108398400002,31.354309082],[103.65368652300002,31.353881836],[103.745910645,31.401489258],[103.80548095700001,31.460693359]]]}}
