{"type":"Feature","id":"bulk-99377448B31308755815682","bbox":[114.82592773400002,33.712280273,116.61871337900001,34.854492187],"properties":{"id":"bulk-99377448B31308755815682","name":"Shangqiu","nameEn":"Shangqiu","fullName":"Shangqiu","level":"city","boundaryRole":"administrative-extent","boundaryQuality":"generalized-source-2020","boundaryYearRepresented":"2020","bounds":[[114.82592773400002,33.712280273],[116.61871337900001,34.854492187]],"center":[115.72232055650002,34.28338623],"centerMethod":"bounding-box midpoint; camera framing only","license":"CC-BY-3.0-IGO","attribution":"geoBoundaries / HDX, China administrative boundaries (2020)","source":{"provider":"geoBoundaries gbHumanitarian / HDX","url":"https://github.com/wmgeolab/geoBoundaries/raw/9469f09/releaseData/gbHumanitarian/CHN/ADM2/geoBoundaries-CHN-ADM2.geojson","metadataUrl":"https://www.geoboundaries.org/api/current/gbHumanitarian/CHN/ADM2/","shapeID":"99377448B31308755815682","shapeName":"Shangqiu","boundaryID":"CHN-ADM2-99377448","commit":"9469f09"},"geometryCounts":{"coordinates":155,"components":1,"holes":0},"boundaryNotice":"geoBoundaries / HDX 2020 年行政区数据，海岸和边界经过源数据概化，并非当前测绘成果。"},"geometry":{"type":"Polygon","coordinates":[[[116.37408447300001,33.789123535],[116.40087890600002,33.790283203],[116.37829589800002,33.811889648],[116.40588378900001,33.847717285],[116.44848632800002,33.844909668],[116.46752929700001,33.880493164],[116.52008056600002,33.906311035],[116.54907226600001,33.882873535],[116.59991455100001,33.884887695],[116.61871337900001,33.916687012],[116.59887695300002,33.948730469],[116.55651855500001,34.018920898],[116.538879395,34.037719727],[116.53289794900002,34.043884277],[116.51867675800001,34.076477051],[116.51391601600001,34.103088379],[116.51208496100001,34.14050293],[116.51452636700002,34.155700684],[116.51593017600001,34.165100098],[116.52008056600002,34.178100586],[116.53149414100001,34.212097168],[116.51507568400001,34.248718262],[116.51330566400001,34.252929687],[116.49011230500001,34.284912109],[116.45007324200002,34.282287598],[116.41088867200001,34.261108398],[116.36352539100001,34.246276855],[116.35247802700002,34.260925293],[116.33630371100001,34.283874512],[116.32092285200001,34.301330566],[116.31048584000001,34.327514648],[116.28710937500001,34.342712402],[116.23889160200001,34.350097656],[116.20147705100001,34.368530273],[116.17907714800002,34.401306152],[116.15887451200001,34.4375],[116.15832519500002,34.438476562],[116.14471435500002,34.466491699],[116.15869140600002,34.49407959],[116.16607666000002,34.523071289],[116.16107177700002,34.544494629],[116.14208984400001,34.540283203],[116.12731933600001,34.530090332],[116.10607910200001,34.5546875],[116.09429931600002,34.583679199],[116.06207275400001,34.590087891],[116.01788330100001,34.578674316],[116.00048828100002,34.594482422],[115.98669433600001,34.597717285],[115.97271728500002,34.598327637],[115.92529296900001,34.586914062],[115.89929199200002,34.570922852],[115.87048339800002,34.557312012],[115.82489013700001,34.55090332],[115.78448486300002,34.550292969],[115.75512695300002,34.551513672],[115.74468994100002,34.555725098],[115.66467285200001,34.573303223],[115.65167236300002,34.568725586],[115.64508056600002,34.561523437],[115.64392089800002,34.546508789],[115.62451171900001,34.53729248],[115.57788085900002,34.546875],[115.55352783200001,34.558105469],[115.52551269500002,34.56451416],[115.48413085900002,34.556274414],[115.45727539100001,34.577514648],[115.42529296900001,34.616699219],[115.42492675800001,34.631286621],[115.41851806600002,34.655273437],[115.40527343700002,34.717712402],[115.39349365200002,34.783691406],[115.34289550800001,34.833312988],[115.28350830100001,34.847717285],[115.23071289100001,34.854492187],[115.23730468700002,34.817321777],[115.21289062500001,34.78692627],[115.16168212900001,34.778076172],[115.12329101600001,34.778930664],[115.07971191400001,34.783874512],[115.02667236300002,34.783325195],[114.98413085900002,34.778686523],[114.94708252,34.774475098],[114.90191650400001,34.771484375],[114.86688232400002,34.764892578],[114.82592773400002,34.733276367],[114.88128662100002,34.698120117],[114.88110351600001,34.667480469],[114.88031005900001,34.639526367],[114.88092041000002,34.60748291],[114.89331054700001,34.557312012],[114.89868164100001,34.502502441],[114.87829589800002,34.476501465],[114.85388183600001,34.443725586],[114.85107421900001,34.411315918],[114.86029052700002,34.381896973],[114.86511230500001,34.346923828],[114.86108398400002,34.309875488],[114.85748291000002,34.282104492],[114.90191650400001,34.276123047],[114.96008300800001,34.268676758],[115.01312255900001,34.254516602],[115.05529785200001,34.239929199],[115.08807373000002,34.217102051],[115.09667968700002,34.181274414],[115.11071777300002,34.138916016],[115.11492919900002,34.102905273],[115.11608886700002,34.063720703],[115.09008789100001,34.03112793],[115.06170654300001,34.002929687],[115.07592773400002,33.948913574],[115.13153076200001,33.96887207],[115.17987060500002,33.976928711],[115.24450683600001,33.993103027],[115.27990722700001,33.996276855],[115.31427002,33.99810791],[115.37152099600002,33.997314453],[115.40728759800001,33.989929199],[115.45727539100001,33.973327637],[115.49511718700002,33.993286133],[115.52410888700001,34.018676758],[115.53448486300002,34.048278809],[115.53668212900001,34.075683594],[115.56970214800002,34.083679199],[115.61291503900001,34.077087402],[115.64251709000001,34.057495117],[115.66430664100001,34.063903809],[115.70251464800002,34.074890137],[115.76892089800002,34.044677734],[115.78607177700002,34.03692627],[115.80187988300001,33.988525391],[115.83392334000001,33.989074707],[115.88970947300001,33.999084473],[115.92370605500001,33.975708008],[115.92669677700002,33.973876953],[115.95568847700001,33.944274902],[115.95587158200001,33.913330078],[115.97808837900001,33.917724609],[116.00250244100002,33.901489258],[116.03027343700002,33.855285645],[116.02728271500001,33.80670166],[116.04290771500001,33.775878906],[116.05688476600001,33.753295898],[116.06329345700001,33.750671387],[116.10290527300002,33.736083984],[116.13092041000002,33.727905273],[116.16168212900001,33.712280273],[116.20367431600002,33.730895996],[116.22668457000002,33.748474121],[116.25030517600001,33.757324219],[116.27368164100001,33.761474609],[116.296691895,33.758728027],[116.32830810500002,33.77331543],[116.36352539100001,33.788513184],[116.37408447300001,33.789123535]]]}}
