{"type":"Feature","id":"bulk-99377448B7547564884361","bbox":[101.39270019500002,38.010498047,102.74389648400002,38.985900879],"properties":{"id":"bulk-99377448B7547564884361","name":"Jinchang","nameEn":"Jinchang","fullName":"Jinchang","level":"city","boundaryRole":"administrative-extent","boundaryQuality":"generalized-source-2020","boundaryYearRepresented":"2020","bounds":[[101.39270019500002,38.010498047],[102.74389648400002,38.985900879]],"center":[102.06829833950002,38.498199463],"centerMethod":"bounding-box midpoint; camera framing only","license":"CC-BY-3.0-IGO","attribution":"geoBoundaries / HDX, China administrative boundaries (2020)","source":{"provider":"geoBoundaries gbHumanitarian / HDX","url":"https://github.com/wmgeolab/geoBoundaries/raw/9469f09/releaseData/gbHumanitarian/CHN/ADM2/geoBoundaries-CHN-ADM2.geojson","metadataUrl":"https://www.geoboundaries.org/api/current/gbHumanitarian/CHN/ADM2/","shapeID":"99377448B7547564884361","shapeName":"Jinchang","boundaryID":"CHN-ADM2-99377448","commit":"9469f09"},"geometryCounts":{"coordinates":97,"components":1,"holes":0},"boundaryNotice":"geoBoundaries / HDX 2020 年行政区数据，海岸和边界经过源数据概化，并非当前测绘成果。"},"geometry":{"type":"Polygon","coordinates":[[[101.56848144500002,38.69732666],[101.51611328100002,38.66607666],[101.51232910200001,38.629272461],[101.51049804700001,38.595703125],[101.50811767600001,38.569091797],[101.51348877,38.527099609],[101.51367187500001,38.489501953],[101.51971435500002,38.460693359],[101.51391601600001,38.434326172],[101.46990966800001,38.413330078],[101.42687988300001,38.402099609],[101.39270019500002,38.382324219],[101.41912841800001,38.355529785],[101.45971679700001,38.33190918],[101.47711181600002,38.291687012],[101.48968505900001,38.25189209],[101.50653076200001,38.216674805],[101.50109863300001,38.177124023],[101.47448730500001,38.151672363],[101.44427490200002,38.126281738],[101.428710937,38.090270996],[101.40948486300002,38.049072266],[101.40289306600002,38.017272949],[101.44427490200002,38.015686035],[101.48608398400002,38.022888184],[101.52209472700001,38.039489746],[101.55151367200001,38.059875488],[101.59167480500001,38.074279785],[101.63610839800002,38.071899414],[101.65808105500001,38.046875],[101.69390869100002,38.058288574],[101.71307373000002,38.082519531],[101.75750732400002,38.078674316],[101.812316895,38.075317383],[101.85052490200002,38.076721191],[101.88568115200002,38.07232666],[101.91827392600001,38.06072998],[101.95727539100001,38.041503906],[101.99468994100002,38.028686523],[102.03210449200002,38.023498535],[102.07830810500002,38.010498047],[102.11950683600001,38.034912109],[102.17749023400002,38.056091309],[102.21649169900002,38.08392334],[102.24328613300001,38.114318848],[102.28131103500002,38.126525879],[102.32287597700001,38.133483887],[102.38171386700002,38.149108887],[102.43670654300001,38.15447998],[102.48608398400002,38.163879395],[102.54168701200001,38.179321289],[102.59948730500001,38.183898926],[102.65631103500002,38.176513672],[102.71228027300002,38.205688477],[102.74389648400002,38.23651123],[102.74127197300001,38.273498535],[102.73010253900001,38.320678711],[102.722473145,38.355285645],[102.68548584000001,38.396911621],[102.64227294900002,38.407104492],[102.59368896500001,38.409729004],[102.55969238300001,38.424682617],[102.53570556600002,38.459289551],[102.52807617200001,38.503479004],[102.495910645,38.525878906],[102.46911621100001,38.545715332],[102.44311523400002,38.569519043],[102.429504395,38.603881836],[102.42211914100001,38.633117676],[102.42468261700002,38.671081543],[102.40472412100002,38.703674316],[102.40930175800001,38.733886719],[102.40771484400001,38.774291992],[102.39770507800002,38.806091309],[102.41528320300002,38.837890625],[102.42449951200001,38.870727539],[102.39410400400001,38.899475098],[102.36047363300001,38.912109375],[102.31091308600001,38.926513672],[102.26489257800002,38.930480957],[102.22888183600001,38.934875488],[102.18188476600001,38.942871094],[102.11590576200001,38.966308594],[102.07208252,38.980895996],[102.03131103500002,38.985900879],[101.98931884800001,38.984313965],[102.09869384800001,38.873474121],[102.012695312,38.805480957],[101.94970703100002,38.769470215],[101.90209960900002,38.704528809],[101.88629150400001,38.649902344],[101.86010742200001,38.640075684],[101.80010986300002,38.64050293],[101.76531982400002,38.658874512],[101.73870849600002,38.672912598],[101.64410400400001,38.641113281],[101.56848144500002,38.69732666]]]}}
