{"type":"Feature","id":"bulk-99377448B82445710800114","bbox":[106.22509765600002,25.100891113,108.30389404300001,27.494506836],"properties":{"id":"bulk-99377448B82445710800114","name":"Qiannan Buyi and Miao Autonomous Prefecture","nameEn":"Qiannan Buyi and Miao Autonomous Prefecture","fullName":"Qiannan Buyi and Miao Autonomous Prefecture","level":"city","boundaryRole":"administrative-extent","boundaryQuality":"generalized-source-2020","boundaryYearRepresented":"2020","bounds":[[106.22509765600002,25.100891113],[108.30389404300001,27.494506836]],"center":[107.26449584950001,26.2976989745],"centerMethod":"bounding-box midpoint; camera framing only","license":"CC-BY-3.0-IGO","attribution":"geoBoundaries / HDX, China administrative boundaries (2020)","source":{"provider":"geoBoundaries gbHumanitarian / HDX","url":"https://github.com/wmgeolab/geoBoundaries/raw/9469f09/releaseData/gbHumanitarian/CHN/ADM2/geoBoundaries-CHN-ADM2.geojson","metadataUrl":"https://www.geoboundaries.org/api/current/gbHumanitarian/CHN/ADM2/","shapeID":"99377448B82445710800114","shapeName":"Qiannan Buyi and Miao Autonomous Prefecture","boundaryID":"CHN-ADM2-99377448","commit":"9469f09"},"geometryCounts":{"coordinates":289,"components":1,"holes":0},"boundaryNotice":"geoBoundaries / HDX 2020 年行政区数据，海岸和边界经过源数据概化，并非当前测绘成果。"},"geometry":{"type":"Polygon","coordinates":[[[108.30389404300001,25.52331543],[108.27752685500002,25.567687988],[108.26232910200001,25.601074219],[108.22668457000002,25.653076172],[108.17468261700002,25.644470215],[108.14190673800002,25.633911133],[108.09631347700001,25.661682129],[108.09490966800001,25.696289062],[108.10009765600002,25.738891602],[108.10272216800001,25.769104004],[108.09051513700001,25.796508789],[108.07971191400001,25.829101562],[108.08892822300001,25.859130859],[108.10827636700002,25.896484375],[108.12927246100001,25.930114746],[108.15209960900002,25.959716797],[108.17889404300001,25.985717773],[108.20288085900002,26.022094727],[108.20288085900002,26.05871582],[108.17291259800001,26.068725586],[108.14270019500002,26.086730957],[108.12628173800002,26.11151123],[108.09167480500001,26.107910156],[108.05670166000002,26.107116699],[108.01788330100001,26.097717285],[107.99267578100002,26.081481934],[107.94610595700001,26.083679199],[107.92071533200001,26.112915039],[107.88909912100002,26.123901367],[107.86047363300001,26.14630127],[107.83068847700001,26.151916504],[107.80108642600001,26.13067627],[107.77349853500002,26.154296875],[107.72351074200002,26.181274414],[107.72772216800001,26.210693359],[107.74011230500001,26.243896484],[107.75512695300002,26.267272949],[107.76550293000001,26.301086426],[107.73931884800001,26.348693848],[107.70147705100001,26.348083496],[107.67291259800001,26.339477539],[107.63732910200001,26.317871094],[107.613098145,26.348876953],[107.59008789100001,26.386108398],[107.55432128900001,26.391113281],[107.51947021500001,26.381713867],[107.50427246100001,26.406311035],[107.47570800800001,26.436096191],[107.43048095700001,26.42590332],[107.40429687500001,26.396484375],[107.34368896500001,26.40447998],[107.32110595700001,26.449279785],[107.30548095700001,26.477905273],[107.33129882800002,26.494689941],[107.32208252,26.524902344],[107.37811279300001,26.562927246],[107.41528320300002,26.56451416],[107.45611572300001,26.57409668],[107.48632812500001,26.562316895],[107.52972412100002,26.562683105],[107.54772949200002,26.585327148],[107.57250976600001,26.601501465],[107.61132812500001,26.603881836],[107.65252685500002,26.604492187],[107.68310546900001,26.587280273],[107.70989990200002,26.60748291],[107.70568847700001,26.639282227],[107.68969726600001,26.669311523],[107.68029785200001,26.709716797],[107.69049072300001,26.735717773],[107.70989990200002,26.762512207],[107.73413085900002,26.816711426],[107.73291015600002,26.86328125],[107.70349121100001,26.885070801],[107.68231201200001,26.86328125],[107.65667724600002,26.840270996],[107.62371826200001,26.854675293],[107.61871337900001,26.892272949],[107.59307861300002,26.919128418],[107.59967041000002,26.950683594],[107.62768554700001,26.965087891],[107.66009521500001,26.976318359],[107.64770507800002,27.012512207],[107.61871337900001,27.045471191],[107.63891601600001,27.077697754],[107.66229248000002,27.099121094],[107.67633056600002,27.133300781],[107.66949462900001,27.169311523],[107.65289306600002,27.205688477],[107.66192627,27.258117676],[107.59869384800001,27.26751709],[107.55108642600001,27.276489258],[107.52667236300002,27.254882812],[107.51147460900002,27.222106934],[107.47229003900001,27.237121582],[107.43908691400001,27.25970459],[107.44311523400002,27.291503906],[107.46972656200002,27.315917969],[107.48992919900002,27.341308594],[107.42468261700002,27.354492187],[107.38629150400001,27.358276367],[107.38128662100002,27.388305664],[107.36370849600002,27.421081543],[107.32910156200002,27.443115234],[107.26110839800002,27.494506836],[107.25848388700001,27.44909668],[107.25311279300001,27.417114258],[107.23150634800001,27.391113281],[107.20947265600002,27.368713379],[107.19549560500002,27.323303223],[107.15832519500002,27.298095703],[107.14172363300001,27.269714355],[107.13171386700002,27.237487793],[107.16552734400001,27.242919922],[107.19927978500002,27.254089355],[107.24249267600001,27.245483398],[107.25390625000001,27.211120605],[107.25787353500002,27.176696777],[107.22210693400001,27.16229248],[107.19067382800002,27.16192627],[107.16809082000002,27.137695312],[107.16308593700002,27.108276367],[107.15930175800001,27.075317383],[107.17047119100002,27.045715332],[107.19787597700001,27.027526855],[107.22412109400001,27.000671387],[107.24572753900001,26.965698242],[107.25769043000001,26.93170166],[107.26330566400001,26.891479492],[107.25909423800002,26.859130859],[107.24951171900001,26.830078125],[107.23992919900002,26.796081543],[107.20629882800002,26.8046875],[107.16552734400001,26.818115234],[107.10089111300002,26.81652832],[107.08508300800001,26.808898926],[107.06127929700001,26.793884277],[107.04571533200001,26.77911377],[107.02148437500001,26.778503418],[107.00567627,26.770874023],[106.98229980500001,26.748718262],[106.95208740200002,26.74432373],[106.953125,26.724304199],[106.93548584000001,26.696716309],[106.93792724600002,26.662475586],[106.89929199200002,26.659912109],[106.86572265600002,26.647705078],[106.87628173800002,26.619506836],[106.85009765600002,26.594482422],[106.82208252,26.572875977],[106.83752441400001,26.542297363],[106.81292724600002,26.515075684],[106.81469726600001,26.464294434],[106.77227783200001,26.442077637],[106.76129150400001,26.416503906],[106.78668212900001,26.401123047],[106.82171630900001,26.396728516],[106.79870605500001,26.36932373],[106.82092285200001,26.332092285],[106.85467529300001,26.31048584],[106.85351562500001,26.271484375],[106.87652587900001,26.245117187],[106.84631347700001,26.229309082],[106.80932617200001,26.227111816],[106.79827880900001,26.253723145],[106.78411865200002,26.288879395],[106.74768066400001,26.31829834],[106.71667480500001,26.292297363],[106.67889404300001,26.311523437],[106.64367675800001,26.295471191],[106.620910645,26.255310059],[106.58630371100001,26.237487793],[106.55432128900001,26.237487793],[106.52490234400001,26.249084473],[106.50451660200001,26.271118164],[106.46588134800001,26.313293457],[106.40972900400001,26.309082031],[106.37768554700001,26.307678223],[106.34368896500001,26.306274414],[106.33508300800001,26.258728027],[106.29809570300002,26.272277832],[106.26391601600001,26.278686523],[106.23828125000001,26.263305664],[106.25872802700002,26.234313965],[106.27148437500001,26.208679199],[106.27008056600002,26.17590332],[106.28833007800002,26.149291992],[106.26147460900002,26.130493164],[106.24310302700002,26.09387207],[106.22509765600002,26.071472168],[106.26428222700001,26.054504395],[106.29632568400001,26.038879395],[106.30328369100002,26.006530762],[106.28070068400001,25.97467041],[106.288879395,25.94128418],[106.29290771500001,25.908691406],[106.27490234400001,25.885681152],[106.25170898400002,25.865722656],[106.23010253900001,25.842529297],[106.22991943400001,25.81451416],[106.24249267600001,25.783325195],[106.26593017600001,25.751525879],[106.29791259800001,25.735107422],[106.32092285200001,25.708312988],[106.34088134800001,25.68548584],[106.37908935500002,25.672119141],[106.42529296900001,25.684082031],[106.45349121100001,25.70489502],[106.48608398400002,25.699523926],[106.47711181600002,25.669677734],[106.46209716800001,25.645507812],[106.44390869100002,25.615722656],[106.42968750000001,25.58807373],[106.40747070300002,25.536499023],[106.39508056600002,25.503723145],[106.38372802700002,25.439086914],[106.41888427700002,25.399475098],[106.44488525400001,25.370117187],[106.45849609400001,25.344482422],[106.46807861300002,25.30670166],[106.49688720700001,25.275695801],[106.49328613300001,25.244873047],[106.47869873000002,25.216125488],[106.48992919900002,25.168884277],[106.55987548800002,25.122924805],[106.59387207000002,25.100891113],[106.61749267600001,25.13470459],[106.64788818400001,25.164489746],[106.69531250000001,25.173095703],[106.73510742200001,25.167114258],[106.75091552700002,25.167480469],[106.79827880900001,25.168884277],[106.82189941400001,25.176879883],[106.85351562500001,25.17767334],[106.87750244100002,25.171081543],[106.91711425800001,25.172302246],[106.91571044900002,25.215515137],[106.93072509800001,25.237487793],[106.93872070300002,25.237670898],[106.93908691400001,25.223327637],[106.96289062500001,25.223876953],[106.97772216800001,25.253295898],[106.98468017600001,25.282287598],[106.99108886700002,25.325683594],[106.98211669900002,25.36151123],[106.95709228500002,25.396728516],[107.04870605500001,25.507324219],[107.06451416000002,25.579101562],[107.13409423800002,25.554077148],[107.15612793000001,25.581481934],[107.21588134800001,25.606079102],[107.22949218700002,25.563293457],[107.25811767600001,25.549926758],[107.29290771500001,25.524902344],[107.30133056600002,25.509094238],[107.32312011700002,25.468322754],[107.31188964800002,25.428283691],[107.35192871100001,25.397277832],[107.38867187500001,25.392883301],[107.43829345700001,25.322509766],[107.42871093700002,25.262695312],[107.48712158200001,25.215881348],[107.55810546900001,25.229919434],[107.59368896500001,25.284118652],[107.62988281200002,25.303100586],[107.63690185500002,25.299682617],[107.64190673800002,25.297119141],[107.67150878900001,25.223327637],[107.68151855500001,25.192871094],[107.74047851600001,25.234313965],[107.76232910200001,25.237487793],[107.75390625000001,25.194091797],[107.77270507800002,25.166687012],[107.76330566400001,25.12689209],[107.83911132800002,25.136108398],[107.85009765600002,25.137329102],[107.89208984400001,25.157470703],[107.96789550800001,25.173095703],[108.06091308600001,25.182678223],[108.12890625000001,25.22668457],[108.14672851600001,25.264099121],[108.13891601600001,25.323303223],[108.12927246100001,25.370727539],[108.15368652300002,25.416320801],[108.17327880900001,25.430297852],[108.18109130900001,25.469299316],[108.22607421900001,25.460327148],[108.26568603500002,25.50012207],[108.30389404300001,25.52331543]]]}}
