{"type":"Feature","id":"bulk-99377448B80815537935647","bbox":[117.70208740200002,30.723693848,118.15130615200002,31.129272461],"properties":{"id":"bulk-99377448B80815537935647","name":"Tongling","nameEn":"Tongling","fullName":"Tongling","level":"city","boundaryRole":"administrative-extent","boundaryQuality":"generalized-source-2020","boundaryYearRepresented":"2020","bounds":[[117.70208740200002,30.723693848],[118.15130615200002,31.129272461]],"center":[117.92669677700002,30.926483154499998],"centerMethod":"bounding-box midpoint; camera framing only","license":"CC-BY-3.0-IGO","attribution":"geoBoundaries / HDX, China administrative boundaries (2020)","source":{"provider":"geoBoundaries gbHumanitarian / HDX","url":"https://github.com/wmgeolab/geoBoundaries/raw/9469f09/releaseData/gbHumanitarian/CHN/ADM2/geoBoundaries-CHN-ADM2.geojson","metadataUrl":"https://www.geoboundaries.org/api/current/gbHumanitarian/CHN/ADM2/","shapeID":"99377448B80815537935647","shapeName":"Tongling","boundaryID":"CHN-ADM2-99377448","commit":"9469f09"},"geometryCounts":{"coordinates":37,"components":1,"holes":0},"boundaryNotice":"geoBoundaries / HDX 2020 年行政区数据，海岸和边界经过源数据概化，并非当前测绘成果。"},"geometry":{"type":"Polygon","coordinates":[[[117.70367431600002,30.835876465],[117.70208740200002,30.785888672],[117.74511718700002,30.723693848],[117.83050537100002,30.775695801],[117.85650634800001,30.79107666],[117.88647460900002,30.81048584],[117.92132568400001,30.823913574],[117.94787597700001,30.844482422],[117.99768066400001,30.844299316],[118.03088378900001,30.841491699],[118.05352783200001,30.864685059],[118.09069824200002,30.88671875],[118.12988281200002,30.885314941],[118.14807128900001,30.912109375],[118.14648437500001,30.943115234],[118.15130615200002,30.973327637],[118.08911132800002,30.969909668],[118.05810546900001,30.983093262],[118.03527832000002,31.00567627],[118.01507568400001,31.031311035],[117.99951171900001,31.06072998],[117.99230957000002,31.090270996],[117.97528076200001,31.126281738],[117.95068359400001,31.079711914],[117.91571044900002,31.074707031],[117.87689209000001,31.097473145],[117.84912109400001,31.118103027],[117.81890869100002,31.129272461],[117.78411865200002,31.117675781],[117.75109863300001,31.097106934],[117.73089599600002,31.075073242],[117.72491455100001,31.046081543],[117.72528076200001,31.011901855],[117.72229003900001,30.953491211],[117.72650146500001,30.900878906],[117.72631835900002,30.860900879],[117.70367431600002,30.835876465]]]}}
