{"type":"Feature","id":"bulk-99377448B75516460577396","bbox":[102.83587646500001,29.401672363,104.51867675800001,30.385925293],"properties":{"id":"bulk-99377448B75516460577396","name":"Meishan","nameEn":"Meishan","fullName":"Meishan","level":"city","boundaryRole":"administrative-extent","boundaryQuality":"generalized-source-2020","boundaryYearRepresented":"2020","bounds":[[102.83587646500001,29.401672363],[104.51867675800001,30.385925293]],"center":[103.67727661150002,29.893798828],"centerMethod":"bounding-box midpoint; camera framing only","license":"CC-BY-3.0-IGO","attribution":"geoBoundaries / HDX, China administrative boundaries (2020)","source":{"provider":"geoBoundaries gbHumanitarian / HDX","url":"https://github.com/wmgeolab/geoBoundaries/raw/9469f09/releaseData/gbHumanitarian/CHN/ADM2/geoBoundaries-CHN-ADM2.geojson","metadataUrl":"https://www.geoboundaries.org/api/current/gbHumanitarian/CHN/ADM2/","shapeID":"99377448B75516460577396","shapeName":"Meishan","boundaryID":"CHN-ADM2-99377448","commit":"9469f09"},"geometryCounts":{"coordinates":139,"components":1,"holes":0},"boundaryNotice":"geoBoundaries / HDX 2020 年行政区数据，海岸和边界经过源数据概化，并非当前测绘成果。"},"geometry":{"type":"Polygon","coordinates":[[[103.36108398400002,30.09387207],[103.33489990200002,30.071472168],[103.29107666000002,30.076721191],[103.252929687,30.047485352],[103.24792480500001,30.011474609],[103.19787597700001,29.968688965],[103.15631103500002,29.922729492],[103.12371826200001,29.922729492],[103.10729980500001,29.889892578],[103.12628173800002,29.862304687],[103.15087890600002,29.815124512],[103.16711425800001,29.788330078],[103.163879395,29.751281738],[103.15087890600002,29.725524902],[103.15588378900001,29.694274902],[103.11712646500001,29.681884766],[103.08349609400001,29.687927246],[103.04132080100001,29.696716309],[103.01049804700001,29.720703125],[102.97467041000002,29.727478027],[102.94250488300001,29.725891113],[102.94470214800002,29.695129395],[102.94891357400002,29.645874023],[102.94030761700002,29.603515625],[102.92572021500001,29.568908691],[102.90972900400001,29.542114258],[102.88232421900001,29.513916016],[102.85467529300001,29.489074707],[102.83587646500001,29.467102051],[102.85327148400002,29.436706543],[102.87048339800002,29.413696289],[102.91027832000002,29.421875],[102.945129395,29.401672363],[102.98510742200001,29.402526855],[102.99169921900001,29.431884766],[103.02929687500001,29.455688477],[103.06311035200001,29.432678223],[103.09069824200002,29.417724609],[103.12048339800002,29.430297852],[103.19470214800002,29.417114258],[103.204101562,29.449279785],[103.23010253900001,29.474487305],[103.26751709000001,29.466491699],[103.296691895,29.49029541],[103.28869628900001,29.519714355],[103.26452636700002,29.540283203],[103.27172851600001,29.578918457],[103.30047607400002,29.593505859],[103.34509277300002,29.599487305],[103.362304687,29.626281738],[103.34692382800002,29.66027832],[103.30047607400002,29.696899414],[103.30432128900001,29.732727051],[103.31427002,29.770874023],[103.34649658200001,29.806274414],[103.37768554700001,29.823913574],[103.40509033200001,29.80291748],[103.42309570300002,29.772888184],[103.44567871100001,29.794311523],[103.47808837900001,29.822875977],[103.51831054700001,29.83972168],[103.53088378900001,29.868103027],[103.60388183600001,29.90612793],[103.68572998000002,29.874511719],[103.73852539100001,29.854492187],[103.73931884800001,29.806518555],[103.72747802700002,29.781311035],[103.69488525400001,29.773498535],[103.70068359400001,29.739929199],[103.77008056600002,29.70111084],[103.80871582000002,29.714904785],[103.84008789100001,29.732299805],[103.87390136700002,29.734924316],[103.937316895,29.746704102],[103.92492675800001,29.79107666],[103.94592285200001,29.82208252],[103.98632812500001,29.877685547],[104.03912353500002,29.871276855],[104.08349609400001,29.871276855],[104.07507324200002,29.839294434],[104.08068847700001,29.809326172],[104.07269287100002,29.777893066],[104.09710693400001,29.751525879],[104.12548828100002,29.724914551],[104.15191650400001,29.702880859],[104.18627929700001,29.700317383],[104.21527099600002,29.672729492],[104.24310302700002,29.651672363],[104.31689453100002,29.676086426],[104.33807373000002,29.701477051],[104.36047363300001,29.726928711],[104.39050293000001,29.740478516],[104.42327880900001,29.742492676],[104.46429443400001,29.757507324],[104.51867675800001,29.79309082],[104.49169921900001,29.825927734],[104.50292968700002,29.858886719],[104.51312255900001,29.891723633],[104.51190185500002,29.919921875],[104.50012207000002,29.94732666],[104.47790527300002,29.976074219],[104.47351074200002,30.003723145],[104.49047851600001,30.040710449],[104.45971679700001,30.109130859],[104.41369628900001,30.141906738],[104.39630127,30.164672852],[104.36389160200001,30.19708252],[104.32391357400002,30.198303223],[104.28247070300002,30.21270752],[104.25128173800002,30.242492676],[104.24829101600001,30.271118164],[104.23889160200001,30.304870605],[104.21228027300002,30.349121094],[104.18170166000002,30.300109863],[104.14147949200002,30.276672363],[104.09887695300002,30.257324219],[104.06347656200002,30.247314453],[104.02868652300002,30.248474121],[103.99932861300002,30.262878418],[103.99291992200001,30.298278809],[103.98748779300001,30.337890625],[103.96368408200001,30.385925293],[103.91967773400002,30.347900391],[103.87487793000001,30.353881836],[103.82592773400002,30.349914551],[103.79229736300002,30.335327148],[103.762695312,30.315124512],[103.73852539100001,30.294311523],[103.71130371100001,30.276489258],[103.68090820300002,30.256286621],[103.65911865200002,30.231872559],[103.65032959000001,30.198913574],[103.61730957000002,30.211486816],[103.58532714800002,30.196289062],[103.54949951200001,30.171508789],[103.52410888700001,30.14630127],[103.50347900400001,30.118530273],[103.42791748000002,30.094726562],[103.36108398400002,30.09387207]]]}}
