{"type":"Feature","id":"bulk-99377448B55142133728775","bbox":[110.93310546900001,24.651489258,112.44750976600001,26.885498047],"properties":{"id":"bulk-99377448B55142133728775","name":"Yongzhou","nameEn":"Yongzhou","fullName":"Yongzhou","level":"city","boundaryRole":"administrative-extent","boundaryQuality":"generalized-source-2020","boundaryYearRepresented":"2020","bounds":[[110.93310546900001,24.651489258],[112.44750976600001,26.885498047]],"center":[111.69030761750001,25.7684936525],"centerMethod":"bounding-box midpoint; camera framing only","license":"CC-BY-3.0-IGO","attribution":"geoBoundaries / HDX, China administrative boundaries (2020)","source":{"provider":"geoBoundaries gbHumanitarian / HDX","url":"https://github.com/wmgeolab/geoBoundaries/raw/9469f09/releaseData/gbHumanitarian/CHN/ADM2/geoBoundaries-CHN-ADM2.geojson","metadataUrl":"https://www.geoboundaries.org/api/current/gbHumanitarian/CHN/ADM2/","shapeID":"99377448B55142133728775","shapeName":"Yongzhou","boundaryID":"CHN-ADM2-99377448","commit":"9469f09"},"geometryCounts":{"coordinates":222,"components":1,"holes":0},"boundaryNotice":"geoBoundaries / HDX 2020 年行政区数据，海岸和边界经过源数据概化，并非当前测绘成果。"},"geometry":{"type":"Polygon","coordinates":[[[112.19427490200002,26.114074707],[112.18371582000002,26.145080566],[112.17633056600002,26.186889648],[112.16790771500001,26.227905273],[112.15728759800001,26.262512207],[112.14147949200002,26.289916992],[112.12152099600002,26.32232666],[112.10949707000002,26.354125977],[112.113098145,26.39050293],[112.13311767600001,26.415710449],[112.13372802700002,26.444885254],[112.10308837900001,26.465087891],[112.13189697300001,26.489074707],[112.16552734400001,26.490112305],[112.17608642600001,26.516479492],[112.19030761700002,26.547729492],[112.13592529300001,26.56048584],[112.13507080100001,26.59552002],[112.11389160200001,26.621887207],[112.097473145,26.64630127],[112.06469726600001,26.643127441],[112.01727294900002,26.646484375],[111.98211669900002,26.653686523],[111.97711181600002,26.625915527],[111.988098145,26.593078613],[111.95690918000001,26.590515137],[111.94531250000001,26.621520996],[111.94329834000001,26.653686523],[111.91448974600002,26.715087891],[111.90447998000002,26.750488281],[111.88568115200002,26.787719727],[111.86907959000001,26.817687988],[111.84027099600002,26.805297852],[111.80950927700002,26.801696777],[111.77630615200002,26.815124512],[111.75653076200001,26.791687012],[111.72930908200001,26.777282715],[111.70812988300001,26.797912598],[111.72070312500001,26.855102539],[111.67468261700002,26.840087891],[111.63427734400001,26.849304199],[111.61047363300001,26.828674316],[111.59289550800001,26.800720215],[111.55108642600001,26.792480469],[111.52728271500001,26.811889648],[111.51947021500001,26.849487305],[111.48107910200001,26.856506348],[111.44848632800002,26.853881836],[111.41467285200001,26.860473633],[111.37969970700001,26.873474121],[111.35028076200001,26.885498047],[111.31768798800002,26.872314453],[111.30169677700002,26.842285156],[111.30047607400002,26.809875488],[111.30688476600001,26.772277832],[111.29748535200001,26.735473633],[111.27148437500001,26.706298828],[111.25207519500002,26.673095703],[111.24487304700001,26.631286621],[111.25689697300001,26.588317871],[111.26470947300001,26.555480957],[111.26989746100001,26.528686523],[111.26727294900002,26.491088867],[111.23071289100001,26.467529297],[111.18389892600001,26.467285156],[111.14672851600001,26.475097656],[111.10589599600002,26.545715332],[111.10650634800001,26.57989502],[111.10913085900002,26.613525391],[111.06488037100002,26.619873047],[111.04010009800001,26.581298828],[111.04351806600002,26.547119141],[111.04388427700002,26.499084473],[111.03009033200001,26.471313477],[111.00952148400002,26.432922363],[110.97607421900001,26.38470459],[111.07531738300001,26.297729492],[111.14447021500001,26.327880859],[111.19171142600001,26.287475586],[111.25292968700002,26.26751709],[111.26367187500001,26.222717285],[111.24768066400001,26.206726074],[111.22552490200002,26.185119629],[111.24047851600001,26.132080078],[111.23907470700001,26.079101562],[111.20208740200002,26.050476074],[111.15991210900002,26.011108398],[111.17468261700002,25.944702148],[111.24151611300002,25.858093262],[111.25549316400001,25.877075195],[111.30169677700002,25.913696289],[111.39471435500002,25.907897949],[111.43872070300002,25.870300293],[111.44348144500002,25.866271973],[111.44171142600001,25.863708496],[111.41827392600001,25.826904297],[111.35308837900001,25.766113281],[111.29211425800001,25.743896484],[111.27893066400001,25.711486816],[111.27947998000002,25.706481934],[111.28851318400001,25.611694336],[111.29608154300001,25.512878418],[111.29351806600002,25.499084473],[111.28387451200001,25.449890137],[111.23907470700001,25.40411377],[111.16949462900001,25.366516113],[111.10369873000002,25.308288574],[111.10107421900001,25.284301758],[111.09667968700002,25.245300293],[111.08868408200001,25.206481934],[111.05108642600001,25.187683105],[110.98950195300002,25.169921875],[110.96270752,25.142883301],[110.93310546900001,25.057312012],[110.95288085900002,24.961914062],[110.98950195300002,24.914123535],[111.07348632800002,24.945495605],[111.07330322300001,24.952880859],[111.07250976600001,24.976928711],[111.08447265600002,25.016479492],[111.11907959000001,25.039916992],[111.16192627,25.079528809],[111.21051025400001,25.118896484],[111.27008056600002,25.145690918],[111.27893066400001,25.135681152],[111.32147216800001,25.118530273],[111.34729003900001,25.132873535],[111.38690185500002,25.138916016],[111.41247558600001,25.074890137],[111.41650390600002,25.056091309],[111.41912841800001,25.043273926],[111.43872070300002,24.995483398],[111.42071533200001,24.953308105],[111.41827392600001,24.877502441],[111.42211914100001,24.828918457],[111.44049072300001,24.769287109],[111.40747070300002,24.691894531],[111.42431640600002,24.672912598],[111.46228027300002,24.686279297],[111.46472168000001,24.687072754],[111.480285645,24.660095215],[111.51330566400001,24.654296875],[111.52868652300002,24.651489258],[111.54052734400001,24.674072266],[111.57232666000002,24.691101074],[111.60192871100001,24.710693359],[111.64172363300001,24.753723145],[111.68432617200001,24.766906738],[111.73492431600002,24.792480469],[111.81372070300002,24.777526855],[111.863098145,24.777893066],[111.91229248000002,24.768493652],[111.94689941400001,24.773498535],[111.96368408200001,24.76171875],[111.97888183600001,24.746887207],[111.99908447300001,24.767700195],[112.01910400400001,24.77911377],[112.04089355500001,24.789672852],[112.07489013700001,24.813720703],[112.11047363300001,24.832275391],[112.11407470700001,24.834289551],[112.13647460900002,24.847290039],[112.15747070300002,24.871276855],[112.15490722700001,24.89831543],[112.13671875000001,24.911071777],[112.11968994100002,24.923095703],[112.09710693400001,24.934082031],[112.09027099600002,24.949523926],[112.12371826200001,25.003295898],[112.13031005900001,25.065307617],[112.13128662100002,25.070922852],[112.13787841800001,25.10748291],[112.14227294900002,25.145324707],[112.15747070300002,25.169494629],[112.18048095700001,25.176330566],[112.21411132800002,25.179504395],[112.25769043000001,25.164672852],[112.27947998000002,25.167114258],[112.30627441400001,25.171081543],[112.33087158200001,25.160888672],[112.36248779300001,25.147094727],[112.37731933600001,25.147705078],[112.38067627,25.157287598],[112.31689453100002,25.246887207],[112.31311035200001,25.275085449],[112.30828857400002,25.30847168],[112.34649658200001,25.325927734],[112.37390136700002,25.340698242],[112.41369628900001,25.366088867],[112.44750976600001,25.38848877],[112.42852783200001,25.431884766],[112.39587402300002,25.459472656],[112.38708496100001,25.486694336],[112.37829589800002,25.514099121],[112.34088134800001,25.522705078],[112.30468750000001,25.547302246],[112.27551269500002,25.55267334],[112.24108886700002,25.560119629],[112.22491455100001,25.585876465],[112.21752929700001,25.643493652],[112.22070312500001,25.685302734],[112.21691894500002,25.725708008],[112.24932861300002,25.739685059],[112.28167724600002,25.733093262],[112.31152343700002,25.714477539],[112.347473145,25.722106934],[112.36151123000002,25.748474121],[112.36407470700001,25.796081543],[112.34790039100001,25.824707031],[112.34912109400001,25.854309082],[112.32952880900001,25.900085449],[112.27130127,25.883483887],[112.24627685500002,25.903686523],[112.26208496100001,25.934326172],[112.27508544900002,25.97467041],[112.27172851600001,26.007507324],[112.29388427700002,26.038513184],[112.32312011700002,26.082885742],[112.30529785200001,26.105895996],[112.26348877,26.097900391],[112.22552490200002,26.092285156],[112.19427490200002,26.114074707]]]}}
