{"type":"Feature","id":"bulk-99377448B9146935583649","bbox":[114.91607666000002,22.658325195,116.07647705100001,23.499511719],"properties":{"id":"bulk-99377448B9146935583649","name":"Shanwei","nameEn":"Shanwei","fullName":"Shanwei","level":"city","boundaryRole":"administrative-extent","boundaryQuality":"generalized-source-2020","boundaryYearRepresented":"2020","bounds":[[114.91607666000002,22.658325195],[116.07647705100001,23.499511719]],"center":[115.49627685550001,23.078918457],"centerMethod":"bounding-box midpoint; camera framing only","license":"CC-BY-3.0-IGO","attribution":"geoBoundaries / HDX, China administrative boundaries (2020)","source":{"provider":"geoBoundaries gbHumanitarian / HDX","url":"https://github.com/wmgeolab/geoBoundaries/raw/9469f09/releaseData/gbHumanitarian/CHN/ADM2/geoBoundaries-CHN-ADM2.geojson","metadataUrl":"https://www.geoboundaries.org/api/current/gbHumanitarian/CHN/ADM2/","shapeID":"99377448B9146935583649","shapeName":"Shanwei","boundaryID":"CHN-ADM2-99377448","commit":"9469f09"},"geometryCounts":{"coordinates":330,"components":1,"holes":0},"boundaryNotice":"geoBoundaries / HDX 2020 年行政区数据，海岸和边界经过源数据概化，并非当前测绘成果。"},"geometry":{"type":"Polygon","coordinates":[[[115.42547607400002,23.313476562],[115.41192627,23.274291992],[115.38189697300001,23.222473145],[115.34210205100001,23.205322266],[115.30511474600002,23.19128418],[115.28747558600001,23.160522461],[115.27770996100001,23.12890625],[115.26129150400001,23.103515625],[115.22851562500001,23.077514648],[115.20068359400001,23.063110352],[115.17230224600002,23.049316406],[115.14910888700001,23.025695801],[115.12451171900001,23.010925293],[115.08911132800002,23.024475098],[115.05468750000001,22.99432373],[115.02252197300001,22.973693848],[114.98651123000002,22.951721191],[114.95471191400001,22.937927246],[114.91607666000002,22.916503906],[114.91827392600001,22.871276855],[114.91729736300002,22.838684082],[114.93151855500001,22.807678223],[114.92968750000001,22.756896973],[114.93670654300001,22.759094238],[114.94592285200001,22.746704102],[114.95172119100002,22.723327637],[114.95849609400001,22.701721191],[114.96990966800001,22.694702148],[114.99188232400002,22.703918457],[115.01190185500002,22.709472656],[115.00347900400001,22.739501953],[115.02789306600002,22.757873535],[115.02648925800001,22.767272949],[115.02008056600002,22.778503418],[115.02288818400001,22.79510498],[115.01568603500002,22.806518555],[115.00427246100001,22.81628418],[115.02490234400001,22.81427002],[115.03912353500002,22.805480957],[115.04748535200001,22.796875],[115.06030273400002,22.797119141],[115.08612060500002,22.802490234],[115.10888671900001,22.806884766],[115.11468505900001,22.804504395],[115.12847900400001,22.809326172],[115.13708496100001,22.81048584],[115.14752197300001,22.809875488],[115.15069580100001,22.806518555],[115.14990234400001,22.805480957],[115.14788818400001,22.80291748],[115.15191650400001,22.798522949],[115.14807128900001,22.794921875],[115.15228271500001,22.792907715],[115.16070556600002,22.785095215],[115.16528320300002,22.785888672],[115.16870117200001,22.782714844],[115.17089843700002,22.785705566],[115.16992187500001,22.790893555],[115.16729736300002,22.791870117],[115.16027832000002,22.8046875],[115.16229248000002,22.809082031],[115.16827392600001,22.812927246],[115.16949462900001,22.817687988],[115.16967773400002,22.820922852],[115.171691895,22.821289062],[115.17388916000002,22.822692871],[115.18627929700001,22.829711914],[115.19909668000001,22.833496094],[115.21331787100002,22.834289551],[115.23547363300001,22.832885742],[115.24670410200001,22.830322266],[115.25408935500002,22.839294434],[115.25988769500002,22.847717285],[115.25787353500002,22.856689453],[115.25988769500002,22.863525391],[115.26910400400001,22.872497559],[115.27752685500002,22.878295898],[115.288879395,22.885925293],[115.29888916000002,22.894104004],[115.30328369100002,22.898071289],[115.30047607400002,22.906677246],[115.30249023400002,22.908874512],[115.30712890600002,22.906921387],[115.31292724600002,22.908081055],[115.32092285200001,22.913879395],[115.32409668000001,22.916320801],[115.31732177700002,22.897094727],[115.31689453100002,22.891723633],[115.31872558600001,22.888122559],[115.31488037100002,22.879699707],[115.31750488300001,22.877075195],[115.32910156200002,22.871887207],[115.33007812500001,22.86932373],[115.32891845700001,22.865905762],[115.33050537100002,22.861877441],[115.32971191400001,22.858276367],[115.33392334000001,22.854125977],[115.33331298800002,22.850280762],[115.32568359400001,22.846130371],[115.32287597700001,22.842712402],[115.31109619100002,22.842529297],[115.30169677700002,22.834716797],[115.29290771500001,22.836120605],[115.29028320300002,22.834472656],[115.28411865200002,22.829528809],[115.26391601600001,22.8203125],[115.26367187500001,22.819885254],[115.26812744100002,22.819519043],[115.26892089800002,22.817504883],[115.26611328100002,22.81451416],[115.25872802700002,22.810913086],[115.25628662100002,22.806884766],[115.24530029300001,22.80267334],[115.22552490200002,22.795715332],[115.23010253900001,22.790100098],[115.22332763700001,22.78692627],[115.22167968700002,22.783874512],[115.22210693400001,22.783081055],[115.22851562500001,22.783325195],[115.26068115200002,22.792297363],[115.27648925800001,22.794128418],[115.29467773400002,22.794677734],[115.30969238300001,22.793518066],[115.31927490200002,22.791870117],[115.32067871100001,22.79107666],[115.34191894500002,22.77911377],[115.34710693400001,22.770080566],[115.37567138700001,22.776306152],[115.39031982400002,22.774719238],[115.40850830100001,22.763671875],[115.42071533200001,22.754882812],[115.39868164100001,22.748474121],[115.37689209000001,22.743103027],[115.35827636700002,22.743896484],[115.34490966800001,22.750915527],[115.34130859400001,22.748474121],[115.34149169900002,22.747924805],[115.34051513700001,22.741088867],[115.33630371100001,22.732116699],[115.33648681600002,22.727111816],[115.34271240200002,22.718688965],[115.34429931600002,22.712890625],[115.34991455100001,22.708679199],[115.355285645,22.708679199],[115.36529541000002,22.69909668],[115.37207031200002,22.697509766],[115.37689209000001,22.68927002],[115.38208007800002,22.688293457],[115.39288330100001,22.688903809],[115.39471435500002,22.689086914],[115.40130615200002,22.692321777],[115.40747070300002,22.692687988],[115.41888427700002,22.687927246],[115.421875,22.688903809],[115.42907714800002,22.697875977],[115.43231201200001,22.699523926],[115.44189453100002,22.698913574],[115.45007324200002,22.702880859],[115.46508789100001,22.701904297],[115.48651123000002,22.687927246],[115.49249267600001,22.68548584],[115.50231933600001,22.686279297],[115.51129150400001,22.68572998],[115.51367187500001,22.679504395],[115.52471923800002,22.674316406],[115.53289794900002,22.667907715],[115.54150390600002,22.670471191],[115.54870605500001,22.67010498],[115.55371093700002,22.667724609],[115.55749511700002,22.659484863],[115.55987548800002,22.661071777],[115.56268310500002,22.658325195],[115.56292724600002,22.678710937],[115.56109619100002,22.682128906],[115.55932617200001,22.683898926],[115.55908203100002,22.684875488],[115.55767822300001,22.688293457],[115.55230712900001,22.698486328],[115.55908203100002,22.707092285],[115.56268310500002,22.715087891],[115.570129395,22.723083496],[115.57409668000001,22.725708008],[115.59228515600002,22.748474121],[115.58508300800001,22.747680664],[115.58068847700001,22.74432373],[115.57373046900001,22.745300293],[115.57171630900001,22.746704102],[115.57147216800001,22.746704102],[115.55187988300001,22.748474121],[115.55169677700002,22.747314453],[115.55371093700002,22.744689941],[115.562316895,22.739685059],[115.56768798800002,22.730895996],[115.56512451200001,22.724914551],[115.55267334000001,22.711303711],[115.54888916000002,22.711486816],[115.54248046900001,22.716125488],[115.52429199200002,22.736083984],[115.52331543000001,22.737915039],[115.51068115200002,22.745910645],[115.50628662100002,22.759094238],[115.52172851600001,22.769897461],[115.52569580100001,22.775878906],[115.52972412100002,22.780090332],[115.53411865200002,22.781677246],[115.53509521500001,22.782104492],[115.53552246100001,22.782714844],[115.53967285200001,22.793273926],[115.55108642600001,22.80267334],[115.55627441400001,22.812316895],[115.55627441400001,22.819702148],[115.55871582000002,22.824279785],[115.56512451200001,22.83190918],[115.56970214800002,22.835876465],[115.57171630900001,22.839111328],[115.57928466800001,22.844299316],[115.58648681600002,22.850524902],[115.59667968700002,22.85748291],[115.53192138700001,22.82989502],[115.52069091800001,22.840698242],[115.51208496100001,22.865112305],[115.51068115200002,22.891906738],[115.51348877,22.892700195],[115.55352783200001,22.902893066],[115.52508544900002,22.86907959],[115.52551269500002,22.858886719],[115.63330078100002,22.887878418],[115.67810058600001,22.932678223],[115.73132324200002,22.93371582],[115.71588134800001,22.920715332],[115.70367431600002,22.914916992],[115.68609619100002,22.914672852],[115.65350341800001,22.877685547],[115.65368652300002,22.877502441],[115.65930175800001,22.877685547],[115.67712402300002,22.88092041],[115.68707275400001,22.880493164],[115.69287109400001,22.878112793],[115.69750976600001,22.872070312],[115.69830322300001,22.866516113],[115.69531250000001,22.855529785],[115.69732666000002,22.852111816],[115.72747802700002,22.853271484],[115.75268554700001,22.846496582],[115.75329589800002,22.846313477],[115.76531982400002,22.840881348],[115.77349853500002,22.831481934],[115.77752685500002,22.827880859],[115.79431152300002,22.827087402],[115.80627441400001,22.81628418],[115.81048584000001,22.800476074],[115.81011962900001,22.778076172],[115.80310058600001,22.794311523],[115.79791259800001,22.805725098],[115.79327392600001,22.808105469],[115.79272460900002,22.804077148],[115.79492187500001,22.797912598],[115.80029296900001,22.789916992],[115.79571533200001,22.784301758],[115.79827880900001,22.763916016],[115.79492187500001,22.761108398],[115.80090332000002,22.753723145],[115.81311035200001,22.759521484],[115.83111572300001,22.767883301],[115.84448242200001,22.777282715],[115.85791015600002,22.789672852],[115.87731933600001,22.800720215],[115.89508056600002,22.801513672],[115.91491699200002,22.801330566],[115.91711425800001,22.803527832],[115.92730712900001,22.808898926],[115.93548584000001,22.811279297],[115.93627929700001,22.811279297],[115.94970703100002,22.833312988],[115.94549560500002,22.836486816],[115.945129395,22.840698242],[115.95849609400001,22.836303711],[115.96551513700001,22.834289551],[115.96728515600002,22.831726074],[115.96508789100001,22.828491211],[115.97528076200001,22.824890137],[115.97827148400002,22.827880859],[115.98748779300001,22.832702637],[115.99047851600001,22.833129883],[115.99847412100002,22.838684082],[116.02050781200002,22.84588623],[116.02209472700001,22.845703125],[116.02630615200002,22.847900391],[116.05432128900001,22.850280762],[116.04888916000002,22.861083984],[116.03308105500001,22.876708984],[116.06292724600002,22.878723145],[116.07568359400001,22.879089355],[116.07647705100001,22.892883301],[116.062316895,22.902893066],[116.04888916000002,22.910888672],[116.02172851600001,22.93347168],[116.03070068400001,22.93170166],[116.00128173800002,22.943908691],[115.97747802700002,22.962524414],[115.94750976600001,22.988891602],[115.93908691400001,23.020080566],[115.95208740200002,23.052307129],[115.93048095700001,23.082519531],[115.90588378900001,23.099121094],[115.88391113300001,23.129882812],[115.85308837900001,23.136291504],[115.81011962900001,23.141296387],[115.78228759800001,23.159729004],[115.75732421900001,23.182678223],[115.74072265600002,23.216308594],[115.73547363300001,23.257324219],[115.79290771500001,23.267272949],[115.77648925800001,23.323730469],[115.79211425800001,23.347900391],[115.76568603500002,23.381286621],[115.72729492200001,23.382507324],[115.69268798800002,23.371704102],[115.65570068400001,23.370117187],[115.64630127,23.404296875],[115.65509033200001,23.430908203],[115.65008544900002,23.466674805],[115.59832763700001,23.499511719],[115.56530761700002,23.464294434],[115.53991699200002,23.448120117],[115.51489257800002,23.429321289],[115.49511718700002,23.408081055],[115.45629882800002,23.386901855],[115.44268798800002,23.346679687],[115.42547607400002,23.313476562]]]}}
