{"type":"Feature","id":"bulk-99377448B45821362104005","bbox":[112.37207031200002,22.655090332,113.31768798800002,23.547302246],"properties":{"id":"bulk-99377448B45821362104005","name":"Foshan","nameEn":"Foshan","fullName":"Foshan","level":"city","boundaryRole":"administrative-extent","boundaryQuality":"generalized-source-2020","boundaryYearRepresented":"2020","bounds":[[112.37207031200002,22.655090332],[113.31768798800002,23.547302246]],"center":[112.84487915000003,23.101196289],"centerMethod":"bounding-box midpoint; camera framing only","license":"CC-BY-3.0-IGO","attribution":"geoBoundaries / HDX, China administrative boundaries (2020)","source":{"provider":"geoBoundaries gbHumanitarian / HDX","url":"https://github.com/wmgeolab/geoBoundaries/raw/9469f09/releaseData/gbHumanitarian/CHN/ADM2/geoBoundaries-CHN-ADM2.geojson","metadataUrl":"https://www.geoboundaries.org/api/current/gbHumanitarian/CHN/ADM2/","shapeID":"99377448B45821362104005","shapeName":"Foshan","boundaryID":"CHN-ADM2-99377448","commit":"9469f09"},"geometryCounts":{"coordinates":89,"components":1,"holes":0},"boundaryNotice":"geoBoundaries / HDX 2020 年行政区数据，海岸和边界经过源数据概化，并非当前测绘成果。"},"geometry":{"type":"Polygon","coordinates":[[[113.31768798800002,22.814880371],[113.28387451200001,22.842712402],[113.26348877,22.870483398],[113.24829101600001,22.908508301],[113.245910645,22.943908691],[113.23907470700001,22.980285645],[113.21630859400001,23.006530762],[113.16247558600001,23.118896484],[113.16247558600001,23.152526855],[113.16351318400001,23.190917969],[113.15991210900002,23.23828125],[113.13671875000001,23.287902832],[113.09008789100001,23.32989502],[113.04589843700002,23.287719727],[113.00567627,23.283081055],[112.99792480500001,23.32409668],[112.97790527300002,23.357299805],[112.96807861300002,23.388305664],[112.94812011700002,23.427490234],[112.92431640600002,23.487487793],[112.90051269500002,23.522277832],[112.87988281200002,23.547302246],[112.83892822300001,23.539489746],[112.83270263700001,23.501098633],[112.80908203100002,23.478271484],[112.78167724600002,23.461730957],[112.75988769500002,23.413879395],[112.77008056600002,23.376098633],[112.79870605500001,23.362304687],[112.81610107400002,23.310913086],[112.81292724600002,23.277282715],[112.79608154300001,23.237670898],[112.71649169900002,23.235107422],[112.74627685500002,23.195495605],[112.75811767600001,23.160522461],[112.74371337900001,23.123901367],[112.74487304700001,23.09387207],[112.76647949200002,23.06829834],[112.77050781200002,23.035888672],[112.76470947300001,22.99432373],[112.73449707000002,22.961486816],[112.70367431600002,22.937072754],[112.67608642600001,22.923278809],[112.63647460900002,22.907287598],[112.58410644500002,22.894470215],[112.55151367200001,22.862121582],[112.53247070300002,22.839477539],[112.49188232400002,22.832519531],[112.47631835900002,22.804504395],[112.44531250000001,22.797302246],[112.40429687500001,22.789916992],[112.37530517600001,22.781494141],[112.37207031200002,22.741516113],[112.37969970700001,22.700500488],[112.41149902300002,22.687683105],[112.49328613300001,22.686096191],[112.53332519500002,22.655090332],[112.56268310500002,22.665283203],[112.56671142600001,22.697875977],[112.57952880900001,22.738891602],[112.60388183600001,22.75592041],[112.60931396500001,22.783874512],[112.64447021500001,22.770507812],[112.66412353500002,22.743530273],[112.67291259800001,22.701293945],[112.71228027300002,22.688720703],[112.75250244100002,22.704284668],[112.77130127,22.751708984],[112.78350830100001,22.776672363],[112.80310058600001,22.813293457],[112.82550048800002,22.833496094],[112.85809326200001,22.848083496],[112.90808105500001,22.819885254],[112.95227050800001,22.814086914],[112.99029541000002,22.839477539],[113.02410888700001,22.804077148],[113.05688476600001,22.751525879],[113.08148193400001,22.715881348],[113.11547851600001,22.701293945],[113.14971923800002,22.694519043],[113.18707275400001,22.708496094],[113.20812988300001,22.741088867],[113.23828125000001,22.761474609],[113.27307128900001,22.756896973],[113.30731201200001,22.757873535],[113.31610107400002,22.783325195],[113.27789306600002,22.778930664],[113.31091308600001,22.797485352],[113.31768798800002,22.814880371]]]}}
