{"type":"Feature","id":"bulk-99377448B28338919644715","bbox":[118.11987304700001,35.703674316,120.00610351600001,37.282287598],"properties":{"id":"bulk-99377448B28338919644715","name":"Weifang","nameEn":"Weifang","fullName":"Weifang","level":"city","boundaryRole":"administrative-extent","boundaryQuality":"generalized-source-2020","boundaryYearRepresented":"2020","bounds":[[118.11987304700001,35.703674316],[120.00610351600001,37.282287598]],"center":[119.06298828150001,36.492980957],"centerMethod":"bounding-box midpoint; camera framing only","license":"CC-BY-3.0-IGO","attribution":"geoBoundaries / HDX, China administrative boundaries (2020)","source":{"provider":"geoBoundaries gbHumanitarian / HDX","url":"https://github.com/wmgeolab/geoBoundaries/raw/9469f09/releaseData/gbHumanitarian/CHN/ADM2/geoBoundaries-CHN-ADM2.geojson","metadataUrl":"https://www.geoboundaries.org/api/current/gbHumanitarian/CHN/ADM2/","shapeID":"99377448B28338919644715","shapeName":"Weifang","boundaryID":"CHN-ADM2-99377448","commit":"9469f09"},"geometryCounts":{"coordinates":167,"components":1,"holes":0},"boundaryNotice":"geoBoundaries / HDX 2020 年行政区数据，海岸和边界经过源数据概化，并非当前测绘成果。"},"geometry":{"type":"Polygon","coordinates":[[[118.48828125000001,36.919494629],[118.46368408200001,36.895080566],[118.45971679700001,36.857299805],[118.45672607400002,36.830078125],[118.43829345700001,36.795715332],[118.39892578100002,36.771118164],[118.36492919900002,36.758483887],[118.32952880900001,36.74432373],[118.29571533200001,36.733520508],[118.26269531200002,36.72088623],[118.21728515600002,36.697692871],[118.20007324200002,36.662109375],[118.19232177700002,36.623718262],[118.17547607400002,36.590515137],[118.15209960900002,36.564697266],[118.12188720700001,36.539916992],[118.11987304700001,36.50567627],[118.14508056600002,36.485717773],[118.17633056600002,36.454101562],[118.19390869100002,36.417480469],[118.18872070300002,36.386474609],[118.18847656200002,36.353515625],[118.22967529300001,36.325073242],[118.26312255900001,36.298706055],[118.28332519500002,36.267272949],[118.29168701200001,36.23449707],[118.32788085900002,36.239501953],[118.34887695300002,36.213684082],[118.35552978500002,36.177307129],[118.36407470700001,36.147277832],[118.40789794900002,36.133300781],[118.43872070300002,36.109680176],[118.44848632800002,36.082275391],[118.48748779300001,36.069091797],[118.52587890600002,36.107116699],[118.55908203100002,36.139892578],[118.58807373000002,36.155883789],[118.62310791000002,36.148681641],[118.66070556600002,36.134277344],[118.70812988300001,36.133117676],[118.75152587900001,36.177490234],[118.81469726600001,36.174682617],[118.82507324200002,36.147277832],[118.82867431600002,36.111083984],[118.83630371100001,36.08392334],[118.87609863300001,36.080688477],[118.91870117200001,36.085876465],[118.95727539100001,36.086486816],[118.99707031200002,36.076293945],[119.02770996100001,36.062316895],[119.01910400400001,36.033508301],[118.96752929700001,36.00390625],[118.99310302700002,35.954711914],[119.02667236300002,35.949279785],[119.09429931600002,35.949279785],[119.13031005900001,35.923706055],[119.13830566400001,35.89630127],[119.15771484400001,35.86529541],[119.20770263700001,35.86328125],[119.25671386700002,35.869506836],[119.29132080100001,35.865478516],[119.31988525400001,35.850708008],[119.34252929700001,35.822692871],[119.34307861300002,35.791320801],[119.33068847700001,35.765075684],[119.36029052700002,35.747924805],[119.39569091800001,35.769714355],[119.42749023400002,35.793273926],[119.47088623000002,35.801086426],[119.48352050800001,35.770874023],[119.49029541000002,35.735900879],[119.50091552700002,35.703674316],[119.562316895,35.706726074],[119.56671142600001,35.735717773],[119.57550048800002,35.769470215],[119.60748291000002,35.789672852],[119.64648437500001,35.788879395],[119.68951416000002,35.797302246],[119.69970703100002,35.823913574],[119.68969726600001,35.851074219],[119.67749023400002,35.888916016],[119.67370605500001,35.925109863],[119.65728759800001,35.955871582],[119.66528320300002,35.981872559],[119.67132568400001,36.014526367],[119.65649414100001,36.040283203],[119.62512207000002,36.05670166],[119.60650634800001,36.080078125],[119.60870361300002,36.109680176],[119.63830566400001,36.128295898],[119.67651367200001,36.137878418],[119.72692871100001,36.148681641],[119.76489257800002,36.144287109],[119.79010009800001,36.167480469],[119.78350830100001,36.194274902],[119.77947998000002,36.229125977],[119.79187011700002,36.258911133],[119.82531738300001,36.274719238],[119.85772705100001,36.294921875],[119.87011718700002,36.323730469],[119.87487793000001,36.35168457],[119.90032959000001,36.379089355],[119.91107177700002,36.413879395],[119.93969726600001,36.431091309],[119.97448730500001,36.439086914],[120.00610351600001,36.45690918],[119.98291015600002,36.468688965],[119.93029785200001,36.488098145],[119.90850830100001,36.494689941],[119.72827148400002,36.528930664],[119.60369873000002,36.593688965],[119.56591796900001,36.629272461],[119.54650878900001,36.65612793],[119.50708007800002,36.704284668],[119.50549316400001,36.744689941],[119.51428222700001,36.764282227],[119.54809570300002,36.799499512],[119.55731201200001,36.821472168],[119.56628418000001,36.868713379],[119.55187988300001,36.935302734],[119.56988525400001,36.97668457],[119.56927490200002,36.996887207],[119.52612304700001,37.04309082],[119.54589843700002,37.103271484],[119.51812744100002,37.115112305],[119.49127197300001,37.11529541],[119.46789550800001,37.114318848],[119.44647216800001,37.112121582],[119.42230224600002,37.103881836],[119.39868164100001,37.092895508],[119.36669921900001,37.088928223],[119.33691406200002,37.092712402],[119.31127929700001,37.092712402],[119.28967285200001,37.08972168],[119.25732421900001,37.101928711],[119.23211669900002,37.105285645],[119.22491455100001,37.105285645],[119.19012451200001,37.105529785],[119.11651611300002,37.102478027],[119.08471679700001,37.164916992],[119.05889892600001,37.163879395],[119.02508544900002,37.186096191],[118.97851562500001,37.188293457],[118.99230957000002,37.217102051],[118.988098145,37.231872559],[118.98468017600001,37.243713379],[118.96752929700001,37.257507324],[118.94268798800002,37.26550293],[118.90869140600002,37.264099121],[118.88812255900001,37.269104004],[118.87847900400001,37.276916504],[118.87908935500002,37.282287598],[118.76428222700001,37.24609375],[118.72650146500001,37.238525391],[118.69470214800002,37.223693848],[118.65631103500002,37.205078125],[118.64331054700001,37.158325195],[118.64587402300002,37.128723145],[118.64587402300002,37.098327637],[118.64068603500002,37.060119629],[118.61492919900002,37.035888672],[118.56390380900001,37.037109375],[118.52807617200001,37.021118164],[118.54888916000002,36.997924805],[118.538879395,36.961486816],[118.52990722700001,36.932312012],[118.48828125000001,36.919494629]]]}}
