{"type":"Feature","id":"bulk-99377448B47925770988509","bbox":[96.92272949200002,32.415710449,101.79748535200001,35.655090332],"properties":{"id":"bulk-99377448B47925770988509","name":"Golog Tibetan Autonomous Prefecture","nameEn":"Golog Tibetan Autonomous Prefecture","fullName":"Golog Tibetan Autonomous Prefecture","level":"city","boundaryRole":"administrative-extent","boundaryQuality":"generalized-source-2020","boundaryYearRepresented":"2020","bounds":[[96.92272949200002,32.415710449],[101.79748535200001,35.655090332]],"center":[99.36010742200001,34.0354003905],"centerMethod":"bounding-box midpoint; camera framing only","license":"CC-BY-3.0-IGO","attribution":"geoBoundaries / HDX, China administrative boundaries (2020)","source":{"provider":"geoBoundaries gbHumanitarian / HDX","url":"https://github.com/wmgeolab/geoBoundaries/raw/9469f09/releaseData/gbHumanitarian/CHN/ADM2/geoBoundaries-CHN-ADM2.geojson","metadataUrl":"https://www.geoboundaries.org/api/current/gbHumanitarian/CHN/ADM2/","shapeID":"99377448B47925770988509","shapeName":"Golog Tibetan Autonomous Prefecture","boundaryID":"CHN-ADM2-99377448","commit":"9469f09"},"geometryCounts":{"coordinates":326,"components":1,"holes":0},"boundaryNotice":"geoBoundaries / HDX 2020 年行政区数据，海岸和边界经过源数据概化，并非当前测绘成果。"},"geometry":{"type":"Polygon","coordinates":[[[100.54388427700002,32.419494629],[100.57348632800002,32.415710449],[100.61669921900001,32.452880859],[100.65112304700001,32.502075195],[100.663085937,32.538696289],[100.66467285200001,32.601074219],[100.73229980500001,32.617126465],[100.72192382800002,32.641296387],[100.73370361300002,32.670715332],[100.85009765600002,32.650085449],[100.89849853500002,32.635925293],[100.94427490200002,32.604492187],[100.96911621100001,32.605529785],[101.02709960900002,32.640930176],[101.11267089800002,32.682128906],[101.12969970700001,32.656494141],[101.13592529300001,32.658508301],[101.21569824200002,32.683288574],[101.26629638700001,32.757324219],[101.22528076200001,32.835510254],[101.11071777300002,32.917114258],[101.12969970700001,33.040527344],[101.16748046900001,33.104675293],[101.20788574200002,33.162109375],[101.21850585900002,33.176879883],[101.27032470700001,33.192321777],[101.37707519500002,33.15447998],[101.40692138700001,33.151306152],[101.44287109400001,33.223083496],[101.50848388700001,33.214477539],[101.55609130900001,33.145690918],[101.62530517600001,33.12109375],[101.64630127,33.136901855],[101.66271972700001,33.149475098],[101.74188232400002,33.24987793],[101.67889404300001,33.309875488],[101.66967773400002,33.333129883],[101.721679687,33.42388916],[101.79748535200001,33.466308594],[101.796875,33.525085449],[101.76208496100001,33.521911621],[101.71148681600002,33.500671387],[101.663879395,33.484924316],[101.63507080100001,33.497314453],[101.60308837900001,33.531494141],[101.61187744100002,33.571289062],[101.60491943400001,33.597473145],[101.59851074200002,33.657470703],[101.58972168000001,33.688903809],[101.56512451200001,33.702697754],[101.53448486300002,33.700683594],[101.46807861300002,33.674072266],[101.45751953100002,33.664123535],[101.42327880900001,33.661682129],[101.35772705100001,33.658691406],[101.30487060500002,33.659484863],[101.26171875000001,33.671508789],[101.17828369100002,33.660095215],[101.18389892600001,33.699707031],[101.20471191400001,33.749328613],[101.19732666000002,33.788879395],[101.16467285200001,33.833679199],[101.05889892600001,33.891906738],[100.98370361300002,33.951293945],[100.91729736300002,34.020690918],[100.91607666000002,34.022094727],[100.88128662100002,34.092285156],[100.82928466800001,34.160705566],[100.83990478500002,34.250488281],[100.84008789100001,34.263671875],[100.84051513700001,34.340270996],[100.93048095700001,34.358520508],[101.00988769500002,34.371276855],[101.01690673800002,34.366516113],[101.00689697300001,34.40447998],[101.00128173800002,34.436889648],[100.99127197300001,34.466918945],[100.97808837900001,34.50390625],[100.96008300800001,34.545288086],[100.92730712900001,34.569885254],[100.92712402300002,34.604492187],[100.90350341800001,34.663330078],[100.90228271500001,34.679504395],[100.89587402300002,34.700927734],[100.88287353500002,34.712280273],[100.83270263700001,34.708679199],[100.78289794900002,34.667724609],[100.75231933600001,34.66229248],[100.704101562,34.674316406],[100.66851806600002,34.67767334],[100.63067627,34.699890137],[100.55688476600001,34.762695312],[100.50549316400001,34.799316406],[100.49688720700001,34.804870605],[100.47271728500002,34.812316895],[100.41809082000002,34.811279297],[100.37390136700002,34.8203125],[100.36108398400002,34.828674316],[100.31671142600001,34.871887207],[100.26568603500002,34.849304199],[100.22430419900002,34.836730957],[100.1875,34.823730469],[100.14868164100001,34.828674316],[100.10351562500001,34.834106445],[100.05010986300002,34.827087402],[100.01367187500001,34.816101074],[99.97369384800001,34.81427002],[99.93328857400002,34.830688477],[99.89288330100001,34.840881348],[99.846679687,34.846130371],[99.81048584000001,34.852905273],[99.780273437,34.871887207],[99.74731445300002,34.887084961],[99.70452880900001,34.903076172],[99.66589355500001,34.917907715],[99.61572265600002,34.935302734],[99.570129395,34.952514648],[99.51727294900002,34.962524414],[99.48547363300001,34.974914551],[99.45050048800002,35.002319336],[99.42572021500001,35.027893066],[99.40850830100001,35.051330566],[99.39447021500001,35.082702637],[99.38269043000001,35.119689941],[99.32391357400002,35.161315918],[99.30572509800001,35.188720703],[99.28448486300002,35.218322754],[99.25628662100002,35.24230957],[99.19592285200001,35.270874023],[99.195495605,35.304077148],[99.21728515600002,35.333679199],[99.24548339800002,35.363891602],[99.26232910200001,35.392883301],[99.27172851600001,35.430725098],[99.29290771500001,35.462280273],[99.30029296900001,35.492126465],[99.27947998,35.519897461],[99.26550293000001,35.549316406],[99.28692627,35.579101562],[99.25268554700001,35.655090332],[99.21728515600002,35.617675781],[99.17291259800001,35.616882324],[99.120117187,35.616088867],[99.08111572300001,35.611877441],[99.03167724600002,35.591918945],[98.99768066400001,35.571472168],[98.96569824200002,35.547912598],[98.92431640600002,35.544921875],[98.88208007800002,35.551513672],[98.84527587900001,35.58190918],[98.81408691400001,35.604919434],[98.79010009800001,35.581726074],[98.77972412100002,35.556274414],[98.74072265600002,35.529907227],[98.695129395,35.517883301],[98.66210937500001,35.505310059],[98.63171386700002,35.472900391],[98.58148193400001,35.459106445],[98.53009033200001,35.460876465],[98.47528076200001,35.472106934],[98.40148925800001,35.469299316],[98.36529541000002,35.47088623],[98.32531738300001,35.465515137],[98.28790283200001,35.450683594],[98.25347900400001,35.431518555],[98.21911621100001,35.408325195],[98.17468261700002,35.383483887],[98.11151123,35.36328125],[98.09252929700001,35.336730957],[98.07373046900001,35.314697266],[98.04168701200001,35.296508789],[97.99688720700001,35.287902832],[97.93267822300001,35.297485352],[97.88311767600001,35.3046875],[97.84289550800001,35.309509277],[97.79071044900002,35.325683594],[97.73547363300001,35.338684082],[97.70507812500001,35.352478027],[97.66552734400001,35.384887695],[97.63208007800002,35.39251709],[97.61169433600001,35.362670898],[97.60272216800001,35.33190918],[97.59527587900001,35.290893555],[97.58807373,35.248291016],[97.552124023,35.234924316],[97.52587890600002,35.256713867],[97.49267578100002,35.279296875],[97.452514648,35.299682617],[97.41290283200001,35.301513672],[97.35992431600002,35.292480469],[97.31170654300001,35.297119141],[97.31011962900001,35.261108398],[97.30151367200001,35.223876953],[97.28790283200001,35.196716309],[97.25830078100002,35.16809082],[97.22448730500001,35.135498047],[97.19171142600001,35.110290527],[97.16229248,35.070678711],[97.15228271500001,35.036499023],[97.14147949200002,34.997497559],[97.129089355,34.952514648],[97.10369873,34.916320801],[97.06988525400001,34.900695801],[97.02429199200002,34.899291992],[96.97967529300001,34.88470459],[96.94610595700001,34.858520508],[96.93572998,34.826477051],[96.92687988300001,34.792724609],[96.92272949200002,34.760681152],[96.929870605,34.732727051],[96.94610595700001,34.698913574],[96.971679687,34.669921875],[97.01867675800001,34.640319824],[97.08288574200002,34.63848877],[97.12628173800002,34.639892578],[97.16687011700002,34.642272949],[97.20947265600002,34.636474609],[97.22308349600002,34.605102539],[97.21173095700001,34.562072754],[97.19268798800002,34.535522461],[97.16088867200001,34.511291504],[97.19067382800002,34.481079102],[97.238098145,34.482727051],[97.26727294900002,34.456115723],[97.27648925800001,34.425476074],[97.28527832000002,34.393493652],[97.30712890600002,34.373474121],[97.35131835900002,34.35949707],[97.39532470700001,34.352478027],[97.43090820300002,34.340515137],[97.45971679700001,34.316894531],[97.488098145,34.286499023],[97.50970459000001,34.25769043],[97.520507812,34.229492187],[97.54248046900001,34.201904297],[97.58551025400001,34.202880859],[97.61187744100002,34.219482422],[97.64367675800001,34.191711426],[97.64709472700001,34.152893066],[97.65747070300002,34.115722656],[97.679077148,34.083129883],[97.703125,34.055725098],[97.72552490200002,34.006713867],[97.77349853500002,33.981079102],[97.81072998,33.976928711],[97.80712890600002,33.93548584],[97.81072998,33.87512207],[97.86950683600001,33.867492676],[97.92108154300001,33.899291992],[97.96429443400001,33.92767334],[98.04870605500001,33.94128418],[98.15209960900002,33.952087402],[98.26611328100002,33.9453125],[98.30328369100002,33.902282715],[98.30230712900001,33.856689453],[98.34112548800002,33.856079102],[98.38128662100002,33.867919922],[98.40393066400001,33.842285156],[98.42468261700002,33.84588623],[98.47412109400001,33.854309082],[98.52508544900002,33.836730957],[98.570129395,33.778503418],[98.63592529300001,33.719482422],[98.67211914100001,33.68170166],[98.64807128900001,33.642089844],[98.69067382800002,33.582702637],[98.71350097700001,33.530273437],[98.72991943400001,33.48449707],[98.75750732400002,33.445129395],[98.795898437,33.327270508],[98.76727294900002,33.288879395],[98.84869384800001,33.216918945],[98.83752441400001,33.178527832],[98.92248535200001,33.134521484],[99.00451660200001,33.07232666],[99.01928710900002,33.075317383],[99.04351806600002,33.090087891],[99.09252929700001,33.075683594],[99.16131591800001,33.053283691],[99.25268554700001,32.990905762],[99.27630615200002,32.941101074],[99.28912353500002,32.913879395],[99.32470703100002,32.87689209],[99.36511230500001,32.883911133],[99.37628173800002,32.868286133],[99.39727783200001,32.838500977],[99.43292236300002,32.774719238],[99.52270507800002,32.72869873],[99.55187988300001,32.713684082],[99.59930419900002,32.717712402],[99.63269043000001,32.695678711],[99.64807128900001,32.702270508],[99.64312744100002,32.741088867],[99.69488525400001,32.762512207],[99.722473145,32.715698242],[99.79248046900001,32.66192627],[99.84588623,32.669921875],[99.87628173800002,32.696472168],[99.86352539100001,32.762329102],[99.88989257800002,32.838684082],[99.98413085900002,32.861694336],[99.99169921900001,32.870300293],[100.01831054700001,32.92767334],[100.06530761700002,32.927124023],[100.04632568400001,32.887329102],[100.07727050800001,32.864685059],[100.10913085900002,32.863891602],[100.11712646500001,32.833312988],[100.13708496100001,32.777893066],[100.15167236300002,32.729125977],[100.11853027300002,32.680908203],[100.163879395,32.612304687],[100.21807861300002,32.604309082],[100.24011230500001,32.61932373],[100.23590087900001,32.654724121],[100.26727294900002,32.70892334],[100.28131103500002,32.746704102],[100.35028076200001,32.723693848],[100.41931152300002,32.746887207],[100.50427246100001,32.69128418],[100.54492187500001,32.624511719],[100.57287597700001,32.586914062],[100.51812744100002,32.527282715],[100.47131347700001,32.463928223],[100.52172851600001,32.422302246],[100.54388427700002,32.419494629]]]}}
