{"type":"Feature","id":"bulk-99377448B63704986990247","bbox":[111.84667968700002,30.408081055,113.503723145,31.61730957],"properties":{"id":"bulk-99377448B63704986990247","name":"Jingmen","nameEn":"Jingmen","fullName":"Jingmen","level":"city","boundaryRole":"administrative-extent","boundaryQuality":"generalized-source-2020","boundaryYearRepresented":"2020","bounds":[[111.84667968700002,30.408081055],[113.503723145,31.61730957]],"center":[112.67520141600001,31.0126953125],"centerMethod":"bounding-box midpoint; camera framing only","license":"CC-BY-3.0-IGO","attribution":"geoBoundaries / HDX, China administrative boundaries (2020)","source":{"provider":"geoBoundaries gbHumanitarian / HDX","url":"https://github.com/wmgeolab/geoBoundaries/raw/9469f09/releaseData/gbHumanitarian/CHN/ADM2/geoBoundaries-CHN-ADM2.geojson","metadataUrl":"https://www.geoboundaries.org/api/current/gbHumanitarian/CHN/ADM2/","shapeID":"99377448B63704986990247","shapeName":"Jingmen","boundaryID":"CHN-ADM2-99377448","commit":"9469f09"},"geometryCounts":{"coordinates":138,"components":1,"holes":0},"boundaryNotice":"geoBoundaries / HDX 2020 年行政区数据，海岸和边界经过源数据概化，并非当前测绘成果。"},"geometry":{"type":"Polygon","coordinates":[[[113.30792236300002,30.918701172],[113.29327392600001,30.9453125],[113.30133056600002,30.971496582],[113.33172607400002,30.989929199],[113.35809326200001,31.007324219],[113.39392089800002,31.041687012],[113.43267822300001,31.057128906],[113.44488525400001,31.084716797],[113.46850585900002,31.105895996],[113.503723145,31.137084961],[113.46350097700001,31.182922363],[113.45690918000001,31.217895508],[113.43872070300002,31.248474121],[113.40527343700002,31.270690918],[113.37811279300001,31.299499512],[113.34027099600002,31.308898926],[113.31707763700001,31.333312988],[113.31408691400001,31.364501953],[113.27349853500002,31.348693848],[113.24072265600002,31.350524902],[113.19891357400002,31.366882324],[113.17608642600001,31.389282227],[113.15051269500002,31.41607666],[113.11407470700001,31.444885254],[113.07470703100002,31.447509766],[113.02868652300002,31.45489502],[112.96948242200001,31.453918457],[112.91729736300002,31.474121094],[112.87487793000001,31.479125977],[112.86590576200001,31.506286621],[112.87567138700001,31.537109375],[112.86108398400002,31.569885254],[112.82568359400001,31.578308105],[112.79107666000002,31.589111328],[112.76312255900001,31.614501953],[112.72668457000002,31.61730957],[112.70648193400001,31.586486816],[112.68109130900001,31.561889648],[112.68371582000002,31.520690918],[112.68371582000002,31.491882324],[112.65051269500002,31.496887207],[112.61468505900001,31.513305664],[112.57952880900001,31.521118164],[112.55267334000001,31.539489746],[112.51312255900001,31.561706543],[112.480285645,31.565490723],[112.44488525400001,31.551086426],[112.41851806600002,31.53112793],[112.39447021500001,31.511108398],[112.34667968700002,31.507873535],[112.31787109400001,31.525085449],[112.27807617200001,31.553710937],[112.24029541000002,31.547912598],[112.19830322300001,31.538330078],[112.16589355500001,31.519287109],[112.14831543000001,31.481872559],[112.08972168000001,31.467285156],[112.05932617200001,31.450500488],[112.01928710900002,31.444091797],[111.98132324200002,31.44909668],[111.93487548800002,31.476928711],[111.91888427700002,31.444519043],[111.91607666000002,31.407287598],[111.90972900400001,31.373718262],[111.90228271500001,31.332092285],[111.91052246100001,31.303283691],[111.92572021500001,31.273681641],[111.88067627,31.253479004],[111.84667968700002,31.248291016],[111.86669921900001,31.219482422],[111.89892578100002,31.169311523],[111.90289306600002,31.130126953],[111.89929199200002,31.096130371],[111.90447998000002,31.06072998],[111.92730712900001,31.041320801],[111.95690918000001,31.020507812],[111.980285645,30.996276855],[111.99548339800002,30.970275879],[111.99987793000001,30.937683105],[111.995910645,30.900695801],[112.00427246100001,30.861083984],[112.02447509800001,30.814697266],[112.03588867200001,30.77947998],[112.03527832000002,30.745117187],[112.04028320300002,30.711914062],[112.05810546900001,30.66229248],[112.07788085900002,30.622497559],[112.08947753900001,30.586730957],[112.09490966800001,30.555480957],[112.10748291000002,30.530273437],[112.14611816400001,30.52947998],[112.14648437500001,30.502685547],[112.16247558600001,30.474304199],[112.18670654300001,30.497924805],[112.22808837900001,30.514526367],[112.25067138700001,30.489318848],[112.27648925800001,30.457702637],[112.28387451200001,30.426086426],[112.31048584000001,30.408081055],[112.33892822300001,30.428283691],[112.36889648400002,30.436523437],[112.41851806600002,30.430114746],[112.45227050800001,30.430908203],[112.49291992200001,30.417297363],[112.51348877,30.438476562],[112.53967285200001,30.464111328],[112.55371093700002,30.489685059],[112.56732177700002,30.515686035],[112.60308837900001,30.528686523],[112.59930419900002,30.560302734],[112.59869384800001,30.589111328],[112.60150146500001,30.639099121],[112.570129395,30.657714844],[112.55487060500002,30.682922363],[112.58532714800002,30.749694824],[112.597473145,30.743896484],[112.63171386700002,30.740722656],[112.65588378900001,30.758300781],[112.68048095700001,30.784301758],[112.70867919900002,30.801696777],[112.753723145,30.837890625],[112.78210449200002,30.820678711],[112.79589843700002,30.777526855],[112.81927490200002,30.754882812],[112.81127929700001,30.698913574],[112.87792968700002,30.735473633],[112.91687011700002,30.751281738],[112.94848632800002,30.770874023],[112.99768066400001,30.788879395],[113.03808593700002,30.789489746],[113.04528808600001,30.820495605],[113.07470703100002,30.837280273],[113.11291503900001,30.810302734],[113.16290283200001,30.818725586],[113.18829345700001,30.840881348],[113.23510742200001,30.879089355],[113.27209472700001,30.906677246],[113.30792236300002,30.918701172]]]}}
