{"type":"Feature","id":"bulk-99377448B92070789390767","bbox":[116.28930664100001,41.262084961,120.95111084000001,45.247070312],"properties":{"id":"bulk-99377448B92070789390767","name":"Chifeng","nameEn":"Chifeng","fullName":"Chifeng","level":"city","boundaryRole":"administrative-extent","boundaryQuality":"generalized-source-2020","boundaryYearRepresented":"2020","bounds":[[116.28930664100001,41.262084961],[120.95111084000001,45.247070312]],"center":[118.6202087405,43.2545776365],"centerMethod":"bounding-box midpoint; camera framing only","license":"CC-BY-3.0-IGO","attribution":"geoBoundaries / HDX, China administrative boundaries (2020)","source":{"provider":"geoBoundaries gbHumanitarian / HDX","url":"https://github.com/wmgeolab/geoBoundaries/raw/9469f09/releaseData/gbHumanitarian/CHN/ADM2/geoBoundaries-CHN-ADM2.geojson","metadataUrl":"https://www.geoboundaries.org/api/current/gbHumanitarian/CHN/ADM2/","shapeID":"99377448B92070789390767","shapeName":"Chifeng","boundaryID":"CHN-ADM2-99377448","commit":"9469f09"},"geometryCounts":{"coordinates":413,"components":1,"holes":0},"boundaryNotice":"geoBoundaries / HDX 2020 年行政区数据，海岸和边界经过源数据概化，并非当前测绘成果。"},"geometry":{"type":"Polygon","coordinates":[[[119.18688964800002,41.305725098],[119.20709228500002,41.320129395],[119.238098145,41.305480957],[119.26647949200002,41.318725586],[119.26367187500001,41.362487793],[119.26812744100002,41.387084961],[119.29351806600002,41.405090332],[119.32208252,41.439880371],[119.34210205100001,41.455078125],[119.34527587900001,41.479492187],[119.33172607400002,41.505126953],[119.30212402300002,41.538085937],[119.30572509800001,41.565673828],[119.33850097700001,41.591125488],[119.34051513700001,41.606506348],[119.30889892600001,41.624084473],[119.27770996100001,41.644714355],[119.27587890600002,41.69732666],[119.27368164100001,41.746887207],[119.26171875000001,41.784729004],[119.28247070300002,41.848327637],[119.29492187500001,41.878295898],[119.28967285200001,41.937316895],[119.30328369100002,41.976501465],[119.35571289100001,42.053283691],[119.35009765600002,42.075317383],[119.31909179700001,42.099121094],[119.28027343700002,42.129516602],[119.23309326200001,42.160522461],[119.21630859400001,42.195678711],[119.22790527300002,42.219482422],[119.30511474600002,42.288513184],[119.36987304700001,42.293273926],[119.41668701200001,42.324279785],[119.46649169900002,42.34552002],[119.48211669900002,42.366088867],[119.52990722700001,42.337524414],[119.55828857400002,42.273925781],[119.59191894500002,42.220703125],[119.64648437500001,42.204528809],[119.74188232400002,42.207519531],[119.80792236300002,42.194885254],[119.82989502,42.104125977],[119.81091308600001,42.072509766],[119.88891601600001,41.987487793],[119.97192382800002,41.894104004],[119.99487304700001,41.830871582],[119.98468017600001,41.765686035],[119.99688720700001,41.704284668],[120.02288818400001,41.694519043],[120.05987548800002,41.680908203],[120.08447265600002,41.69152832],[120.08892822300001,41.722290039],[120.10748291000002,41.784301758],[120.14508056600002,41.834899902],[120.17712402300002,41.889526367],[120.17907714800002,41.893127441],[120.21173095700001,41.93170166],[120.24810791000002,41.96270752],[120.36187744100002,41.966674805],[120.39227294900002,41.99029541],[120.43768310500002,42.031311035],[120.43530273400002,42.074279785],[120.43048095700001,42.100524902],[120.46948242200001,42.14050293],[120.52130127,42.148925781],[120.56927490200002,42.148681641],[120.60827636700002,42.169921875],[120.66070556600002,42.198913574],[120.74810791000002,42.222290039],[120.82830810500002,42.246276855],[120.80187988300001,42.275878906],[120.78491210900002,42.30090332],[120.76489257800002,42.339111328],[120.73529052700002,42.370910645],[120.68768310500002,42.383483887],[120.63189697300001,42.410095215],[120.61047363300001,42.432312012],[120.59069824200002,42.471496582],[120.56188964800002,42.522521973],[120.53692627,42.553894043],[120.51007080100001,42.589111328],[120.48352050800001,42.625488281],[120.46789550800001,42.656921387],[120.45611572300001,42.685302734],[120.44012451200001,42.735290527],[120.42230224600002,42.78112793],[120.41247558600001,42.807495117],[120.38012695300002,42.834716797],[120.37011718700002,42.86328125],[120.37188720700001,42.900695801],[120.35552978500002,42.93170166],[120.32568359400001,42.968505859],[120.29748535200001,43.008117676],[120.30267334000001,43.044677734],[120.312316895,43.067077637],[120.32751464800002,43.082275391],[120.38867187500001,43.103088379],[120.40509033200001,43.127319336],[120.41632080100001,43.158874512],[120.54187011700002,43.22088623],[120.59552002,43.277099609],[120.62829589800002,43.323120117],[120.68792724600002,43.374084473],[120.75329589800002,43.419921875],[120.71270752,43.409301758],[120.64508056600002,43.391296387],[120.58068847700001,43.37310791],[120.54730224600002,43.366271973],[120.45568847700001,43.361694336],[120.40808105500001,43.346923828],[120.39508056600002,43.34552002],[120.36907959000001,43.345092773],[120.32147216800001,43.353271484],[120.42089843700002,43.389892578],[120.44830322300001,43.399291992],[120.50170898400002,43.409118652],[120.55468750000001,43.416687012],[120.60888671900001,43.431091309],[120.63012695300002,43.443481445],[120.64752197300001,43.472106934],[120.66949462900001,43.489074707],[120.69110107400002,43.503479004],[120.76092529300001,43.535095215],[120.79547119100002,43.548706055],[120.82952880900001,43.557678223],[120.89392089800002,43.596679687],[120.93829345700001,43.630126953],[120.95111084000001,43.670898437],[120.92712402300002,43.684326172],[120.87011718700002,43.695678711],[120.84051513700001,43.714294434],[120.80432128900001,43.733276367],[120.78833007800002,43.799499512],[120.78710937500001,43.864074707],[120.77130127,43.895080566],[120.74432373000002,43.92388916],[120.72149658200001,43.950927734],[120.72650146500001,43.986694336],[120.73651123000002,44.021484375],[120.72869873000002,44.063903809],[120.71588134800001,44.103515625],[120.70111084000001,44.141479492],[120.67089843700002,44.187316895],[120.63208007800002,44.218505859],[120.60729980500001,44.24609375],[120.56091308600001,44.266296387],[120.50811767600001,44.269470215],[120.46191406200002,44.258117676],[120.41888427700002,44.264099121],[120.39611816400001,44.292907715],[120.36791992200001,44.336120605],[120.34832763700001,44.366088867],[120.32727050800001,44.39831543],[120.31787109400001,44.432128906],[120.28991699200002,44.474121094],[120.26647949200002,44.496704102],[120.24249267600001,44.525695801],[120.22149658200001,44.550292969],[120.19030761700002,44.585876465],[120.16912841800001,44.608276367],[120.13989257800002,44.638305664],[120.11889648400002,44.660705566],[120.08673095700001,44.68951416],[120.05468750000001,44.718505859],[120.02551269500002,44.743896484],[119.98992919900002,44.769897461],[119.96173095700001,44.793273926],[119.92572021500001,44.819519043],[119.88671875000001,44.846923828],[119.84851074200002,44.864318848],[119.81829834000001,44.884094238],[119.77929687500001,44.904296875],[119.74688720700001,44.926086426],[119.72027587900001,44.955078125],[119.69989013700001,44.982116699],[119.67968750000001,45.011291504],[119.65393066400001,45.049682617],[119.63153076200001,45.080688477],[119.60650634800001,45.108093262],[119.58410644500002,45.134887695],[119.54632568400001,45.163879395],[119.51330566400001,45.178283691],[119.47229003900001,45.191101074],[119.41748046900001,45.210693359],[119.37030029300001,45.226074219],[119.31628418000001,45.247070312],[119.30749511700002,45.195129395],[119.29248046900001,45.167297363],[119.28710937500001,45.135070801],[119.28088378900001,45.101074219],[119.29150390600002,45.068481445],[119.25830078100002,45.050476074],[119.21490478500002,45.036682129],[119.19873046900001,45.004272461],[119.18212890600002,44.970703125],[119.14831543000001,44.9453125],[119.10369873000002,44.93548584],[119.06329345700001,44.920898437],[119.04412841800001,44.89050293],[119.06091308600001,44.858520508],[119.09930419900002,44.842529297],[119.13348388700001,44.819702148],[119.14849853500002,44.788330078],[119.16729736300002,44.74987793],[119.15350341800001,44.724304199],[119.10650634800001,44.713317871],[119.08709716800001,44.68927002],[119.07928466800001,44.661499023],[119.05670166000002,44.636108398],[119.01928710900002,44.602111816],[118.98767089800002,44.579284668],[118.94952392600001,44.558288574],[118.91552734400001,44.537719727],[118.88488769500002,44.517700195],[118.84887695300002,44.49987793],[118.81109619100002,44.48449707],[118.76409912100002,44.470275879],[118.72052002,44.467285156],[118.66247558600001,44.466491699],[118.61871337900001,44.476928711],[118.57910156200002,44.465515137],[118.53411865200002,44.44732666],[118.49169921900001,44.433105469],[118.44451904300001,44.407714844],[118.41369628900001,44.389892578],[118.35107421900001,44.355895996],[118.31628418000001,44.336486816],[118.27832031200002,44.312316895],[118.24468994100002,44.290893555],[118.19427490200002,44.268493652],[118.14111328100002,44.247497559],[118.07910156200002,44.222106934],[118.02947998000002,44.199523926],[117.99108886700002,44.174682617],[117.96252441400001,44.152709961],[117.91748046900001,44.126098633],[117.88427734400001,44.106506348],[117.83489990200002,44.079284668],[117.78131103500002,44.053100586],[117.73767089800002,44.037902832],[117.66607666000002,44.044677734],[117.59851074200002,44.066711426],[117.54132080100001,44.092102051],[117.49212646500001,44.110107422],[117.44567871100001,44.11907959],[117.38452148400002,44.13067627],[117.33929443400001,44.133117676],[117.29650878900001,44.134277344],[117.24407959000001,44.129699707],[117.19030761700002,44.122314453],[117.15008544900002,44.112670898],[117.10388183600001,44.095703125],[117.07171630900001,44.070922852],[117.05187988300001,44.040710449],[117.03308105500001,44.016296387],[116.99267578100002,43.987304687],[116.94873046900001,43.958496094],[116.91912841800001,43.940917969],[116.89471435500002,43.918273926],[116.89190673800002,43.885070801],[116.92047119100002,43.853088379],[116.96209716800001,43.82232666],[116.99688720700001,43.794921875],[117.03192138700001,43.756713867],[117.03967285200001,43.718688965],[117.03228759800001,43.690673828],[116.99847412100002,43.660888672],[116.95428466800001,43.652893066],[116.91290283200001,43.652526855],[116.87750244100002,43.643493652],[116.82208252,43.617675781],[116.78350830100001,43.596923828],[116.74572753900001,43.575683594],[116.69348144500002,43.536682129],[116.66052246100001,43.508117676],[116.63732910200001,43.476074219],[116.59771728500002,43.431274414],[116.57031250000001,43.399719238],[116.54748535200001,43.373291016],[116.51007080100001,43.327880859],[116.48370361300002,43.288879395],[116.46032714800002,43.25970459],[116.41448974600002,43.230102539],[116.36688232400002,43.208312988],[116.31707763700001,43.195678711],[116.28930664100001,43.159484863],[116.30047607400002,43.128112793],[116.32629394500002,43.090698242],[116.34631347700001,43.059509277],[116.38610839800002,43.039916992],[116.41131591800001,43.01171875],[116.48608398400002,42.987670898],[116.52050781200002,42.976928711],[116.56707763700001,42.957702637],[116.59991455100001,42.938720703],[116.63153076200001,42.918884277],[116.66748046900001,42.892883301],[116.68792724600002,42.867675781],[116.69488525400001,42.826293945],[116.67108154300001,42.799499512],[116.65307617200001,42.774291992],[116.63269043000001,42.736877441],[116.61889648400002,42.709106445],[116.60748291000002,42.682922363],[116.60308837900001,42.65612793],[116.60308837900001,42.61907959],[116.61590576200001,42.586730957],[116.64807128900001,42.568725586],[116.67687988300001,42.540283203],[116.72589111300002,42.518127441],[116.76232910200001,42.50567627],[116.80108642600001,42.486877441],[116.82867431600002,42.466308594],[116.85668945300002,42.443908691],[116.91430664100001,42.40612793],[116.95489502,42.427307129],[117.01391601600001,42.440490723],[117.06567382800002,42.439086914],[117.15747070300002,42.446472168],[117.24768066400001,42.46270752],[117.31811523400002,42.436279297],[117.36730957000002,42.435913086],[117.39471435500002,42.452270508],[117.41687011700002,42.479675293],[117.42510986300002,42.515686035],[117.43951416000002,42.539123535],[117.48052978500002,42.5546875],[117.52648925800001,42.543701172],[117.56591796900001,42.529296875],[117.61352539100001,42.537719727],[117.6875,42.5625],[117.73687744100002,42.561889648],[117.74407959000001,42.556274414],[117.77252197300001,42.535095215],[117.80169677700002,42.516723633],[117.88732910200001,42.457275391],[117.95611572300001,42.40411377],[117.98651123000002,42.350097656],[117.99890136700002,42.300476074],[118.00872802700002,42.275085449],[117.98547363300001,42.239929199],[117.96630859400001,42.231079102],[117.93652343700002,42.216674805],[117.99829101600001,42.176696777],[118.04272460900002,42.155517578],[118.05871582000002,42.145324707],[118.05731201200001,42.133117676],[118.04791259800001,42.087280273],[118.09167480500001,42.097106934],[118.10791015600002,42.089904785],[118.10552978500002,42.068481445],[118.09887695300002,42.047302246],[118.097473145,42.035095215],[118.12207031200002,42.027282715],[118.15588378900001,42.02532959],[118.16931152300002,42.030700684],[118.18969726600001,42.06048584],[118.20770263700001,42.068481445],[118.22491455100001,42.070678711],[118.24011230500001,42.065673828],[118.25152587900001,42.06048584],[118.26092529300001,42.031677246],[118.24487304700001,41.99609375],[118.253723145,41.984924316],[118.28710937500001,41.952880859],[118.25732421900001,41.912902832],[118.24047851600001,41.903930664],[118.27252197300001,41.86932373],[118.31329345700001,41.848510742],[118.30548095700001,41.808898926],[118.29650878900001,41.767700195],[118.27532959000001,41.740478516],[118.26031494100002,41.735900879],[118.22528076200001,41.766296387],[118.16027832000002,41.788330078],[118.10888671900001,41.762695312],[118.09729003900001,41.706481934],[118.14190673800002,41.659484863],[118.19030761700002,41.611877441],[118.19628906200002,41.560913086],[118.26531982400002,41.545715332],[118.26770019500002,41.536315918],[118.27752685500002,41.497070312],[118.25292968700002,41.47088623],[118.23950195300002,41.444885254],[118.24468994100002,41.43548584],[118.24670410200001,41.432128906],[118.27172851600001,41.415710449],[118.29071044900002,41.386291504],[118.29309082000002,41.361328125],[118.30670166000002,41.31628418],[118.32592773400002,41.301879883],[118.34552002,41.291870117],[118.37829589800002,41.295715332],[118.41308593700002,41.299682617],[118.42608642600001,41.321105957],[118.47351074200002,41.344299316],[118.52972412100002,41.335693359],[118.57568359400001,41.333129883],[118.61431884800001,41.330871582],[118.63952636700002,41.317077637],[118.68792724600002,41.31427002],[118.73211669900002,41.318725586],[118.78228759800001,41.322875977],[118.81152343700002,41.299926758],[118.85229492200001,41.262084961],[118.92010498000002,41.270507812],[118.95111084000001,41.299682617],[119.02368164100001,41.297119141],[119.06988525400001,41.274719238],[119.17431640600002,41.306518555],[119.18688964800002,41.305725098]]]}}
