{"type":"Feature","id":"bulk-99377448B27466182715676","bbox":[117.49371337900001,30.657104492,118.71569824200002,31.506286621],"properties":{"id":"bulk-99377448B27466182715676","name":"Wuhu","nameEn":"Wuhu","fullName":"Wuhu","level":"city","boundaryRole":"administrative-extent","boundaryQuality":"generalized-source-2020","boundaryYearRepresented":"2020","bounds":[[117.49371337900001,30.657104492],[118.71569824200002,31.506286621]],"center":[118.10470581050001,31.0816955565],"centerMethod":"bounding-box midpoint; camera framing only","license":"CC-BY-3.0-IGO","attribution":"geoBoundaries / HDX, China administrative boundaries (2020)","source":{"provider":"geoBoundaries gbHumanitarian / HDX","url":"https://github.com/wmgeolab/geoBoundaries/raw/9469f09/releaseData/gbHumanitarian/CHN/ADM2/geoBoundaries-CHN-ADM2.geojson","metadataUrl":"https://www.geoboundaries.org/api/current/gbHumanitarian/CHN/ADM2/","shapeID":"99377448B27466182715676","shapeName":"Wuhu","boundaryID":"CHN-ADM2-99377448","commit":"9469f09"},"geometryCounts":{"coordinates":102,"components":1,"holes":0},"boundaryNotice":"geoBoundaries / HDX 2020 年行政区数据，海岸和边界经过源数据概化，并非当前测绘成果。"},"geometry":{"type":"Polygon","coordinates":[[[117.72229003900001,30.953491211],[117.72528076200001,31.011901855],[117.72491455100001,31.046081543],[117.73089599600002,31.075073242],[117.75109863300001,31.097106934],[117.78411865200002,31.117675781],[117.81890869100002,31.129272461],[117.84912109400001,31.118103027],[117.87689209000001,31.097473145],[117.91571044900002,31.074707031],[117.95068359400001,31.079711914],[117.97528076200001,31.126281738],[117.99230957000002,31.090270996],[117.99951171900001,31.06072998],[118.01507568400001,31.031311035],[118.03527832000002,31.00567627],[118.05810546900001,30.983093262],[118.08911132800002,30.969909668],[118.15130615200002,30.973327637],[118.14648437500001,30.943115234],[118.14807128900001,30.912109375],[118.12988281200002,30.885314941],[118.09069824200002,30.88671875],[118.05352783200001,30.864685059],[118.03088378900001,30.841491699],[117.99768066400001,30.844299316],[117.94787597700001,30.844482422],[117.97631835900002,30.811279297],[118.00469970700001,30.781677246],[118.03430175800001,30.759521484],[118.05889892600001,30.736694336],[118.08892822300001,30.717712402],[118.10772705100001,30.68951416],[118.09112548800002,30.657104492],[118.14410400400001,30.667114258],[118.16870117200001,30.68951416],[118.20928955100001,30.707885742],[118.25250244100002,30.709472656],[118.27392578100002,30.737304687],[118.28149414100001,30.768127441],[118.29571533200001,30.793273926],[118.31311035200001,30.822509766],[118.34088134800001,30.839111328],[118.38391113300001,30.849487305],[118.413879395,30.827514648],[118.42932128900001,30.801330566],[118.45050048800002,30.77130127],[118.47808837900001,30.815673828],[118.472473145,30.842529297],[118.47332763700001,30.885498047],[118.48187255900001,30.936523437],[118.46588134800001,30.965515137],[118.52130127,30.959472656],[118.56170654300001,30.964477539],[118.57373046900001,30.992919922],[118.56488037100002,31.033874512],[118.59869384800001,31.040283203],[118.63592529300001,31.030700684],[118.66131591800001,31.053527832],[118.66772460900002,31.082519531],[118.68450927700002,31.124084473],[118.71569824200002,31.144897461],[118.69311523400002,31.172729492],[118.67028808600001,31.194091797],[118.65747070300002,31.218688965],[118.65087890600002,31.254272461],[118.65087890600002,31.299682617],[118.62469482400002,31.292297363],[118.60308837900001,31.286071777],[118.59271240200002,31.287719727],[118.56408691400001,31.292114258],[118.56408691400001,31.326293945],[118.55371093700002,31.36328125],[118.51031494100002,31.396911621],[118.43029785200001,31.408508301],[118.39868164100001,31.423706055],[118.36590576200001,31.436523437],[118.33691406200002,31.471130371],[118.28991699200002,31.451904297],[118.25732421900001,31.448120117],[118.25311279300001,31.418518066],[118.29168701200001,31.408874512],[118.26788330100001,31.369873047],[118.19372558600001,31.390319824],[118.07391357400002,31.419494629],[117.98828125000001,31.43927002],[117.97668457000002,31.480529785],[117.93469238300001,31.492492676],[117.89947509800001,31.506286621],[117.83447265600002,31.491516113],[117.72851562500001,31.467102051],[117.70190429700001,31.426330566],[117.64971923800002,31.346313477],[117.57067871100001,31.256530762],[117.55187988300001,31.1953125],[117.49371337900001,30.995300293],[117.52288818400001,30.977905273],[117.56750488300001,30.977294922],[117.60632324200002,30.971679687],[117.64251709000001,30.965087891],[117.67730712900001,30.957885742],[117.72229003900001,30.953491211]]]}}
