{"type":"Feature","id":"bulk-99377448B68645444344118","bbox":[116.37408447300001,33.289306641,116.98870849600002,34.102478027],"properties":{"id":"bulk-99377448B68645444344118","name":"Huaibei","nameEn":"Huaibei","fullName":"Huaibei","level":"city","boundaryRole":"administrative-extent","boundaryQuality":"generalized-source-2020","boundaryYearRepresented":"2020","bounds":[[116.37408447300001,33.289306641],[116.98870849600002,34.102478027]],"center":[116.68139648450001,33.695892334],"centerMethod":"bounding-box midpoint; camera framing only","license":"CC-BY-3.0-IGO","attribution":"geoBoundaries / HDX, China administrative boundaries (2020)","source":{"provider":"geoBoundaries gbHumanitarian / HDX","url":"https://github.com/wmgeolab/geoBoundaries/raw/9469f09/releaseData/gbHumanitarian/CHN/ADM2/geoBoundaries-CHN-ADM2.geojson","metadataUrl":"https://www.geoboundaries.org/api/current/gbHumanitarian/CHN/ADM2/","shapeID":"99377448B68645444344118","shapeName":"Huaibei","boundaryID":"CHN-ADM2-99377448","commit":"9469f09"},"geometryCounts":{"coordinates":101,"components":1,"holes":0},"boundaryNotice":"geoBoundaries / HDX 2020 年行政区数据，海岸和边界经过源数据概化，并非当前测绘成果。"},"geometry":{"type":"Polygon","coordinates":[[[116.86370849600002,33.348693848],[116.89147949200002,33.381896973],[116.90728759800001,33.412475586],[116.91790771500001,33.442871094],[116.90008544900002,33.471313477],[116.89288330100001,33.505310059],[116.91290283200001,33.533508301],[116.91107177700002,33.561706543],[116.88647460900002,33.580322266],[116.85571289100001,33.603088379],[116.84210205100001,33.634277344],[116.85870361300002,33.666320801],[116.91650390600002,33.673522949],[116.92889404300001,33.730102539],[116.92712402300002,33.778320312],[116.95208740200002,33.872497559],[116.96667480500001,33.896484375],[116.98431396500001,33.932128906],[116.98870849600002,33.938293457],[116.98767089800002,33.94329834],[116.97668457000002,33.955322266],[116.96612548800002,33.963928223],[116.95672607400002,33.971923828],[116.95489502,33.977478027],[116.95532226600001,33.992919922],[116.95892334000001,34.009277344],[116.95947265600002,34.024108887],[116.95532226600001,34.03729248],[116.94891357400002,34.043701172],[116.94628906200002,34.053283691],[116.94848632800002,34.05847168],[116.96008300800001,34.071716309],[116.96691894500002,34.083496094],[116.96911621100001,34.090698242],[116.96850585900002,34.09387207],[116.96472168000001,34.094116211],[116.96148681600002,34.093322754],[116.95770263700001,34.092285156],[116.94689941400001,34.086730957],[116.94067382800002,34.086486816],[116.93530273400002,34.087097168],[116.93048095700001,34.088500977],[116.92651367200001,34.091308594],[116.91870117200001,34.094299316],[116.90649414100001,34.099914551],[116.90167236300002,34.101318359],[116.89611816400001,34.102478027],[116.88787841800001,34.102478027],[116.87908935500002,34.100524902],[116.86791992200001,34.094299316],[116.85552978500002,34.087890625],[116.84729003900001,34.081481934],[116.84167480500001,34.081298828],[116.83367919900002,34.078125],[116.82708740200002,34.073486328],[116.81591796900001,34.060119629],[116.80810546900001,34.043884277],[116.80407714800002,34.033874512],[116.80352783200001,34.027709961],[116.80169677700002,34.020874023],[116.78668212900001,34.026672363],[116.75152587900001,34.007873535],[116.68151855500001,34.008911133],[116.63330078100002,34.020324707],[116.538879395,34.037719727],[116.55651855500001,34.018920898],[116.59887695300002,33.948730469],[116.61871337900001,33.916687012],[116.59991455100001,33.884887695],[116.54907226600001,33.882873535],[116.52008056600002,33.906311035],[116.46752929700001,33.880493164],[116.44848632800002,33.844909668],[116.40588378900001,33.847717285],[116.37829589800002,33.811889648],[116.40087890600002,33.790283203],[116.37408447300001,33.789123535],[116.42272949200002,33.765075684],[116.44927978500002,33.740905762],[116.47192382800002,33.709899902],[116.47991943400001,33.675476074],[116.48370361300002,33.642089844],[116.51690673800002,33.620727539],[116.53912353500002,33.590881348],[116.53668212900001,33.558288574],[116.52410888700001,33.531494141],[116.51892089800002,33.504272461],[116.52209472700001,33.465881348],[116.56469726600001,33.468688965],[116.59692382800002,33.474487305],[116.64068603500002,33.472900391],[116.68927002,33.460510254],[116.72729492200001,33.448913574],[116.76147460900002,33.42767334],[116.78790283200001,33.392883301],[116.79431152300002,33.354675293],[116.78387451200001,33.324279785],[116.78350830100001,33.295715332],[116.81909179700001,33.289306641],[116.85388183600001,33.304321289],[116.86370849600002,33.348693848]]]}}
