{"type":"Feature","id":"bulk-99377448B96011767840326","bbox":[120.25708007800002,28.019897461,121.70147705100001,29.321899414],"properties":{"id":"bulk-99377448B96011767840326","name":"Taizhou","nameEn":"Taizhou","fullName":"Taizhou","level":"city","boundaryRole":"administrative-extent","boundaryQuality":"generalized-source-2020","boundaryYearRepresented":"2020","bounds":[[120.25708007800002,28.019897461],[121.70147705100001,29.321899414]],"center":[120.97927856450002,28.6708984375],"centerMethod":"bounding-box midpoint; camera framing only","license":"CC-BY-3.0-IGO","attribution":"geoBoundaries / HDX, China administrative boundaries (2020)","source":{"provider":"geoBoundaries gbHumanitarian / HDX","url":"https://github.com/wmgeolab/geoBoundaries/raw/9469f09/releaseData/gbHumanitarian/CHN/ADM2/geoBoundaries-CHN-ADM2.geojson","metadataUrl":"https://www.geoboundaries.org/api/current/gbHumanitarian/CHN/ADM2/","shapeID":"99377448B96011767840326","shapeName":"Taizhou","boundaryID":"CHN-ADM2-99377448","commit":"9469f09"},"geometryCounts":{"coordinates":605,"components":8,"holes":0},"boundaryNotice":"geoBoundaries / HDX 2020 年行政区数据，海岸和边界经过源数据概化，并非当前测绘成果。"},"geometry":{"type":"MultiPolygon","coordinates":[[[[121.14031982400002,28.019897461],[121.15368652300002,28.027893066],[121.15307617200001,28.027893066],[121.14050293000001,28.020874023],[121.14031982400002,28.019897461]]],[[[121.20068359400001,28.181884766],[121.20031738300001,28.18371582],[121.20007324200002,28.183288574],[121.20068359400001,28.181884766]]],[[[121.26708984400001,28.187927246],[121.23669433600001,28.207275391],[121.23132324200002,28.207702637],[121.22869873000002,28.190307617],[121.22229003900001,28.18170166],[121.21472168000001,28.170288086],[121.20672607400002,28.17388916],[121.20709228500002,28.172485352],[121.20550537100002,28.169677734],[121.20172119100002,28.16809082],[121.19567871100001,28.169494629],[121.18389892600001,28.155700684],[121.17889404300001,28.15447998],[121.17309570300002,28.149108887],[121.16949462900001,28.147705078],[121.16870117200001,28.146911621],[121.16192627,28.144104004],[121.15667724600002,28.137695312],[121.15228271500001,28.136291504],[121.14849853500002,28.138122559],[121.13867187500001,28.134277344],[121.13287353500002,28.131713867],[121.13830566400001,28.116271973],[121.13592529300001,28.111328125],[121.13812255900001,28.103271484],[121.13830566400001,28.102478027],[121.14172363300001,28.102294922],[121.14532470700001,28.099487305],[121.15032959000001,28.086486816],[121.15612793000001,28.082702637],[121.15771484400001,28.077697754],[121.15307617200001,28.06427002],[121.14587402300002,28.05871582],[121.14691162100002,28.05670166],[121.15350341800001,28.054870605],[121.15631103500002,28.051879883],[121.15191650400001,28.043884277],[121.15411377,28.040100098],[121.15789794900002,28.040710449],[121.16290283200001,28.045715332],[121.17669677700002,28.048706055],[121.18090820300002,28.045471191],[121.19891357400002,28.052307129],[121.20050048800002,28.05291748],[121.21868896500001,28.056274414],[121.22009277300002,28.05847168],[121.21789550800001,28.061279297],[121.21270752,28.059692383],[121.20947265600002,28.063476562],[121.21527099600002,28.063903809],[121.22009277300002,28.066101074],[121.22052002,28.069885254],[121.23468017600001,28.064697266],[121.24090576200001,28.066101074],[121.24108886700002,28.06048584],[121.24627685500002,28.056518555],[121.24829101600001,28.05670166],[121.25012207000002,28.057128906],[121.25091552700002,28.058898926],[121.24768066400001,28.069885254],[121.24572753900001,28.071289062],[121.23748779300001,28.071716309],[121.23168945300002,28.074707031],[121.23010253900001,28.078491211],[121.23309326200001,28.084106445],[121.23889160200001,28.082702637],[121.24127197300001,28.082885742],[121.24487304700001,28.087280273],[121.25311279300001,28.083129883],[121.25628662100002,28.083129883],[121.26007080100001,28.085693359],[121.26531982400002,28.086486816],[121.26788330100001,28.084106445],[121.27130127,28.096130371],[121.26171875000001,28.103271484],[121.25012207000002,28.120117187],[121.25012207000002,28.121887207],[121.25030517600001,28.137329102],[121.25549316400001,28.148681641],[121.25128173800002,28.153686523],[121.25872802700002,28.166320801],[121.26611328100002,28.172912598],[121.26867675800001,28.177124023],[121.27349853500002,28.180908203],[121.27832031200002,28.178100586],[121.28570556600002,28.183288574],[121.28350830100001,28.186096191],[121.27587890600002,28.1875],[121.27069091800001,28.192687988],[121.26708984400001,28.187927246]]],[[[121.230285645,28.342529297],[121.23608398400002,28.343505859],[121.23907470700001,28.346679687],[121.23828125000001,28.350708008],[121.22668457000002,28.346496582],[121.230285645,28.342529297]]],[[[121.60772705100001,28.506713867],[121.60809326200001,28.507507324],[121.61468505900001,28.526123047],[121.60827636700002,28.528930664],[121.60308837900001,28.521484375],[121.60272216800001,28.515319824],[121.60369873000002,28.510498047],[121.60772705100001,28.506713867]]],[[[121.57287597700001,29.049072266],[121.56927490200002,29.05090332],[121.56347656200002,29.051086426],[121.55950927700002,29.04888916],[121.56951904300001,29.049072266],[121.57287597700001,29.049072266]]],[[[121.53332519500002,29.115112305],[121.53771972700001,29.116088867],[121.53692627,29.116699219],[121.53332519500002,29.115112305]]],[[[120.38812255900001,28.806091309],[120.37451171900001,28.77532959],[120.35272216800001,28.743713379],[120.34210205100001,28.70892334],[120.32690429700001,28.67791748],[120.31372070300002,28.647277832],[120.32891845700001,28.620483398],[120.33068847700001,28.589111328],[120.31372070300002,28.561523437],[120.28070068400001,28.553894043],[120.25708007800002,28.534912109],[120.26690673800002,28.50592041],[120.30108642600001,28.493103027],[120.33691406200002,28.485717773],[120.37249755900001,28.464294434],[120.40808105500001,28.458312988],[120.41571044900002,28.48651123],[120.41632080100001,28.519287109],[120.41607666000002,28.5546875],[120.45330810500002,28.566711426],[120.49768066400001,28.557495117],[120.53808593700002,28.540283203],[120.56628418000001,28.526123047],[120.59649658200001,28.518676758],[120.62548828100002,28.53527832],[120.64172363300001,28.561096191],[120.69152832000002,28.56829834],[120.72912597700001,28.566711426],[120.76690673800002,28.558105469],[120.79809570300002,28.574707031],[120.81732177700002,28.52331543],[120.82611084000001,28.496276855],[120.84887695300002,28.47668457],[120.88067627,28.473083496],[120.91650390600002,28.470703125],[120.95007324200002,28.474121094],[121.04229736300002,28.473327637],[121.07287597700001,28.497497559],[121.11108398400002,28.510681152],[121.14251709000001,28.505310059],[121.16888427700002,28.479492187],[121.17407226600001,28.451904297],[121.18609619100002,28.418518066],[121.21148681600002,28.402282715],[121.19909668000001,28.38848877],[121.20611572300001,28.384887695],[121.19787597700001,28.376708984],[121.19891357400002,28.375305176],[121.20092773400002,28.374084473],[121.20928955100001,28.380310059],[121.222473145,28.374694824],[121.22308349600002,28.372924805],[121.22210693400001,28.371887207],[121.22088623000002,28.370727539],[121.21472168000001,28.36932373],[121.21252441400001,28.362915039],[121.21368408200001,28.360107422],[121.21612548800002,28.357727051],[121.22027587900001,28.357910156],[121.22509765600002,28.35369873],[121.23651123000002,28.354309082],[121.24389648400002,28.350891113],[121.25787353500002,28.350280762],[121.26287841800001,28.352905273],[121.27252197300001,28.361083984],[121.27612304700001,28.361083984],[121.27709960900002,28.357727051],[121.27429199200002,28.35369873],[121.25769043000001,28.341125488],[121.24432373000002,28.340087891],[121.24108886700002,28.338500977],[121.24871826200001,28.335876465],[121.26330566400001,28.326293945],[121.22888183600001,28.3203125],[121.22869873000002,28.319091797],[121.23089599600002,28.317504883],[121.23168945300002,28.303283691],[121.24127197300001,28.301513672],[121.24987793000001,28.29510498],[121.25347900400001,28.289916992],[121.25427246100001,28.281494141],[121.26147460900002,28.278076172],[121.26690673800002,28.280090332],[121.27111816400001,28.277893066],[121.26031494100002,28.269714355],[121.26007080100001,28.268676758],[121.25750732400002,28.259277344],[121.25750732400002,28.253295898],[121.26031494100002,28.249694824],[121.25872802700002,28.245483398],[121.26287841800001,28.239074707],[121.26647949200002,28.236328125],[121.26489257800002,28.234313965],[121.26531982400002,28.231323242],[121.27087402300002,28.226074219],[121.26867675800001,28.222290039],[121.26928710900002,28.219909668],[121.27288818400001,28.218505859],[121.27429199200002,28.213684082],[121.27728271500001,28.211730957],[121.27429199200002,28.206298828],[121.27447509800001,28.197509766],[121.27972412100002,28.19128418],[121.28289794900002,28.190490723],[121.296875,28.19152832],[121.29968261700002,28.190124512],[121.30212402300002,28.181091309],[121.30609130900001,28.17590332],[121.30810546900001,28.174072266],[121.31427002,28.168701172],[121.31829834000001,28.166687012],[121.32647705100001,28.167480469],[121.33068847700001,28.16607666],[121.33471679700001,28.161499023],[121.33612060500002,28.157287598],[121.33032226600001,28.150878906],[121.33807373000002,28.150085449],[121.34552002,28.151306152],[121.34667968700002,28.148925781],[121.34307861300002,28.144287109],[121.34448242200001,28.141479492],[121.34692382800002,28.140930176],[121.35290527300002,28.143676758],[121.35852050800001,28.139099121],[121.36230468700002,28.139709473],[121.36352539100001,28.141479492],[121.36871337900001,28.15447998],[121.37292480500001,28.156494141],[121.37567138700001,28.160888672],[121.38049316400001,28.173278809],[121.37829589800002,28.179870605],[121.36730957000002,28.179321289],[121.36468505900001,28.180908203],[121.36450195300002,28.185119629],[121.36407470700001,28.184875488],[121.36450195300002,28.186279297],[121.36431884800001,28.188720703],[121.36529541000002,28.189086914],[121.36968994100002,28.205871582],[121.36669921900001,28.207092285],[121.36407470700001,28.210510254],[121.36352539100001,28.214904785],[121.36987304700001,28.224121094],[121.37530517600001,28.221496582],[121.37731933600001,28.229492187],[121.38848877,28.230712891],[121.39752197300001,28.232727051],[121.40588378900001,28.230285645],[121.41052246100001,28.234313965],[121.41552734400001,28.242126465],[121.41967773400002,28.259094238],[121.41290283200001,28.271728516],[121.39648437500001,28.275878906],[121.40008544900002,28.287475586],[121.40527343700002,28.29107666],[121.40252685500002,28.293273926],[121.40148925800001,28.297119141],[121.40289306600002,28.301879883],[121.40649414100001,28.3046875],[121.41168212900001,28.305297852],[121.41851806600002,28.302307129],[121.42071533200001,28.304504395],[121.42510986300002,28.304870605],[121.43212890600002,28.298706055],[121.43389892600001,28.298095703],[121.44128418000001,28.312683105],[121.44989013700001,28.322875977],[121.45672607400002,28.322509766],[121.46447753900001,28.330078125],[121.48187255900001,28.336303711],[121.48590087900001,28.334289551],[121.49847412100002,28.335693359],[121.50988769500002,28.332519531],[121.52148437500001,28.332885742],[121.53710937500001,28.325317383],[121.54467773400002,28.323913574],[121.546691895,28.319519043],[121.54791259800001,28.313903809],[121.55108642600001,28.313110352],[121.55908203100002,28.317687988],[121.56549072300001,28.313293457],[121.57629394500002,28.31072998],[121.58209228500002,28.306884766],[121.59027099600002,28.295715332],[121.59527587900001,28.286071777],[121.59552002,28.278076172],[121.59088134800001,28.272521973],[121.59112548800002,28.268310547],[121.58850097700001,28.264892578],[121.58068847700001,28.260314941],[121.57952880900001,28.257324219],[121.58288574200002,28.254516602],[121.58288574200002,28.250488281],[121.58569335900002,28.248474121],[121.59613037100002,28.252075195],[121.60272216800001,28.253112793],[121.60552978500002,28.253479004],[121.60992431600002,28.261474609],[121.61328125000001,28.260314941],[121.61828613300001,28.276306152],[121.61853027300002,28.276489258],[121.62152099600002,28.286071777],[121.63427734400001,28.312072754],[121.63848877,28.336486816],[121.62731933600001,28.33807373],[121.62567138700001,28.336303711],[121.62188720700001,28.336120605],[121.62048339800002,28.33807373],[121.620910645,28.339111328],[121.61987304700001,28.339294434],[121.59350585900002,28.34552002],[121.58068847700001,28.352294922],[121.57452392600001,28.377502441],[121.57330322300001,28.400512695],[121.56549072300001,28.413879395],[121.55792236300002,28.436706543],[121.55767822300001,28.459472656],[121.55731201200001,28.471923828],[121.55670166000002,28.484313965],[121.57928466800001,28.486328125],[121.57708740200002,28.488708496],[121.56829834000001,28.489929199],[121.55908203100002,28.486877441],[121.54772949200002,28.490478516],[121.53790283200001,28.491088867],[121.54211425800001,28.496520996],[121.55590820300002,28.49230957],[121.56170654300001,28.492492676],[121.56768798800002,28.495300293],[121.56872558600001,28.497680664],[121.562316895,28.512329102],[121.55651855500001,28.517883301],[121.54931640600002,28.517089844],[121.52612304700001,28.524719238],[121.51812744100002,28.551879883],[121.50909423800002,28.588500977],[121.50329589800002,28.608703613],[121.49890136700002,28.624084473],[121.48529052700002,28.650085449],[121.45428466800001,28.672302246],[121.43170166000002,28.684509277],[121.44250488300001,28.68548584],[121.44372558600001,28.69152832],[121.44927978500002,28.690917969],[121.45690918000001,28.692687988],[121.46667480500001,28.691711426],[121.48492431600002,28.696716309],[121.49169921900001,28.696289062],[121.49450683600001,28.696899414],[121.49768066400001,28.695922852],[121.50848388700001,28.695129395],[121.51208496100001,28.6953125],[121.51409912100002,28.694702148],[121.51727294900002,28.694519043],[121.56091308600001,28.72052002],[121.59527587900001,28.718078613],[121.59729003900001,28.718505859],[121.60729980500001,28.721313477],[121.60888671900001,28.721313477],[121.62487793000001,28.725280762],[121.62750244100002,28.732727051],[121.62792968700002,28.733886719],[121.62652587900001,28.743713379],[121.62890625000001,28.763122559],[121.63452148400002,28.775085449],[121.63452148400002,28.77532959],[121.63488769500002,28.776489258],[121.64093017600001,28.781921387],[121.64611816400001,28.784484863],[121.64410400400001,28.786071777],[121.64508056600002,28.787719727],[121.65148925800001,28.788696289],[121.65612793000001,28.786499023],[121.66528320300002,28.788085937],[121.66571044900002,28.787902832],[121.66888427700002,28.789306641],[121.65032959000001,28.799316406],[121.65069580100001,28.800109863],[121.64392089800002,28.80090332],[121.64288330100001,28.802124023],[121.65112304700001,28.809326172],[121.65649414100001,28.8125],[121.65869140600002,28.816894531],[121.65832519500002,28.817504883],[121.65930175800001,28.818481445],[121.66467285200001,28.82989502],[121.62487793000001,28.83190918],[121.62371826200001,28.83807373],[121.62048339800002,28.855285645],[121.63171386700002,28.876098633],[121.60552978500002,28.885925293],[121.59332275400001,28.881713867],[121.57171630900001,28.885498047],[121.53527832000002,28.890075684],[121.50347900400001,28.898498535],[121.50830078100002,28.927307129],[121.50231933600001,28.933898926],[121.49768066400001,28.93170166],[121.495910645,28.934875488],[121.49731445300002,28.939086914],[121.49072265600002,28.946289062],[121.53228759800001,28.965087891],[121.53649902300002,28.959899902],[121.53771972700001,28.961120605],[121.54327392600001,28.962524414],[121.54547119100002,28.959472656],[121.55670166000002,28.965270996],[121.55908203100002,28.961914062],[121.55688476600001,28.9453125],[121.55871582000002,28.938720703],[121.56188964800002,28.936096191],[121.56988525400001,28.935913086],[121.57550048800002,28.934082031],[121.59191894500002,28.93548584],[121.59289550800001,28.935119629],[121.60211181600002,28.943481445],[121.60632324200002,28.942687988],[121.61071777300002,28.93951416],[121.61511230500001,28.936279297],[121.61730957000002,28.930114746],[121.62188720700001,28.92590332],[121.64147949200002,28.92388916],[121.64508056600002,28.917724609],[121.65289306600002,28.918273926],[121.66107177700002,28.915100098],[121.67572021500001,28.919677734],[121.679504395,28.917114258],[121.69030761700002,28.919494629],[121.69268798800002,28.917724609],[121.70147705100001,28.932128906],[121.68951416000002,28.946105957],[121.67352294900002,28.960510254],[121.66467285200001,28.974121094],[121.66552734400001,28.98651123],[121.66510009800001,28.986877441],[121.66448974600002,28.990478516],[121.66607666000002,28.992126465],[121.66607666000002,28.993103027],[121.67810058600001,28.997497559],[121.67767334000001,28.99987793],[121.68109130900001,29.00592041],[121.67852783200001,29.01171875],[121.68572998000002,29.014099121],[121.68847656200002,29.013671875],[121.68151855500001,29.022888184],[121.67968750000001,29.023071289],[121.67712402300002,29.026672363],[121.67767334000001,29.027709961],[121.67407226600001,29.032470703],[121.67132568400001,29.027893066],[121.66668701200001,29.026123047],[121.66192627,29.026916504],[121.65808105500001,29.030273437],[121.65612793000001,29.036315918],[121.65728759800001,29.044128418],[121.66088867200001,29.049499512],[121.65771484400001,29.053710937],[121.64251709000001,29.047912598],[121.63909912100002,29.045471191],[121.63171386700002,29.038513184],[121.61547851600001,29.028076172],[121.57928466800001,29.02532959],[121.54791259800001,29.028503418],[121.55029296900001,29.022705078],[121.55151367200001,29.022277832],[121.55847168000001,29.023925781],[121.56408691400001,29.022888184],[121.56750488300001,29.020507812],[121.56011962900001,29.015075684],[121.54949951200001,29.010070801],[121.51989746100001,28.991882324],[121.52288818400001,29.049072266],[121.53771972700001,29.048522949],[121.53851318400001,29.048522949],[121.53991699200002,29.050292969],[121.53948974600002,29.053710937],[121.53051757800002,29.05871582],[121.53491210900002,29.059875488],[121.54010009800001,29.05871582],[121.54388427700002,29.056091309],[121.54852294900002,29.056274414],[121.55511474600002,29.059082031],[121.56207275400001,29.059082031],[121.56909179700001,29.057128906],[121.56970214800002,29.063476562],[121.57452392600001,29.062683105],[121.578125,29.059082031],[121.58172607400002,29.059082031],[121.58270263700001,29.058105469],[121.57989502,29.051330566],[121.58050537100002,29.04888916],[121.60131835900002,29.048706055],[121.61688232400002,29.047302246],[121.61889648400002,29.085327148],[121.63031005900001,29.096496582],[121.62792968700002,29.098876953],[121.63171386700002,29.099487305],[121.58770752,29.099304199],[121.57171630900001,29.106323242],[121.56207275400001,29.111877441],[121.55810546900001,29.111694336],[121.55529785200001,29.115478516],[121.55352783200001,29.116516113],[121.54052734400001,29.11151123],[121.51971435500002,29.108703613],[121.51788330100001,29.108276367],[121.48468017600001,29.098327637],[121.46887207000002,29.10168457],[121.46667480500001,29.099914551],[121.45867919900002,29.097473145],[121.45690918000001,29.097900391],[121.45587158200001,29.104309082],[121.45251464800002,29.105102539],[121.44647216800001,29.105895996],[121.44628906200002,29.106323242],[121.44348144500002,29.106872559],[121.44409179700001,29.108886719],[121.44207763700001,29.111694336],[121.42547607400002,29.106506348],[121.42028808600001,29.101501465],[121.41632080100001,29.100280762],[121.41168212900001,29.101318359],[121.40588378900001,29.105712891],[121.39569091800001,29.108520508],[121.39990234400001,29.11151123],[121.41290283200001,29.110107422],[121.42010498000002,29.112121582],[121.42633056600002,29.111877441],[121.42810058600001,29.111694336],[121.43627929700001,29.114929199],[121.44348144500002,29.114929199],[121.44567871100001,29.114074707],[121.45251464800002,29.135070801],[121.45227050800001,29.135314941],[121.45129394500002,29.134887695],[121.44927978500002,29.136474609],[121.44689941400001,29.137695312],[121.44311523400002,29.136108398],[121.43872070300002,29.137084961],[121.43792724600002,29.139099121],[121.43847656200002,29.141113281],[121.43347168000001,29.143310547],[121.40368652300002,29.131896973],[121.35992431600002,29.124694824],[121.30828857400002,29.109924316],[121.28228759800001,29.093078613],[121.21948242200001,29.105895996],[121.21228027300002,29.171508789],[121.18890380900001,29.195495605],[121.16088867200001,29.209289551],[121.14093017600001,29.234680176],[121.13470459000001,29.269287109],[121.12408447300001,29.318725586],[121.0625,29.299926758],[121.02050781200002,29.303100586],[120.99328613300001,29.321899414],[120.96569824200002,29.292297363],[120.92730712900001,29.27911377],[120.89428710900002,29.278076172],[120.87951660200001,29.246520996],[120.85748291000002,29.225708008],[120.82592773400002,29.243896484],[120.80108642600001,29.221923828],[120.76910400400001,29.209472656],[120.74353027300002,29.17767334],[120.71368408200001,29.16229248],[120.68847656200002,29.132873535],[120.69488525400001,29.101074219],[120.67492675800001,29.072875977],[120.69287109400001,29.04309082],[120.70410156200002,29.008117676],[120.703125,28.980712891],[120.67687988300001,28.955505371],[120.65393066400001,28.93572998],[120.64251709000001,28.907104492],[120.61328125000001,28.887329102],[120.57507324200002,28.873291016],[120.53649902300002,28.855895996],[120.50091552700002,28.842712402],[120.46789550800001,28.832275391],[120.43811035200001,28.82232666],[120.38812255900001,28.806091309]]]]}}
