{"type":"Feature","id":"bulk-99377448B55678817724173","bbox":[83.885681152,29.921875,95.01287841800001,36.49029541],"properties":{"id":"bulk-99377448B55678817724173","name":"Nagqu Prefecture","nameEn":"Nagqu Prefecture","fullName":"Nagqu Prefecture","level":"city","boundaryRole":"administrative-extent","boundaryQuality":"generalized-source-2020","boundaryYearRepresented":"2020","bounds":[[83.885681152,29.921875],[95.01287841800001,36.49029541]],"center":[89.44927978500002,33.206085205],"centerMethod":"bounding-box midpoint; camera framing only","license":"CC-BY-3.0-IGO","attribution":"geoBoundaries / HDX, China administrative boundaries (2020)","source":{"provider":"geoBoundaries gbHumanitarian / HDX","url":"https://github.com/wmgeolab/geoBoundaries/raw/9469f09/releaseData/gbHumanitarian/CHN/ADM2/geoBoundaries-CHN-ADM2.geojson","metadataUrl":"https://www.geoboundaries.org/api/current/gbHumanitarian/CHN/ADM2/","shapeID":"99377448B55678817724173","shapeName":"Nagqu Prefecture","boundaryID":"CHN-ADM2-99377448","commit":"9469f09"},"geometryCounts":{"coordinates":940,"components":1,"holes":0},"boundaryNotice":"geoBoundaries / HDX 2020 年行政区数据，海岸和边界经过源数据概化，并非当前测绘成果。"},"geometry":{"type":"Polygon","coordinates":[[[92.55090332000002,30.122314453],[92.61291503900001,30.16192627],[92.63488769500002,30.18927002],[92.63830566400001,30.230712891],[92.63867187500001,30.292724609],[92.69927978500002,30.292297363],[92.71667480500001,30.329528809],[92.75152587900001,30.334899902],[92.76287841800001,30.372924805],[92.79412841800001,30.399475098],[92.79412841800001,30.428283691],[92.78167724600002,30.460327148],[92.80151367200001,30.50567627],[92.828308105,30.523071289],[92.87432861300002,30.532897949],[92.90411377,30.543884277],[92.90490722700001,30.571105957],[92.92370605500001,30.60369873],[92.961486816,30.596313477],[92.98468017600001,30.574707031],[93.02947998,30.585083008],[93.04388427700002,30.555480957],[93.03948974600002,30.527099609],[93.05767822300001,30.504089355],[93.10070800800001,30.485107422],[93.11669921900001,30.457885742],[93.121276855,30.426513672],[93.14807128900001,30.397277832],[93.18127441400001,30.418518066],[93.21411132800002,30.454101562],[93.268920898,30.490478516],[93.30731201200001,30.494689941],[93.33990478500002,30.473083496],[93.37347412100002,30.453918457],[93.41369628900001,30.442687988],[93.43170166000002,30.404296875],[93.429077148,30.376708984],[93.43151855500001,30.329101562],[93.45849609400001,30.313293457],[93.49688720700001,30.30847168],[93.54028320300002,30.29309082],[93.57470703100002,30.277709961],[93.62451171900001,30.274475098],[93.65631103500002,30.28527832],[93.69207763700001,30.276306152],[93.72308349600002,30.285095215],[93.75653076200001,30.277526855],[93.78930664100001,30.289672852],[93.82110595700001,30.301696777],[93.86291503900001,30.30267334],[93.89129638700001,30.32409668],[93.92370605500001,30.31628418],[93.94427490200002,30.292297363],[93.98791503900001,30.286499023],[94.03088378900001,30.330322266],[94.03247070300002,30.359130859],[94.05310058600001,30.379882812],[94.09448242200001,30.384887695],[94.11248779300001,30.413513184],[94.10412597700001,30.444702148],[94.14227294900002,30.458312988],[94.13012695300002,30.494506836],[94.096679687,30.498291016],[94.05291748,30.508728027],[94.02648925800001,30.536071777],[94.02532959000001,30.565673828],[93.99328613300001,30.573730469],[93.962280273,30.58770752],[93.927124023,30.596313477],[93.88952636700002,30.599914551],[93.85650634800001,30.620117187],[93.82647705100001,30.650085449],[93.79327392600001,30.671691895],[93.768127441,30.696472168],[93.74530029300001,30.718688965],[93.70812988300001,30.738708496],[93.68487548800002,30.764526367],[93.70629882800002,30.788085937],[93.69989013700001,30.819885254],[93.66528320300002,30.814086914],[93.65649414100001,30.843688965],[93.62451171900001,30.844116211],[93.620910645,30.874328613],[93.63348388700001,30.899291992],[93.65112304700001,30.927124023],[93.695495605,30.919494629],[93.72528076200001,30.908081055],[93.77130127,30.903686523],[93.80908203100002,30.903686523],[93.85308837900001,30.890075684],[93.886901855,30.861083984],[93.90930175800001,30.840087891],[93.95227050800001,30.834289551],[93.98547363300001,30.844116211],[94.010314941,30.86328125],[94.04931640600002,30.866699219],[94.086486816,30.859313965],[94.12072753900001,30.855102539],[94.16571044900002,30.849914551],[94.21472168000001,30.865722656],[94.24731445300002,30.86151123],[94.27947998,30.847106934],[94.31127929700001,30.845092773],[94.32989502,30.87512207],[94.32891845700001,30.907470703],[94.31768798800002,30.933288574],[94.30029296900001,30.961303711],[94.28350830100001,30.99987793],[94.27227783200001,31.028930664],[94.25708007800002,31.055725098],[94.23272705100001,31.079711914],[94.21789550800001,31.111083984],[94.22528076200001,31.137329102],[94.24072265600002,31.16607666],[94.25811767600001,31.194274902],[94.277893066,31.218322754],[94.294311523,31.283325195],[94.30468750000001,31.314086914],[94.35913085900002,31.308105469],[94.402526855,31.325683594],[94.42132568400001,31.358886719],[94.45928955100001,31.351928711],[94.49310302700002,31.368530273],[94.51989746100001,31.385498047],[94.54132080100001,31.411071777],[94.570495605,31.430908203],[94.61328125000001,31.427490234],[94.62731933600001,31.401123047],[94.62707519500002,31.372924805],[94.62628173800002,31.331115723],[94.65588378900001,31.317687988],[94.69250488300001,31.333679199],[94.73071289100001,31.350524902],[94.76928710900002,31.337890625],[94.75128173800002,31.309509277],[94.73608398400002,31.275085449],[94.72851562500001,31.233703613],[94.721679687,31.189086914],[94.722473145,31.147705078],[94.74230957000002,31.104125977],[94.78991699200002,31.090515137],[94.82611084000001,31.083129883],[94.82971191400001,31.114074707],[94.86608886700002,31.122497559],[94.89428710900002,31.142700195],[94.93048095700001,31.15612793],[94.96392822300001,31.163330078],[95.00311279300001,31.161315918],[95.01287841800001,31.192321777],[94.99011230500001,31.217529297],[94.97930908200001,31.244873047],[94.99768066400001,31.274719238],[94.99987793000001,31.304504395],[94.984924316,31.340515137],[94.96411132800002,31.36730957],[94.927124023,31.383911133],[94.89648437500001,31.392700195],[94.86590576200001,31.406494141],[94.86291503900001,31.439880371],[94.89770507800002,31.46270752],[94.91552734400001,31.493896484],[94.89971923800002,31.526123047],[94.877502441,31.549926758],[94.84631347700001,31.55871582],[94.79870605500001,31.565917969],[94.76452636700002,31.577514648],[94.75610351600001,31.610473633],[94.73187255900001,31.640686035],[94.69207763700001,31.645874023],[94.69610595700001,31.67388916],[94.72570800800001,31.686279297],[94.76287841800001,31.707275391],[94.77612304700001,31.736328125],[94.76092529300001,31.776123047],[94.73291015600002,31.790100098],[94.69732666000002,31.802124023],[94.66467285200001,31.831481934],[94.65209960900002,31.861694336],[94.66247558600001,31.891723633],[94.67108154300001,31.918518066],[94.679077148,31.952880859],[94.68811035200001,31.988525391],[94.70147705100001,32.020080566],[94.71008300800001,32.051513672],[94.70031738300001,32.081481934],[94.70989990200002,32.113891602],[94.743530273,32.129272461],[94.74530029300001,32.160095215],[94.73608398400002,32.190124512],[94.74151611300002,32.219726562],[94.77972412100002,32.227478027],[94.82330322300001,32.23828125],[94.85308837900001,32.250305176],[94.88330078100002,32.274719238],[94.89929199200002,32.307495117],[94.90130615200002,32.340087891],[94.93890380900001,32.367126465],[94.93432617200001,32.379882812],[94.953308105,32.394897461],[94.93188476600001,32.439880371],[94.88128662100002,32.482116699],[94.82427978500002,32.553894043],[94.79827880900001,32.557678223],[94.74768066400001,32.599914551],[94.68591308600001,32.626098633],[94.64672851600001,32.665100098],[94.57690429700001,32.635498047],[94.45349121100001,32.565673828],[94.42449951200001,32.585510254],[94.40972900400001,32.588928223],[94.37927246100001,32.553527832],[94.29107666000002,32.52947998],[94.23828125000001,32.530517578],[94.17132568400001,32.498474121],[94.127929687,32.44128418],[94.10052490200002,32.458496094],[93.98712158200001,32.495483398],[93.97467041000002,32.502929687],[93.93328857400002,32.44708252],[93.902893066,32.473510742],[93.861877441,32.563293457],[93.69891357400002,32.589904785],[93.65887451200001,32.565673828],[93.586120605,32.471923828],[93.49731445300002,32.477905273],[93.49871826200001,32.522521973],[93.49871826200001,32.523925781],[93.49987793000001,32.56628418],[93.462280273,32.546875],[93.40087890600002,32.520324707],[93.39349365200002,32.557128906],[93.34289550800001,32.573486328],[93.33050537100002,32.575317383],[93.26330566400001,32.65612793],[93.17669677700002,32.661071777],[93.07171630900001,32.638305664],[93.069702148,32.679321289],[92.99688720700001,32.742919922],[92.94409179700001,32.722900391],[92.82330322300001,32.696716309],[92.74670410200001,32.756103516],[92.72027587900001,32.762084961],[92.645874023,32.71887207],[92.61029052700002,32.725280762],[92.59790039100001,32.727294922],[92.52569580100001,32.706115723],[92.39532470700001,32.778930664],[92.36431884800001,32.744689941],[92.33111572300001,32.760498047],[92.28448486300002,32.71307373],[92.28369140600002,32.714904785],[92.25628662100002,32.795471191],[92.254882812,32.835876465],[92.153686523,32.860717773],[92.00311279300001,32.824707031],[91.96508789100001,32.860473633],[91.92028808600001,32.92767334],[91.859924316,32.970092773],[91.753295898,32.948486328],[91.69750976600001,32.969909668],[91.61608886700002,33.021484375],[91.46948242200001,33.176879883],[91.43487548800002,33.196899414],[91.38909912100002,33.207885742],[91.38153076200001,33.244689941],[91.420471191,33.277709961],[91.30950927700002,33.3203125],[91.234924316,33.302307129],[91.212280273,33.270874023],[91.13208007800002,33.202270508],[91.038879395,33.225708008],[90.99969482400002,33.241271973],[90.96630859400001,33.190917969],[90.88488769500002,33.122924805],[90.76849365200002,33.105285645],[90.68371582000002,33.157714844],[90.58209228500002,33.22052002],[90.579101562,33.222290039],[90.49890136700002,33.250915527],[90.480285645,33.258728027],[90.41589355500001,33.262878418],[90.38629150400001,33.305908203],[90.31408691400001,33.355712891],[90.28448486300002,33.388916016],[90.27612304700001,33.440917969],[90.24572753900001,33.477478027],[90.19732666000002,33.532897949],[90.00732421900001,33.613891602],[89.987670898,33.62512207],[90.00891113300001,33.67388916],[89.984924316,33.719726562],[89.92590332000002,33.74987793],[89.95629882800002,33.792907715],[89.945129395,33.819091797],[89.89727783200001,33.835510254],[89.85870361300002,33.850891113],[89.82330322300001,33.857727051],[89.780273437,33.903076172],[89.74847412100002,33.948486328],[89.69647216800001,33.988708496],[89.68627929700001,34.058288574],[89.65850830100001,34.070129395],[89.70971679700001,34.141906738],[89.78790283200001,34.130493164],[89.81207275400001,34.158874512],[89.83190918000001,34.182922363],[89.842712402,34.241699219],[89.877502441,34.290100098],[89.88427734400001,34.329101562],[89.85229492200001,34.361877441],[89.836486816,34.405273437],[89.83227539100001,34.417297363],[89.83410644500002,34.458312988],[89.81671142600001,34.49987793],[89.81311035200001,34.552490234],[89.78991699200002,34.564086914],[89.81048584000001,34.623474121],[89.746276855,34.670898437],[89.71008300800001,34.662109375],[89.73950195300002,34.727722168],[89.77691650400001,34.740112305],[89.80889892600001,34.752685547],[89.86932373,34.804077148],[89.85229492200001,34.816711426],[89.829101562,34.853515625],[89.82067871100001,34.877502441],[89.77587890600002,34.894287109],[89.73010253900001,34.911499023],[89.65747070300002,34.876098633],[89.54492187500001,34.898071289],[89.569702148,34.985473633],[89.59332275400001,35.025512695],[89.600524902,35.045715332],[89.59948730500001,35.083496094],[89.597473145,35.100280762],[89.56048584000001,35.127685547],[89.50048828100002,35.139526367],[89.48248291000002,35.186279297],[89.478271484,35.24432373],[89.51867675800001,35.25567627],[89.53332519500002,35.282287598],[89.51751709000001,35.29510498],[89.51672363300001,35.332092285],[89.53930664100001,35.354919434],[89.58911132800002,35.373901367],[89.637695312,35.410888672],[89.72027587900001,35.405273437],[89.73870849600002,35.439880371],[89.71392822300001,35.503723145],[89.72528076200001,35.542724609],[89.743103027,35.553710937],[89.77447509800001,35.586730957],[89.75750732400002,35.60748291],[89.770874023,35.700073242],[89.777099609,35.707519531],[89.80291748,35.77947998],[89.73388671900001,35.853088379],[89.64288330100001,35.828491211],[89.56689453100002,35.84588623],[89.51507568400001,35.867126465],[89.436523437,35.873291016],[89.44189453100002,35.93927002],[89.44128418000001,35.975280762],[89.419311523,36.035888672],[89.49652099600002,36.048522949],[89.52551269500002,36.039672852],[89.61529541000002,36.078918457],[89.66333007800002,36.09387207],[89.68627929700001,36.097900391],[89.67352294900002,36.102722168],[89.56427002,36.122924805],[89.45788574200002,36.153503418],[89.40051269500002,36.22088623],[89.32067871100001,36.216918945],[89.243896484,36.265686035],[89.17248535200001,36.225891113],[89.10388183600001,36.269470215],[88.98852539100001,36.276489258],[88.96252441400001,36.312072754],[88.90051269500002,36.351501465],[88.76232910200001,36.30267334],[88.62890625000001,36.381530762],[88.61468505900001,36.423522949],[88.57067871100001,36.444091797],[88.56469726600001,36.448486328],[88.52587890600002,36.446289062],[88.460693359,36.466918945],[88.37969970700001,36.49029541],[88.325927734,36.462890625],[88.219299316,36.457885742],[88.07989502,36.429077148],[87.96392822300001,36.424316406],[87.895507812,36.399475098],[87.80932617200001,36.364318848],[87.70648193400001,36.377929687],[87.61370849600002,36.361328125],[87.46569824200002,36.358886719],[87.45349121100001,36.377685547],[87.44952392600001,36.413879395],[87.41290283200001,36.422912598],[87.39691162100002,36.417907715],[87.30627441400001,36.377929687],[87.178710937,36.34552002],[87.14367675800001,36.314697266],[87.04791259800001,36.278076172],[86.952087402,36.264099121],[86.91687011700002,36.272094727],[86.836486816,36.303710937],[86.760681152,36.292297363],[86.711120605,36.253112793],[86.64208984400001,36.212890625],[86.53588867200001,36.232116699],[86.48931884800001,36.198730469],[86.42272949200002,36.180725098],[86.311889648,36.167114258],[86.20770263700001,36.131713867],[86.19769287100002,36.08972168],[86.201721191,36.04309082],[86.13348388700001,35.975280762],[86.13470459000001,35.949279785],[86.13848877,35.915283203],[86.078125,35.874511719],[86.09088134800001,35.83972168],[86.07489013700001,35.82611084],[86.03692627,35.818908691],[86.00531005900001,35.791687012],[85.72387695300002,35.726318359],[85.67028808600001,35.705078125],[85.62292480500001,35.664306641],[85.610290527,35.640686035],[85.53149414100001,35.635681152],[85.528320312,35.645507812],[85.55651855500001,35.682678223],[85.553283691,35.692687988],[85.49029541000002,35.701293945],[85.40808105500001,35.706115723],[85.30670166000002,35.770507812],[85.22131347700001,35.785095215],[85.16168212900001,35.720275879],[85.04168701200001,35.717285156],[84.97467041000002,35.673278809],[84.96508789100001,35.667480469],[84.88128662100002,35.653076172],[84.74670410200001,35.591125488],[84.56750488300001,35.578918457],[84.48107910200001,35.539123535],[84.508728027,35.490905762],[84.35308837900001,35.450317383],[84.24487304700001,35.413879395],[84.10192871100001,35.360290527],[84.05548095700001,35.387878418],[83.98931884800001,35.412475586],[83.89630127,35.396484375],[83.885681152,35.377319336],[83.93231201200001,35.348510742],[83.94012451200001,35.312927246],[83.93670654300001,35.281311035],[83.93267822300001,35.25012207],[83.93951416000002,35.214294434],[83.89849853500002,35.160522461],[83.894714355,35.125671387],[83.903686523,35.092529297],[83.91491699200002,35.057495117],[83.92431640600002,35.02532959],[83.95727539100001,35.029724121],[83.99871826200001,35.028686523],[84.04608154300001,35.001281738],[84.05432128900001,34.97467041],[84.07409668000001,34.947692871],[84.10308837900001,34.91607666],[84.14569091800001,34.907714844],[84.18328857400002,34.916687012],[84.209899902,34.944885254],[84.24169921900001,34.932495117],[84.27490234400001,34.908325195],[84.284484863,34.871520996],[84.30468750000001,34.838928223],[84.30572509800001,34.811523437],[84.28967285200001,34.787719727],[84.29492187500001,34.759521484],[84.325927734,34.739074707],[84.360290527,34.723083496],[84.38330078100002,34.700317383],[84.41168212900001,34.667724609],[84.446289062,34.663513184],[84.484924316,34.669677734],[84.518920898,34.646484375],[84.538085937,34.616516113],[84.545898437,34.584289551],[84.52331543000001,34.555480957],[84.511901855,34.510314941],[84.49450683600001,34.472717285],[84.466125488,34.442504883],[84.44769287100002,34.411071777],[84.46008300800001,34.38092041],[84.48327636700002,34.36151123],[84.48791503900001,34.32208252],[84.451293945,34.312927246],[84.41748046900001,34.299499512],[84.429504395,34.266906738],[84.39910888700001,34.249328613],[84.38671875000001,34.223327637],[84.39031982400002,34.193908691],[84.39007568400001,34.166687012],[84.40228271500001,34.139282227],[84.42370605500001,34.106872559],[84.47052002,34.070129395],[84.51049804700001,34.063903809],[84.54248046900001,34.050720215],[84.56951904300001,34.027282715],[84.57928466800001,33.993286133],[84.587280273,33.967102051],[84.62408447300001,33.948303223],[84.66650390600002,33.951904297],[84.70648193400001,33.962890625],[84.74890136700002,33.957092285],[84.78631591800001,33.953674316],[84.820495605,33.95690918],[84.85632324200002,33.965881348],[84.89648437500001,33.965087891],[84.93389892600001,33.946289062],[84.95831298800002,33.927124023],[84.98211669900002,33.906311035],[85.02508544900002,33.889709473],[85.06390380900001,33.900512695],[85.10388183600001,33.888122559],[85.14093017600001,33.879882812],[85.17327880900001,33.889709473],[85.21569824200002,33.901916504],[85.250915527,33.891113281],[85.28009033200001,33.859924316],[85.29888916000002,33.831298828],[85.29168701200001,33.794921875],[85.302124023,33.768676758],[85.343505859,33.737121582],[85.38110351600001,33.718688965],[85.42388916000002,33.69909668],[85.47412109400001,33.67010498],[85.52911377,33.651672363],[85.56530761700002,33.64050293],[85.593505859,33.616516113],[85.62689209000001,33.60748291],[85.66192627,33.624694824],[85.702514648,33.605102539],[85.70812988300001,33.577087402],[85.717712402,33.544128418],[85.74951171900001,33.518920898],[85.768920898,33.491699219],[85.777099609,33.455078125],[85.78692627,33.414672852],[85.80987548800002,33.395080566],[85.843505859,33.389892578],[85.886474609,33.389282227],[85.91491699200002,33.375305176],[85.94610595700001,33.354675293],[85.98712158200001,33.355285645],[86.01049804700001,33.317871094],[86.03387451200001,33.291503906],[86.04608154300001,33.249084473],[86.03692627,33.217529297],[86.04010009800001,33.176513672],[86.03350830100001,33.145507812],[86.04571533200001,33.108093262],[86.03930664100001,33.080871582],[86.04107666000002,33.049499512],[86.06329345700001,33.014709473],[86.054504395,32.971679687],[86.05889892600001,32.934326172],[86.078308105,32.903503418],[86.109924316,32.879516602],[86.120483398,32.844299316],[86.100524902,32.820495605],[86.06451416000002,32.807128906],[86.030273437,32.796875],[85.99090576200001,32.767272949],[85.96612548800002,32.741271973],[85.92309570300002,32.719726562],[85.879089355,32.705322266],[85.82769775400001,32.707702637],[85.77850341800001,32.703125],[85.73187255900001,32.687927246],[85.679504395,32.664672852],[85.62469482400002,32.646484375],[85.586120605,32.625488281],[85.55627441400001,32.609680176],[85.51232910200001,32.58770752],[85.46789550800001,32.584899902],[85.419311523,32.59387207],[85.39630127,32.57232666],[85.37109375000001,32.537475586],[85.33270263700001,32.521118164],[85.27947998,32.503479004],[85.258728027,32.473693848],[85.24890136700002,32.436889648],[85.24127197300001,32.397888184],[85.23852539100001,32.366882324],[85.230285645,32.330078125],[85.20709228500002,32.292724609],[85.19030761700002,32.268676758],[85.169677734,32.240722656],[85.15808105500001,32.214294434],[85.12292480500001,32.155090332],[85.09112548800002,32.125671387],[85.08331298800002,32.085876465],[85.09948730500001,32.06048584],[85.11987304700001,32.03527832],[85.13592529300001,32.00769043],[85.152099609,31.973510742],[85.17132568400001,31.930297852],[85.17327880900001,31.892700195],[85.16247558600001,31.862487793],[85.15032959000001,31.827087402],[85.16009521500001,31.787109375],[85.17010498,31.754882812],[85.17791748,31.714111328],[85.200927734,31.677307129],[85.23388671900001,31.672119141],[85.26831054700001,31.669677734],[85.30627441400001,31.650085449],[85.30749511700002,31.611694336],[85.33111572300001,31.583496094],[85.38250732400002,31.571289062],[85.411071777,31.590698242],[85.43951416000002,31.604492187],[85.471679687,31.588500977],[85.47668457,31.557922363],[85.48889160200001,31.525695801],[85.520874023,31.516723633],[85.57550048800002,31.504882812],[85.57550048800002,31.472473145],[85.59613037100002,31.438476562],[85.609130859,31.403686523],[85.62030029300001,31.375488281],[85.65307617200001,31.36328125],[85.69152832,31.363708496],[85.734130859,31.350891113],[85.77990722700001,31.325317383],[85.82952880900001,31.30090332],[85.86627197300001,31.298706055],[85.89367675800001,31.279907227],[85.91192627,31.257080078],[85.95349121100001,31.260314941],[85.98669433600001,31.242919922],[86.01867675800001,31.231079102],[86.05468750000001,31.230102539],[86.10009765600002,31.231506348],[86.137695312,31.218505859],[86.17547607400002,31.197692871],[86.18890380900001,31.170288086],[86.18548584000001,31.142089844],[86.170898437,31.113525391],[86.14709472700001,31.08972168],[86.11767578100002,31.071716309],[86.08288574200002,31.060302734],[86.06988525400001,31.032287598],[86.08331298800002,30.981079102],[86.145874023,30.990478516],[86.16949462900001,31.010925293],[86.202880859,31.027709961],[86.235290527,31.004516602],[86.27111816400001,30.984313965],[86.30310058600001,30.971679687],[86.33129882800002,30.94732666],[86.327880859,30.916687012],[86.33990478500002,30.883483887],[86.34368896500001,30.847106934],[86.351318359,30.813720703],[86.37329101600001,30.782714844],[86.40191650400001,30.756286621],[86.42248535200001,30.733520508],[86.42651367200001,30.706481934],[86.41430664100001,30.671691895],[86.42492675800001,30.643493652],[86.44567871100001,30.618286133],[86.45648193400001,30.586730957],[86.45788574200002,30.551696777],[86.44409179700001,30.511901855],[86.45947265600002,30.471313477],[86.49987793000001,30.475708008],[86.54028320300002,30.473510742],[86.54888916000002,30.446716309],[86.58587646500001,30.421875],[86.62310791000002,30.413879395],[86.65649414100001,30.435302734],[86.65087890600002,30.468688965],[86.653686523,30.496276855],[86.68511962900001,30.512329102],[86.70489502,30.53527832],[86.73211669900002,30.553283691],[86.768493652,30.56628418],[86.804870605,30.551513672],[86.83807373,30.55267334],[86.879089355,30.558898926],[86.91088867200001,30.535888672],[86.94909668000001,30.535522461],[86.93988037100002,30.565917969],[86.92230224600002,30.592102051],[86.89050293000001,30.62487793],[86.895874023,30.653930664],[86.85668945300002,30.658874512],[86.81488037100002,30.660522461],[86.79327392600001,30.688903809],[86.81207275400001,30.711120605],[86.80792236300002,30.739501953],[86.79711914100001,30.766906738],[86.768493652,30.789306641],[86.74731445300002,30.823913574],[86.77349853500002,30.854919434],[86.77447509800001,30.884521484],[86.80987548800002,30.907714844],[86.845092773,30.906677246],[86.884521484,30.901489258],[86.93048095700001,30.913513184],[86.97332763700001,30.919921875],[86.96948242200001,30.887878418],[86.960693359,30.861694336],[86.94067382800002,30.836914062],[86.91430664100001,30.809692383],[86.88830566400001,30.777893066],[86.895874023,30.750915527],[86.9375,30.762329102],[86.98547363300001,30.777099609],[87.01708984400001,30.792480469],[87.04168701200001,30.822692871],[87.03509521500001,30.853881836],[87.03930664100001,30.884094238],[87.06329345700001,30.905273437],[87.09289550800001,30.923095703],[87.12268066400001,30.902526855],[87.12927246100001,30.869506836],[87.12347412100002,30.838928223],[87.11828613300001,30.8125],[87.11907959000001,30.779296875],[87.135681152,30.749511719],[87.17150878900001,30.720275879],[87.18408203100002,30.691711426],[87.18231201200001,30.660095215],[87.17370605500001,30.62487793],[87.16668701200001,30.58972168],[87.170471191,30.562072754],[87.20611572300001,30.558288574],[87.24670410200001,30.56427002],[87.28149414100001,30.54510498],[87.31628418000001,30.540710449],[87.34552002,30.551513672],[87.37451171900001,30.531677246],[87.40728759800001,30.516296387],[87.43548584000001,30.52911377],[87.46887207000002,30.520874023],[87.49987793000001,30.511108398],[87.55651855500001,30.512878418],[87.55047607400002,30.48248291],[87.52270507800002,30.431884766],[87.553710937,30.392700195],[87.58068847700001,30.376708984],[87.63171386700002,30.385681152],[87.66027832000002,30.372314453],[87.67889404300001,30.349304199],[87.72607421900001,30.346313477],[87.76647949200002,30.334472656],[87.79711914100001,30.36730957],[87.828674316,30.380493164],[87.86212158200001,30.384277344],[87.90087890600002,30.380310059],[87.93371582000002,30.371887207],[87.98632812500001,30.389709473],[88.04870605500001,30.366882324],[88.087280273,30.384094238],[88.113098145,30.367675781],[88.11932373,30.334472656],[88.12408447300001,30.305908203],[88.13989257800002,30.282470703],[88.16748046900001,30.26751709],[88.19927978500002,30.261474609],[88.21569824200002,30.235473633],[88.24670410200001,30.223693848],[88.28131103500002,30.232727051],[88.31707763700001,30.245483398],[88.34069824200002,30.272094727],[88.377929687,30.264526367],[88.43249511700002,30.245483398],[88.46569824200002,30.215270996],[88.49450683600001,30.193481445],[88.49951171900001,30.16192627],[88.48248291000002,30.127075195],[88.49688720700001,30.082885742],[88.538085937,30.068481445],[88.56750488300001,30.090087891],[88.58007812500001,30.125671387],[88.61590576200001,30.147277832],[88.644287109,30.171691895],[88.66668701200001,30.212280273],[88.709899902,30.223876953],[88.74487304700001,30.221130371],[88.794677734,30.206298828],[88.836120605,30.190917969],[88.88830566400001,30.213317871],[88.92468261700002,30.215881348],[88.96490478500002,30.200073242],[88.995117187,30.217712402],[89.020507812,30.249328613],[89.07287597700001,30.265319824],[89.10870361300002,30.253479004],[89.14929199200002,30.250915527],[89.17431640600002,30.273681641],[89.20050048800002,30.29888916],[89.23907470700001,30.292297363],[89.254882812,30.258911133],[89.29608154300001,30.261108398],[89.33752441400001,30.272888184],[89.36450195300002,30.248291016],[89.39752197300001,30.231506348],[89.421875,30.252075195],[89.47528076200001,30.254516602],[89.53210449200002,30.269897461],[89.570495605,30.266906738],[89.597473145,30.252929687],[89.63427734400001,30.229919434],[89.67071533200001,30.208312988],[89.69989013700001,30.190917969],[89.73712158200001,30.170898437],[89.77368164100001,30.147521973],[89.81567382800002,30.129882812],[89.84069824200002,30.113098145],[89.87188720700001,30.093078613],[89.89447021500001,30.064880371],[89.91827392600001,30.032287598],[89.94830322300001,30.001281738],[89.978271484,29.98828125],[90.02252197300001,29.942321777],[90.046875,29.921875],[90.08410644500002,29.956298828],[90.11132812500001,29.973510742],[90.128295898,30.001525879],[90.14331054700001,30.032897949],[90.160705566,30.063720703],[90.17309570300002,30.102722168],[90.17810058600001,30.140686035],[90.187683105,30.173706055],[90.20349121100001,30.207519531],[90.22570800800001,30.232910156],[90.25427246100001,30.254272461],[90.294311523,30.277893066],[90.335327148,30.286682129],[90.36669921900001,30.293518066],[90.39752197300001,30.3125],[90.421691895,30.334899902],[90.44927978500002,30.354309082],[90.48071289100001,30.369506836],[90.51391601600001,30.383728027],[90.561889648,30.402099609],[90.60791015600002,30.42010498],[90.655273437,30.444519043],[90.66510009800001,30.481689453],[90.64208984400001,30.513122559],[90.61950683600001,30.54510498],[90.61749267600001,30.582092285],[90.63848877,30.602111816],[90.66247558600001,30.627929687],[90.68011474600002,30.658691406],[90.69769287100002,30.693481445],[90.70550537100002,30.720092773],[90.71307373,30.747070312],[90.71752929700001,30.780273437],[90.71368408200001,30.82208252],[90.71868896500001,30.867492676],[90.73071289100001,30.919677734],[90.74670410200001,30.967529297],[90.78869628900001,30.988098145],[90.820129395,31.007873535],[90.85949707000002,31.001281738],[90.887695312,30.986328125],[90.917724609,30.974304199],[90.94830322300001,30.961303711],[90.994689941,30.953125],[91.04711914100001,30.953308105],[91.11468505900001,30.953308105],[91.163085937,30.971313477],[91.14648437500001,31.000915527],[91.16552734400001,31.030700684],[91.20471191400001,31.044494629],[91.24450683600001,31.040527344],[91.26788330100001,31.01550293],[91.31292724600002,31.028076172],[91.36352539100001,31.00769043],[91.370117187,30.974121094],[91.37548828100002,30.944519043],[91.38067627,30.915893555],[91.385314941,30.881103516],[91.39050293000001,30.852478027],[91.410705566,30.826477051],[91.44250488300001,30.802490234],[91.45507812500001,30.768127441],[91.44329834000001,30.735107422],[91.45391845700001,30.708496094],[91.49188232400002,30.692077637],[91.51391601600001,30.664672852],[91.545898437,30.638305664],[91.58007812500001,30.641906738],[91.62768554700001,30.647705078],[91.66467285200001,30.660095215],[91.703125,30.673095703],[91.74267578100002,30.676330566],[91.770874023,30.652709961],[91.788085937,30.624694824],[91.81469726600001,30.60168457],[91.83551025400001,30.580871582],[91.861877441,30.545471191],[91.86407470700001,30.510498047],[91.83190918000001,30.491699219],[91.82147216800001,30.460327148],[91.82373046900001,30.425720215],[91.85687255900001,30.403930664],[91.86608886700002,30.375305176],[91.86791992200001,30.340698242],[91.86871337900001,30.301086426],[91.90008544900002,30.286315918],[91.945129395,30.25970459],[91.97290039100001,30.204711914],[92.00207519500002,30.186279297],[92.043518066,30.197692871],[92.07452392600001,30.215698242],[92.13427734400001,30.217529297],[92.177124023,30.208129883],[92.20568847700001,30.221679687],[92.21667480500001,30.255126953],[92.22052002,30.296081543],[92.25109863300001,30.312072754],[92.27990722700001,30.300476074],[92.302490234,30.277526855],[92.34191894500002,30.25189209],[92.38110351600001,30.25592041],[92.42211914100001,30.261474609],[92.45831298800002,30.260925293],[92.48907470700001,30.249694824],[92.52130127,30.240722656],[92.55792236300002,30.239685059],[92.59332275400001,30.218688965],[92.57409668000001,30.187683105],[92.55090332000002,30.122314453]]]}}
