{"type":"Feature","id":"bulk-99377448B62171560544069","bbox":[118.31311035200001,29.194274902,120.59771728500002,30.543701172],"properties":{"id":"bulk-99377448B62171560544069","name":"Hangzhou","nameEn":"Hangzhou","fullName":"Hangzhou","level":"city","boundaryRole":"administrative-extent","boundaryQuality":"generalized-source-2020","boundaryYearRepresented":"2020","bounds":[[118.31311035200001,29.194274902],[120.59771728500002,30.543701172]],"center":[119.4554138185,29.868988037],"centerMethod":"bounding-box midpoint; camera framing only","license":"CC-BY-3.0-IGO","attribution":"geoBoundaries / HDX, China administrative boundaries (2020)","source":{"provider":"geoBoundaries gbHumanitarian / HDX","url":"https://github.com/wmgeolab/geoBoundaries/raw/9469f09/releaseData/gbHumanitarian/CHN/ADM2/geoBoundaries-CHN-ADM2.geojson","metadataUrl":"https://www.geoboundaries.org/api/current/gbHumanitarian/CHN/ADM2/","shapeID":"99377448B62171560544069","shapeName":"Hangzhou","boundaryID":"CHN-ADM2-99377448","commit":"9469f09"},"geometryCounts":{"coordinates":245,"components":1,"holes":0},"boundaryNotice":"geoBoundaries / HDX 2020 年行政区数据，海岸和边界经过源数据概化，并非当前测绘成果。"},"geometry":{"type":"Polygon","coordinates":[[[120.59771728500002,30.149108887],[120.59112548800002,30.151916504],[120.58691406200002,30.155273437],[120.58392334000001,30.16192627],[120.58270263700001,30.164916992],[120.58172607400002,30.179504395],[120.57409668000001,30.196289062],[120.57330322300001,30.209899902],[120.56610107400002,30.241516113],[120.55889892600001,30.256286621],[120.55749511700002,30.282714844],[120.55548095700001,30.283691406],[120.54547119100002,30.288085937],[120.53869628900001,30.294311523],[120.52087402300002,30.302490234],[120.50488281200002,30.315490723],[120.49468994100002,30.319519043],[120.472473145,30.318908691],[120.46191406200002,30.316711426],[120.45788574200002,30.315124512],[120.43670654300001,30.298278809],[120.43212890600002,30.296875],[120.42547607400002,30.294128418],[120.42211914100001,30.289672852],[120.40728759800001,30.288879395],[120.40008544900002,30.284729004],[120.39910888700001,30.280090332],[120.40209960900002,30.268676758],[120.40112304700001,30.265930176],[120.39447021500001,30.261108398],[120.39251709000001,30.25592041],[120.39532470700001,30.245300293],[120.39288330100001,30.237487793],[120.38751220700001,30.229919434],[120.37792968700002,30.222900391],[120.36950683600001,30.221313477],[120.35168457000002,30.220275879],[120.33569335900002,30.219482422],[120.31689453100002,30.225280762],[120.30511474600002,30.230712891],[120.28808593700002,30.244873047],[120.28369140600002,30.257080078],[120.27770996100001,30.262512207],[120.25250244100002,30.257324219],[120.23107910200001,30.246520996],[120.21130371100001,30.236328125],[120.18432617200001,30.225280762],[120.18927002,30.239929199],[120.21490478500002,30.266906738],[120.24169921900001,30.278686523],[120.24768066400001,30.281494141],[120.26287841800001,30.283691406],[120.26287841800001,30.294677734],[120.28491210900002,30.296508789],[120.30432128900001,30.295898437],[120.31530761700002,30.290100098],[120.32171630900001,30.290710449],[120.33807373000002,30.301086426],[120.34808349600002,30.323913574],[120.37127685500002,30.34552002],[120.37188720700001,30.348083496],[120.37249755900001,30.349487305],[120.33288574200002,30.382507324],[120.32128906200002,30.41607666],[120.33209228500002,30.446105957],[120.34149169900002,30.480895996],[120.33007812500001,30.507507324],[120.30267334000001,30.543701172],[120.28308105500001,30.517700195],[120.24127197300001,30.510681152],[120.20989990200002,30.526489258],[120.17932128900001,30.511291504],[120.15527343700002,30.491882324],[120.11712646500001,30.491882324],[120.08428955100001,30.497497559],[120.05529785200001,30.481323242],[120.05432128900001,30.453125],[120.03027343700002,30.433288574],[119.99688720700001,30.434692383],[119.95452880900001,30.434692383],[119.921875,30.434875488],[119.88568115200002,30.450927734],[119.85589599600002,30.475097656],[119.82531738300001,30.493896484],[119.77929687500001,30.524108887],[119.71527099600002,30.501098633],[119.69610595700001,30.468078613],[119.68872070300002,30.429870605],[119.63690185500002,30.411682129],[119.62268066400001,30.443481445],[119.58850097700001,30.428283691],[119.55310058600001,30.432922363],[119.52368164100001,30.417480469],[119.49291992200001,30.407104492],[119.46069335900002,30.412902832],[119.42291259800001,30.397705078],[119.32830810500002,30.401123047],[119.34112548800002,30.365722656],[119.32550048800002,30.356872559],[119.29852294900002,30.36328125],[119.24890136700002,30.37310791],[119.21832275400001,30.331726074],[119.23071289100001,30.286071777],[119.12109375000001,30.297485352],[119.07672119100002,30.306884766],[119.02069091800001,30.295715332],[118.96728515600002,30.321716309],[118.92449951200001,30.349487305],[118.90789794900002,30.352478027],[118.84649658200001,30.328125],[118.84411621100001,30.30267334],[118.84210205100001,30.281311035],[118.86987304700001,30.228515625],[118.88409423800002,30.179321289],[118.83569335900002,30.167480469],[118.84472656200002,30.146484375],[118.85729980500001,30.116882324],[118.84887695300002,30.097106934],[118.855285645,30.075073242],[118.86187744100002,30.042480469],[118.86108398400002,30.015686035],[118.86108398400002,30.013305664],[118.86248779300001,29.982727051],[118.84710693400001,29.953491211],[118.81451416000002,29.94152832],[118.80908203100002,29.929321289],[118.80371093700002,29.903686523],[118.79229736300002,29.893920898],[118.75030517600001,29.871704102],[118.71649169900002,29.834716797],[118.72851562500001,29.817077637],[118.72991943400001,29.775878906],[118.69128418000001,29.698120117],[118.63110351600001,29.669128418],[118.57092285200001,29.662475586],[118.53631591800001,29.615722656],[118.50787353500002,29.580078125],[118.46771240200002,29.545715332],[118.40808105500001,29.514282227],[118.32373046900001,29.504516602],[118.31311035200001,29.492675781],[118.33648681600002,29.469116211],[118.36090087900001,29.442504883],[118.38232421900001,29.41229248],[118.40527343700002,29.383911133],[118.42590332000002,29.359924316],[118.46728515600002,29.342102051],[118.49707031200002,29.357116699],[118.53070068400001,29.363525391],[118.53948974600002,29.33770752],[118.55731201200001,29.31451416],[118.59790039100001,29.323486328],[118.59570312500001,29.291687012],[118.58691406200002,29.25390625],[118.60247802700002,29.229492187],[118.62768554700001,29.200683594],[118.65930175800001,29.194274902],[118.70172119100002,29.196716309],[118.74572753900001,29.203125],[118.74951171900001,29.233276367],[118.77868652300002,29.262329102],[118.80712890600002,29.278320312],[118.83288574200002,29.299316406],[118.88049316400001,29.309875488],[118.90808105500001,29.333312988],[118.92010498000002,29.304870605],[118.94909668000001,29.278686523],[118.98388671900001,29.267700195],[118.97851562500001,29.234313965],[119.03070068400001,29.210693359],[119.06292724600002,29.218688965],[119.10888671900001,29.223510742],[119.14752197300001,29.215698242],[119.18127441400001,29.204284668],[119.18652343700002,29.232116699],[119.17547607400002,29.260070801],[119.21429443400001,29.260681152],[119.24230957000002,29.237670898],[119.27252197300001,29.250305176],[119.30108642600001,29.272094727],[119.33007812500001,29.283508301],[119.34307861300002,29.310119629],[119.33569335900002,29.341308594],[119.32373046900001,29.36932373],[119.32672119100002,29.398681641],[119.35827636700002,29.414489746],[119.39251709000001,29.402893066],[119.42712402300002,29.404296875],[119.44390869100002,29.377075195],[119.44732666000002,29.349121094],[119.48168945300002,29.329528809],[119.51690673800002,29.340087891],[119.54870605500001,29.357116699],[119.57427978500002,29.38848877],[119.59991455100001,29.41027832],[119.62652587900001,29.427307129],[119.66589355500001,29.437927246],[119.69873046900001,29.450073242],[119.68890380900001,29.477478027],[119.71649169900002,29.497497559],[119.71270752,29.527526855],[119.73687744100002,29.54888916],[119.75488281200002,29.57208252],[119.74810791000002,29.598876953],[119.75531005900001,29.632873535],[119.77868652300002,29.653930664],[119.81408691400001,29.668518066],[119.84570312500001,29.668701172],[119.89251709000001,29.653076172],[119.93890380900001,29.680480957],[119.90869140600002,29.703491211],[119.878723145,29.720703125],[119.85430908200001,29.74810791],[119.89788818400001,29.749084473],[119.93249511700002,29.743286133],[119.96472168000001,29.758300781],[120.00268554700001,29.758300781],[120.01611328100002,29.787109375],[120.01348877,29.817077637],[120.03967285200001,29.832092285],[120.07330322300001,29.82409668],[120.08648681600002,29.854492187],[120.11431884800001,29.869689941],[120.13128662100002,29.896911621],[120.16009521500001,29.919921875],[120.18969726600001,29.929077148],[120.22271728500002,29.936523437],[120.25970459000001,29.94152832],[120.29412841800001,29.95111084],[120.32989502,29.974914551],[120.34149169900002,30.004882812],[120.32672119100002,30.02947998],[120.32232666000002,30.056274414],[120.31732177700002,30.087524414],[120.30230712900001,30.11529541],[120.32067871100001,30.142700195],[120.35552978500002,30.14251709],[120.39068603500002,30.137878418],[120.42572021500001,30.138671875],[120.45532226600001,30.151489258],[120.46508789100001,30.178283691],[120.49810791000002,30.167114258],[120.52227783200001,30.145507812],[120.55072021500001,30.129699707],[120.59771728500002,30.149108887]]]}}
