{"type":"Feature","id":"bulk-99377448B19377614139292","bbox":[111.34472656200002,22.781494141,112.83892822300001,24.423522949],"properties":{"id":"bulk-99377448B19377614139292","name":"Zhaoqing","nameEn":"Zhaoqing","fullName":"Zhaoqing","level":"city","boundaryRole":"administrative-extent","boundaryQuality":"generalized-source-2020","boundaryYearRepresented":"2020","bounds":[[111.34472656200002,22.781494141],[112.83892822300001,24.423522949]],"center":[112.09182739250002,23.602508545],"centerMethod":"bounding-box midpoint; camera framing only","license":"CC-BY-3.0-IGO","attribution":"geoBoundaries / HDX, China administrative boundaries (2020)","source":{"provider":"geoBoundaries gbHumanitarian / HDX","url":"https://github.com/wmgeolab/geoBoundaries/raw/9469f09/releaseData/gbHumanitarian/CHN/ADM2/geoBoundaries-CHN-ADM2.geojson","metadataUrl":"https://www.geoboundaries.org/api/current/gbHumanitarian/CHN/ADM2/","shapeID":"99377448B19377614139292","shapeName":"Zhaoqing","boundaryID":"CHN-ADM2-99377448","commit":"9469f09"},"geometryCounts":{"coordinates":176,"components":1,"holes":0},"boundaryNotice":"geoBoundaries / HDX 2020 年行政区数据，海岸和边界经过源数据概化，并非当前测绘成果。"},"geometry":{"type":"Polygon","coordinates":[[[112.83892822300001,23.539489746],[112.79528808600001,23.574890137],[112.75811767600001,23.59552002],[112.72711181600002,23.613525391],[112.72790527300002,23.642883301],[112.73547363300001,23.671325684],[112.71228027300002,23.697509766],[112.69287109400001,23.722106934],[112.69610595700001,23.750488281],[112.67047119100002,23.777893066],[112.66827392600001,23.811889648],[112.63732910200001,23.832092285],[112.63952636700002,23.871276855],[112.65087890600002,23.900695801],[112.65612793000001,23.934509277],[112.62750244100002,23.965515137],[112.59149169900002,23.977111816],[112.52850341800001,23.997924805],[112.48950195300002,24.019470215],[112.48291015600002,24.047485352],[112.48309326200001,24.075073242],[112.48468017600001,24.106689453],[112.45452880900001,24.129089355],[112.41870117200001,24.13470459],[112.39892578100002,24.162902832],[112.41369628900001,24.192687988],[112.43090820300002,24.215515137],[112.44189453100002,24.241699219],[112.43969726600001,24.270080566],[112.42608642600001,24.296081543],[112.39947509800001,24.348876953],[112.35571289100001,24.371887207],[112.31652832000002,24.396484375],[112.27288818400001,24.413879395],[112.23229980500001,24.423522949],[112.22088623000002,24.396484375],[112.22210693400001,24.36529541],[112.22607421900001,24.325927734],[112.23468017600001,24.290710449],[112.21252441400001,24.257324219],[112.18109130900001,24.24029541],[112.14770507800002,24.219482422],[112.10992431600002,24.227722168],[112.09332275400001,24.264892578],[112.06207275400001,24.292114258],[112.04028320300002,24.266296387],[112.03649902300002,24.229309082],[112.00268554700001,24.212280273],[111.97668457000002,24.228881836],[111.94891357400002,24.269470215],[111.89929199200002,24.257873535],[111.86370849600002,24.243896484],[111.84289550800001,24.218688965],[111.84851074200002,24.188903809],[111.85607910200001,24.167114258],[111.85687255900001,24.160888672],[111.85968017600001,24.128295898],[111.86712646500001,24.090270996],[111.88751220700001,24.071105957],[111.91552734400001,24.03112793],[111.93572998000002,23.999328613],[111.93652343700002,23.996276855],[111.94049072300001,23.982910156],[111.91192627,23.97052002],[111.90307617200001,23.967102051],[111.87072753900001,23.961120605],[111.84710693400001,23.95489502],[111.81469726600001,23.93347168],[111.81347656200002,23.897277832],[111.81811523400002,23.876525879],[111.81311035200001,23.860290527],[111.79028320300002,23.83972168],[111.75610351600001,23.833679199],[111.72308349600002,23.844909668],[111.69189453100002,23.858703613],[111.64288330100001,23.856323242],[111.63989257800002,23.852905273],[111.62530517600001,23.836486816],[111.60949707000002,23.814086914],[111.605285645,23.789672852],[111.61492919900002,23.766906738],[111.64208984400001,23.749511719],[111.65570068400001,23.731506348],[111.66052246100001,23.716918945],[111.66430664100001,23.711486816],[111.63891601600001,23.710693359],[111.62231445300002,23.704528809],[111.61431884800001,23.676513672],[111.61328125000001,23.659301758],[111.59851074200002,23.643127441],[111.570129395,23.633483887],[111.52630615200002,23.643676758],[111.48828125000001,23.640319824],[111.47631835900002,23.593322754],[111.47631835900002,23.581481934],[111.46728515600002,23.569885254],[111.43609619100002,23.542907715],[111.42230224600002,23.527526855],[111.41467285200001,23.516296387],[111.40167236300002,23.497680664],[111.38708496100001,23.478881836],[111.38409423800002,23.46887207],[111.37628173800002,23.456298828],[111.37829589800002,23.41607666],[111.37890625000001,23.403686523],[111.36608886700002,23.372070312],[111.34472656200002,23.335876465],[111.34948730500001,23.317687988],[111.35327148400002,23.293518066],[111.39428710900002,23.298095703],[111.43011474600002,23.292297363],[111.47570800800001,23.301513672],[111.51208496100001,23.306091309],[111.52929687500001,23.264526367],[111.53771972700001,23.249694824],[111.55029296900001,23.173095703],[111.62628173800002,23.170898437],[111.66430664100001,23.144714355],[111.71228027300002,23.147094727],[111.74188232400002,23.133911133],[111.77569580100001,23.11932373],[111.82232666000002,23.126281738],[111.87750244100002,23.124511719],[111.92889404300001,23.12890625],[111.96368408200001,23.103271484],[111.97192382800002,23.067077637],[112.00909423800002,23.055297852],[112.04791259800001,23.066894531],[112.07891845700001,23.074523926],[112.11090087900001,23.071289062],[112.13928222700001,23.05670166],[112.18151855500001,23.066101074],[112.21490478500002,23.084472656],[112.27630615200002,23.137695312],[112.28930664100001,23.139099121],[112.30090332000002,23.105102539],[112.28869628900001,23.075073242],[112.27349853500002,23.040710449],[112.25152587900001,22.983093262],[112.25292968700002,22.947692871],[112.26831054700001,22.924072266],[112.27429199200002,22.887695312],[112.27569580100001,22.84552002],[112.30828857400002,22.826293945],[112.30151367200001,22.794921875],[112.33190918000001,22.788513184],[112.37530517600001,22.781494141],[112.40429687500001,22.789916992],[112.44531250000001,22.797302246],[112.47631835900002,22.804504395],[112.49188232400002,22.832519531],[112.53247070300002,22.839477539],[112.55151367200001,22.862121582],[112.58410644500002,22.894470215],[112.63647460900002,22.907287598],[112.67608642600001,22.923278809],[112.70367431600002,22.937072754],[112.73449707000002,22.961486816],[112.76470947300001,22.99432373],[112.77050781200002,23.035888672],[112.76647949200002,23.06829834],[112.74487304700001,23.09387207],[112.74371337900001,23.123901367],[112.75811767600001,23.160522461],[112.74627685500002,23.195495605],[112.71649169900002,23.235107422],[112.79608154300001,23.237670898],[112.81292724600002,23.277282715],[112.81610107400002,23.310913086],[112.79870605500001,23.362304687],[112.77008056600002,23.376098633],[112.75988769500002,23.413879395],[112.78167724600002,23.461730957],[112.80908203100002,23.478271484],[112.83270263700001,23.501098633],[112.83892822300001,23.539489746]]]}}
