{"type":"Feature","id":"bulk-99377448B16750169380791","bbox":[111.47607421900001,37.422729492,113.12030029300001,38.411499023],"properties":{"id":"bulk-99377448B16750169380791","name":"Taiyuan","nameEn":"Taiyuan","fullName":"Taiyuan","level":"city","boundaryRole":"administrative-extent","boundaryQuality":"generalized-source-2020","boundaryYearRepresented":"2020","bounds":[[111.47607421900001,37.422729492],[113.12030029300001,38.411499023]],"center":[112.298187256,37.9171142575],"centerMethod":"bounding-box midpoint; camera framing only","license":"CC-BY-3.0-IGO","attribution":"geoBoundaries / HDX, China administrative boundaries (2020)","source":{"provider":"geoBoundaries gbHumanitarian / HDX","url":"https://github.com/wmgeolab/geoBoundaries/raw/9469f09/releaseData/gbHumanitarian/CHN/ADM2/geoBoundaries-CHN-ADM2.geojson","metadataUrl":"https://www.geoboundaries.org/api/current/gbHumanitarian/CHN/ADM2/","shapeID":"99377448B16750169380791","shapeName":"Taiyuan","boundaryID":"CHN-ADM2-99377448","commit":"9469f09"},"geometryCounts":{"coordinates":108,"components":1,"holes":0},"boundaryNotice":"geoBoundaries / HDX 2020 年行政区数据，海岸和边界经过源数据概化，并非当前测绘成果。"},"geometry":{"type":"Polygon","coordinates":[[[113.02069091800001,38.068725586],[112.99188232400002,38.092102051],[112.93609619100002,38.097473145],[112.88909912100002,38.123291016],[112.88592529300001,38.161499023],[112.90869140600002,38.198486328],[112.94671630900001,38.229675293],[112.99108886700002,38.252319336],[113.03411865200002,38.272521973],[113.06610107400002,38.291687012],[113.09332275400001,38.332092285],[113.12030029300001,38.376708984],[113.11212158200001,38.410522461],[113.05731201200001,38.411499023],[113.03009033200001,38.391296387],[113.00671386700002,38.363891602],[112.96112060500002,38.343078613],[112.91827392600001,38.347106934],[112.89093017600001,38.325073242],[112.85131835900002,38.310913086],[112.82452392600001,38.293701172],[112.77667236300002,38.263916016],[112.72149658200001,38.249084473],[112.65930175800001,38.243286133],[112.60589599600002,38.216308594],[112.56890869100002,38.204711914],[112.53387451200001,38.22467041],[112.48248291000002,38.244873047],[112.43530273400002,38.238708496],[112.40447998000002,38.25567627],[112.35552978500002,38.25567627],[112.31372070300002,38.267883301],[112.30029296900001,38.305725098],[112.25787353500002,38.309326172],[112.22149658200001,38.27331543],[112.19348144500002,38.239685059],[112.20428466800001,38.211303711],[112.21948242200001,38.18347168],[112.22570800800001,38.149719238],[112.17352294900002,38.145080566],[112.12652587900001,38.135681152],[112.08569335900002,38.141479492],[112.01611328100002,38.16229248],[111.96148681600002,38.170471191],[111.91052246100001,38.170715332],[111.855285645,38.172485352],[111.82049560500002,38.18170166],[111.77832031200002,38.205322266],[111.73791503900001,38.173522949],[111.67767334000001,38.153930664],[111.64172363300001,38.136901855],[111.60589599600002,38.114929199],[111.57672119100002,38.096313477],[111.54608154300001,38.082275391],[111.50927734400001,38.080871582],[111.47607421900001,38.041870117],[111.48571777300002,38.008911133],[111.52551269500002,37.936889648],[111.54827880900001,37.905700684],[111.55047607400002,37.865722656],[111.53869628900001,37.836914062],[111.59570312500001,37.831481934],[111.64349365200002,37.846679687],[111.68188476600001,37.861877441],[111.76708984400001,37.81427002],[111.82348632800002,37.789123535],[111.85552978500002,37.774902344],[111.89508056600002,37.752685547],[111.91729736300002,37.730285645],[111.92932128900001,37.704528809],[111.97332763700001,37.707885742],[112.02471923800002,37.707519531],[112.05969238300001,37.696289062],[112.11090087900001,37.681518555],[112.17468261700002,37.66809082],[112.17211914100001,37.606323242],[112.17767334000001,37.580078125],[112.19671630900001,37.55670166],[112.23468017600001,37.547302246],[112.27050781200002,37.525512695],[112.28747558600001,37.483886719],[112.29229736300002,37.457702637],[112.32867431600002,37.457275391],[112.38531494100002,37.465515137],[112.43249511700002,37.459716797],[112.46887207000002,37.422729492],[112.49450683600001,37.464111328],[112.51049804700001,37.497924805],[112.56127929700001,37.522094727],[112.59851074200002,37.54888916],[112.57409668000001,37.57611084],[112.57427978500002,37.607727051],[112.58270263700001,37.64050293],[112.63311767600001,37.663696289],[112.64093017600001,37.694885254],[112.64691162100002,37.725524902],[112.66448974600002,37.751708984],[112.69689941400001,37.79510498],[112.72808837900001,37.832275391],[112.76190185500002,37.894897461],[112.76232910200001,37.92791748],[112.78790283200001,37.963928223],[112.81927490200002,37.976501465],[112.87048339800002,37.986083984],[112.90228271500001,38.003723145],[112.94427490200002,38.006713867],[112.99468994100002,38.035888672],[113.02069091800001,38.068725586]]]}}
