{"type":"Feature","id":"bulk-99377448B38895472834325","bbox":[110.13372802700002,19.529296875,110.71087646500001,20.08190918],"properties":{"id":"bulk-99377448B38895472834325","name":"Haikou","nameEn":"Haikou","fullName":"Haikou","level":"city","boundaryRole":"administrative-extent","boundaryQuality":"generalized-source-2020","boundaryYearRepresented":"2020","bounds":[[110.13372802700002,19.529296875],[110.71087646500001,20.08190918]],"center":[110.42230224600002,19.8056030275],"centerMethod":"bounding-box midpoint; camera framing only","license":"CC-BY-3.0-IGO","attribution":"geoBoundaries / HDX, China administrative boundaries (2020)","source":{"provider":"geoBoundaries gbHumanitarian / HDX","url":"https://github.com/wmgeolab/geoBoundaries/raw/9469f09/releaseData/gbHumanitarian/CHN/ADM2/geoBoundaries-CHN-ADM2.geojson","metadataUrl":"https://www.geoboundaries.org/api/current/gbHumanitarian/CHN/ADM2/","shapeID":"99377448B38895472834325","shapeName":"Haikou","boundaryID":"CHN-ADM2-99377448","commit":"9469f09"},"geometryCounts":{"coordinates":721,"components":7,"holes":0},"boundaryNotice":"geoBoundaries / HDX 2020 年行政区数据，海岸和边界经过源数据概化，并非当前测绘成果。"},"geometry":{"type":"MultiPolygon","coordinates":[[[[110.56549072300001,19.994689941],[110.56549072300001,19.994873047],[110.56469726600001,19.994873047],[110.56469726600001,19.994689941],[110.56427002,19.994689941],[110.56427002,19.99432373],[110.56408691400001,19.99432373],[110.56408691400001,19.99407959],[110.56390380900001,19.99407959],[110.56390380900001,19.993896484],[110.56347656200002,19.993896484],[110.56347656200002,19.993530273],[110.56329345700001,19.993530273],[110.56329345700001,19.993286133],[110.56292724600002,19.993286133],[110.56292724600002,19.992675781],[110.56408691400001,19.992675781],[110.56408691400001,19.992919922],[110.56567382800002,19.992919922],[110.56567382800002,19.994689941],[110.56549072300001,19.994689941]]],[[[110.14947509800001,20.005493164],[110.14971923800002,20.005493164],[110.15148925800001,20.009094238],[110.14727783200001,20.008117676],[110.14947509800001,20.005493164]]],[[[110.54711914100001,20.009277344],[110.54772949200002,20.008728027],[110.54772949200002,20.009094238],[110.54748535200001,20.009094238],[110.54748535200001,20.009277344],[110.54711914100001,20.009277344]]],[[[110.54711914100001,20.009277344],[110.54711914100001,20.009887695],[110.546875,20.009887695],[110.546875,20.010070801],[110.54650878900001,20.010070801],[110.54711914100001,20.009277344]]],[[[110.54650878900001,20.012329102],[110.54650878900001,20.012878418],[110.54632568400001,20.012878418],[110.54632568400001,20.010681152],[110.54650878900001,20.010681152],[110.54650878900001,20.010498047],[110.54748535200001,20.010498047],[110.54748535200001,20.010070801],[110.54827880900001,20.010070801],[110.54827880900001,20.00970459],[110.54852294900002,20.00970459],[110.54852294900002,20.009094238],[110.54888916000002,20.009094238],[110.54888916000002,20.008728027],[110.54907226600001,20.008728027],[110.54907226600001,20.008300781],[110.54931640600002,20.008300781],[110.54931640600002,20.007080078],[110.54968261700002,20.007080078],[110.54968261700002,20.006530762],[110.55249023400002,20.003295898],[110.55651855500001,20.002685547],[110.55792236300002,20.005493164],[110.55609130900001,20.012084961],[110.55072021500001,20.012695312],[110.55047607400002,20.012695312],[110.54907226600001,20.012878418],[110.54907226600001,20.012695312],[110.54772949200002,20.012695312],[110.54772949200002,20.012329102],[110.54650878900001,20.012329102]]],[[[110.56372070300002,20.022705078],[110.56292724600002,20.025085449],[110.56268310500002,20.025085449],[110.5625,20.025085449],[110.5625,20.024902344],[110.56188964800002,20.024902344],[110.56188964800002,20.025085449],[110.56127929700001,20.024902344],[110.56109619100002,20.024902344],[110.56109619100002,20.024719238],[110.56048584000001,20.024719238],[110.56048584000001,20.024291992],[110.56011962900001,20.024291992],[110.56011962900001,20.024108887],[110.55847168000001,20.024108887],[110.55847168000001,20.023681641],[110.55749511700002,20.023681641],[110.55749511700002,20.023498535],[110.55651855500001,20.023498535],[110.55651855500001,20.022888184],[110.55627441400001,20.022888184],[110.55627441400001,20.022705078],[110.55609130900001,20.022705078],[110.55609130900001,20.022094727],[110.55572509800001,20.022094727],[110.55572509800001,20.021911621],[110.55548095700001,20.021911621],[110.55548095700001,20.021484375],[110.55529785200001,20.021484375],[110.55511474600002,20.02130127],[110.55511474600002,20.020690918],[110.55487060500002,20.020690918],[110.55487060500002,20.020080566],[110.55468750000001,20.020080566],[110.55468750000001,20.019897461],[110.55468750000001,20.019287109],[110.55432128900001,20.019287109],[110.55432128900001,20.018310547],[110.55407714800002,20.018310547],[110.55407714800002,20.017700195],[110.55688476600001,20.016296387],[110.55987548800002,20.016723633],[110.56207275400001,20.019287109],[110.56372070300002,20.022705078]]],[[[110.25408935500002,19.692687988],[110.26031494100002,19.696289062],[110.26568603500002,19.701904297],[110.27508544900002,19.704284668],[110.28009033200001,19.704101562],[110.28472900400001,19.705688477],[110.28607177700002,19.704528809],[110.29510498000002,19.703674316],[110.29992675800001,19.702880859],[110.30487060500002,19.703918457],[110.30908203100002,19.704284668],[110.31567382800002,19.70892334],[110.31768798800002,19.713500977],[110.31927490200002,19.716674805],[110.32391357400002,19.719299316],[110.32867431600002,19.719726562],[110.33349609400001,19.721130371],[110.34307861300002,19.718505859],[110.35009765600002,19.718322754],[110.35552978500002,19.71887207],[110.36047363300001,19.719726562],[110.36352539100001,19.718688965],[110.36889648400002,19.718505859],[110.37347412100002,19.72052002],[110.37469482400002,19.724304199],[110.37451171900001,19.727478027],[110.37908935500002,19.731079102],[110.38067627,19.727722168],[110.37988281200002,19.722106934],[110.38427734400001,19.719299316],[110.38488769500002,19.717895508],[110.38153076200001,19.715515137],[110.37792968700002,19.709899902],[110.37768554700001,19.703918457],[110.37908935500002,19.69708252],[110.37829589800002,19.690673828],[110.37011718700002,19.682678223],[110.37152099600002,19.676696777],[110.37249755900001,19.666870117],[110.37231445300002,19.661682129],[110.37152099600002,19.657104492],[110.37188720700001,19.652709961],[110.37408447300001,19.646728516],[110.37811279300001,19.643310547],[110.37988281200002,19.633483887],[110.38348388700001,19.631103516],[110.38610839800002,19.62109375],[110.39050293000001,19.609924316],[110.39611816400001,19.610900879],[110.40472412100002,19.613525391],[110.41168212900001,19.614074707],[110.413879395,19.614074707],[110.41632080100001,19.608886719],[110.41711425800001,19.602111816],[110.41668701200001,19.596496582],[110.41668701200001,19.591491699],[110.421691895,19.583496094],[110.42791748000002,19.57989502],[110.43011474600002,19.579284668],[110.43707275400001,19.579101562],[110.44451904300001,19.581481934],[110.44848632800002,19.586120605],[110.45208740200002,19.589111328],[110.45849609400001,19.589294434],[110.46752929700001,19.586486816],[110.47387695300002,19.585083008],[110.48388671900001,19.590087891],[110.48828125000001,19.591918945],[110.49468994100002,19.589294434],[110.49969482400002,19.587524414],[110.50408935500002,19.584716797],[110.50811767600001,19.581726074],[110.51171875000001,19.577087402],[110.51531982400002,19.573303223],[110.51788330100001,19.569702148],[110.52331543000001,19.565673828],[110.52752685500002,19.563293457],[110.53448486300002,19.563293457],[110.54107666000002,19.557312012],[110.54412841800001,19.553710937],[110.54992675800001,19.544921875],[110.55352783200001,19.539123535],[110.55871582000002,19.536071777],[110.56170654300001,19.534301758],[110.56707763700001,19.531677246],[110.57128906200002,19.531677246],[110.57867431600002,19.529724121],[110.58551025400001,19.530700684],[110.60009765600002,19.529296875],[110.60729980500001,19.530090332],[110.60949707000002,19.53112793],[110.62792968700002,19.530700684],[110.63488769500002,19.533325195],[110.64093017600001,19.536499023],[110.64367675800001,19.545288086],[110.64190673800002,19.551086426],[110.63970947300001,19.559509277],[110.63568115200002,19.573486328],[110.63531494100002,19.584289551],[110.63830566400001,19.591918945],[110.64172363300001,19.601074219],[110.64630127,19.614318848],[110.64990234400001,19.622680664],[110.65527343700002,19.629882812],[110.66168212900001,19.635498047],[110.66687011700002,19.641906738],[110.66650390600002,19.645874023],[110.66088867200001,19.647521973],[110.65789794900002,19.649719238],[110.65332031200002,19.659912109],[110.65087890600002,19.664123535],[110.64849853500002,19.664672852],[110.64508056600002,19.659118652],[110.64251709000001,19.65447998],[110.63549804700001,19.653076172],[110.63208007800002,19.654724121],[110.62731933600001,19.657470703],[110.62329101600001,19.662475586],[110.62371826200001,19.66607666],[110.62628173800002,19.671081543],[110.62792968700002,19.677124023],[110.62567138700001,19.684692383],[110.62432861300002,19.688293457],[110.61828613300001,19.692321777],[110.61108398400002,19.6953125],[110.61248779300001,19.702087402],[110.61749267600001,19.703674316],[110.62567138700001,19.703491211],[110.63470459000001,19.703491211],[110.64147949200002,19.708496094],[110.64532470700001,19.715698242],[110.64630127,19.719116211],[110.64288330100001,19.723693848],[110.63690185500002,19.724121094],[110.63452148400002,19.724487305],[110.62969970700001,19.728088379],[110.62628173800002,19.739685059],[110.62707519500002,19.748474121],[110.62792968700002,19.751098633],[110.63092041000002,19.754699707],[110.63690185500002,19.761901855],[110.64093017600001,19.767272949],[110.64447021500001,19.771118164],[110.64990234400001,19.778686523],[110.64727783200001,19.784484863],[110.63787841800001,19.785888672],[110.63848877,19.788879395],[110.64349365200002,19.792297363],[110.65307617200001,19.797729492],[110.65850830100001,19.805480957],[110.66650390600002,19.807312012],[110.67449951200001,19.803527832],[110.68109130900001,19.798706055],[110.68872070300002,19.797302246],[110.69708252,19.802490234],[110.70190429700001,19.807678223],[110.70190429700001,19.815917969],[110.69848632800002,19.823913574],[110.69909668000001,19.832519531],[110.70550537100002,19.837280273],[110.70831298800002,19.838500977],[110.71087646500001,19.843505859],[110.70867919900002,19.850891113],[110.70507812500001,19.85369873],[110.70111084000001,19.856872559],[110.69750976600001,19.859313965],[110.69049072300001,19.860473633],[110.68627929700001,19.860900879],[110.68048095700001,19.862304687],[110.67352294900002,19.866088867],[110.66827392600001,19.874084473],[110.67010498000002,19.877075195],[110.67468261700002,19.879699707],[110.67651367200001,19.887329102],[110.67529296900001,19.890319824],[110.67291259800001,19.894897461],[110.67071533200001,19.905090332],[110.66650390600002,19.914916992],[110.65991210900002,19.92010498],[110.65270996100001,19.923706055],[110.64849853500002,19.925109863],[110.64508056600002,19.92590332],[110.64251709000001,19.932678223],[110.64508056600002,19.94128418],[110.64410400400001,19.944274902],[110.63891601600001,19.953125],[110.63128662100002,19.961914062],[110.62768554700001,19.967529297],[110.62628173800002,19.969482422],[110.62170410200001,19.96887207],[110.62109375000001,19.961120605],[110.62628173800002,19.934875488],[110.62432861300002,19.928100586],[110.61853027300002,19.920471191],[110.61407470700001,19.918701172],[110.61029052700002,19.918884277],[110.60107421900001,19.928894043],[110.59552002,19.93951416],[110.58392334000001,19.948120117],[110.58190918000001,19.954101562],[110.58227539100001,19.958129883],[110.58270263700001,19.963928223],[110.57751464800002,19.973327637],[110.57708740200002,19.977294922],[110.58007812500001,19.984680176],[110.58648681600002,19.990905762],[110.58691406200002,19.991882324],[110.58648681600002,19.991882324],[110.58648681600002,19.992126465],[110.58630371100001,19.992126465],[110.58630371100001,19.992919922],[110.58612060500002,19.992919922],[110.58612060500002,19.994689941],[110.58569335900002,19.994689941],[110.58569335900002,19.995727539],[110.58612060500002,19.995727539],[110.58612060500002,19.99609375],[110.58648681600002,19.99609375],[110.58673095700001,19.99609375],[110.58612060500002,19.996704102],[110.56652832000002,19.995117187],[110.56652832000002,19.994689941],[110.56689453100002,19.994689941],[110.56689453100002,19.992919922],[110.56707763700001,19.992919922],[110.56707763700001,19.991516113],[110.56689453100002,19.991516113],[110.56689453100002,19.991088867],[110.56652832000002,19.991088867],[110.56652832000002,19.990722656],[110.56628418000001,19.990722656],[110.57470703100002,19.989685059],[110.57690429700001,19.987670898],[110.57330322300001,19.981689453],[110.57092285200001,19.980895996],[110.56329345700001,19.981323242],[110.56329345700001,19.980529785],[110.56292724600002,19.980529785],[110.56292724600002,19.979125977],[110.56207275400001,19.979125977],[110.56207275400001,19.978881836],[110.56127929700001,19.978881836],[110.56127929700001,19.978515625],[110.56048584000001,19.978515625],[110.56048584000001,19.978271484],[110.55987548800002,19.978271484],[110.55889892600001,19.97668457],[110.55810546900001,19.975891113],[110.554504395,19.975891113],[110.55047607400002,19.981689453],[110.54730224600002,19.983886719],[110.54589843700002,19.995117187],[110.54388427700002,19.998474121],[110.54431152300002,20.00012207],[110.54547119100002,20.003295898],[110.54467773400002,20.00592041],[110.54107666000002,20.008117676],[110.52789306600002,20.007507324],[110.52447509800001,20.009521484],[110.52587890600002,20.011474609],[110.53588867200001,20.013916016],[110.53747558600001,20.016296387],[110.53430175800001,20.016906738],[110.52532959000001,20.014526367],[110.50811767600001,20.015075684],[110.49792480500001,20.019104004],[110.48907470700001,20.020690918],[110.48388671900001,20.023681641],[110.472473145,20.030517578],[110.44348144500002,20.041320801],[110.43988037100002,20.031921387],[110.43609619100002,20.029907227],[110.43487548800002,20.034301758],[110.43829345700001,20.040527344],[110.43707275400001,20.044494629],[110.42712402300002,20.051513672],[110.42010498000002,20.048706055],[110.41131591800001,20.048706055],[110.40667724600002,20.054321289],[110.40667724600002,20.056884766],[110.40789794900002,20.058288574],[110.41448974600002,20.052307129],[110.41729736300002,20.051513672],[110.41912841800001,20.052307129],[110.41912841800001,20.052490234],[110.41949462900001,20.052490234],[110.41967773400002,20.05267334],[110.41992187500001,20.05267334],[110.42071533200001,20.054321289],[110.421691895,20.056274414],[110.42132568400001,20.056274414],[110.42132568400001,20.056518555],[110.42108154300001,20.056518555],[110.42108154300001,20.057128906],[110.42071533200001,20.057128906],[110.42071533200001,20.057495117],[110.42047119100002,20.057495117],[110.42047119100002,20.057922363],[110.42028808600001,20.057922363],[110.42028808600001,20.05847168],[110.41992187500001,20.05847168],[110.41992187500001,20.059082031],[110.41967773400002,20.059082031],[110.41967773400002,20.059875488],[110.41931152300002,20.059875488],[110.41931152300002,20.06048584],[110.41888427700002,20.06048584],[110.41888427700002,20.06072998],[110.41827392600001,20.06072998],[110.41827392600001,20.061096191],[110.41772460900002,20.061096191],[110.41772460900002,20.061279297],[110.41748046900001,20.061279297],[110.41748046900001,20.061523437],[110.41687011700002,20.061523437],[110.41687011700002,20.061889648],[110.41632080100001,20.061889648],[110.41632080100001,20.062072754],[110.41571044900002,20.062072754],[110.41571044900002,20.0625],[110.41528320300002,20.0625],[110.41528320300002,20.062683105],[110.41467285200001,20.062683105],[110.41467285200001,20.062927246],[110.41430664100001,20.062927246],[110.41430664100001,20.063293457],[110.413879395,20.063293457],[110.413879395,20.063476562],[110.41333007800002,20.063476562],[110.41333007800002,20.063903809],[110.41271972700001,20.063903809],[110.41271972700001,20.064086914],[110.41247558600001,20.064086914],[110.41247558600001,20.06427002],[110.41192627,20.06427002],[110.41192627,20.064697266],[110.41149902300002,20.064697266],[110.41131591800001,20.064697266],[110.41131591800001,20.064880371],[110.41088867200001,20.064880371],[110.41088867200001,20.065124512],[110.41052246100001,20.065124512],[110.41052246100001,20.065490723],[110.40991210900002,20.065490723],[110.40991210900002,20.065673828],[110.40972900400001,20.065673828],[110.40972900400001,20.066101074],[110.40930175800001,20.066101074],[110.40930175800001,20.06628418],[110.40887451200001,20.06628418],[110.40887451200001,20.06652832],[110.40832519500002,20.06652832],[110.40832519500002,20.066894531],[110.40728759800001,20.066894531],[110.40728759800001,20.067077637],[110.40631103500002,20.067077637],[110.40631103500002,20.067504883],[110.40570068400001,20.067504883],[110.40570068400001,20.067687988],[110.40551757800002,20.067687988],[110.40551757800002,20.067871094],[110.40490722700001,20.067871094],[110.40490722700001,20.06829834],[110.40411377,20.06829834],[110.40411377,20.068481445],[110.40350341800001,20.068481445],[110.40350341800001,20.068725586],[110.40332031200002,20.068725586],[110.40332031200002,20.069091797],[110.40270996100001,20.069091797],[110.40270996100001,20.069274902],[110.40209960900002,20.069274902],[110.40209960900002,20.069702148],[110.40148925800001,20.069702148],[110.40148925800001,20.069885254],[110.40130615200002,20.069885254],[110.40130615200002,20.070129395],[110.40087890600002,20.070129395],[110.40087890600002,20.070495605],[110.40008544900002,20.070495605],[110.40008544900002,20.070678711],[110.39971923800002,20.070678711],[110.39971923800002,20.071105957],[110.39929199200002,20.071105957],[110.39929199200002,20.071289062],[110.39868164100001,20.071289062],[110.39868164100001,20.071472168],[110.39849853500002,20.071472168],[110.39849853500002,20.071899414],[110.39788818400001,20.071899414],[110.39788818400001,20.07208252],[110.39727783200001,20.07208252],[110.39727783200001,20.072509766],[110.39691162100002,20.072509766],[110.39691162100002,20.072692871],[110.39630127,20.072692871],[110.39630127,20.072875977],[110.39569091800001,20.072875977],[110.39569091800001,20.073303223],[110.39489746100001,20.073303223],[110.39489746100001,20.073486328],[110.39471435500002,20.073486328],[110.39471435500002,20.073730469],[110.39428710900002,20.073730469],[110.39428710900002,20.07409668],[110.39367675800001,20.07409668],[110.39367675800001,20.074279785],[110.39349365200002,20.074279785],[110.39349365200002,20.074707031],[110.39288330100001,20.074707031],[110.39288330100001,20.074890137],[110.39270019500002,20.074890137],[110.39270019500002,20.075073242],[110.39208984400001,20.075073242],[110.39208984400001,20.075500488],[110.39190673800002,20.075500488],[110.39190673800002,20.075683594],[110.39129638700001,20.075683594],[110.39129638700001,20.07611084],[110.39068603500002,20.07611084],[110.39068603500002,20.076293945],[110.39007568400001,20.076293945],[110.39007568400001,20.076477051],[110.38970947300001,20.076477051],[110.38970947300001,20.076721191],[110.38970947300001,20.076904297],[110.38909912100002,20.076904297],[110.38909912100002,20.077087402],[110.38848877,20.077087402],[110.38848877,20.077270508],[110.38830566400001,20.077270508],[110.38830566400001,20.077697754],[110.38769531200002,20.077697754],[110.38769531200002,20.077880859],[110.38732910200001,20.077880859],[110.38732910200001,20.078308105],[110.38708496100001,20.078308105],[110.38708496100001,20.078491211],[110.38647460900002,20.078491211],[110.38647460900002,20.078674316],[110.38610839800002,20.078674316],[110.38610839800002,20.079101562],[110.38507080100001,20.079101562],[110.38507080100001,20.079284668],[110.38470459000001,20.079284668],[110.38470459000001,20.079711914],[110.38409423800002,20.079711914],[110.38409423800002,20.07989502],[110.38348388700001,20.07989502],[110.38989257800002,20.073730469],[110.39068603500002,20.069702148],[110.38830566400001,20.069274902],[110.38409423800002,20.074279785],[110.38128662100002,20.073486328],[110.37707519500002,20.068725586],[110.37432861300002,20.058105469],[110.37469482400002,20.054077148],[110.38488769500002,20.043518066],[110.38427734400001,20.040527344],[110.37847900400001,20.041687012],[110.37469482400002,20.048706055],[110.36932373000002,20.047729492],[110.36071777300002,20.055908203],[110.36907959000001,20.054870605],[110.37512207000002,20.076904297],[110.37408447300001,20.080688477],[110.36389160200001,20.08190918],[110.36328125000001,20.08190918],[110.36328125000001,20.081481934],[110.36267089800002,20.081481934],[110.36267089800002,20.081298828],[110.36187744100002,20.081298828],[110.36187744100002,20.081115723],[110.36132812500001,20.081115723],[110.36132812500001,20.080688477],[110.36071777300002,20.080688477],[110.36071777300002,20.080505371],[110.35992431600002,20.080505371],[110.35992431600002,20.080078125],[110.35931396500001,20.080078125],[110.35931396500001,20.07989502],[110.35852050800001,20.07989502],[110.35791015600002,20.07989502],[110.35791015600002,20.079711914],[110.35650634800001,20.079711914],[110.35650634800001,20.079284668],[110.35388183600001,20.079284668],[110.35388183600001,20.079711914],[110.35247802700002,20.079711914],[110.35247802700002,20.07989502],[110.34967041000002,20.07989502],[110.34967041000002,20.080078125],[110.34210205100001,20.080078125],[110.34210205100001,20.07989502],[110.34027099600002,20.07989502],[110.33673095700001,20.067077637],[110.33807373000002,20.063293457],[110.33209228500002,20.059082031],[110.33111572300001,20.056274414],[110.33288574200002,20.051879883],[110.32989502,20.049682617],[110.32427978500002,20.049499512],[110.32250976600001,20.047912598],[110.32067871100001,20.038696289],[110.31549072300001,20.034484863],[110.28387451200001,20.020690918],[110.26690673800002,20.021484375],[110.25128173800002,20.026306152],[110.24548339800002,20.028076172],[110.22070312500001,20.030883789],[110.21807861300002,20.034301758],[110.21569824200002,20.042114258],[110.19873046900001,20.056884766],[110.179504395,20.058898926],[110.16351318400001,20.055480957],[110.15948486300002,20.051513672],[110.16070556600002,20.033325195],[110.15911865200002,20.028076172],[110.15527343700002,20.01550293],[110.16027832000002,20.009277344],[110.16070556600002,20.006103516],[110.15588378900001,20.001708984],[110.15228271500001,20.000305176],[110.15228271500001,20.00012207],[110.15270996100001,19.997497559],[110.15332031200002,19.993713379],[110.15289306600002,19.99029541],[110.15350341800001,19.986877441],[110.15472412100002,19.981079102],[110.15588378900001,19.976501465],[110.15692138700001,19.972106934],[110.15789794900002,19.968505859],[110.15612793000001,19.963684082],[110.15368652300002,19.956726074],[110.15167236300002,19.951293945],[110.15069580100001,19.943908691],[110.15032959000001,19.93548584],[110.15032959000001,19.928894043],[110.14489746100001,19.92767334],[110.13970947300001,19.930908203],[110.13549804700001,19.928527832],[110.13372802700002,19.920288086],[110.13452148400002,19.914123535],[110.13708496100001,19.912719727],[110.14367675800001,19.914123535],[110.14831543000001,19.913513184],[110.14990234400001,19.907104492],[110.14508056600002,19.901916504],[110.14093017600001,19.898498535],[110.14050293000001,19.891906738],[110.14331054700001,19.888122559],[110.14630127,19.884094238],[110.14752197300001,19.882507324],[110.14892578100002,19.874511719],[110.14550781200002,19.86932373],[110.13952636700002,19.867126465],[110.13629150400001,19.865112305],[110.13531494100002,19.862670898],[110.13909912100002,19.860473633],[110.14508056600002,19.862121582],[110.15631103500002,19.866088867],[110.163879395,19.86932373],[110.17150878900001,19.86932373],[110.17608642600001,19.868103027],[110.18212890600002,19.862487793],[110.18029785200001,19.85369873],[110.17211914100001,19.85369873],[110.17047119100002,19.850524902],[110.17291259800001,19.847106934],[110.18688964800002,19.847106934],[110.19451904300001,19.844726562],[110.19989013700001,19.842895508],[110.20190429700001,19.841308594],[110.20330810500002,19.833679199],[110.203125,19.829711914],[110.203125,19.82409668],[110.20227050800001,19.817871094],[110.20172119100002,19.812683105],[110.20208740200002,19.808288574],[110.20208740200002,19.801086426],[110.20269775400001,19.796081543],[110.20391845700001,19.790710449],[110.20770263700001,19.785888672],[110.21130371100001,19.780273437],[110.21508789100001,19.775878906],[110.21868896500001,19.771484375],[110.22210693400001,19.764709473],[110.22290039100001,19.757507324],[110.22027587900001,19.752685547],[110.21649169900002,19.748718262],[110.21289062500001,19.74407959],[110.20849609400001,19.740112305],[110.20648193400001,19.733886719],[110.20648193400001,19.72668457],[110.20947265600002,19.721130371],[110.21307373000002,19.715087891],[110.21691894500002,19.71307373],[110.21752929700001,19.70690918],[110.21551513700001,19.702880859],[110.21472168000001,19.698303223],[110.21472168000001,19.691894531],[110.21649169900002,19.684509277],[110.22491455100001,19.682495117],[110.22967529300001,19.684509277],[110.23449707000002,19.68548584],[110.24432373000002,19.688293457],[110.24951171900001,19.690124512],[110.25408935500002,19.692687988]]]]}}
