{"type":"Feature","id":"bulk-99377448B5367248925845","bbox":[111.51531982400002,26.114074707,113.21948242200001,27.453125],"properties":{"id":"bulk-99377448B5367248925845","name":"Hengyang","nameEn":"Hengyang","fullName":"Hengyang","level":"city","boundaryRole":"administrative-extent","boundaryQuality":"generalized-source-2020","boundaryYearRepresented":"2020","bounds":[[111.51531982400002,26.114074707],[113.21948242200001,27.453125]],"center":[112.36740112300001,26.7835998535],"centerMethod":"bounding-box midpoint; camera framing only","license":"CC-BY-3.0-IGO","attribution":"geoBoundaries / HDX, China administrative boundaries (2020)","source":{"provider":"geoBoundaries gbHumanitarian / HDX","url":"https://github.com/wmgeolab/geoBoundaries/raw/9469f09/releaseData/gbHumanitarian/CHN/ADM2/geoBoundaries-CHN-ADM2.geojson","metadataUrl":"https://www.geoboundaries.org/api/current/gbHumanitarian/CHN/ADM2/","shapeID":"99377448B5367248925845","shapeName":"Hengyang","boundaryID":"CHN-ADM2-99377448","commit":"9469f09"},"geometryCounts":{"coordinates":178,"components":1,"holes":0},"boundaryNotice":"geoBoundaries / HDX 2020 年行政区数据，海岸和边界经过源数据概化，并非当前测绘成果。"},"geometry":{"type":"Polygon","coordinates":[[[113.19989013700001,26.846679687],[113.19567871100001,26.874084473],[113.21948242200001,26.90612793],[113.21447753900001,26.939880371],[113.18347168000001,26.963684082],[113.17767334000001,26.990478516],[113.18591308600001,27.021484375],[113.17370605500001,27.055725098],[113.13031005900001,27.06072998],[113.12670898400002,27.092895508],[113.14532470700001,27.122680664],[113.18188476600001,27.133483887],[113.21667480500001,27.156677246],[113.21752929700001,27.195678711],[113.19750976600001,27.24609375],[113.15631103500002,27.231323242],[113.11688232400002,27.236328125],[113.06030273400002,27.216918945],[113.046691895,27.250671387],[113.02111816400001,27.281921387],[113.00268554700001,27.31427002],[112.99212646500001,27.358703613],[112.96789550800001,27.375488281],[112.94250488300001,27.43927002],[112.89752197300001,27.399475098],[112.89770507800002,27.348693848],[112.80651855500001,27.332275391],[112.76947021500001,27.341491699],[112.75628662100002,27.374328613],[112.73309326200001,27.392089844],[112.69952392600001,27.38470459],[112.66650390600002,27.392089844],[112.66107177700002,27.419128418],[112.66247558600001,27.453125],[112.62487793000001,27.449707031],[112.59307861300002,27.438720703],[112.55908203100002,27.431274414],[112.51330566400001,27.425292969],[112.47009277300002,27.430480957],[112.45672607400002,27.397888184],[112.44989013700001,27.362915039],[112.42510986300002,27.326904297],[112.39788818400001,27.342712402],[112.36108398400002,27.352294922],[112.31951904300001,27.35748291],[112.28387451200001,27.350097656],[112.25030517600001,27.326904297],[112.22430419900002,27.297912598],[112.18011474600002,27.281921387],[112.16711425800001,27.313720703],[112.12908935500002,27.30847168],[112.13909912100002,27.267700195],[112.11767578100002,27.235473633],[112.08911132800002,27.215270996],[112.05108642600001,27.194274902],[112.02111816400001,27.145507812],[112.02929687500001,27.099487305],[112.04028320300002,27.073913574],[112.05511474600002,27.049682617],[112.054504395,27.008483887],[112.02648925800001,26.994506836],[111.99267578100002,26.986083984],[111.97088623000002,26.966308594],[111.94207763700001,26.939086914],[111.90472412100002,26.944091797],[111.87707519500002,26.92388916],[111.86688232400002,26.962097168],[111.85827636700002,26.991699219],[111.82727050800001,27.023925781],[111.78790283200001,27.046325684],[111.74389648400002,27.062072754],[111.69769287100002,27.065124512],[111.65332031200002,27.059509277],[111.64508056600002,27.031677246],[111.62310791000002,26.989685059],[111.613098145,26.962280273],[111.57592773400002,26.937072754],[111.54150390600002,26.950073242],[111.51531982400002,26.932495117],[111.53509521500001,26.905700684],[111.53710937500001,26.87689209],[111.51947021500001,26.849487305],[111.52728271500001,26.811889648],[111.55108642600001,26.792480469],[111.59289550800001,26.800720215],[111.61047363300001,26.828674316],[111.63427734400001,26.849304199],[111.67468261700002,26.840087891],[111.72070312500001,26.855102539],[111.70812988300001,26.797912598],[111.72930908200001,26.777282715],[111.75653076200001,26.791687012],[111.77630615200002,26.815124512],[111.80950927700002,26.801696777],[111.84027099600002,26.805297852],[111.86907959000001,26.817687988],[111.88568115200002,26.787719727],[111.90447998000002,26.750488281],[111.91448974600002,26.715087891],[111.94329834000001,26.653686523],[111.94531250000001,26.621520996],[111.95690918000001,26.590515137],[111.988098145,26.593078613],[111.97711181600002,26.625915527],[111.98211669900002,26.653686523],[112.01727294900002,26.646484375],[112.06469726600001,26.643127441],[112.097473145,26.64630127],[112.11389160200001,26.621887207],[112.13507080100001,26.59552002],[112.13592529300001,26.56048584],[112.19030761700002,26.547729492],[112.17608642600001,26.516479492],[112.16552734400001,26.490112305],[112.13189697300001,26.489074707],[112.10308837900001,26.465087891],[112.13372802700002,26.444885254],[112.13311767600001,26.415710449],[112.113098145,26.39050293],[112.10949707000002,26.354125977],[112.12152099600002,26.32232666],[112.14147949200002,26.289916992],[112.15728759800001,26.262512207],[112.16790771500001,26.227905273],[112.17633056600002,26.186889648],[112.18371582000002,26.145080566],[112.19427490200002,26.114074707],[112.21929931600002,26.138305664],[112.25091552700002,26.165527344],[112.29052734400001,26.179321289],[112.33007812500001,26.190307617],[112.37170410200001,26.191101074],[112.40527343700002,26.188720703],[112.44628906200002,26.181274414],[112.49169921900001,26.164672852],[112.51928710900002,26.152099609],[112.55133056600002,26.158081055],[112.58050537100002,26.17590332],[112.65112304700001,26.174926758],[112.671875,26.135681152],[112.70788574200002,26.129089355],[112.75207519500002,26.153930664],[112.75732421900001,26.202880859],[112.81030273400002,26.170471191],[112.83831787100002,26.159912109],[112.87591552700002,26.161682129],[112.90209960900002,26.17590332],[112.93212890600002,26.1796875],[112.95428466800001,26.151916504],[112.98547363300001,26.166870117],[112.99609375000001,26.203674316],[112.98748779300001,26.23828125],[112.96972656200002,26.261474609],[112.97052002,26.292907715],[113.00469970700001,26.296508789],[113.04949951200001,26.30670166],[113.06872558600001,26.327697754],[113.11047363300001,26.337890625],[113.13488769500002,26.356872559],[113.12988281200002,26.391113281],[113.15332031200002,26.420898437],[113.15869140600002,26.452087402],[113.17211914100001,26.477111816],[113.19451904300001,26.502075195],[113.15667724600002,26.519470215],[113.13372802700002,26.53729248],[113.13568115200002,26.576721191],[113.14172363300001,26.61151123],[113.14672851600001,26.655273437],[113.13751220700001,26.681518555],[113.08972168000001,26.721496582],[113.06988525400001,26.755310059],[113.08331298800002,26.785522461],[113.11151123000002,26.802490234],[113.11791992200001,26.830688477],[113.15148925800001,26.819519043],[113.18811035200001,26.809082031],[113.19989013700001,26.846679687]]]}}
