{"type":"Feature","id":"bulk-99377448B83126373739725","bbox":[107.63867187500001,34.18347168,109.16308593700002,35.502685547],"properties":{"id":"bulk-99377448B83126373739725","name":"Xianyang","nameEn":"Xianyang","fullName":"Xianyang","level":"city","boundaryRole":"administrative-extent","boundaryQuality":"generalized-source-2020","boundaryYearRepresented":"2020","bounds":[[107.63867187500001,34.18347168],[109.16308593700002,35.502685547]],"center":[108.40087890600002,34.8430786135],"centerMethod":"bounding-box midpoint; camera framing only","license":"CC-BY-3.0-IGO","attribution":"geoBoundaries / HDX, China administrative boundaries (2020)","source":{"provider":"geoBoundaries gbHumanitarian / HDX","url":"https://github.com/wmgeolab/geoBoundaries/raw/9469f09/releaseData/gbHumanitarian/CHN/ADM2/geoBoundaries-CHN-ADM2.geojson","metadataUrl":"https://www.geoboundaries.org/api/current/gbHumanitarian/CHN/ADM2/","shapeID":"99377448B83126373739725","shapeName":"Xianyang","boundaryID":"CHN-ADM2-99377448","commit":"9469f09"},"geometryCounts":{"coordinates":139,"components":1,"holes":0},"boundaryNotice":"geoBoundaries / HDX 2020 年行政区数据，海岸和边界经过源数据概化，并非当前测绘成果。"},"geometry":{"type":"Polygon","coordinates":[[[108.04772949200002,34.252075195],[108.10632324200002,34.222473145],[108.14648437500001,34.224304199],[108.18432617200001,34.205078125],[108.21807861300002,34.18347168],[108.26489257800002,34.209899902],[108.32727050800001,34.239685059],[108.35589599600002,34.204101562],[108.38531494100002,34.189880371],[108.45068359400001,34.201293945],[108.51531982400002,34.231079102],[108.55029296900001,34.235473633],[108.60913085900002,34.273681641],[108.63787841800001,34.229125977],[108.67608642600001,34.257324219],[108.72528076200001,34.285888672],[108.75769043000001,34.292724609],[108.78027343700002,34.317871094],[108.80590820300002,34.341674805],[108.83612060500002,34.355895996],[108.87030029300001,34.374084473],[108.91949462900001,34.389282227],[108.96032714800002,34.405517578],[108.96209716800001,34.448120117],[108.97027587900001,34.484130859],[108.96710205100001,34.526489258],[108.95471191400001,34.555114746],[108.98468017600001,34.573303223],[109.02252197300001,34.580322266],[109.06970214800002,34.584472656],[109.11029052700002,34.583679199],[109.13409423800002,34.61932373],[109.14508056600002,34.65032959],[109.16308593700002,34.678283691],[109.11511230500001,34.686279297],[109.05548095700001,34.681091309],[109.02429199200002,34.693481445],[109.02569580100001,34.721496582],[109.03350830100001,34.76171875],[109.01947021500001,34.792297363],[108.98352050800001,34.815307617],[108.94128418000001,34.82208252],[108.89508056600002,34.818481445],[108.84429931600002,34.807312012],[108.79827880900001,34.81652832],[108.77789306600002,34.844299316],[108.72991943400001,34.860717773],[108.68487548800002,34.877929687],[108.66711425800001,34.904907227],[108.64050293000001,34.95111084],[108.61352539100001,34.989074707],[108.56170654300001,35.038513184],[108.60888671900001,35.071289062],[108.59631347700001,35.099914551],[108.63568115200002,35.114318848],[108.62127685500002,35.13848877],[108.63928222700001,35.163879395],[108.663879395,35.187683105],[108.67352294900002,35.214477539],[108.70007324200002,35.246276855],[108.74890136700002,35.278686523],[108.80548095700001,35.301696777],[108.85028076200001,35.30291748],[108.84368896500001,35.330688477],[108.82727050800001,35.359130859],[108.79650878900001,35.380126953],[108.78149414100001,35.406494141],[108.75872802700002,35.450927734],[108.72271728500002,35.469482422],[108.67388916000002,35.491699219],[108.56829834000001,35.502685547],[108.56311035200001,35.460510254],[108.56408691400001,35.41027832],[108.57952880900001,35.379882812],[108.58032226600001,35.340698242],[108.57312011700002,35.326721191],[108.52972412100002,35.31451416],[108.49871826200001,35.311096191],[108.45568847700001,35.284118652],[108.42108154300001,35.274719238],[108.36730957000002,35.279907227],[108.32611084000001,35.291320801],[108.29650878900001,35.280883789],[108.26690673800002,35.266906738],[108.23687744100002,35.266479492],[108.21649169900002,35.291687012],[108.20489502,35.311279297],[108.16027832000002,35.3046875],[108.11572265600002,35.294128418],[108.07727050800001,35.280883789],[108.05767822300001,35.270690918],[108.01092529300001,35.254089355],[107.97528076200001,35.233886719],[107.94470214800002,35.217712402],[107.93487548800002,35.214477539],[107.929504395,35.223327637],[107.92907714800002,35.240112305],[107.90393066400001,35.254516602],[107.88891601600001,35.254089355],[107.86370849600002,35.262695312],[107.82250976600001,35.270874023],[107.79107666000002,35.27911377],[107.76593017600001,35.290527344],[107.75048828100002,35.304870605],[107.70532226600001,35.318725586],[107.69372558600001,35.258300781],[107.65332031200002,35.223083496],[107.63867187500001,35.223693848],[107.65087890600002,35.200500488],[107.66491699200002,35.173706055],[107.69012451200001,35.114929199],[107.73229980500001,35.044921875],[107.77331543000001,35.019470215],[107.79272460900002,35.007324219],[107.80792236300002,34.998718262],[107.80810546900001,34.989929199],[107.78430175800001,34.971130371],[107.81347656200002,34.943481445],[107.82568359400001,34.917297363],[107.84912109400001,34.876708984],[107.87048339800002,34.850280762],[107.94390869100002,34.857910156],[107.96032714800002,34.809082031],[107.97528076200001,34.766296387],[107.99389648400002,34.723876953],[108.00909423800002,34.697692871],[108.02227783200001,34.66229248],[108.02569580100001,34.632324219],[107.96887207000002,34.608276367],[107.98107910200001,34.557678223],[107.97369384800001,34.513671875],[107.98712158200001,34.482910156],[108.01849365200002,34.446289062],[108.01409912100002,34.418273926],[108.03112793000001,34.373718262],[108.03448486300002,34.34387207],[108.02227783200001,34.30871582],[108.03271484400001,34.276916504],[108.04772949200002,34.252075195]]]}}
