{"type":"Feature","id":"bulk-99377448B79723433809250","bbox":[110.46148681600002,39.630493164,112.28790283200001,41.368286133],"properties":{"id":"bulk-99377448B79723433809250","name":"Hohhot","nameEn":"Hohhot","fullName":"Hohhot","level":"city","boundaryRole":"administrative-extent","boundaryQuality":"generalized-source-2020","boundaryYearRepresented":"2020","bounds":[[110.46148681600002,39.630493164],[112.28790283200001,41.368286133]],"center":[111.37469482400002,40.4993896485],"centerMethod":"bounding-box midpoint; camera framing only","license":"CC-BY-3.0-IGO","attribution":"geoBoundaries / HDX, China administrative boundaries (2020)","source":{"provider":"geoBoundaries gbHumanitarian / HDX","url":"https://github.com/wmgeolab/geoBoundaries/raw/9469f09/releaseData/gbHumanitarian/CHN/ADM2/geoBoundaries-CHN-ADM2.geojson","metadataUrl":"https://www.geoboundaries.org/api/current/gbHumanitarian/CHN/ADM2/","shapeID":"99377448B79723433809250","shapeName":"Hohhot","boundaryID":"CHN-ADM2-99377448","commit":"9469f09"},"geometryCounts":{"coordinates":142,"components":1,"holes":0},"boundaryNotice":"geoBoundaries / HDX 2020 年行政区数据，海岸和边界经过源数据概化，并非当前测绘成果。"},"geometry":{"type":"Polygon","coordinates":[[[112.28790283200001,40.245910645],[112.28588867200001,40.253479004],[112.26330566400001,40.278076172],[112.22290039100001,40.326293945],[112.21191406200002,40.359680176],[112.20489502,40.394104004],[112.187316895,40.420898437],[112.16333007800002,40.452697754],[112.13970947300001,40.474304199],[112.09667968700002,40.502319336],[112.06427002,40.520080566],[112.03808593700002,40.540100098],[112.04711914100001,40.565917969],[112.07110595700001,40.592102051],[112.08508300800001,40.641479492],[112.09130859400001,40.680297852],[112.08489990200002,40.706726074],[112.09948730500001,40.740722656],[112.12408447300001,40.774475098],[112.15307617200001,40.792297363],[112.16149902300002,40.82409668],[112.14788818400001,40.856689453],[112.13391113300001,40.883483887],[112.10888671900001,40.91809082],[112.08172607400002,40.93927002],[112.04290771500001,40.945129395],[112.01409912100002,40.96270752],[112.00170898400002,40.993103027],[111.99072265600002,41.031677246],[111.95751953100002,41.059326172],[111.92889404300001,41.077270508],[111.85913085900002,41.122924805],[111.85949707000002,41.159729004],[111.81671142600001,41.215881348],[111.78131103500002,41.236083984],[111.74890136700002,41.255310059],[111.71350097700001,41.284118652],[111.68151855500001,41.311523437],[111.64349365200002,41.3046875],[111.59912109400001,41.301696777],[111.55651855500001,41.306884766],[111.51971435500002,41.319274902],[111.47351074200002,41.325073242],[111.38671875000001,41.346679687],[111.37988281200002,41.296875],[111.32427978500002,41.291870117],[111.29132080100001,41.278930664],[111.24108886700002,41.249328613],[111.20208740200002,41.228088379],[111.16107177700002,41.240905762],[111.12670898400002,41.271484375],[111.08929443400001,41.285705566],[111.04748535200001,41.294921875],[111.01171875000001,41.306518555],[110.98388671900001,41.326721191],[110.94427490200002,41.324279785],[110.91308593700002,41.309692383],[110.87567138700001,41.301330566],[110.84130859400001,41.313293457],[110.81829834000001,41.336486816],[110.79608154300001,41.360290527],[110.74731445300002,41.368286133],[110.70867919900002,41.361083984],[110.66967773400002,41.337890625],[110.62689209000001,41.319885254],[110.57928466800001,41.304321289],[110.53387451200001,41.305480957],[110.46148681600002,41.287902832],[110.47149658200001,41.258728027],[110.51269531200002,41.235473633],[110.55767822300001,41.214904785],[110.58172607400002,41.192077637],[110.59509277300002,41.159484863],[110.59991455100001,41.12310791],[110.61767578100002,41.096496582],[110.64208984400001,41.06451416],[110.64392089800002,41.033081055],[110.63250732400002,41.00189209],[110.61590576200001,40.97467041],[110.60150146500001,40.942077637],[110.597473145,40.91229248],[110.64068603500002,40.920288086],[110.68249511700002,40.923706055],[110.69708252,40.883728027],[110.69689941400001,40.857116699],[110.69171142600001,40.827880859],[110.71667480500001,40.770080566],[110.74652099600002,40.731506348],[110.75952148400002,40.704528809],[110.74951171900001,40.676879883],[110.74291992200001,40.644897461],[110.76690673800002,40.611877441],[110.79650878900001,40.594482422],[110.81207275400001,40.561889648],[110.81768798800002,40.534301758],[110.83911132800002,40.50970459],[110.88708496100001,40.488525391],[110.93432617200001,40.476318359],[110.98187255900001,40.461914062],[111.02429199200002,40.436706543],[111.08673095700001,40.41809082],[111.06787109400001,40.384277344],[111.07849121100001,40.332519531],[111.05810546900001,40.310302734],[111.02868652300002,40.283081055],[111.04907226600001,40.250915527],[111.09790039100001,40.23651123],[111.13092041000002,40.221130371],[111.15447998000002,40.196899414],[111.17431640600002,40.169128418],[111.21807861300002,40.154296875],[111.26531982400002,40.14251709],[111.296691895,40.121276855],[111.33691406200002,40.103515625],[111.31927490200002,40.081115723],[111.34350585900002,40.050109863],[111.39227294900002,40.003723145],[111.40808105500001,39.963500977],[111.41888427700002,39.883728027],[111.38848877,39.801086426],[111.35913085900002,39.770874023],[111.32592773400002,39.743530273],[111.33770752,39.715698242],[111.37408447300001,39.684692383],[111.40252685500002,39.66607666],[111.42687988300001,39.656494141],[111.43487548800002,39.644104004],[111.57031250000001,39.639526367],[111.68109130900001,39.635070801],[111.79992675800001,39.630493164],[111.86572265600002,39.635681152],[111.88232421900001,39.63848877],[111.91149902300002,39.656494141],[111.929504395,39.717712402],[111.95172119100002,39.787902832],[111.98291015600002,39.873291016],[112.02709960900002,39.968322754],[112.04388427700002,40.001281738],[112.07427978500002,40.056091309],[112.14727783200001,40.153076172],[112.21911621100001,40.207275391],[112.28790283200001,40.245910645]]]}}
