{"type":"Feature","id":"bulk-99377448B49303592668309","bbox":[113.02471923800002,33.700683594,114.30328369100002,34.402893066],"properties":{"id":"bulk-99377448B49303592668309","name":"Xuchang","nameEn":"Xuchang","fullName":"Xuchang","level":"city","boundaryRole":"administrative-extent","boundaryQuality":"generalized-source-2020","boundaryYearRepresented":"2020","bounds":[[113.02471923800002,33.700683594],[114.30328369100002,34.402893066]],"center":[113.66400146450002,34.051788329999994],"centerMethod":"bounding-box midpoint; camera framing only","license":"CC-BY-3.0-IGO","attribution":"geoBoundaries / HDX, China administrative boundaries (2020)","source":{"provider":"geoBoundaries gbHumanitarian / HDX","url":"https://github.com/wmgeolab/geoBoundaries/raw/9469f09/releaseData/gbHumanitarian/CHN/ADM2/geoBoundaries-CHN-ADM2.geojson","metadataUrl":"https://www.geoboundaries.org/api/current/gbHumanitarian/CHN/ADM2/","shapeID":"99377448B49303592668309","shapeName":"Xuchang","boundaryID":"CHN-ADM2-99377448","commit":"9469f09"},"geometryCounts":{"coordinates":91,"components":1,"holes":0},"boundaryNotice":"geoBoundaries / HDX 2020 年行政区数据，海岸和边界经过源数据概化，并非当前测绘成果。"},"geometry":{"type":"Polygon","coordinates":[[[113.84570312500001,34.351501465],[113.81207275400001,34.34588623],[113.77667236300002,34.336730957],[113.71032714800002,34.31072998],[113.66729736300002,34.279724121],[113.63409423800002,34.274719238],[113.60589599600002,34.290893555],[113.52691650400001,34.328125],[113.48730468700002,34.358703613],[113.36529541000002,34.362121582],[113.29028320300002,34.402893066],[113.27551269500002,34.362487793],[113.23632812500001,34.343322754],[113.20227050800001,34.340515137],[113.17327880900001,34.311706543],[113.11987304700001,34.281494141],[113.08508300800001,34.269104004],[113.02471923800002,34.282287598],[113.04388427700002,34.24609375],[113.04632568400001,34.21270752],[113.05749511700002,34.174682617],[113.10089111300002,34.135925293],[113.12847900400001,34.114318848],[113.17248535200001,34.10369873],[113.22369384800001,34.102294922],[113.26428222700001,34.092712402],[113.28631591800001,34.071716309],[113.30688476600001,34.048095703],[113.33807373000002,34.019897461],[113.37689209000001,34.014709473],[113.36749267600001,33.955078125],[113.34790039100001,33.924499512],[113.32849121100001,33.879699707],[113.35229492200001,33.847473145],[113.34710693400001,33.81427002],[113.36968994100002,33.788330078],[113.37188720700001,33.761474609],[113.43109130900001,33.738891602],[113.47607421900001,33.750488281],[113.51470947300001,33.757080078],[113.55133056600002,33.737121582],[113.56951904300001,33.700683594],[113.58148193400001,33.702697754],[113.61627197300001,33.708129883],[113.66168212900001,33.709289551],[113.73468017600001,33.709716797],[113.73229980500001,33.768310547],[113.72668457000002,33.804504395],[113.71051025400001,33.840270996],[113.71649169900002,33.879089355],[113.75848388700001,33.889892578],[113.80548095700001,33.897277832],[113.82849121100001,33.919494629],[113.86291503900001,33.945495605],[113.90191650400001,33.949523926],[113.92828369100002,33.979309082],[113.97430419900002,33.985717773],[114.01269531200002,33.984924316],[114.00469970700001,33.94708252],[114.03430175800001,33.91229248],[114.07568359400001,33.881103516],[114.06927490200002,33.831115723],[114.08868408200001,33.806274414],[114.09350585900002,33.8046875],[114.12792968700002,33.835876465],[114.16870117200001,33.829528809],[114.20989990200002,33.819885254],[114.27569580100001,33.816894531],[114.28228759800001,33.856079102],[114.288879395,33.884277344],[114.30328369100002,33.888305664],[114.29150390600002,33.93927002],[114.28350830100001,33.970275879],[114.27508544900002,34.014709473],[114.26232910200001,34.051086426],[114.25872802700002,34.092102051],[114.25250244100002,34.135925293],[114.24810791000002,34.165893555],[114.24969482400002,34.202087402],[114.25268554700001,34.244506836],[114.26507568400001,34.286071777],[114.20208740200002,34.247680664],[114.15393066400001,34.226501465],[114.11828613300001,34.222106934],[114.08050537100002,34.246887207],[114.04272460900002,34.250915527],[113.97808837900001,34.265319824],[113.95648193400001,34.293518066],[113.92687988300001,34.318481445],[113.89251709000001,34.336486816],[113.84570312500001,34.351501465]]]}}
