{"type":"Feature","id":"bulk-99377448B46234632394785","bbox":[105.62371826200001,27.171875,108.18408203100002,29.205871582],"properties":{"id":"bulk-99377448B46234632394785","name":"Zunyi","nameEn":"Zunyi","fullName":"Zunyi","level":"city","boundaryRole":"administrative-extent","boundaryQuality":"generalized-source-2020","boundaryYearRepresented":"2020","bounds":[[105.62371826200001,27.171875],[108.18408203100002,29.205871582]],"center":[106.9039001465,28.188873291],"centerMethod":"bounding-box midpoint; camera framing only","license":"CC-BY-3.0-IGO","attribution":"geoBoundaries / HDX, China administrative boundaries (2020)","source":{"provider":"geoBoundaries gbHumanitarian / HDX","url":"https://github.com/wmgeolab/geoBoundaries/raw/9469f09/releaseData/gbHumanitarian/CHN/ADM2/geoBoundaries-CHN-ADM2.geojson","metadataUrl":"https://www.geoboundaries.org/api/current/gbHumanitarian/CHN/ADM2/","shapeID":"99377448B46234632394785","shapeName":"Zunyi","boundaryID":"CHN-ADM2-99377448","commit":"9469f09"},"geometryCounts":{"coordinates":308,"components":1,"holes":0},"boundaryNotice":"geoBoundaries / HDX 2020 年行政区数据，海岸和边界经过源数据概化，并非当前测绘成果。"},"geometry":{"type":"Polygon","coordinates":[[[106.37768554700001,28.521728516],[106.37408447300001,28.49810791],[106.33929443400001,28.469299316],[106.29510498000002,28.491088867],[106.28948974600002,28.526672363],[106.25268554700001,28.53729248],[106.24151611300002,28.540283203],[106.21990966800001,28.562927246],[106.18188476600001,28.602905273],[106.17889404300001,28.62689209],[106.13909912100002,28.639099121],[106.10748291000002,28.63067627],[106.08068847700001,28.654907227],[106.06268310500002,28.683898926],[106.03808593700002,28.705322266],[106.00109863300001,28.722106934],[106.00408935500002,28.74810791],[105.98071289100001,28.75970459],[105.96148681600002,28.751098633],[105.89050293000001,28.681518555],[105.90008544900002,28.610290527],[105.80828857400002,28.613098145],[105.72271728500002,28.612670898],[105.68011474600002,28.576293945],[105.66467285200001,28.53527832],[105.62707519500002,28.505310059],[105.62371826200001,28.469299316],[105.62469482400002,28.468078613],[105.65789794900002,28.424926758],[105.65191650400001,28.402282715],[105.63488769500002,28.350708008],[105.64532470700001,28.290100098],[105.68231201200001,28.268493652],[105.69409179700001,28.261474609],[105.72668457000002,28.285095215],[105.77947998000002,28.317504883],[105.80731201200001,28.295288086],[105.81872558600001,28.280273437],[105.83709716800001,28.256103516],[105.86511230500001,28.228515625],[105.86248779300001,28.195129395],[105.87951660200001,28.141113281],[105.94451904300001,28.134521484],[105.99572753900001,28.091491699],[106.09448242200001,28.129882812],[106.16247558600001,28.147277832],[106.25830078100002,28.112670898],[106.25848388700001,28.035095215],[106.25030517600001,28.012329102],[106.29132080100001,27.989501953],[106.32128906200002,27.93572998],[106.31927490200002,27.883728027],[106.33807373000002,27.830505371],[106.29510498000002,27.77331543],[106.27752685500002,27.75970459],[106.253723145,27.744506836],[106.19671630900001,27.742675781],[106.17968750000001,27.756286621],[106.15527343700002,27.755493164],[106.13812255900001,27.776489258],[106.12127685500002,27.783081055],[106.10552978500002,27.77532959],[106.09729003900001,27.775085449],[106.097473145,27.767883301],[106.08947753900001,27.767700195],[106.08172607400002,27.760070801],[106.08227539100001,27.745910645],[106.00891113300001,27.743286133],[105.99652099600002,27.703674316],[105.99670410200001,27.671508789],[106.02770996100001,27.650695801],[106.06652832000002,27.65032959],[106.10070800800001,27.635681152],[106.11529541000002,27.608093262],[106.13269043000001,27.576293945],[106.15808105500001,27.553283691],[106.19152832000002,27.550109863],[106.22210693400001,27.556274414],[106.24847412100002,27.572875977],[106.27868652300002,27.588684082],[106.31427002,27.597106934],[106.32489013700001,27.557678223],[106.32708740200002,27.523925781],[106.31768798800002,27.489501953],[106.35107421900001,27.476318359],[106.37908935500002,27.476501465],[106.41107177700002,27.491882324],[106.44268798800002,27.514282227],[106.46728515600002,27.507873535],[106.50952148400002,27.473510742],[106.54187011700002,27.474487305],[106.57330322300001,27.504089355],[106.58929443400001,27.51171875],[106.62188720700001,27.512695312],[106.62231445300002,27.50567627],[106.63372802700002,27.49230957],[106.65948486300002,27.468322754],[106.69567871100001,27.459289551],[106.70587158200001,27.431884766],[106.72192382800002,27.403930664],[106.71948242200001,27.376281738],[106.72930908200001,27.312072754],[106.74029541000002,27.280273437],[106.72528076200001,27.253295898],[106.71710205100001,27.218505859],[106.75732421900001,27.21887207],[106.77789306600002,27.247680664],[106.79827880900001,27.287109375],[106.80810546900001,27.317504883],[106.87292480500001,27.319274902],[106.87371826200001,27.297912598],[106.88928222700001,27.286682129],[106.92828369100002,27.305297852],[106.95507812500001,27.326721191],[106.99487304700001,27.344116211],[107.03088378900001,27.333129883],[107.05950927700002,27.321899414],[107.09387207000002,27.325073242],[107.12792968700002,27.335876465],[107.171691895,27.352294922],[107.20947265600002,27.368713379],[107.23150634800001,27.391113281],[107.25311279300001,27.417114258],[107.25848388700001,27.44909668],[107.26110839800002,27.494506836],[107.32910156200002,27.443115234],[107.36370849600002,27.421081543],[107.38128662100002,27.388305664],[107.38629150400001,27.358276367],[107.42468261700002,27.354492187],[107.48992919900002,27.341308594],[107.46972656200002,27.315917969],[107.44311523400002,27.291503906],[107.43908691400001,27.25970459],[107.47229003900001,27.237121582],[107.51147460900002,27.222106934],[107.52667236300002,27.254882812],[107.55108642600001,27.276489258],[107.59869384800001,27.26751709],[107.66192627,27.258117676],[107.69970703100002,27.24432373],[107.73107910200001,27.232910156],[107.76129150400001,27.219726562],[107.77490234400001,27.187927246],[107.83551025400001,27.171875],[107.87371826200001,27.17791748],[107.89929199200002,27.19708252],[107.93090820300002,27.203125],[107.98052978500002,27.219299316],[108.00531005900001,27.243896484],[107.99108886700002,27.288513184],[107.96527099600002,27.328491211],[107.92907714800002,27.341674805],[107.89031982400002,27.348876953],[107.85687255900001,27.346679687],[107.81689453100002,27.355285645],[107.78747558600001,27.363708496],[107.76287841800001,27.390930176],[107.78387451200001,27.419128418],[107.81030273400002,27.440673828],[107.80810546900001,27.478088379],[107.80908203100002,27.510681152],[107.81628418000001,27.539306641],[107.84350585900002,27.555908203],[107.87487793000001,27.559326172],[107.91992187500001,27.602111816],[107.90631103500002,27.652709961],[107.91748046900001,27.697509766],[107.92272949200002,27.727722168],[107.92669677700002,27.755126953],[107.92132568400001,27.783081055],[107.90008544900002,27.813293457],[107.88232421900001,27.854309082],[107.90710449200002,27.879699707],[107.92327880900001,27.903503418],[107.91491699200002,27.930114746],[107.90087890600002,27.957702637],[107.90509033200001,27.987487793],[107.87127685500002,28.001525879],[107.84088134800001,28.01751709],[107.81109619100002,28.039306641],[107.78167724600002,28.067687988],[107.77770996100001,28.106079102],[107.77508544900002,28.139526367],[107.77728271500001,28.191894531],[107.84448242200001,28.210510254],[107.84729003900001,28.240478516],[107.84790039100001,28.272888184],[107.85632324200002,28.303100586],[107.88232421900001,28.332702637],[107.92248535200001,28.352478027],[107.95910644500002,28.353271484],[107.99810791000002,28.355529785],[108.02868652300002,28.372924805],[108.04772949200002,28.410705566],[108.04949951200001,28.442077637],[108.04730224600002,28.479125977],[108.03607177700002,28.511291504],[108.01611328100002,28.54510498],[108.03210449200002,28.571899414],[108.07049560500002,28.591308594],[108.09088134800001,28.612487793],[108.13067627,28.626708984],[108.16052246100001,28.657897949],[108.18127441400001,28.702880859],[108.18408203100002,28.733520508],[108.17907714800002,28.772277832],[108.16271972700001,28.80267334],[108.14093017600001,28.826477051],[108.11029052700002,28.854675293],[108.11669921900001,28.891723633],[108.128723145,28.926086426],[108.11108398400002,28.955078125],[108.08551025400001,28.982299805],[108.06268310500002,29.008483887],[108.054504395,29.039916992],[108.05371093700002,29.077514648],[108.04949951200001,29.077087402],[108.00567627,29.053710937],[107.96270752,29.039123535],[107.92633056600002,29.043701172],[107.88372802700002,29.014892578],[107.86468505900001,28.967102051],[107.83551025400001,28.958129883],[107.78668212900001,29.008728027],[107.78570556600002,29.013122559],[107.77630615200002,29.062927246],[107.76367187500001,29.120483398],[107.75451660200001,29.174682617],[107.70989990200002,29.200073242],[107.66851806600002,29.171325684],[107.62927246100001,29.160522461],[107.58050537100002,29.163513184],[107.54809570300002,29.194702148],[107.53527832000002,29.205871582],[107.49407959000001,29.19128418],[107.42712402300002,29.204528809],[107.42327880900001,29.198486328],[107.40472412100002,29.17010498],[107.39727783200001,29.149291992],[107.37829589800002,29.133483887],[107.35748291000002,29.082885742],[107.37731933600001,29.030090332],[107.39331054700001,28.997680664],[107.42010498000002,28.974304199],[107.44207763700001,28.920471191],[107.41491699200002,28.87512207],[107.38067627,28.852905273],[107.35150146500001,28.83392334],[107.27447509800001,28.794128418],[107.24530029300001,28.778076172],[107.24108886700002,28.783081055],[107.20928955100001,28.822509766],[107.21447753900001,28.844909668],[107.14947509800001,28.883911133],[107.09210205100001,28.898071289],[107.02807617200001,28.88269043],[107.01428222700001,28.879272461],[106.98107910200001,28.832885742],[106.96429443400001,28.781677246],[106.94232177700002,28.790100098],[106.90289306600002,28.794311523],[106.85388183600001,28.779724121],[106.84472656200002,28.770080566],[106.81909179700001,28.742919922],[106.84332275400001,28.675476074],[106.86370849600002,28.654724121],[106.83648681600002,28.60748291],[106.80688476600001,28.597717285],[106.76147460900002,28.603515625],[106.73168945300002,28.622497559],[106.73931884800001,28.588684082],[106.76892089800002,28.567871094],[106.72412109400001,28.556091309],[106.74212646500001,28.515319824],[106.74127197300001,28.482299805],[106.72192382800002,28.471496582],[106.69708252,28.457702637],[106.67028808600001,28.484680176],[106.64971923800002,28.507324219],[106.60388183600001,28.497070312],[106.57287597700001,28.522888184],[106.60809326200001,28.597473145],[106.62890625000001,28.644470215],[106.64367675800001,28.66192627],[106.64471435500002,28.686096191],[106.59729003900001,28.711486816],[106.56591796900001,28.722290039],[106.57647705100001,28.743103027],[106.54650878900001,28.768127441],[106.51708984400001,28.780700684],[106.50909423800002,28.799316406],[106.47711181600002,28.844909668],[106.45288085900002,28.855712891],[106.43768310500002,28.847717285],[106.42547607400002,28.841491699],[106.43969726600001,28.776489258],[106.47509765600002,28.719482422],[106.51910400400001,28.702880859],[106.52728271500001,28.657470703],[106.49969482400002,28.627319336],[106.49090576200001,28.612670898],[106.47967529300001,28.58190918],[106.50451660200001,28.534301758],[106.46850585900002,28.530517578],[106.44390869100002,28.555725098],[106.38287353500002,28.557495117],[106.37768554700001,28.521728516]]]}}
