{"type":"Feature","id":"bulk-99377448B78314325064361","bbox":[105.99151611300002,38.301086426,106.97351074200002,39.380126953],"properties":{"id":"bulk-99377448B78314325064361","name":"Shizuishan","nameEn":"Shizuishan","fullName":"Shizuishan","level":"city","boundaryRole":"administrative-extent","boundaryQuality":"generalized-source-2020","boundaryYearRepresented":"2020","bounds":[[105.99151611300002,38.301086426],[106.97351074200002,39.380126953]],"center":[106.48251342750001,38.8406066895],"centerMethod":"bounding-box midpoint; camera framing only","license":"CC-BY-3.0-IGO","attribution":"geoBoundaries / HDX, China administrative boundaries (2020)","source":{"provider":"geoBoundaries gbHumanitarian / HDX","url":"https://github.com/wmgeolab/geoBoundaries/raw/9469f09/releaseData/gbHumanitarian/CHN/ADM2/geoBoundaries-CHN-ADM2.geojson","metadataUrl":"https://www.geoboundaries.org/api/current/gbHumanitarian/CHN/ADM2/","shapeID":"99377448B78314325064361","shapeName":"Shizuishan","boundaryID":"CHN-ADM2-99377448","commit":"9469f09"},"geometryCounts":{"coordinates":58,"components":1,"holes":0},"boundaryNotice":"geoBoundaries / HDX 2020 年行政区数据，海岸和边界经过源数据概化，并非当前测绘成果。"},"geometry":{"type":"Polygon","coordinates":[[[105.99151611300002,38.906677246],[106.038879395,38.866882324],[106.07489013700001,38.843322754],[106.09851074200002,38.817321777],[106.13812255900001,38.778503418],[106.18908691400001,38.770874023],[106.24291992200001,38.768310547],[106.27752685500002,38.756103516],[106.31951904300001,38.760314941],[106.35290527300002,38.776672363],[106.38049316400001,38.743896484],[106.40869140600002,38.726501465],[106.46069335900002,38.708312988],[106.50628662100002,38.694885254],[106.55187988300001,38.690673828],[106.52587890600002,38.630493164],[106.52770996100001,38.592102051],[106.53332519500002,38.573913574],[106.54907226600001,38.546875],[106.55010986300002,38.526916504],[106.54290771500001,38.471923828],[106.52990722700001,38.444091797],[106.46728515600002,38.393127441],[106.42932128900001,38.381103516],[106.40832519500002,38.367675781],[106.42852783200001,38.348083496],[106.46112060500002,38.319702148],[106.51831054700001,38.301086426],[106.51312255900001,38.343505859],[106.58911132800002,38.390686035],[106.60870361300002,38.445129395],[106.61029052700002,38.56451416],[106.64508056600002,38.698120117],[106.69549560500002,38.775512695],[106.72991943400001,38.817871094],[106.76770019500002,38.845092773],[106.81970214800002,38.875488281],[106.95068359400001,38.926086426],[106.97351074200002,38.961486816],[106.96691894500002,39.007080078],[106.93371582000002,39.046508789],[106.84509277300002,39.073730469],[106.84307861300002,39.12109375],[106.80651855500001,39.186279297],[106.78228759800001,39.229492187],[106.76647949200002,39.260070801],[106.75512695300002,39.351318359],[106.73431396500001,39.380126953],[106.63732910200001,39.364929199],[106.53552246100001,39.348876953],[106.46551513700001,39.274902344],[106.355285645,39.28729248],[106.28070068400001,39.253479004],[106.26928710900002,39.122680664],[106.22027587900001,39.127929687],[106.08471679700001,39.030700684],[106.07189941400001,38.955871582],[105.99151611300002,38.906677246]]]}}
