{"type":"Feature","id":"bulk-99377448B56431971452244","bbox":[84.63867187500001,44.652526855,86.01672363300001,46.16027832],"properties":{"id":"bulk-99377448B56431971452244","name":"Karamay","nameEn":"Karamay","fullName":"Karamay","level":"city","boundaryRole":"administrative-extent","boundaryQuality":"generalized-source-2020","boundaryYearRepresented":"2020","bounds":[[84.63867187500001,44.652526855],[86.01672363300001,46.16027832]],"center":[85.32769775400001,45.4064025875],"centerMethod":"bounding-box midpoint; camera framing only","license":"CC-BY-3.0-IGO","attribution":"geoBoundaries / HDX, China administrative boundaries (2020)","source":{"provider":"geoBoundaries gbHumanitarian / HDX","url":"https://github.com/wmgeolab/geoBoundaries/raw/9469f09/releaseData/gbHumanitarian/CHN/ADM2/geoBoundaries-CHN-ADM2.geojson","metadataUrl":"https://www.geoboundaries.org/api/current/gbHumanitarian/CHN/ADM2/","shapeID":"99377448B56431971452244","shapeName":"Karamay","boundaryID":"CHN-ADM2-99377448","commit":"9469f09"},"geometryCounts":{"coordinates":110,"components":1,"holes":0},"boundaryNotice":"geoBoundaries / HDX 2020 年行政区数据，海岸和边界经过源数据概化，并非当前测绘成果。"},"geometry":{"type":"Polygon","coordinates":[[[85.26989746100001,45.290527344],[85.28167724600002,45.328918457],[85.29211425800001,45.35748291],[85.30767822300001,45.400878906],[85.36590576200001,45.429870605],[85.45587158200001,45.471313477],[85.50128173800002,45.498901367],[85.52569580100001,45.522521973],[85.56072998,45.546325684],[85.602478027,45.578674316],[85.62768554700001,45.604309082],[85.645080566,45.637878418],[85.660705566,45.68170166],[85.66668701200001,45.721496582],[85.69989013700001,45.757324219],[85.72668457,45.785522461],[85.75549316400001,45.807128906],[85.79870605500001,45.835876465],[85.85949707,45.871887207],[85.91271972700001,45.899291992],[85.94488525400001,45.926086426],[85.93890380900001,45.958679199],[85.96948242200001,45.988098145],[86.01672363300001,46.001708984],[86.002075195,46.035705566],[85.96789550800001,46.065307617],[85.93988037100002,46.090515137],[85.90447998,46.113891602],[85.84252929700001,46.132873535],[85.78192138700001,46.141113281],[85.72888183600001,46.143127441],[85.68029785200001,46.149719238],[85.63830566400001,46.156311035],[85.59252929700001,46.16027832],[85.55609130900001,46.150085449],[85.511108398,46.138122559],[85.460327148,46.12310791],[85.41589355500001,46.139709473],[85.31127929700001,46.079284668],[85.27471923800002,46.054077148],[85.27392578100002,46.011901855],[85.28588867200001,45.97668457],[85.29888916000002,45.945678711],[85.30047607400002,45.918701172],[85.29052734400001,45.89050293],[85.27532959000001,45.857727051],[85.252075195,45.807678223],[85.23132324200002,45.766113281],[85.202514648,45.739685059],[85.16790771500001,45.71307373],[85.14093017600001,45.693115234],[85.09930419900002,45.665710449],[85.04791259800001,45.653686523],[84.99749755900001,45.653320312],[84.952087402,45.635925293],[84.934509277,45.606689453],[84.893493652,45.590515137],[84.83630371100001,45.583312988],[84.796691895,45.559875488],[84.77447509800001,45.537902832],[84.74670410200001,45.506286621],[84.74731445300002,45.475097656],[84.75970459000001,45.446289062],[84.72192382800002,45.421875],[84.70507812500001,45.386474609],[84.67791748,45.348083496],[84.65008544900002,45.323486328],[84.653320312,45.276123047],[84.68371582,45.25390625],[84.67968750000001,45.198730469],[84.68048095700001,45.169311523],[84.678710937,45.120300293],[84.67590332,45.093078613],[84.67370605500001,45.06451416],[84.663085937,45.010681152],[84.65747070300002,44.979309082],[84.64611816400001,44.92767334],[84.64227294900002,44.899719238],[84.64208984400001,44.852111816],[84.63867187500001,44.795715332],[84.64331054700001,44.765075684],[84.66650390600002,44.732116699],[84.69989013700001,44.704528809],[84.736083984,44.672119141],[84.76312255900001,44.652526855],[84.82067871100001,44.655883789],[84.86907959000001,44.655517578],[84.84448242200001,44.692504883],[84.827880859,44.72088623],[84.862670898,44.750305176],[84.90112304700001,44.753295898],[84.94488525400001,44.748718262],[84.995117187,44.739501953],[85.08752441400001,44.737121582],[85.078674316,44.777893066],[85.077880859,44.823730469],[85.08392334000001,44.872497559],[85.09967041000002,44.904296875],[85.12609863300001,44.925292969],[85.15509033200001,44.944274902],[85.20227050800001,44.985717773],[85.237670898,45.019714355],[85.26232910200001,45.059692383],[85.26788330100001,45.092529297],[85.24407959000001,45.129272461],[85.222473145,45.155273437],[85.24072265600002,45.207092285],[85.27172851600001,45.232116699],[85.29748535200001,45.258483887],[85.26989746100001,45.290527344]]]}}
