{"type":"Feature","id":"bulk-99377448B16066487828635","bbox":[111.92987060500002,35.201293945,113.56927490200002,36.062927246],"properties":{"id":"bulk-99377448B16066487828635","name":"Jincheng","nameEn":"Jincheng","fullName":"Jincheng","level":"city","boundaryRole":"administrative-extent","boundaryQuality":"generalized-source-2020","boundaryYearRepresented":"2020","bounds":[[111.92987060500002,35.201293945],[113.56927490200002,36.062927246]],"center":[112.74957275350002,35.6321105955],"centerMethod":"bounding-box midpoint; camera framing only","license":"CC-BY-3.0-IGO","attribution":"geoBoundaries / HDX, China administrative boundaries (2020)","source":{"provider":"geoBoundaries gbHumanitarian / HDX","url":"https://github.com/wmgeolab/geoBoundaries/raw/9469f09/releaseData/gbHumanitarian/CHN/ADM2/geoBoundaries-CHN-ADM2.geojson","metadataUrl":"https://www.geoboundaries.org/api/current/gbHumanitarian/CHN/ADM2/","shapeID":"99377448B16066487828635","shapeName":"Jincheng","boundaryID":"CHN-ADM2-99377448","commit":"9469f09"},"geometryCounts":{"coordinates":148,"components":1,"holes":0},"boundaryNotice":"geoBoundaries / HDX 2020 年行政区数据，海岸和边界经过源数据概化，并非当前测绘成果。"},"geometry":{"type":"Polygon","coordinates":[[[112.47467041000002,36.01550293],[112.50109863300001,35.982727051],[112.50067138700001,35.956115723],[112.46771240200002,35.925109863],[112.44049072300001,35.908508301],[112.37908935500002,35.895080566],[112.32232666000002,35.879272461],[112.28192138700001,35.876098633],[112.23449707000002,35.883728027],[112.18927002,35.892272949],[112.11608886700002,35.904296875],[112.12030029300001,35.858093262],[112.08587646500001,35.843505859],[112.03991699200002,35.830871582],[112.01770019500002,35.803894043],[112.01391601600001,35.76348877],[112.00311279300001,35.72052002],[111.99450683600001,35.685913086],[111.95751953100002,35.664123535],[111.93988037100002,35.638305664],[111.92987060500002,35.598510742],[111.93591308600001,35.560913086],[111.94268798800002,35.52911377],[111.94531250000001,35.491271973],[111.94732666000002,35.449523926],[111.94287109400001,35.401123047],[111.98590087900001,35.374511719],[112.01428222700001,35.354492187],[112.03369140600002,35.32611084],[112.04632568400001,35.270324707],[112.08209228500002,35.270874023],[112.10009765600002,35.27331543],[112.14312744100002,35.241088867],[112.19787597700001,35.235107422],[112.22351074200002,35.23828125],[112.26611328100002,35.236083984],[112.31927490200002,35.22052002],[112.347473145,35.230895996],[112.38549804700001,35.22869873],[112.44787597700001,35.225280762],[112.51928710900002,35.211914062],[112.55828857400002,35.20892334],[112.57727050800001,35.207519531],[112.59912109400001,35.239074707],[112.61468505900001,35.237915039],[112.65789794900002,35.218688965],[112.71447753900001,35.201293945],[112.72888183600001,35.21270752],[112.74188232400002,35.222900391],[112.75451660200001,35.226318359],[112.77893066400001,35.232910156],[112.80187988300001,35.253723145],[112.84149169900002,35.231872559],[112.88092041000002,35.239318848],[112.89709472700001,35.262878418],[112.93829345700001,35.257873535],[112.97009277300002,35.278503418],[112.98590087900001,35.302124023],[112.96948242200001,35.336730957],[113.01287841800001,35.332519531],[113.08050537100002,35.303894043],[113.08209228500002,35.30670166],[113.08251953100002,35.307312012],[113.09210205100001,35.323120117],[113.10467529300001,35.370727539],[113.12329101600001,35.395080566],[113.13110351600001,35.40612793],[113.15350341800001,35.437683105],[113.20928955100001,35.435119629],[113.21392822300001,35.434875488],[113.23309326200001,35.400085449],[113.26489257800002,35.412719727],[113.27349853500002,35.438110352],[113.25390625000001,35.461486816],[113.29650878900001,35.459899902],[113.33227539100001,35.455688477],[113.33172607400002,35.472473145],[113.35650634800001,35.483520508],[113.37487793000001,35.491882324],[113.38830566400001,35.491516113],[113.45129394500002,35.52911377],[113.48132324200002,35.560302734],[113.49487304700001,35.596313477],[113.50592041000002,35.626098633],[113.56408691400001,35.614318848],[113.56927490200002,35.674072266],[113.53509521500001,35.725280762],[113.53448486300002,35.773925781],[113.51928710900002,35.806091309],[113.45428466800001,35.842712402],[113.41528320300002,35.837524414],[113.37207031200002,35.846679687],[113.31127929700001,35.875671387],[113.26849365200002,35.872070312],[113.22271728500002,35.873291016],[113.17852783200001,35.892089844],[113.14392089800002,35.90447998],[113.08691406200002,35.878112793],[113.04968261700002,35.892272949],[113.00512695300002,35.891296387],[112.98547363300001,35.920288086],[112.95330810500002,35.92791748],[112.93127441400001,35.922912598],[112.90447998000002,35.922729492],[112.87329101600001,35.926513672],[112.86791992200001,35.930114746],[112.86791992200001,35.938476562],[112.87347412100002,35.954528809],[112.87371826200001,35.96472168],[112.87152099600002,35.973083496],[112.87011718700002,35.975097656],[112.86370849600002,35.97668457],[112.86047363300001,35.976928711],[112.85229492200001,35.976928711],[112.84527587900001,35.979125977],[112.84289550800001,35.981323242],[112.83532714800002,35.984924316],[112.81750488300001,35.987304687],[112.81591796900001,35.986083984],[112.81268310500002,35.98449707],[112.80731201200001,35.981506348],[112.80291748000002,35.97869873],[112.78607177700002,35.979675293],[112.78308105500001,35.983093262],[112.76812744100002,35.987121582],[112.74072265600002,35.992126465],[112.72827148400002,35.996520996],[112.71551513700001,36.011901855],[112.70831298800002,36.014892578],[112.70227050800001,36.012512207],[112.69830322300001,36.01171875],[112.69207763700001,36.009277344],[112.67492675800001,36.008483887],[112.67047119100002,36.012329102],[112.66448974600002,36.022888184],[112.65228271500001,36.031677246],[112.65209960900002,36.043884277],[112.64367675800001,36.050720215],[112.63012695300002,36.057128906],[112.62390136700002,36.0625],[112.61590576200001,36.062927246],[112.59771728500002,36.055480957],[112.57489013700001,36.051330566],[112.53607177700002,36.041320801],[112.52587890600002,36.038513184],[112.51593017600001,36.03112793],[112.48132324200002,36.007324219],[112.47467041000002,36.01550293]]]}}
