{"type":"Feature","id":"bulk-99377448B32273588722913","bbox":[108.55267334000001,33.107299805,111.01971435500002,34.440673828],"properties":{"id":"bulk-99377448B32273588722913","name":"Shangluo","nameEn":"Shangluo","fullName":"Shangluo","level":"city","boundaryRole":"administrative-extent","boundaryQuality":"generalized-source-2020","boundaryYearRepresented":"2020","bounds":[[108.55267334000001,33.107299805],[111.01971435500002,34.440673828]],"center":[109.78619384750002,33.7739868165],"centerMethod":"bounding-box midpoint; camera framing only","license":"CC-BY-3.0-IGO","attribution":"geoBoundaries / HDX, China administrative boundaries (2020)","source":{"provider":"geoBoundaries gbHumanitarian / HDX","url":"https://github.com/wmgeolab/geoBoundaries/raw/9469f09/releaseData/gbHumanitarian/CHN/ADM2/geoBoundaries-CHN-ADM2.geojson","metadataUrl":"https://www.geoboundaries.org/api/current/gbHumanitarian/CHN/ADM2/","shapeID":"99377448B32273588722913","shapeName":"Shangluo","boundaryID":"CHN-ADM2-99377448","commit":"9469f09"},"geometryCounts":{"coordinates":176,"components":1,"holes":0},"boundaryNotice":"geoBoundaries / HDX 2020 年行政区数据，海岸和边界经过源数据概化，并非当前测绘成果。"},"geometry":{"type":"Polygon","coordinates":[[[110.97967529300001,33.552307129],[110.96612548800002,33.563903809],[110.91687011700002,33.609130859],[110.88952636700002,33.629516602],[110.86212158200001,33.647094727],[110.80511474600002,33.671875],[110.80072021500001,33.70111084],[110.79071044900002,33.764709473],[110.78552246100001,33.769104004],[110.76312255900001,33.788513184],[110.71911621100001,33.821289062],[110.66748046900001,33.848693848],[110.64447021500001,33.837097168],[110.60711669900002,33.829101562],[110.58508300800001,33.870483398],[110.59069824200002,33.878479004],[110.61987304700001,33.919311523],[110.62329101600001,33.928894043],[110.63848877,33.949279785],[110.61767578100002,33.956298828],[110.56567382800002,33.990722656],[110.54571533200001,34.041870117],[110.58612060500002,34.088928223],[110.63891601600001,34.111877441],[110.62048339800002,34.142700195],[110.61450195300002,34.152709961],[110.56811523400002,34.182495117],[110.49731445300002,34.209716797],[110.44427490200002,34.228088379],[110.39331054700001,34.250915527],[110.39312744100002,34.274902344],[110.41851806600002,34.285522461],[110.45147705100001,34.295288086],[110.48687744100002,34.30871582],[110.47009277300002,34.336914062],[110.44329834000001,34.370483398],[110.40551757800002,34.394287109],[110.39227294900002,34.408325195],[110.34387207000002,34.391296387],[110.28833007800002,34.386474609],[110.25091552700002,34.392272949],[110.20989990200002,34.401672363],[110.15850830100001,34.440673828],[110.07489013700001,34.414672852],[110.02648925800001,34.393920898],[109.99792480500001,34.37512207],[109.99908447300001,34.336486816],[110.00152587900001,34.301086426],[110.00329589800002,34.264282227],[110.00347900400001,34.229125977],[109.95928955100001,34.216491699],[109.92309570300002,34.233886719],[109.87927246100001,34.232910156],[109.84729003900001,34.257873535],[109.80487060500002,34.278320312],[109.79388427700002,34.252502441],[109.76171875000001,34.232727051],[109.72210693400001,34.237304687],[109.72772216800001,34.195922852],[109.76708984400001,34.186706543],[109.80847168000001,34.185119629],[109.80987548800002,34.152526855],[109.77349853500002,34.139709473],[109.74169921900001,34.128479004],[109.70489502,34.102478027],[109.67089843700002,34.094116211],[109.62548828100002,34.087890625],[109.57330322300001,34.06427002],[109.55407714800002,34.035522461],[109.53912353500002,34.002319336],[109.52868652300002,33.971313477],[109.56091308600001,33.949523926],[109.59429931600002,33.930908203],[109.57611084000001,33.89831543],[109.54327392600001,33.871887207],[109.51611328100002,33.852905273],[109.47052002,33.836914062],[109.42370605500001,33.830688477],[109.37188720700001,33.846130371],[109.31890869100002,33.850524902],[109.27667236300002,33.854675293],[109.21789550800001,33.870483398],[109.13372802700002,33.868713379],[109.10107421900001,33.88067627],[109.04467773400002,33.902099609],[109.01672363300001,33.887512207],[108.98687744100002,33.864685059],[108.93988037100002,33.85168457],[108.89392089800002,33.837524414],[108.86791992200001,33.815490723],[108.82092285200001,33.820129395],[108.85589599600002,33.776306152],[108.89367675800001,33.771484375],[108.92291259800001,33.758117676],[108.93768310500002,33.722900391],[108.92907714800002,33.690917969],[108.88751220700001,33.689880371],[108.84552002,33.678283691],[108.82171630900001,33.647521973],[108.77929687500001,33.637329102],[108.77709960900002,33.596923828],[108.74627685500002,33.571289062],[108.71173095700001,33.548522949],[108.67047119100002,33.543701172],[108.61450195300002,33.530273437],[108.58929443400001,33.483093262],[108.58367919900002,33.454711914],[108.56970214800002,33.400695801],[108.55651855500001,33.352722168],[108.55267334000001,33.323913574],[108.58892822300001,33.311889648],[108.63592529300001,33.318908691],[108.66027832000002,33.292297363],[108.69329834000001,33.276489258],[108.75091552700002,33.272277832],[108.79309082000002,33.257080078],[108.81427002,33.231323242],[108.84307861300002,33.192321777],[108.87652587900001,33.157714844],[108.91729736300002,33.134887695],[108.95532226600001,33.133300781],[108.96551513700001,33.164672852],[109.00549316400001,33.175476074],[109.03588867200001,33.192321777],[109.07049560500002,33.198913574],[109.10070800800001,33.150878906],[109.14031982400002,33.144287109],[109.16168212900001,33.170288086],[109.19171142600001,33.187683105],[109.24230957000002,33.183288574],[109.28088378900001,33.166870117],[109.31408691400001,33.133117676],[109.36590576200001,33.134277344],[109.43450927700002,33.155883789],[109.43707275400001,33.169921875],[109.46392822300001,33.195922852],[109.49090576200001,33.210327148],[109.54089355500001,33.215270996],[109.60308837900001,33.252319336],[109.66571044900002,33.252929687],[109.730285645,33.234130859],[109.81951904300001,33.238525391],[109.85668945300002,33.239685059],[109.95727539100001,33.198913574],[110.07427978500002,33.175720215],[110.10571289100001,33.180297852],[110.24627685500002,33.167907715],[110.34088134800001,33.177124023],[110.40191650400001,33.192504883],[110.43811035200001,33.203491211],[110.50512695300002,33.223693848],[110.52911377,33.243286133],[110.55627441400001,33.23449707],[110.57287597700001,33.195678711],[110.57727050800001,33.166503906],[110.61791992200001,33.131103516],[110.64672851600001,33.122070312],[110.66027832000002,33.117919922],[110.69287109400001,33.107299805],[110.72351074200002,33.114501953],[110.75708007800002,33.149108887],[110.80389404300001,33.165893555],[110.84527587900001,33.212890625],[110.88769531200002,33.205688477],[110.92370605500001,33.207519531],[110.93670654300001,33.245483398],[110.96728515600002,33.264892578],[110.98687744100002,33.28527832],[110.99890136700002,33.311889648],[111.00769043000001,33.333679199],[111.01312255900001,33.347106934],[111.01971435500002,33.408081055],[111.01531982400002,33.457702637],[111.01092529300001,33.495727539],[111.00109863300001,33.533874512],[110.97967529300001,33.552307129]]]}}
