{"type":"Feature","id":"bulk-99377448B78263369431444","bbox":[100.68530273400002,34.038879395,102.43908691400001,36.162109375],"properties":{"id":"bulk-99377448B78263369431444","name":"Huangnan Tibetan Autonomous Prefecture","nameEn":"Huangnan Tibetan Autonomous Prefecture","fullName":"Huangnan Tibetan Autonomous Prefecture","level":"city","boundaryRole":"administrative-extent","boundaryQuality":"generalized-source-2020","boundaryYearRepresented":"2020","bounds":[[100.68530273400002,34.038879395],[102.43908691400001,36.162109375]],"center":[101.56219482400002,35.100494385000005],"centerMethod":"bounding-box midpoint; camera framing only","license":"CC-BY-3.0-IGO","attribution":"geoBoundaries / HDX, China administrative boundaries (2020)","source":{"provider":"geoBoundaries gbHumanitarian / HDX","url":"https://github.com/wmgeolab/geoBoundaries/raw/9469f09/releaseData/gbHumanitarian/CHN/ADM2/geoBoundaries-CHN-ADM2.geojson","metadataUrl":"https://www.geoboundaries.org/api/current/gbHumanitarian/CHN/ADM2/","shapeID":"99377448B78263369431444","shapeName":"Huangnan Tibetan Autonomous Prefecture","boundaryID":"CHN-ADM2-99377448","commit":"9469f09"},"geometryCounts":{"coordinates":199,"components":1,"holes":0},"boundaryNotice":"geoBoundaries / HDX 2020 年行政区数据，海岸和边界经过源数据概化，并非当前测绘成果。"},"geometry":{"type":"Polygon","coordinates":[[[102.43908691400001,35.419494629],[102.40667724600002,35.502319336],[102.40850830100001,35.531677246],[102.39630127,35.560119629],[102.36828613300001,35.590270996],[102.32672119100002,35.610900879],[102.29028320300002,35.625305176],[102.25970459000001,35.641723633],[102.22772216800001,35.670288086],[102.20507812500001,35.69152832],[102.18487548800002,35.719726562],[102.15252685500002,35.736083984],[102.11828613300001,35.72467041],[102.08929443400001,35.707702637],[102.05908203100002,35.723510742],[102.05468750000001,35.752319336],[102.07110595700001,35.78729248],[102.09991455100001,35.836303711],[102.08270263700001,35.850708008],[102.06732177700002,35.883911133],[102.05352783200001,35.979309082],[102.03247070300002,35.990478516],[101.96112060500002,35.992126465],[101.94830322300001,36.000671387],[101.95391845700001,36.022705078],[101.97491455100001,36.04888916],[101.93792724600002,36.062072754],[101.90289306600002,36.094116211],[101.89587402300002,36.121520996],[101.83087158200001,36.098876953],[101.81109619100002,36.134887695],[101.79772949200002,36.149475098],[101.75030517600001,36.146484375],[101.70489502,36.162109375],[101.64508056600002,36.147705078],[101.64190673800002,36.108276367],[101.63928222700001,36.069091797],[101.63671875000001,36.041503906],[101.627929687,36.009521484],[101.61688232400002,35.978271484],[101.62951660200001,35.951721191],[101.66748046900001,35.920288086],[101.68609619100002,35.887512207],[101.68951416000002,35.861083984],[101.68450927700002,35.832275391],[101.67468261700002,35.802124023],[101.67150878900001,35.770507812],[101.70690918000001,35.75390625],[101.74267578100002,35.74987793],[101.77551269500002,35.739685059],[101.79492187500001,35.707702637],[101.738098145,35.645080566],[101.70928955100001,35.611328125],[101.67791748000002,35.582702637],[101.64532470700001,35.555725098],[101.61712646500001,35.531677246],[101.56909179700001,35.500305176],[101.51251220700001,35.464111328],[101.48712158200001,35.441894531],[101.46868896500001,35.412719727],[101.46728515600002,35.385681152],[101.48010253900001,35.360473633],[101.504882812,35.332519531],[101.47650146500001,35.313903809],[101.44012451200001,35.3203125],[101.39190673800002,35.331115723],[101.354492187,35.345703125],[101.32092285200001,35.361083984],[101.28112793000001,35.375488281],[101.24468994100002,35.384094238],[101.21307373000002,35.394287109],[101.178710937,35.398681641],[101.14227294900002,35.403930664],[101.07867431600002,35.40032959],[101.04327392600001,35.399719238],[100.99151611300002,35.402893066],[100.92547607400002,35.407287598],[100.86907959000001,35.418518066],[100.812683105,35.424072266],[100.75653076200001,35.423706055],[100.71569824200002,35.422729492],[100.68530273400002,35.409484863],[100.69189453100002,35.379882812],[100.72772216800001,35.365905762],[100.76330566400001,35.364501953],[100.81451416000002,35.361328125],[100.84771728500002,35.330688477],[100.88287353500002,35.308898926],[100.913879395,35.296875],[100.94671630900001,35.262329102],[100.95092773400002,35.229309082],[100.90447998,35.218505859],[100.85290527300002,35.214904785],[100.81311035200001,35.206481934],[100.77331543000001,35.184509277],[100.74432373,35.169311523],[100.71990966800001,35.143920898],[100.73370361300002,35.116088867],[100.76171875000001,35.101318359],[100.79809570300002,35.086120605],[100.82672119100002,35.068115234],[100.86572265600002,35.048706055],[100.87927246100001,35.014526367],[100.89709472700001,34.98449707],[100.93267822300001,34.95690918],[100.96630859400001,34.938110352],[101.00189209000001,34.917297363],[101.03430175800001,34.90032959],[101.06207275400001,34.878723145],[101.097473145,34.753479004],[101.08508300800001,34.709289551],[101.05328369100002,34.694091797],[101.02288818400001,34.662475586],[100.98590087900001,34.652099609],[100.94708252,34.655883789],[100.90350341800001,34.663330078],[100.92712402300002,34.604492187],[100.92730712900001,34.569885254],[100.96008300800001,34.545288086],[100.97808837900001,34.50390625],[100.99127197300001,34.466918945],[101.00128173800002,34.436889648],[101.00689697300001,34.40447998],[101.01690673800002,34.366516113],[101.05468750000001,34.339904785],[101.21832275400001,34.332092285],[101.24230957000002,34.290100098],[101.31927490200002,34.261291504],[101.34411621100001,34.247497559],[101.36810302700002,34.239929199],[101.45892334000001,34.224487305],[101.50891113300001,34.193481445],[101.57171630900001,34.18548584],[101.63269043000001,34.158508301],[101.65032959000001,34.137878418],[101.66870117200001,34.111083984],[101.69708252,34.097473145],[101.73272705100001,34.090515137],[101.77630615200002,34.043701172],[101.79608154300001,34.038879395],[101.83789062500001,34.047729492],[101.87371826200001,34.071899414],[101.91809082000002,34.136108398],[101.93048095700001,34.143920898],[101.96868896500001,34.105529785],[102.01727294900002,34.105102539],[102.02709960900002,34.15032959],[102.00250244100002,34.164672852],[102.01312255900001,34.172912598],[102.03631591800001,34.190917969],[102.04791259800001,34.239501953],[102.08111572300001,34.283508301],[102.15887451200001,34.270690918],[102.19128418000001,34.278076172],[102.18591308600001,34.321289062],[102.17309570300002,34.327514648],[102.24450683600001,34.344482422],[102.22088623000002,34.369689941],[102.19647216800001,34.42767334],[102.18469238300001,34.489929199],[102.10809326200001,34.52331543],[102.028320312,34.520874023],[102.01727294900002,34.526916504],[101.96728515600002,34.553527832],[101.92907714800002,34.623901367],[101.93707275400001,34.67590332],[101.89611816400001,34.672302246],[101.854492187,34.643310547],[101.82232666000002,34.609680176],[101.80767822300001,34.599304199],[101.79229736300002,34.598327637],[101.75512695300002,34.617675781],[101.72351074200002,34.659118652],[101.72229003900001,34.671508789],[101.74407959000001,34.685302734],[101.76049804700001,34.690124512],[101.79351806600002,34.707275391],[101.83551025400001,34.74407959],[101.86468505900001,34.760925293],[101.90692138700001,34.730895996],[101.95587158200001,34.751708984],[101.93951416000002,34.878723145],[102.00671386700002,34.930908203],[102.03070068400001,34.96887207],[102.08648681600002,34.96887207],[102.11987304700001,34.984924316],[102.19750976600001,35.022094727],[102.26647949200002,35.057312012],[102.29467773400002,35.0546875],[102.31591796900001,35.111877441],[102.38128662100002,35.152282715],[102.43249511700002,35.190917969],[102.40368652300002,35.233520508],[102.34613037100002,35.261108398],[102.34649658200001,35.278930664],[102.29132080100001,35.282714844],[102.31689453100002,35.365112305],[102.31207275400001,35.434082031],[102.43908691400001,35.419494629]]]}}
