{"type":"Feature","id":"bulk-99377448B18413831909016","bbox":[109.65570068400001,20.228881836,110.93768310500002,21.950073242],"properties":{"id":"bulk-99377448B18413831909016","name":"Zhanjiang","nameEn":"Zhanjiang","fullName":"Zhanjiang","level":"city","boundaryRole":"administrative-extent","boundaryQuality":"generalized-source-2020","boundaryYearRepresented":"2020","bounds":[[109.65570068400001,20.228881836],[110.93768310500002,21.950073242]],"center":[110.29669189450001,21.089477539],"centerMethod":"bounding-box midpoint; camera framing only","license":"CC-BY-3.0-IGO","attribution":"geoBoundaries / HDX, China administrative boundaries (2020)","source":{"provider":"geoBoundaries gbHumanitarian / HDX","url":"https://github.com/wmgeolab/geoBoundaries/raw/9469f09/releaseData/gbHumanitarian/CHN/ADM2/geoBoundaries-CHN-ADM2.geojson","metadataUrl":"https://www.geoboundaries.org/api/current/gbHumanitarian/CHN/ADM2/","shapeID":"99377448B18413831909016","shapeName":"Zhanjiang","boundaryID":"CHN-ADM2-99377448","commit":"9469f09"},"geometryCounts":{"coordinates":1240,"components":18,"holes":0},"boundaryNotice":"geoBoundaries / HDX 2020 年行政区数据，海岸和边界经过源数据概化，并非当前测绘成果。"},"geometry":{"type":"MultiPolygon","coordinates":[[[[109.91790771500001,20.445678711],[109.91809082000002,20.446105957],[109.91772460900002,20.447875977],[109.91748046900001,20.446899414],[109.91790771500001,20.445678711]]],[[[110.38092041000002,20.646484375],[110.37988281200002,20.649475098],[110.37988281200002,20.648071289],[110.38092041000002,20.646484375]]],[[[110.36108398400002,20.686706543],[110.36370849600002,20.689880371],[110.36071777300002,20.691101074],[110.35992431600002,20.688293457],[110.36108398400002,20.686706543]]],[[[109.76971435500002,20.692871094],[109.77832031200002,20.697692871],[109.77630615200002,20.698913574],[109.77069091800001,20.698730469],[109.76690673800002,20.696716309],[109.76971435500002,20.692871094]]],[[[110.34252929700001,20.702087402],[110.34527587900001,20.709289551],[110.34008789100001,20.722106934],[110.34008789100001,20.725280762],[110.33410644500002,20.713684082],[110.34252929700001,20.702087402]]],[[[109.74707031200002,20.784484863],[109.74572753900001,20.793701172],[109.74188232400002,20.796875],[109.74029541000002,20.790527344],[109.74212646500001,20.787719727],[109.74707031200002,20.784484863]]],[[[109.75689697300001,20.789916992],[109.75549316400001,20.794677734],[109.75091552700002,20.799499512],[109.74829101600001,20.798522949],[109.75347900400001,20.791503906],[109.75067138700001,20.785705566],[109.75231933600001,20.78112793],[109.75567627,20.77911377],[109.75592041000002,20.78112793],[109.75329589800002,20.789916992],[109.75689697300001,20.789916992]]],[[[110.29589843700002,21.055725098],[110.30389404300001,21.056274414],[110.29809570300002,21.059875488],[110.29589843700002,21.055725098]]],[[[110.40710449200002,21.069702148],[110.40112304700001,21.07989502],[110.39971923800002,21.086303711],[110.37011718700002,21.079101562],[110.34887695300002,21.074279785],[110.33447265600002,21.078308105],[110.33312988300001,21.078308105],[110.32672119100002,21.07611084],[110.32049560500002,21.076477051],[110.30828857400002,21.080322266],[110.30072021500001,21.065124512],[110.31048584000001,21.062927246],[110.33251953100002,21.066101074],[110.33288574200002,21.063476562],[110.32690429700001,21.058898926],[110.31811523400002,21.060119629],[110.31469726600001,21.059326172],[110.31207275400001,21.057128906],[110.34228515600002,21.059509277],[110.33648681600002,21.045471191],[110.31427002,21.026123047],[110.29229736300002,21.008300781],[110.26910400400001,20.989685059],[110.24987793000001,20.966491699],[110.25012207000002,20.965087891],[110.25488281200002,20.964477539],[110.27050781200002,20.97088623],[110.28070068400001,20.971923828],[110.29949951200001,20.977905273],[110.30688476600001,20.981323242],[110.33288574200002,20.998718262],[110.34667968700002,21.003295898],[110.35809326200001,21.002685547],[110.38531494100002,21.001098633],[110.39532470700001,21.007324219],[110.40228271500001,21.007507324],[110.42510986300002,20.99810791],[110.43048095700001,20.998901367],[110.44110107400002,21.004089355],[110.45172119100002,21.004272461],[110.46289062500001,20.998291016],[110.47009277300002,20.989929199],[110.47491455100001,20.980712891],[110.47650146500001,20.977722168],[110.48309326200001,20.977111816],[110.48791503900001,20.972290039],[110.48632812500001,20.968322754],[110.49487304700001,20.956298828],[110.503723145,20.933288574],[110.50787353500002,20.931274414],[110.52111816400001,20.93170166],[110.52252197300001,20.932312012],[110.52252197300001,20.947875977],[110.51947021500001,20.968505859],[110.52252197300001,21.002929687],[110.53588867200001,21.031677246],[110.53308105500001,21.045471191],[110.52447509800001,21.055908203],[110.49932861300002,21.06048584],[110.48010253900001,21.051086426],[110.45892334000001,21.051086426],[110.43188476600001,21.049316406],[110.41448974600002,21.057678223],[110.41448974600002,21.055725098],[110.41589355500001,21.052490234],[110.41870117200001,21.046081543],[110.41027832000002,21.052124023],[110.40411377,21.047912598],[110.39868164100001,21.048522949],[110.39587402300002,21.051330566],[110.39892578100002,21.055297852],[110.40991210900002,21.061523437],[110.40710449200002,21.069702148]]],[[[110.56768798800002,21.133911133],[110.60028076200001,21.189880371],[110.59613037100002,21.194274902],[110.58471679700001,21.189086914],[110.57928466800001,21.184692383],[110.57568359400001,21.189697266],[110.56927490200002,21.186889648],[110.56768798800002,21.184692383],[110.56652832000002,21.170715332],[110.56408691400001,21.167480469],[110.55847168000001,21.164306641],[110.55291748000002,21.158508301],[110.55047607400002,21.150695801],[110.55108642600001,21.147705078],[110.54870605500001,21.147888184],[110.546875,21.151672363],[110.54772949200002,21.158691406],[110.55969238300001,21.170715332],[110.56268310500002,21.176330566],[110.56109619100002,21.181518555],[110.562316895,21.186523437],[110.56408691400001,21.18927002],[110.53588867200001,21.182128906],[110.48669433600001,21.174682617],[110.44909668000001,21.162719727],[110.45330810500002,21.151672363],[110.46832275400001,21.147094727],[110.48767089800002,21.155273437],[110.50170898400002,21.152893066],[110.50732421900001,21.159118652],[110.51367187500001,21.160095215],[110.51629638700001,21.158874512],[110.51611328100002,21.153076172],[110.51971435500002,21.138305664],[110.51489257800002,21.129516602],[110.51708984400001,21.123901367],[110.51971435500002,21.121276855],[110.52648925800001,21.121276855],[110.52947998000002,21.118103027],[110.53088378900001,21.114074707],[110.52770996100001,21.102111816],[110.52947998000002,21.097473145],[110.53668212900001,21.096130371],[110.54388427700002,21.098510742],[110.54870605500001,21.100097656],[110.55987548800002,21.09967041],[110.56408691400001,21.101074219],[110.56768798800002,21.133911133]]],[[[110.60748291000002,21.201477051],[110.61151123000002,21.207519531],[110.60968017600001,21.20690918],[110.60748291000002,21.203918457],[110.60748291000002,21.201477051]]],[[[110.58929443400001,21.22088623],[110.59088134800001,21.221923828],[110.59008789100001,21.223876953],[110.58868408200001,21.224487305],[110.58911132800002,21.223876953],[110.58929443400001,21.22088623]]],[[[110.64093017600001,21.309875488],[110.64831543000001,21.31628418],[110.64672851600001,21.318115234],[110.64447021500001,21.318725586],[110.64007568400001,21.315917969],[110.63732910200001,21.310119629],[110.64093017600001,21.309875488]]],[[[110.62768554700001,21.317687988],[110.62689209000001,21.32232666],[110.62487793000001,21.321472168],[110.62469482400002,21.318481445],[110.62768554700001,21.317687988]]],[[[110.62011718700002,21.323913574],[110.62188720700001,21.335510254],[110.62072753900001,21.338317871],[110.61907959000001,21.33770752],[110.61791992200001,21.333496094],[110.62011718700002,21.323913574]]],[[[110.78930664100001,21.39831543],[110.79132080100001,21.408691406],[110.796875,21.416870117],[110.79730224600002,21.420898437],[110.78710937500001,21.434509277],[110.78570556600002,21.435913086],[110.77972412100002,21.44152832],[110.77270507800002,21.442077637],[110.76788330100001,21.438293457],[110.76409912100002,21.429870605],[110.76251220700001,21.421325684],[110.75329589800002,21.411682129],[110.73767089800002,21.407104492],[110.72827148400002,21.401123047],[110.71429443400001,21.405090332],[110.70727539100001,21.404724121],[110.69549560500002,21.398681641],[110.68371582000002,21.387329102],[110.67529296900001,21.385925293],[110.67272949200002,21.383728027],[110.66650390600002,21.383300781],[110.65588378900001,21.375305176],[110.63269043000001,21.366271973],[110.62731933600001,21.362304687],[110.62451171900001,21.354919434],[110.62347412100002,21.342712402],[110.62689209000001,21.336730957],[110.63970947300001,21.327270508],[110.64471435500002,21.326904297],[110.65130615200002,21.338317871],[110.65667724600002,21.338684082],[110.65832519500002,21.339904785],[110.66107177700002,21.341918945],[110.66168212900001,21.339294434],[110.65130615200002,21.326293945],[110.65612793000001,21.314086914],[110.63909912100002,21.301879883],[110.64508056600002,21.288696289],[110.64550781200002,21.284301758],[110.64129638700001,21.273498535],[110.64331054700001,21.261291504],[110.67028808600001,21.326721191],[110.72192382800002,21.360717773],[110.73229980500001,21.372070312],[110.74548339800002,21.383911133],[110.75610351600001,21.390686035],[110.76708984400001,21.394470215],[110.78930664100001,21.39831543]]],[[[109.75152587900001,21.547485352],[109.75207519500002,21.548278809],[109.74768066400001,21.554504395],[109.75152587900001,21.547485352]]],[[[110.93011474600002,21.420288086],[110.92291259800001,21.420471191],[110.92150878900001,21.422302246],[110.92248535200001,21.424072266],[110.90447998000002,21.433105469],[110.86968994100002,21.437683105],[110.87329101600001,21.508483887],[110.84228515600002,21.502685547],[110.81048584000001,21.538513184],[110.78771972700001,21.569885254],[110.76049804700001,21.620117187],[110.70770263700001,21.640075684],[110.72570800800001,21.582885742],[110.70947265600002,21.546081543],[110.68450927700002,21.519897461],[110.67211914100001,21.484130859],[110.64367675800001,21.471496582],[110.60888671900001,21.480285645],[110.57189941400001,21.495727539],[110.53808593700002,21.493103027],[110.50469970700001,21.479492187],[110.45788574200002,21.489685059],[110.44372558600001,21.513671875],[110.42669677700002,21.53692627],[110.40289306600002,21.562072754],[110.40393066400001,21.589904785],[110.36932373000002,21.604492187],[110.35870361300002,21.637695312],[110.36547851600001,21.668273926],[110.37127685500002,21.70892334],[110.37548828100002,21.756103516],[110.37249755900001,21.784301758],[110.36608886700002,21.825073242],[110.37609863300001,21.856689453],[110.40930175800001,21.876281738],[110.44287109400001,21.89831543],[110.43811035200001,21.930480957],[110.36090087900001,21.950073242],[110.35668945300002,21.937683105],[110.32507324200002,21.92388916],[110.30230712900001,21.925476074],[110.25909423800002,21.930725098],[110.23608398400002,21.925292969],[110.22290039100001,21.919677734],[110.21948242200001,21.917297363],[110.20672607400002,21.907714844],[110.18267822300001,21.911315918],[110.15289306600002,21.925476074],[110.14129638700001,21.929077148],[110.11932373000002,21.924499512],[110.10412597700001,21.921691895],[110.10412597700001,21.913330078],[110.08807373000002,21.900512695],[110.08227539100001,21.899475098],[110.04968261700002,21.90032959],[110.01330566400001,21.906311035],[109.97412109400001,21.902282715],[109.96850585900002,21.896911621],[109.94671630900001,21.87487793],[109.92608642600001,21.837280273],[109.90771484400001,21.762512207],[109.90051269500002,21.72052002],[109.90447998000002,21.700500488],[109.88671875000001,21.683898926],[109.82952880900001,21.664306641],[109.79132080100001,21.67388916],[109.75567627,21.690673828],[109.69628906200002,21.653503418],[109.68231201200001,21.621276855],[109.68310546900001,21.621520996],[109.68048095700001,21.611083984],[109.68151855500001,21.604919434],[109.67370605500001,21.598693848],[109.67132568400001,21.588684082],[109.67291259800001,21.575500488],[109.67230224600002,21.566894531],[109.66827392600001,21.55090332],[109.66448974600002,21.542480469],[109.66571044900002,21.535095215],[109.66467285200001,21.526123047],[109.65570068400001,21.516479492],[109.66668701200001,21.509094238],[109.67028808600001,21.506713867],[109.67510986300002,21.500488281],[109.68328857400002,21.497680664],[109.70849609400001,21.481323242],[109.72552490200002,21.474304199],[109.73907470700001,21.465270996],[109.74353027300002,21.467895508],[109.74511718700002,21.47869873],[109.74847412100002,21.481689453],[109.74847412100002,21.483886719],[109.74847412100002,21.496887207],[109.74249267600001,21.509887695],[109.73168945300002,21.530273437],[109.72570800800001,21.545898437],[109.730285645,21.56829834],[109.73327636700002,21.581298828],[109.74407959000001,21.561096191],[109.74389648400002,21.564697266],[109.74609375000001,21.571472168],[109.74169921900001,21.577087402],[109.73632812500001,21.578918457],[109.73791503900001,21.580871582],[109.74249267600001,21.586303711],[109.74407959000001,21.593322754],[109.74688720700001,21.59552002],[109.74951171900001,21.590515137],[109.74951171900001,21.578125],[109.75207519500002,21.573486328],[109.75549316400001,21.571716309],[109.76092529300001,21.572875977],[109.77429199200002,21.583312988],[109.77947998000002,21.584899902],[109.78027343700002,21.586730957],[109.78210449200002,21.583496094],[109.77368164100001,21.573730469],[109.76507568400001,21.567077637],[109.76348877,21.562683105],[109.76489257800002,21.556884766],[109.76428222700001,21.54888916],[109.77307128900001,21.539489746],[109.78369140600002,21.534912109],[109.78747558600001,21.53692627],[109.79248046900001,21.543273926],[109.79510498000002,21.541320801],[109.79449462900001,21.531494141],[109.79907226600001,21.522094727],[109.79931640600002,21.516113281],[109.79931640600002,21.514709473],[109.80670166000002,21.506103516],[109.79528808600001,21.501281738],[109.79711914100001,21.496704102],[109.79772949200002,21.486694336],[109.79528808600001,21.469726562],[109.79852294900002,21.465515137],[109.81127929700001,21.460083008],[109.81451416000002,21.468505859],[109.82507324200002,21.481506348],[109.83270263700001,21.475097656],[109.83312988300001,21.478271484],[109.83673095700001,21.484313965],[109.83367919900002,21.492675781],[109.83551025400001,21.495727539],[109.83752441400001,21.494873047],[109.84210205100001,21.483886719],[109.84991455100001,21.48248291],[109.84991455100001,21.474487305],[109.85168457000002,21.472900391],[109.87170410200001,21.473327637],[109.87548828100002,21.475097656],[109.87792968700002,21.483886719],[109.88153076200001,21.471130371],[109.88427734400001,21.467895508],[109.88708496100001,21.468078613],[109.89129638700001,21.471313477],[109.90069580100001,21.474487305],[109.91308593700002,21.475280762],[109.91571044900002,21.480529785],[109.92468261700002,21.486877441],[109.93530273400002,21.49029541],[109.94067382800002,21.49029541],[109.953125,21.48449707],[109.94470214800002,21.484130859],[109.93469238300001,21.48651123],[109.92730712900001,21.48449707],[109.92211914100001,21.481079102],[109.91931152300002,21.471923828],[109.91430664100001,21.465698242],[109.91088867200001,21.456481934],[109.91210937500001,21.452514648],[109.91729736300002,21.451904297],[109.91607666000002,21.445495605],[109.92211914100001,21.443908691],[109.92730712900001,21.439086914],[109.93048095700001,21.44708252],[109.93450927700002,21.449707031],[109.94427490200002,21.447509766],[109.95068359400001,21.449523926],[109.95068359400001,21.44732666],[109.94049072300001,21.438293457],[109.94030761700002,21.430480957],[109.93347168000001,21.428894043],[109.92608642600001,21.419677734],[109.91851806600002,21.415710449],[109.90948486300002,21.40411377],[109.90771484400001,21.399902344],[109.90527343700002,21.38848877],[109.90191650400001,21.384094238],[109.90191650400001,21.380493164],[109.90570068400001,21.37109375],[109.91247558600001,21.366088867],[109.91210937500001,21.358703613],[109.90649414100001,21.358703613],[109.90911865200002,21.349304199],[109.88867187500001,21.348327637],[109.86468505900001,21.345275879],[109.84149169900002,21.343322754],[109.82788085900002,21.339477539],[109.80847168000001,21.342285156],[109.79211425800001,21.341308594],[109.79052734400001,21.341125488],[109.79010009800001,21.340270996],[109.78912353500002,21.33807373],[109.78631591800001,21.336120605],[109.78448486300002,21.336486816],[109.78228759800001,21.340515137],[109.77868652300002,21.340087891],[109.76788330100001,21.337280273],[109.76672363300001,21.336730957],[109.77130127,21.327270508],[109.77410888700001,21.314086914],[109.77471923800002,21.302124023],[109.77130127,21.273925781],[109.77429199200002,21.237915039],[109.77270507800002,21.227478027],[109.76831054700001,21.214294434],[109.76367187500001,21.205871582],[109.75610351600001,21.197509766],[109.74768066400001,21.190307617],[109.74353027300002,21.181091309],[109.74731445300002,21.174316406],[109.74890136700002,21.167907715],[109.74670410200001,21.166870117],[109.74353027300002,21.169128418],[109.73992919900002,21.173278809],[109.73651123000002,21.166320801],[109.73089599600002,21.149475098],[109.71527099600002,21.168273926],[109.71331787100002,21.168884277],[109.70727539100001,21.162719727],[109.69848632800002,21.157897949],[109.68811035200001,21.145874023],[109.67608642600001,21.122070312],[109.67590332000002,21.118286133],[109.68048095700001,21.10949707],[109.69488525400001,21.093078613],[109.70568847700001,21.075317383],[109.70831298800002,21.067077637],[109.70751953100002,21.061279297],[109.70892334000001,21.054504395],[109.70751953100002,21.046081543],[109.70587158200001,21.042907715],[109.69891357400002,21.040283203],[109.69848632800002,21.03527832],[109.6875,21.010925293],[109.68768310500002,21.003295898],[109.70812988300001,20.996887207],[109.69128418000001,20.983520508],[109.66491699200002,20.926696777],[109.66430664100001,20.925476074],[109.663879395,20.91607666],[109.66711425800001,20.895874023],[109.67248535200001,20.875671387],[109.68408203100002,20.851074219],[109.68688964800002,20.847900391],[109.69592285200001,20.836486816],[109.69549560500002,20.838500977],[109.72192382800002,20.814880371],[109.71850585900002,20.821899414],[109.70812988300001,20.834716797],[109.70007324200002,20.848083496],[109.70208740200002,20.848510742],[109.71948242200001,20.828491211],[109.72052002,20.826721191],[109.72790527300002,20.813720703],[109.72888183600001,20.808288574],[109.73309326200001,20.801696777],[109.74029541000002,20.801086426],[109.74328613300001,20.804870605],[109.73669433600001,20.81829834],[109.73309326200001,20.83807373],[109.73907470700001,20.854125977],[109.74487304700001,20.858703613],[109.74688720700001,20.858886719],[109.74847412100002,20.85748291],[109.74792480500001,20.84588623],[109.75488281200002,20.846313477],[109.75408935500002,20.844482422],[109.75689697300001,20.841308594],[109.753723145,20.820678711],[109.75512695300002,20.805908203],[109.76171875000001,20.799499512],[109.76611328100002,20.782104492],[109.75732421900001,20.757507324],[109.74932861300002,20.74609375],[109.75909423800002,20.734680176],[109.77008056600002,20.714904785],[109.77789306600002,20.707519531],[109.78607177700002,20.704528809],[109.78808593700002,20.703125],[109.79168701200001,20.705078125],[109.85308837900001,20.705505371],[109.81970214800002,20.68951416],[109.79388427700002,20.673522949],[109.77752685500002,20.673522949],[109.75347900400001,20.675109863],[109.74047851600001,20.667297363],[109.74029541000002,20.667114258],[109.74029541000002,20.663513184],[109.74609375000001,20.656494141],[109.74969482400002,20.646728516],[109.74908447300001,20.637512207],[109.74890136700002,20.635314941],[109.75128173800002,20.631713867],[109.75769043000001,20.629882812],[109.76190185500002,20.630493164],[109.77148437500001,20.639282227],[109.77868652300002,20.639282227],[109.78808593700002,20.635314941],[109.79571533200001,20.628295898],[109.81311035200001,20.607727051],[109.82330322300001,20.592285156],[109.82708740200002,20.583679199],[109.83288574200002,20.592895508],[109.83367919900002,20.564086914],[109.83691406200002,20.581298828],[109.84088134800001,20.584472656],[109.84252929700001,20.588684082],[109.84851074200002,20.592102051],[109.84729003900001,20.582275391],[109.84289550800001,20.576477051],[109.84210205100001,20.571899414],[109.84350585900002,20.569702148],[109.855285645,20.563720703],[109.85150146500001,20.562683105],[109.83972168000001,20.567077637],[109.83770752,20.562072754],[109.83911132800002,20.557922363],[109.84252929700001,20.555908203],[109.84771728500002,20.558105469],[109.85290527300002,20.557128906],[109.85107421900001,20.5546875],[109.83911132800002,20.549682617],[109.847473145,20.537109375],[109.81408691400001,20.533508301],[109.81750488300001,20.525695801],[109.81890869100002,20.515319824],[109.82269287100002,20.509521484],[109.83050537100002,20.503295898],[109.83972168000001,20.499084473],[109.85791015600002,20.496276855],[109.86932373000002,20.492675781],[109.88708496100001,20.491271973],[109.89288330100001,20.495117187],[109.89849853500002,20.494873047],[109.90191650400001,20.492919922],[109.90930175800001,20.486083984],[109.91210937500001,20.480712891],[109.91192627,20.479675293],[109.91088867200001,20.472290039],[109.91210937500001,20.469299316],[109.913879395,20.468078613],[109.91210937500001,20.486083984],[109.91589355500001,20.502929687],[109.92272949200002,20.483520508],[109.93127441400001,20.462097168],[109.93328857400002,20.453674316],[109.93572998000002,20.45892334],[109.93572998000002,20.461730957],[109.92932128900001,20.470275879],[109.92767334000001,20.47869873],[109.92871093700002,20.48651123],[109.93127441400001,20.489074707],[109.93908691400001,20.492126465],[109.93969726600001,20.480285645],[109.945129395,20.471130371],[109.94787597700001,20.461486816],[109.94287109400001,20.453125],[109.94329834000001,20.449707031],[109.94531250000001,20.446289062],[109.95349121100001,20.44732666],[109.95428466800001,20.447875977],[109.95587158200001,20.454284668],[109.95812988300001,20.451293945],[109.96130371100001,20.453918457],[109.96112060500002,20.456115723],[109.96551513700001,20.460510254],[109.96447753900001,20.465881348],[109.96728515600002,20.472106934],[109.97052002,20.474487305],[109.97387695300002,20.474121094],[109.96887207000002,20.466308594],[109.97631835900002,20.455505371],[109.97912597700001,20.445678711],[109.98132324200002,20.442687988],[110.00988769500002,20.462280273],[110.00872802700002,20.444091797],[110.01147460900002,20.442504883],[110.01269531200002,20.437927246],[110.01068115200002,20.43170166],[110.01507568400001,20.417114258],[110.01312255900001,20.408325195],[110.01208496100001,20.40447998],[110.00970459000001,20.401672363],[110.00012207000002,20.397277832],[109.99987793000001,20.397277832],[109.99969482400002,20.395324707],[109.99511718700002,20.392272949],[109.99249267600001,20.387512207],[109.98327636700002,20.382873535],[109.98791503900001,20.378479004],[109.99011230500001,20.372924805],[109.98931884800001,20.369689941],[109.98870849600002,20.369506836],[109.99328613300001,20.364501953],[110.00347900400001,20.369506836],[110.003723145,20.371276855],[110.01190185500002,20.377075195],[110.01629638700001,20.377685547],[110.02447509800001,20.373901367],[110.02307128900001,20.372924805],[110.03332519500002,20.372070312],[110.00769043000001,20.358276367],[110.00769043000001,20.356872559],[110.00250244100002,20.351928711],[110.00012207000002,20.351318359],[109.99871826200001,20.350891113],[109.98669433600001,20.340270996],[109.97308349600002,20.363525391],[109.95770263700001,20.374694824],[109.96148681600002,20.394104004],[109.89831543000001,20.407897949],[109.89831543000001,20.407470703],[109.89630127,20.405517578],[109.88848877,20.403686523],[109.88171386700002,20.404296875],[109.87011718700002,20.407104492],[109.86627197300001,20.405700684],[109.86767578100002,20.403930664],[109.87347412100002,20.402099609],[109.87628173800002,20.399475098],[109.87811279300001,20.394470215],[109.88287353500002,20.393493652],[109.88928222700001,20.395080566],[109.89147949200002,20.393127441],[109.88848877,20.391113281],[109.87670898400002,20.390075684],[109.87310791000002,20.388671875],[109.87829589800002,20.383483887],[109.88427734400001,20.366271973],[109.88531494100002,20.366882324],[109.88647460900002,20.366088867],[109.88751220700001,20.359313965],[109.89770507800002,20.360290527],[109.90472412100002,20.363891602],[109.90667724600002,20.362670898],[109.90808105500001,20.358520508],[109.91308593700002,20.355102539],[109.92272949200002,20.348510742],[109.92572021500001,20.340270996],[109.92889404300001,20.338317871],[109.92669677700002,20.332702637],[109.92852783200001,20.319702148],[109.93768310500002,20.296508789],[109.93829345700001,20.292114258],[109.93548584000001,20.283691406],[109.92547607400002,20.269897461],[109.92291259800001,20.262329102],[109.92291259800001,20.254272461],[109.92108154300001,20.250671387],[109.92370605500001,20.245117187],[109.92388916000002,20.24230957],[109.92529296900001,20.233093262],[109.92852783200001,20.228881836],[109.93188476600001,20.229919434],[109.937316895,20.236083984],[109.94830322300001,20.25567627],[109.97528076200001,20.278320312],[109.97808837900001,20.287719727],[109.98291015600002,20.291870117],[109.98687744100002,20.292297363],[110.00012207000002,20.283874512],[110.00408935500002,20.281494141],[110.00512695300002,20.277893066],[110.00689697300001,20.272277832],[110.00787353500002,20.271484375],[110.01147460900002,20.27331543],[110.01232910200001,20.279724121],[110.01910400400001,20.286071777],[110.03027343700002,20.289489746],[110.04211425800001,20.29107666],[110.05389404300001,20.295471191],[110.06347656200002,20.294494629],[110.06707763700001,20.29309082],[110.06988525400001,20.289489746],[110.07067871100001,20.282714844],[110.07391357400002,20.277099609],[110.07208252,20.273681641],[110.07568359400001,20.274291992],[110.07989502,20.277282715],[110.08392334000001,20.272888184],[110.09130859400001,20.271118164],[110.09527587900001,20.266296387],[110.09649658200001,20.265930176],[110.10150146500001,20.264892578],[110.11132812500001,20.265686035],[110.11767578100002,20.264709473],[110.12652587900001,20.259887695],[110.12707519500002,20.25769043],[110.12390136700002,20.252075195],[110.11871337900001,20.247924805],[110.12432861300002,20.247497559],[110.12689209000001,20.241516113],[110.12890625000001,20.241088867],[110.13067627,20.241271973],[110.13549804700001,20.244506836],[110.14288330100001,20.244689941],[110.14410400400001,20.245910645],[110.14532470700001,20.241516113],[110.16009521500001,20.242492676],[110.16668701200001,20.238891602],[110.17633056600002,20.241271973],[110.17828369100002,20.241271973],[110.18310546900001,20.24407959],[110.19549560500002,20.260681152],[110.19769287100002,20.262084961],[110.20007324200002,20.264526367],[110.19647216800001,20.267700195],[110.19750976600001,20.274108887],[110.20568847700001,20.274719238],[110.21270752,20.272094727],[110.21569824200002,20.271728516],[110.22308349600002,20.275695801],[110.22589111300002,20.275878906],[110.22369384800001,20.278076172],[110.22711181600002,20.278076172],[110.23089599600002,20.276489258],[110.24407959000001,20.277709961],[110.24487304700001,20.276489258],[110.25170898400002,20.278503418],[110.253723145,20.276306152],[110.25250244100002,20.267883301],[110.25347900400001,20.265075684],[110.25750732400002,20.264282227],[110.26269531200002,20.268676758],[110.26910400400001,20.268310547],[110.27471923800002,20.266113281],[110.27667236300002,20.264282227],[110.27868652300002,20.253295898],[110.27947998000002,20.252075195],[110.28247070300002,20.255310059],[110.28668212900001,20.257080078],[110.28710937500001,20.258483887],[110.29229736300002,20.262695312],[110.29730224600002,20.262878418],[110.29931640600002,20.262084961],[110.31591796900001,20.268493652],[110.33587646500001,20.282470703],[110.35308837900001,20.298278809],[110.35888671900001,20.298706055],[110.35968017600001,20.299499512],[110.36230468700002,20.300476074],[110.36511230500001,20.299072266],[110.36810302700002,20.299316406],[110.37011718700002,20.300292969],[110.37371826200001,20.307678223],[110.37652587900001,20.309082031],[110.38507080100001,20.308898926],[110.39428710900002,20.305480957],[110.41229248000002,20.312316895],[110.43048095700001,20.330871582],[110.45050048800002,20.363525391],[110.47351074200002,20.391479492],[110.49548339800002,20.421325684],[110.50988769500002,20.452087402],[110.50891113300001,20.478088379],[110.48388671900001,20.550720215],[110.47351074200002,20.561096191],[110.45770263700001,20.562316895],[110.45770263700001,20.561889648],[110.45648193400001,20.5625],[110.45050048800002,20.562927246],[110.42651367200001,20.565673828],[110.39587402300002,20.602905273],[110.38708496100001,20.628112793],[110.38287353500002,20.640686035],[110.38067627,20.639526367],[110.37567138700001,20.639099121],[110.37451171900001,20.641479492],[110.37188720700001,20.646484375],[110.37170410200001,20.646484375],[110.36688232400002,20.638305664],[110.34490966800001,20.635681152],[110.34448242200001,20.635681152],[110.34112548800002,20.635314941],[110.34088134800001,20.635314941],[110.32928466800001,20.634094238],[110.31707763700001,20.63269043],[110.32751464800002,20.664306641],[110.31091308600001,20.663330078],[110.30871582000002,20.657287598],[110.30529785200001,20.65411377],[110.30548095700001,20.658691406],[110.30670166000002,20.662109375],[110.28149414100001,20.65411377],[110.30468750000001,20.685119629],[110.30529785200001,20.686279297],[110.30548095700001,20.686279297],[110.31207275400001,20.694885254],[110.31988525400001,20.708129883],[110.30249023400002,20.741516113],[110.32250976600001,20.757324219],[110.31970214800002,20.781494141],[110.31390380900001,20.801879883],[110.33209228500002,20.787109375],[110.33911132800002,20.770324707],[110.33929443400001,20.778320312],[110.33551025400001,20.789306641],[110.33709716800001,20.792480469],[110.34729003900001,20.801513672],[110.34613037100002,20.795288086],[110.34167480500001,20.792297363],[110.33972168000001,20.787902832],[110.34112548800002,20.784484863],[110.34930419900002,20.776123047],[110.35632324200002,20.758300781],[110.35650634800001,20.75189209],[110.35412597700001,20.742492676],[110.35552978500002,20.738525391],[110.36389160200001,20.731506348],[110.36572265600002,20.725708008],[110.36651611300002,20.722717285],[110.37512207000002,20.714111328],[110.37689209000001,20.713928223],[110.38031005900001,20.729492187],[110.37152099600002,20.77130127],[110.36187744100002,20.819702148],[110.32531738300001,20.823486328],[110.31268310500002,20.834472656],[110.29168701200001,20.840087891],[110.25708007800002,20.827880859],[110.22052002,20.849304199],[110.21191406200002,20.836303711],[110.16088867200001,20.838928223],[110.18109130900001,20.863098145],[110.17810058600001,20.873291016],[110.16748046900001,20.894714355],[110.16070556600002,20.909484863],[110.16052246100001,20.918273926],[110.15832519500002,20.934692383],[110.15869140600002,20.950500488],[110.16070556600002,20.958129883],[110.13031005900001,20.991088867],[110.11987304700001,21.002502441],[110.10150146500001,21.015319824],[110.11889648400002,21.018310547],[110.12548828100002,21.013671875],[110.13909912100002,21.004272461],[110.16369628900001,20.989318848],[110.16552734400001,20.99407959],[110.17230224600002,20.996276855],[110.17608642600001,20.99987793],[110.18127441400001,21.00970459],[110.18432617200001,21.016479492],[110.18829345700001,21.030883789],[110.18432617200001,21.04309082],[110.18688964800002,21.04888916],[110.18847656200002,21.05090332],[110.18707275400001,21.065673828],[110.18127441400001,21.091674805],[110.19628906200002,21.084472656],[110.20611572300001,21.07989502],[110.20690918000001,21.081481934],[110.20892334000001,21.091125488],[110.20489502,21.100891113],[110.19708252,21.10748291],[110.19030761700002,21.111083984],[110.18029785200001,21.109680176],[110.17510986300002,21.11151123],[110.15991210900002,21.13067627],[110.16229248000002,21.131286621],[110.17547607400002,21.118896484],[110.17810058600001,21.114318848],[110.18347168000001,21.113891602],[110.19171142600001,21.116088867],[110.20849609400001,21.103515625],[110.21148681600002,21.097473145],[110.21289062500001,21.08770752],[110.20849609400001,21.071289062],[110.20867919900002,21.069091797],[110.21032714800002,21.062683105],[110.20910644500002,21.061706543],[110.20928955100001,21.057495117],[110.21807861300002,21.036071777],[110.27270507800002,21.102294922],[110.28808593700002,21.102294922],[110.29150390600002,21.10369873],[110.30407714800002,21.104919434],[110.31451416000002,21.104492187],[110.31408691400001,21.105102539],[110.32952880900001,21.106872559],[110.34509277300002,21.114501953],[110.35168457000002,21.126525879],[110.36730957000002,21.142700195],[110.37432861300002,21.146728516],[110.37451171900001,21.149108887],[110.36608886700002,21.152099609],[110.36547851600001,21.15411377],[110.37268066400001,21.159301758],[110.37628173800002,21.157287598],[110.37829589800002,21.156311035],[110.38391113300001,21.155273437],[110.38629150400001,21.157104492],[110.40167236300002,21.18927002],[110.40307617200001,21.195678711],[110.40148925800001,21.205322266],[110.40228271500001,21.209106445],[110.40747070300002,21.216674805],[110.41009521500001,21.231872559],[110.40991210900002,21.232299805],[110.40972900400001,21.235473633],[110.40771484400001,21.238891602],[110.40368652300002,21.239074707],[110.40112304700001,21.248474121],[110.39532470700001,21.254272461],[110.38629150400001,21.261108398],[110.36407470700001,21.270324707],[110.36407470700001,21.279724121],[110.36407470700001,21.283874512],[110.36010742200001,21.281677246],[110.35870361300002,21.282897949],[110.35791015600002,21.284301758],[110.35931396500001,21.288085937],[110.36407470700001,21.295288086],[110.36407470700001,21.297302246],[110.34667968700002,21.312072754],[110.36547851600001,21.314697266],[110.36047363300001,21.320129395],[110.34851074200002,21.325683594],[110.34228515600002,21.331115723],[110.34210205100001,21.333129883],[110.34387207000002,21.333312988],[110.34771728500002,21.331726074],[110.35852050800001,21.327270508],[110.36132812500001,21.328125],[110.35687255900001,21.337280273],[110.34930419900002,21.346679687],[110.35571289100001,21.348693848],[110.36407470700001,21.337524414],[110.36547851600001,21.322509766],[110.37310791000002,21.319274902],[110.37487793000001,21.315917969],[110.38812255900001,21.317687988],[110.39007568400001,21.321105957],[110.38708496100001,21.321472168],[110.38171386700002,21.326477051],[110.38031005900001,21.329101562],[110.38092041000002,21.334472656],[110.37591552700002,21.340515137],[110.37487793000001,21.344482422],[110.37750244100002,21.344909668],[110.38287353500002,21.339904785],[110.38867187500001,21.329284668],[110.39288330100001,21.325317383],[110.39691162100002,21.331726074],[110.38909912100002,21.346496582],[110.38031005900001,21.366088867],[110.36767578100002,21.377075195],[110.35913085900002,21.40032959],[110.35327148400002,21.416320801],[110.34832763700001,21.430114746],[110.35992431600002,21.43347168],[110.35888671900001,21.433898926],[110.35729980500001,21.434692383],[110.34570312500001,21.430114746],[110.32568359400001,21.430908203],[110.32647705100001,21.433105469],[110.34350585900002,21.43572998],[110.34368896500001,21.438476562],[110.34613037100002,21.440124512],[110.35650634800001,21.437927246],[110.36291503900001,21.440124512],[110.37127685500002,21.445129395],[110.37371826200001,21.452514648],[110.37609863300001,21.454284668],[110.37951660200001,21.463317871],[110.38128662100002,21.464111328],[110.38110351600001,21.457885742],[110.38409423800002,21.45111084],[110.38848877,21.45111084],[110.39892578100002,21.45690918],[110.40209960900002,21.456481934],[110.39752197300001,21.452270508],[110.38208007800002,21.444274902],[110.37609863300001,21.439086914],[110.37451171900001,21.436523437],[110.37487793000001,21.431274414],[110.37310791000002,21.428100586],[110.38110351600001,21.408508301],[110.38409423800002,21.405883789],[110.38891601600001,21.396118164],[110.39489746100001,21.391906738],[110.40112304700001,21.380310059],[110.40930175800001,21.385498047],[110.42291259800001,21.396728516],[110.42987060500002,21.399108887],[110.43127441400001,21.403320312],[110.44049072300001,21.410522461],[110.44848632800002,21.405700684],[110.45147705100001,21.407104492],[110.45391845700001,21.41607666],[110.45587158200001,21.417480469],[110.45910644500002,21.413513184],[110.45867919900002,21.405273437],[110.45770263700001,21.403686523],[110.45672607400002,21.402282715],[110.44049072300001,21.397521973],[110.43969726600001,21.396484375],[110.42767334000001,21.349121094],[110.42810058600001,21.348510742],[110.42608642600001,21.330078125],[110.42291259800001,21.324707031],[110.421691895,21.319091797],[110.42388916000002,21.307495117],[110.43847656200002,21.317687988],[110.45190429700001,21.340087891],[110.45648193400001,21.342102051],[110.45849609400001,21.348510742],[110.46392822300001,21.351501465],[110.46667480500001,21.35168457],[110.46789550800001,21.34967041],[110.46368408200001,21.346496582],[110.46350097700001,21.345275879],[110.46649169900002,21.346496582],[110.47808837900001,21.324890137],[110.48327636700002,21.333129883],[110.48632812500001,21.33190918],[110.48828125000001,21.327880859],[110.48388671900001,21.317687988],[110.47851562500001,21.31628418],[110.47607421900001,21.307495117],[110.45831298800002,21.296325684],[110.46069335900002,21.294921875],[110.46392822300001,21.294921875],[110.46728515600002,21.298095703],[110.47113037100002,21.297302246],[110.47351074200002,21.295471191],[110.47052002,21.292907715],[110.47113037100002,21.29107666],[110.47467041000002,21.29107666],[110.47827148400002,21.293701172],[110.480285645,21.297119141],[110.48352050800001,21.30291748],[110.48907470700001,21.305114746],[110.50128173800002,21.304870605],[110.50170898400002,21.30090332],[110.50451660200001,21.298278809],[110.50207519500002,21.296325684],[110.49169921900001,21.296508789],[110.48907470700001,21.294921875],[110.48651123000002,21.289489746],[110.47912597700001,21.284301758],[110.47729492200001,21.279907227],[110.48370361300002,21.265686035],[110.48071289100001,21.264282227],[110.47607421900001,21.264526367],[110.47332763700001,21.266479492],[110.47192382800002,21.271484375],[110.44531250000001,21.273071289],[110.43572998000002,21.272705078],[110.43267822300001,21.270874023],[110.42669677700002,21.272277832],[110.42327880900001,21.272094727],[110.421875,21.271484375],[110.42028808600001,21.267272949],[110.42211914100001,21.261474609],[110.42730712900001,21.255493164],[110.44689941400001,21.257080078],[110.44909668000001,21.254882812],[110.44470214800002,21.25189209],[110.43408203100002,21.251281738],[110.43072509800001,21.251281738],[110.42871093700002,21.24987793],[110.43072509800001,21.244873047],[110.43231201200001,21.24407959],[110.43908691400001,21.244689941],[110.44427490200002,21.23449707],[110.43450927700002,21.220703125],[110.42889404300001,21.205505371],[110.42108154300001,21.19329834],[110.42468261700002,21.189880371],[110.43109130900001,21.189086914],[110.43371582000002,21.189697266],[110.44232177700002,21.199890137],[110.44708252,21.202087402],[110.45489502,21.20892334],[110.45788574200002,21.209472656],[110.46551513700001,21.210876465],[110.46667480500001,21.211303711],[110.46948242200001,21.217285156],[110.47607421900001,21.219909668],[110.48352050800001,21.22052002],[110.49072265600002,21.227905273],[110.49151611300002,21.22467041],[110.49047851600001,21.220275879],[110.49169921900001,21.218322754],[110.49530029300001,21.218078613],[110.49932861300002,21.214294434],[110.50592041000002,21.213500977],[110.51867675800001,21.208679199],[110.52008056600002,21.20892334],[110.53948974600002,21.216125488],[110.54370117200001,21.218322754],[110.546691895,21.223876953],[110.54748535200001,21.238708496],[110.55529785200001,21.240722656],[110.56207275400001,21.242492676],[110.57550048800002,21.238525391],[110.57550048800002,21.239074707],[110.57708740200002,21.238098145],[110.58129882800002,21.236877441],[110.58312988300001,21.234130859],[110.59228515600002,21.227722168],[110.59912109400001,21.226074219],[110.60052490200002,21.227905273],[110.597473145,21.233093262],[110.60009765600002,21.233520508],[110.60412597700001,21.228881836],[110.60449218700002,21.221130371],[110.61492919900002,21.22052002],[110.62109375000001,21.222106934],[110.62567138700001,21.229309082],[110.62207031200002,21.275878906],[110.61907959000001,21.290100098],[110.60748291000002,21.298095703],[110.60467529300001,21.33807373],[110.61328125000001,21.353881836],[110.61572265600002,21.343688965],[110.61889648400002,21.365905762],[110.62152099600002,21.366271973],[110.62469482400002,21.364501953],[110.63067627,21.37512207],[110.63647460900002,21.379272461],[110.64752197300001,21.383300781],[110.65911865200002,21.394287109],[110.66510009800001,21.395507812],[110.67309570300002,21.392883301],[110.67608642600001,21.393920898],[110.67968750000001,21.394897461],[110.69708252,21.408874512],[110.71728515600002,21.416320801],[110.73547363300001,21.414306641],[110.74609375000001,21.418273926],[110.75170898400002,21.429504395],[110.75909423800002,21.434875488],[110.76287841800001,21.442687988],[110.76171875000001,21.446105957],[110.75689697300001,21.449279785],[110.76550293000001,21.451477051],[110.76629638700001,21.453308105],[110.76489257800002,21.459716797],[110.76611328100002,21.461486816],[110.76470947300001,21.477905273],[110.77069091800001,21.497314453],[110.78088378900001,21.510498047],[110.78247070300002,21.507324219],[110.77709960900002,21.50012207],[110.77551269500002,21.481689453],[110.77130127,21.480712891],[110.77087402300002,21.475280762],[110.77508544900002,21.474304199],[110.77532959000001,21.472717285],[110.77130127,21.470092773],[110.76727294900002,21.463684082],[110.77172851600001,21.457702637],[110.77612304700001,21.458679199],[110.77868652300002,21.460876465],[110.78308105500001,21.452270508],[110.78070068400001,21.447509766],[110.78808593700002,21.43927002],[110.79571533200001,21.426086426],[110.80187988300001,21.420471191],[110.80371093700002,21.416503906],[110.79608154300001,21.408508301],[110.79528808600001,21.405090332],[110.79711914100001,21.400512695],[110.80187988300001,21.396484375],[110.82067871100001,21.393310547],[110.82409668000001,21.391296387],[110.82751464800002,21.385925293],[110.83990478500002,21.389709473],[110.84930419900002,21.389282227],[110.85931396500001,21.382080078],[110.86828613300001,21.385314941],[110.87792968700002,21.385314941],[110.88507080100001,21.388305664],[110.91711425800001,21.413085937],[110.92968750000001,21.415893555],[110.93768310500002,21.416687012],[110.93011474600002,21.420288086]]]]}}
