{"type":"Feature","id":"bulk-99377448B47475427797198","bbox":[124.87011718700002,45.514282227,128.456298828,48.025695801],"properties":{"id":"bulk-99377448B47475427797198","name":"Suihua","nameEn":"Suihua","fullName":"Suihua","level":"city","boundaryRole":"administrative-extent","boundaryQuality":"generalized-source-2020","boundaryYearRepresented":"2020","bounds":[[124.87011718700002,45.514282227],[128.456298828,48.025695801]],"center":[126.6632080075,46.769989014000004],"centerMethod":"bounding-box midpoint; camera framing only","license":"CC-BY-3.0-IGO","attribution":"geoBoundaries / HDX, China administrative boundaries (2020)","source":{"provider":"geoBoundaries gbHumanitarian / HDX","url":"https://github.com/wmgeolab/geoBoundaries/raw/9469f09/releaseData/gbHumanitarian/CHN/ADM2/geoBoundaries-CHN-ADM2.geojson","metadataUrl":"https://www.geoboundaries.org/api/current/gbHumanitarian/CHN/ADM2/","shapeID":"99377448B47475427797198","shapeName":"Suihua","boundaryID":"CHN-ADM2-99377448","commit":"9469f09"},"geometryCounts":{"coordinates":457,"components":1,"holes":0},"boundaryNotice":"geoBoundaries / HDX 2020 年行政区数据，海岸和边界经过源数据概化，并非当前测绘成果。"},"geometry":{"type":"Polygon","coordinates":[[[125.76507568400001,45.518310547],[125.80828857400002,45.514282227],[125.87109375000001,45.56427002],[125.95092773400002,45.58392334],[126.00268554700001,45.630310059],[126.02392578100002,45.63269043],[126.06732177700002,45.627685547],[126.08831787100002,45.630126953],[126.13269043000001,45.687072754],[126.20831298800002,45.687927246],[126.24151611300002,45.698486328],[126.27612304700001,45.713500977],[126.33392334000001,45.69732666],[126.35009765600002,45.721679687],[126.36389160200001,45.779724121],[126.36450195300002,45.824890137],[126.35150146500001,45.886901855],[126.3125,45.917297363],[126.28247070300002,45.944519043],[126.23150634800001,45.96307373],[126.18011474600002,45.996520996],[126.12829589800002,46.033081055],[126.16510009800001,46.043273926],[126.18408203100002,46.064880371],[126.21209716800001,46.06652832],[126.24389648400002,46.055725098],[126.28692627,46.062683105],[126.31549072300001,46.06652832],[126.34912109400001,46.062683105],[126.39648437500001,46.059692383],[126.41107177700002,46.062683105],[126.42010498000002,46.099914551],[126.43188476600001,46.134277344],[126.44128418000001,46.159484863],[126.48107910200001,46.195495605],[126.52587890600002,46.223693848],[126.54449462900001,46.22869873],[126.57147216800001,46.254089355],[126.58673095700001,46.316894531],[126.60308837900001,46.341308594],[126.64691162100002,46.364929199],[126.69769287100002,46.416320801],[126.77032470700001,46.429321289],[126.79968261700002,46.449707031],[126.86407470700001,46.499511719],[126.93292236300002,46.524902344],[126.96612548800002,46.532897949],[127.03027343700002,46.580078125],[127.08148193400001,46.590881348],[127.12371826200001,46.61932373],[127.18127441400001,46.641113281],[127.24530029300001,46.659729004],[127.29608154300001,46.667907715],[127.33392334000001,46.665710449],[127.36608886700002,46.654724121],[127.42150878900001,46.626281738],[127.44592285200001,46.599487305],[127.45568847700001,46.543273926],[127.46508789100001,46.52532959],[127.503723145,46.513305664],[127.56427002,46.50592041],[127.60729980500001,46.513671875],[127.68432617200001,46.534912109],[127.72509765600002,46.562072754],[127.77288818400001,46.574523926],[127.80572509800001,46.557312012],[127.85028076200001,46.562927246],[127.89007568400001,46.560119629],[127.921875,46.542114258],[127.94873046900001,46.516296387],[127.980285645,46.497497559],[128.01208496100003,46.480895996],[128.053894043,46.461120605],[128.094909668,46.472900391],[128.137695312,46.492675781],[128.17547607400002,46.515686035],[128.201293945,46.549499512],[128.145874023,46.57208252],[128.09008789100002,46.598327637],[128.041503906,46.611694336],[128.010925293,46.627502441],[127.99090576200001,46.670898437],[127.94091796900001,46.732299805],[127.84692382800002,46.799072266],[127.79748535200001,46.850891113],[127.74572753900001,46.893310547],[127.68688964800002,46.922119141],[127.64947509800001,46.926696777],[127.57910156200002,46.952087402],[127.546691895,46.975280762],[127.56732177700002,46.987304687],[127.59008789100001,46.99407959],[127.64410400400001,46.999328613],[127.69787597700001,47.004699707],[127.76611328100002,47.037109375],[127.78491210900002,47.068481445],[127.83270263700001,47.076904297],[127.87188720700001,47.079101562],[127.92291259800001,47.072875977],[127.95587158200001,47.078308105],[127.98968505900001,47.086120605],[128.01568603500002,47.104492187],[128.075073242,47.116088867],[128.11492919900002,47.120727539],[128.17047119100002,47.118530273],[128.21447753900003,47.12487793],[128.24450683600003,47.145080566],[128.27947998000002,47.157470703],[128.35992431600002,47.168884277],[128.394287109,47.178894043],[128.421081543,47.199523926],[128.436889648,47.231079102],[128.43487548800002,47.262695312],[128.451477051,47.284484863],[128.456298828,47.288879395],[128.454528809,47.323303223],[128.45330810500002,47.357910156],[128.413085937,47.357299805],[128.35510253900003,47.350891113],[128.32611084,47.372680664],[128.294311523,47.394287109],[128.264892578,47.418884277],[128.23510742200003,47.451477051],[128.21368408200001,47.475891113],[128.196472168,47.503112793],[128.20330810500002,47.531677246],[128.22888183600003,47.555297852],[128.23449707,47.590087891],[128.24230957,47.628112793],[128.275878906,47.64831543],[128.288085937,47.678283691],[128.250305176,47.694519043],[128.21948242200003,47.715515137],[128.272521973,47.730895996],[128.31488037100002,47.748901367],[128.30688476600002,47.77911377],[128.30187988300003,47.806518555],[128.282287598,47.846130371],[128.240722656,47.858703613],[128.202697754,47.872070312],[128.157287598,47.890075684],[128.11907959,47.903686523],[128.117126465,47.936096191],[128.12768554700003,47.965515137],[128.133483887,47.999694824],[128.105285645,48.020690918],[128.04248046900003,48.004882812],[127.99212646500001,48.003112793],[127.94567871100001,48.018127441],[127.90368652300002,48.025695801],[127.85992431600002,48.014526367],[127.83532714800002,47.990112305],[127.84887695300002,47.963317871],[127.86810302700002,47.93951416],[127.85150146500001,47.903686523],[127.82550048800002,47.878479004],[127.79528808600001,47.855895996],[127.78570556600002,47.824707031],[127.75231933600001,47.793273926],[127.74047851600001,47.763305664],[127.77209472700001,47.738098145],[127.75689697300001,47.710876465],[127.67388916000002,47.694091797],[127.66412353500002,47.705505371],[127.64532470700001,47.715087891],[127.61987304700001,47.725524902],[127.59472656200002,47.738098145],[127.56970214800002,47.750671387],[127.56152343700002,47.773498535],[127.55511474600002,47.803100586],[127.54449462900001,47.81628418],[127.49749755900001,47.826904297],[127.44769287100002,47.825683594],[127.40148925800001,47.812072754],[127.36730957000002,47.789672852],[127.30749511700002,47.777526855],[127.25750732400002,47.776306152],[127.21209716800001,47.764892578],[127.14691162100002,47.772705078],[127.10388183600001,47.770507812],[127.03527832000002,47.752075195],[127.01470947300001,47.754516602],[126.97692871100001,47.744689941],[126.92510986300002,47.721923828],[126.87792968700002,47.703308105],[126.85552978500002,47.698730469],[126.82128906200002,47.702697754],[126.79211425800001,47.713317871],[126.75891113300001,47.721923828],[126.69531250000001,47.722106934],[126.65570068400001,47.705078125],[126.61248779300001,47.67388916],[126.56671142600001,47.660095215],[126.50610351600001,47.614074707],[126.47747802700002,47.555114746],[126.48187255900001,47.50189209],[126.46649169900002,47.467529297],[126.42370605500001,47.407714844],[126.38549804700001,47.352111816],[126.34967041000002,47.3203125],[126.31628418000001,47.31628418],[126.26092529300001,47.308288574],[126.19647216800001,47.304321289],[126.14410400400001,47.301879883],[126.09991455100001,47.297912598],[126.05529785200001,47.294494629],[126.00347900400001,47.292297363],[125.95971679700001,47.284301758],[125.91467285200001,47.277099609],[125.86608886700002,47.271911621],[125.81292724600002,47.265686035],[125.76928710900002,47.268920898],[125.722473145,47.267272949],[125.68127441400001,47.265686035],[125.64093017600001,47.265686035],[125.59411621100001,47.261901855],[125.52667236300002,47.253295898],[125.44189453100002,47.237487793],[125.39691162100002,47.234680176],[125.34368896500001,47.233886719],[125.28027343700002,47.255493164],[125.26531982400002,47.201477051],[125.25988769500002,47.158081055],[125.25030517600001,47.127319336],[125.24432373000002,47.087524414],[125.24389648400002,47.055480957],[125.26531982400002,47.030517578],[125.28167724600002,47.019470215],[125.26428222700001,47.009277344],[125.21630859400001,46.957885742],[125.20452880900001,46.931884766],[125.19067382800002,46.899902344],[125.19067382800002,46.886108398],[125.18408203100002,46.874084473],[125.17510986300002,46.869689941],[125.16333007800002,46.870483398],[125.15270996100001,46.835083008],[125.16491699200002,46.826904297],[125.18267822300001,46.819091797],[125.19311523400002,46.813720703],[125.19311523400002,46.809326172],[125.19067382800002,46.805908203],[125.18652343700002,46.8046875],[125.18511962900001,46.800109863],[125.18890380900001,46.791320801],[125.18591308600001,46.78527832],[125.17828369100002,46.772888184],[125.17492675800001,46.770324707],[125.15887451200001,46.775512695],[125.15167236300002,46.774475098],[125.14068603500002,46.767883301],[125.13208007800002,46.758117676],[125.13128662100002,46.750915527],[125.14208984400001,46.742675781],[125.15588378900001,46.734313965],[125.16369628900001,46.720275879],[125.17150878900001,46.71472168],[125.18707275400001,46.713500977],[125.19671630900001,46.713928223],[125.20031738300001,46.711486816],[125.20867919900002,46.703918457],[125.23150634800001,46.699890137],[125.23931884800001,46.698730469],[125.25189209000001,46.692077637],[125.26190185500002,46.680725098],[125.26507568400001,46.672912598],[125.26190185500002,46.666870117],[125.25750732400002,46.66192627],[125.25329589800002,46.652526855],[125.25207519500002,46.648681641],[125.24768066400001,46.642089844],[125.21710205100001,46.639099121],[125.19531250000001,46.637695312],[125.19769287100002,46.631713867],[125.21289062500001,46.62487793],[125.22009277300002,46.603515625],[125.24731445300002,46.597106934],[125.24908447300001,46.593322754],[125.24450683600001,46.587524414],[125.23632812500001,46.582092285],[125.24468994100002,46.570922852],[125.25048828100002,46.563476562],[125.25567627,46.532470703],[125.23150634800001,46.531311035],[125.22668457000002,46.524475098],[125.24432373000002,46.51550293],[125.23449707000002,46.506103516],[125.22668457000002,46.501525879],[125.21728515600002,46.501098633],[125.21130371100001,46.508117676],[125.19189453100002,46.523925781],[125.17767334000001,46.522277832],[125.17108154300001,46.517700195],[125.16687011700002,46.511901855],[125.17449951200001,46.501708984],[125.18090820300002,46.496887207],[125.1875,46.495910645],[125.20129394500002,46.497680664],[125.21447753900001,46.495910645],[125.22387695300002,46.491699219],[125.23272705100001,46.491516113],[125.23712158200001,46.491882324],[125.24487304700001,46.490722656],[125.25469970700001,46.479125977],[125.25970459000001,46.478271484],[125.26171875000001,46.475280762],[125.26092529300001,46.468078613],[125.25653076200001,46.464111328],[125.25067138700001,46.461303711],[125.24810791000002,46.452514648],[125.26208496100001,46.436706543],[125.27447509800001,46.421081543],[125.26770019500002,46.415710449],[125.25811767600001,46.410522461],[125.24353027300002,46.410888672],[125.22827148400002,46.405700684],[125.18249511700002,46.412109375],[125.17352294900002,46.409484863],[125.14489746100001,46.412719727],[125.15167236300002,46.429504395],[125.14788818400001,46.430908203],[125.120910645,46.433898926],[125.11010742200001,46.433288574],[125.10668945300002,46.436706543],[125.10211181600002,46.448303223],[125.10772705100001,46.461303711],[125.10711669900002,46.465087891],[125.10272216800001,46.467529297],[125.08831787100002,46.467895508],[125.07788085900002,46.46472168],[125.06451416000002,46.470092773],[125.05731201200001,46.477478027],[125.05029296900001,46.479492187],[125.03631591800001,46.47869873],[125.03491210900002,46.474304199],[125.03192138700001,46.463684082],[125.02728271500001,46.448730469],[125.01928710900002,46.441711426],[124.99810791000002,46.43371582],[124.99029541000002,46.430114746],[124.98089599600002,46.430480957],[124.96789550800001,46.431518555],[124.96948242200001,46.42388916],[124.99707031200002,46.417114258],[125.00610351600001,46.403076172],[125.00872802700002,46.388916016],[125.00653076200001,46.385498047],[124.99371337900001,46.382873535],[124.98413085900002,46.382080078],[124.98468017600001,46.375915527],[125.01007080100001,46.370300293],[125.01867675800001,46.36730957],[125.01910400400001,46.35168457],[125.00012207000002,46.336914062],[125.00469970700001,46.330688477],[125.04071044900002,46.33392334],[125.05047607400002,46.330688477],[125.05432128900001,46.321899414],[125.04632568400001,46.280700684],[125.04028320300002,46.265930176],[125.02770996100001,46.25390625],[125.01287841800001,46.250305176],[125.00732421900001,46.248474121],[124.99127197300001,46.253479004],[124.98327636700002,46.253723145],[124.97509765600002,46.247497559],[124.96228027300002,46.240112305],[124.95147705100001,46.236083984],[124.95648193400001,46.225280762],[124.94531250000001,46.214904785],[124.92767334000001,46.210083008],[124.91687011700002,46.195129395],[124.90991210900002,46.166687012],[124.89709472700001,46.150878906],[124.90032959000001,46.142883301],[124.92291259800001,46.138916016],[124.92749023400002,46.13092041],[124.92248535200001,46.114318848],[124.92248535200001,46.101318359],[124.90527343700002,46.083496094],[124.88507080100001,46.069885254],[124.87072753900001,46.061096191],[124.87011718700002,46.059082031],[124.89007568400001,46.059082031],[124.89831543000001,46.055114746],[124.90710449200002,46.05291748],[124.91870117200001,46.052307129],[124.93249511700002,46.063293457],[124.94390869100002,46.061523437],[124.953125,46.064880371],[124.98889160200001,46.060913086],[125.00872802700002,46.06072998],[125.04089355500001,46.069885254],[125.04888916000002,46.065307617],[125.06127929700001,46.049682617],[125.08947753900001,46.054870605],[125.08892822300001,46.035522461],[125.08587646500001,46.02947998],[125.09631347700001,46.024475098],[125.10229492200001,46.021911621],[125.10729980500001,46.020324707],[125.15008544900002,46.05267334],[125.14971923800002,46.065673828],[125.22387695300002,46.125671387],[125.22088623000002,46.129882812],[125.19427490200002,46.126281738],[125.16589355500001,46.128479004],[125.15490722700001,46.127319336],[125.14587402300002,46.132507324],[125.13568115200002,46.140075684],[125.13372802700002,46.158874512],[125.07928466800001,46.155273437],[125.06988525400001,46.190917969],[125.07287597700001,46.209899902],[125.09490966800001,46.212097168],[125.10949707000002,46.212097168],[125.11187744100002,46.20690918],[125.10711669900002,46.195678711],[125.10827636700002,46.18548584],[125.12731933600001,46.1875],[125.14129638700001,46.184509277],[125.15289306600002,46.187316895],[125.19067382800002,46.167297363],[125.20227050800001,46.162109375],[125.20391845700001,46.148925781],[125.20532226600001,46.144897461],[125.23767089800002,46.142272949],[125.31591796900001,46.141113281],[125.31732177700002,46.141479492],[125.32208252,46.127502441],[125.33447265600002,46.101501465],[125.33831787100002,46.068725586],[125.34912109400001,46.022094727],[125.35028076200001,45.991882324],[125.35107421900001,45.957885742],[125.35009765600002,45.928894043],[125.34552002,45.901489258],[125.35009765600002,45.871520996],[125.39129638700001,45.860717773],[125.45892334000001,45.872680664],[125.49652099600002,45.880126953],[125.54711914100001,45.885070801],[125.60888671900001,45.892700195],[125.65667724600002,45.886474609],[125.67852783200001,45.857299805],[125.67987060500002,45.823913574],[125.69390869100002,45.789916992],[125.73492431600002,45.776306152],[125.72491455100001,45.74407959],[125.71710205100001,45.710510254],[125.73388671900001,45.680297852],[125.68450927700002,45.677490234],[125.6875,45.647521973],[125.71990966800001,45.608093262],[125.74450683600001,45.577880859],[125.76031494100002,45.549072266],[125.76507568400001,45.518310547]]]}}
