{"type":"Feature","id":"bulk-99377448B9333352727349","bbox":[113.87591552700002,24.501281738,116.61468505900001,27.129882812],"properties":{"id":"bulk-99377448B9333352727349","name":"Ganzhou","nameEn":"Ganzhou","fullName":"Ganzhou","level":"city","boundaryRole":"administrative-extent","boundaryQuality":"generalized-source-2020","boundaryYearRepresented":"2020","bounds":[[113.87591552700002,24.501281738],[116.61468505900001,27.129882812]],"center":[115.24530029300001,25.815582275],"centerMethod":"bounding-box midpoint; camera framing only","license":"CC-BY-3.0-IGO","attribution":"geoBoundaries / HDX, China administrative boundaries (2020)","source":{"provider":"geoBoundaries gbHumanitarian / HDX","url":"https://github.com/wmgeolab/geoBoundaries/raw/9469f09/releaseData/gbHumanitarian/CHN/ADM2/geoBoundaries-CHN-ADM2.geojson","metadataUrl":"https://www.geoboundaries.org/api/current/gbHumanitarian/CHN/ADM2/","shapeID":"99377448B9333352727349","shapeName":"Ganzhou","boundaryID":"CHN-ADM2-99377448","commit":"9469f09"},"geometryCounts":{"coordinates":361,"components":1,"holes":0},"boundaryNotice":"geoBoundaries / HDX 2020 年行政区数据，海岸和边界经过源数据概化，并非当前测绘成果。"},"geometry":{"type":"Polygon","coordinates":[[[116.35632324200002,26.04107666],[116.38348388700001,26.069519043],[116.43170166000002,26.104675293],[116.46411132800002,26.124694824],[116.47930908200001,26.142883301],[116.480285645,26.175109863],[116.45007324200002,26.191101074],[116.42272949200002,26.187072754],[116.37908935500002,26.180297852],[116.36730957000002,26.233886719],[116.38189697300001,26.274475098],[116.40911865200002,26.309082031],[116.43890380900001,26.335510254],[116.46630859400001,26.370910645],[116.50408935500002,26.413085937],[116.52008056600002,26.395080566],[116.57409668000001,26.40411377],[116.61468505900001,26.473876953],[116.59912109400001,26.497070312],[116.56970214800002,26.511108398],[116.55651855500001,26.540527344],[116.538879395,26.569885254],[116.50628662100002,26.56048584],[116.48547363300001,26.581115723],[116.45709228500002,26.597473145],[116.43249511700002,26.578125],[116.38708496100001,26.549499512],[116.36688232400002,26.528076172],[116.32952880900001,26.504699707],[116.29827880900001,26.505310059],[116.27551269500002,26.524902344],[116.24670410200001,26.5546875],[116.26251220700001,26.580078125],[116.25292968700002,26.611877441],[116.22711181600002,26.631713867],[116.20251464800002,26.655883789],[116.17730712900001,26.680114746],[116.13610839800002,26.69708252],[116.11529541000002,26.726928711],[116.12371826200001,26.754882812],[116.13232421900001,26.788879395],[116.13391113300001,26.824707031],[116.14587402300002,26.855285645],[116.15368652300002,26.881530762],[116.14349365200002,26.910705566],[116.16052246100001,26.972106934],[116.17370605500001,27.00567627],[116.18969726600001,27.050476074],[116.13867187500001,27.039672852],[116.13647460900002,27.067871094],[116.12072753900001,27.109313965],[116.08972168000001,27.129882812],[116.04571533200001,27.125488281],[116.00787353500002,27.096679687],[116.00250244100002,27.066711426],[115.99328613300001,27.040100098],[115.97351074200002,27.017883301],[115.95227050800001,26.987487793],[115.921875,26.960327148],[115.89208984400001,26.938110352],[115.86987304700001,26.914489746],[115.84350585900002,26.890075684],[115.81127929700001,26.869873047],[115.78448486300002,26.832092285],[115.76031494100002,26.808288574],[115.72991943400001,26.819519043],[115.70269775400001,26.833312988],[115.67327880900001,26.817321777],[115.67749023400002,26.781677246],[115.69628906200002,26.738098145],[115.695129395,26.696289062],[115.68267822300001,26.671508789],[115.65509033200001,26.649291992],[115.62329101600001,26.659484863],[115.58929443400001,26.649902344],[115.55548095700001,26.647888184],[115.53247070300002,26.672485352],[115.47967529300001,26.701721191],[115.44189453100002,26.69152832],[115.40887451200001,26.674499512],[115.38787841800001,26.654296875],[115.35388183600001,26.659118652],[115.31030273400002,26.681274414],[115.28668212900001,26.643676758],[115.26928710900002,26.616271973],[115.25549316400001,26.586730957],[115.23468017600001,26.557678223],[115.21472168000001,26.533508301],[115.18609619100002,26.521118164],[115.15167236300002,26.519104004],[115.12188720700001,26.51171875],[115.08648681600002,26.488525391],[115.06127929700001,26.473327637],[115.04589843700002,26.442504883],[115.03070068400001,26.41192627],[115.02648925800001,26.381530762],[115.03308105500001,26.35168457],[115.03948974600002,26.316101074],[115.05352783200001,26.284301758],[115.05627441400001,26.24987793],[115.03747558600001,26.214477539],[115.05871582000002,26.188903809],[115.08251953100002,26.170471191],[115.05310058600001,26.147705078],[115.02551269500002,26.163696289],[115.00170898400002,26.183898926],[114.97412109400001,26.202514648],[114.93029785200001,26.211120605],[114.88751220700001,26.211120605],[114.83709716800001,26.204101562],[114.80792236300002,26.196472168],[114.77807617200001,26.188110352],[114.73669433600001,26.17791748],[114.70288085900002,26.171508789],[114.64929199200002,26.205871582],[114.59649658200001,26.224304199],[114.56011962900001,26.241088867],[114.52270507800002,26.231079102],[114.49731445300002,26.195922852],[114.47808837900001,26.171508789],[114.44610595700001,26.178710937],[114.413879395,26.161315918],[114.40447998000002,26.131896973],[114.378723145,26.109130859],[114.34051513700001,26.103088379],[114.30328369100002,26.086303711],[114.27667236300002,26.068908691],[114.25152587900001,26.038330078],[114.21771240200002,26.028503418],[114.17572021500001,26.034301758],[114.14007568400001,26.026306152],[114.10168457000002,26.009887695],[114.07147216800001,25.997680664],[114.01110839800002,25.989074707],[114.01629638700001,25.968322754],[114.00390625000001,25.928100586],[113.99768066400001,25.921875],[113.98431396500001,25.908081055],[113.97167968700002,25.889526367],[113.96508789100001,25.846679687],[113.94567871100001,25.802124023],[113.93029785200001,25.789672852],[113.89752197300001,25.763122559],[113.88110351600001,25.720275879],[113.87591552700002,25.682678223],[113.90148925800001,25.645080566],[113.92669677700002,25.622924805],[113.93792724600002,25.596496582],[113.945129395,25.573730469],[113.94812011700002,25.547485352],[113.93951416000002,25.496520996],[113.93170166000002,25.469726562],[113.97271728500002,25.43951416],[113.97448730500001,25.438903809],[113.99011230500001,25.430297852],[114.01788330100001,25.404296875],[114.02728271500001,25.384277344],[114.02667236300002,25.369873047],[114.02929687500001,25.327514648],[114.01190185500002,25.31451416],[114.01452636700002,25.289672852],[114.01568603500002,25.277526855],[114.04748535200001,25.276489258],[114.07171630900001,25.290283203],[114.09692382800002,25.298522949],[114.10412597700001,25.307312012],[114.12329101600001,25.313903809],[114.15771484400001,25.307495117],[114.19232177700002,25.301086426],[114.22027587900001,25.305480957],[114.26489257800002,25.300476074],[114.28070068400001,25.325317383],[114.33007812500001,25.319274902],[114.35809326200001,25.325500488],[114.39031982400002,25.335327148],[114.40887451200001,25.354492187],[114.42852783200001,25.372680664],[114.44787597700001,25.384887695],[114.46929931600002,25.399475098],[114.49432373000002,25.403930664],[114.52331543000001,25.406677246],[114.53710937500001,25.403076172],[114.55090332000002,25.399291992],[114.58068847700001,25.37487793],[114.60388183600001,25.358886719],[114.61987304700001,25.333129883],[114.63708496100001,25.319885254],[114.64947509800001,25.331115723],[114.67529296900001,25.327514648],[114.69311523400002,25.304504395],[114.70269775400001,25.294128418],[114.71173095700001,25.272277832],[114.69787597700001,25.248474121],[114.66888427700002,25.219726562],[114.66772460900002,25.193725586],[114.68768310500002,25.172302246],[114.703125,25.160888672],[114.70831298800002,25.144470215],[114.70410156200002,25.135681152],[114.70288085900002,25.133117676],[114.69750976600001,25.119689941],[114.67108154300001,25.104309082],[114.63647460900002,25.081298828],[114.59448242200001,25.075500488],[114.562316895,25.085510254],[114.546875,25.075317383],[114.52148437500001,25.059082031],[114.49688720700001,25.03729248],[114.47509765600002,25.011901855],[114.45788574200002,24.99987793],[114.43988037100002,24.972473145],[114.39288330100001,24.958679199],[114.38531494100002,24.942871094],[114.37670898400002,24.924926758],[114.38592529300001,24.904907227],[114.39288330100001,24.878479004],[114.38989257800002,24.853271484],[114.36608886700002,24.828674316],[114.33728027300002,24.792724609],[114.32312011700002,24.76171875],[114.30572509800001,24.745117187],[114.27032470700001,24.721923828],[114.24432373000002,24.711914062],[114.21270752,24.709289551],[114.18548584000001,24.691101074],[114.16308593700002,24.673706055],[114.15667724600002,24.66229248],[114.15930175800001,24.649475098],[114.17889404300001,24.645324707],[114.18408203100002,24.643676758],[114.21490478500002,24.635070801],[114.23632812500001,24.624511719],[114.25427246100001,24.603271484],[114.26947021500001,24.587524414],[114.30090332000002,24.586486816],[114.31311035200001,24.582275391],[114.34191894500002,24.572509766],[114.35888671900001,24.552124023],[114.36132812500001,24.546081543],[114.36608886700002,24.535705566],[114.38391113300001,24.510681152],[114.39227294900002,24.501281738],[114.41510009800001,24.501525879],[114.44470214800002,24.50592041],[114.46228027300002,24.527099609],[114.48992919900002,24.529724121],[114.50988769500002,24.538085937],[114.53527832000002,24.52911377],[114.55487060500002,24.530273437],[114.57208252,24.538696289],[114.58410644500002,24.544494629],[114.59228515600002,24.551513672],[114.60247802700002,24.561096191],[114.62829589800002,24.562927246],[114.64367675800001,24.555114746],[114.65991210900002,24.54107666],[114.67572021500001,24.544128418],[114.687316895,24.546081543],[114.69671630900001,24.547912598],[114.70587158200001,24.560119629],[114.72271728500002,24.581298828],[114.74511718700002,24.601074219],[114.78027343700002,24.593688965],[114.79791259800001,24.586120605],[114.80828857400002,24.581726074],[114.82250976600001,24.564880371],[114.83673095700001,24.55267334],[114.86108398400002,24.568908691],[114.86871337900001,24.584899902],[114.87451171900001,24.607299805],[114.87890625000001,24.617919922],[114.89111328100002,24.626525879],[114.88970947300001,24.638305664],[114.89807128900001,24.649719238],[114.92608642600001,24.659484863],[114.96173095700001,24.660095215],[114.98730468700002,24.659912109],[115.00830078100002,24.666320801],[115.01672363300001,24.678710937],[115.02111816400001,24.688476562],[115.03790283200001,24.688720703],[115.06427002,24.683105469],[115.08428955100001,24.665283203],[115.11230468700002,24.672302246],[115.12329101600001,24.678100586],[115.15490722700001,24.67590332],[115.16650390600002,24.693481445],[115.17431640600002,24.710327148],[115.17633056600002,24.710693359],[115.20507812500001,24.714477539],[115.22692871100001,24.720092773],[115.24609375000001,24.727294922],[115.26708984400001,24.732910156],[115.27429199200002,24.739685059],[115.296691895,24.750488281],[115.31591796900001,24.740722656],[115.34008789100001,24.749694824],[115.35729980500001,24.774475098],[115.36029052700002,24.778686523],[115.38848877,24.770324707],[115.41949462900001,24.758117676],[115.46008300800001,24.73828125],[115.46032714800002,24.725708008],[115.52447509800001,24.667907715],[115.54510498000002,24.635925293],[115.56488037100002,24.604675293],[115.65832519500002,24.57989502],[115.74011230500001,24.543701172],[115.74389648400002,24.553894043],[115.76647949200002,24.614685059],[115.75427246100001,24.682128906],[115.72351074200002,24.751281738],[115.75451660200001,24.832885742],[115.79528808600001,24.895874023],[115.85809326200001,24.865112305],[115.86968994100002,24.885498047],[115.85229492200001,24.924072266],[115.88348388700001,24.953308105],[115.86889648400002,24.993713379],[115.86187744100002,25.009277344],[115.86047363300001,25.040893555],[115.91430664100001,25.062683105],[115.89208984400001,25.089904785],[115.85687255900001,25.100708008],[115.84613037100002,25.121887207],[115.83032226600001,25.159484863],[115.82550048800002,25.181274414],[115.82391357400002,25.188720703],[115.88647460900002,25.241699219],[115.91430664100001,25.261108398],[115.96887207000002,25.313476562],[115.97589111300002,25.349304199],[115.99688720700001,25.388916016],[115.98309326200001,25.444274902],[115.99670410200001,25.474914551],[116.00250244100002,25.487670898],[116.02209472700001,25.518310547],[116.03710937500001,25.553527832],[116.03790283200001,25.57989502],[116.03833007800002,25.592285156],[116.02227783200001,25.625305176],[116.02508544900002,25.642272949],[116.03869628900001,25.667907715],[116.05133056600002,25.697875977],[116.05950927700002,25.719909668],[116.11071777300002,25.759887695],[116.15209960900002,25.766906738],[116.15948486300002,25.789916992],[116.15252685500002,25.808288574],[116.13153076200001,25.823486328],[116.11029052700002,25.837280273],[116.09887695300002,25.848510742],[116.12249755900001,25.893310547],[116.18109130900001,25.921081543],[116.22650146500001,25.924316406],[116.26568603500002,25.926879883],[116.28808593700002,25.932922363],[116.30151367200001,25.958312988],[116.32952880900001,25.991088867],[116.34368896500001,26.028320312],[116.35632324200002,26.04107666]]]}}
