{"type":"Feature","id":"bulk-99377448B93561678455396","bbox":[111.85589599600002,39.065673828,113.53448486300002,40.297912598],"properties":{"id":"bulk-99377448B93561678455396","name":"Shuozhou","nameEn":"Shuozhou","fullName":"Shuozhou","level":"city","boundaryRole":"administrative-extent","boundaryQuality":"generalized-source-2020","boundaryYearRepresented":"2020","bounds":[[111.85589599600002,39.065673828],[113.53448486300002,40.297912598]],"center":[112.69519042950002,39.681793213000006],"centerMethod":"bounding-box midpoint; camera framing only","license":"CC-BY-3.0-IGO","attribution":"geoBoundaries / HDX, China administrative boundaries (2020)","source":{"provider":"geoBoundaries gbHumanitarian / HDX","url":"https://github.com/wmgeolab/geoBoundaries/raw/9469f09/releaseData/gbHumanitarian/CHN/ADM2/geoBoundaries-CHN-ADM2.geojson","metadataUrl":"https://www.geoboundaries.org/api/current/gbHumanitarian/CHN/ADM2/","shapeID":"99377448B93561678455396","shapeName":"Shuozhou","boundaryID":"CHN-ADM2-99377448","commit":"9469f09"},"geometryCounts":{"coordinates":109,"components":1,"holes":0},"boundaryNotice":"geoBoundaries / HDX 2020 年行政区数据，海岸和边界经过源数据概化，并非当前测绘成果。"},"geometry":{"type":"Polygon","coordinates":[[[112.59631347700001,40.23828125],[112.58428955100001,40.250671387],[112.55352783200001,40.264282227],[112.48107910200001,40.284729004],[112.41088867200001,40.297912598],[112.36627197300001,40.285888672],[112.30487060500002,40.256713867],[112.28790283200001,40.245910645],[112.21911621100001,40.207275391],[112.14727783200001,40.153076172],[112.07427978500002,40.056091309],[112.04388427700002,40.001281738],[112.02709960900002,39.968322754],[111.98291015600002,39.873291016],[111.95172119100002,39.787902832],[111.929504395,39.717712402],[111.91149902300002,39.656494141],[111.88232421900001,39.63848877],[111.86572265600002,39.635681152],[111.93652343700002,39.554504395],[111.95611572300001,39.52331543],[111.92230224600002,39.504089355],[111.88391113300001,39.506530762],[111.85589599600002,39.486877441],[111.87792968700002,39.45489502],[111.92028808600001,39.438110352],[111.96472168000001,39.417480469],[111.98907470700001,39.38848877],[112.00329589800002,39.364074707],[112.00628662100002,39.331726074],[112.01867675800001,39.296508789],[112.04772949200002,39.264099121],[112.09112548800002,39.259094238],[112.12927246100001,39.256103516],[112.16809082000002,39.21307373],[112.19049072300001,39.182495117],[112.20770263700001,39.146911621],[112.23492431600002,39.120483398],[112.26611328100002,39.104919434],[112.31311035200001,39.104309082],[112.35668945300002,39.102478027],[112.41088867200001,39.109130859],[112.46368408200001,39.112304687],[112.50769043000001,39.111877441],[112.55352783200001,39.103271484],[112.60388183600001,39.065673828],[112.66247558600001,39.105712891],[112.69647216800001,39.14831543],[112.73950195300002,39.163696289],[112.80267334000001,39.183288574],[112.84869384800001,39.203491211],[112.87567138700001,39.236694336],[112.89172363300001,39.264892578],[112.92767334000001,39.292480469],[112.96990966800001,39.299316406],[113.01550293000001,39.31628418],[113.10229492200001,39.302490234],[113.15069580100001,39.292724609],[113.20452880900001,39.292724609],[113.25872802700002,39.309875488],[113.320129395,39.30670166],[113.37847900400001,39.306518555],[113.42028808600001,39.325073242],[113.45092773400002,39.342285156],[113.49011230500001,39.379272461],[113.50988769500002,39.411315918],[113.53448486300002,39.435302734],[113.49188232400002,39.47467041],[113.46191406200002,39.520324707],[113.44567871100001,39.56427002],[113.39550781200002,39.587097168],[113.38049316400001,39.611328125],[113.36987304700001,39.647277832],[113.37567138700001,39.675476074],[113.40887451200001,39.722473145],[113.35247802700002,39.748291016],[113.32867431600002,39.778930664],[113.33929443400001,39.811279297],[113.36712646500001,39.83807373],[113.36090087900001,39.876098633],[113.33227539100001,39.910705566],[113.28051757800002,39.924072266],[113.22290039100001,39.931091309],[113.18469238300001,39.921508789],[113.14031982400002,39.905273437],[113.08569335900002,39.887329102],[113.04010009800001,39.890930176],[112.98413085900002,39.894470215],[112.93450927700002,39.885925293],[112.92431640600002,39.856079102],[112.89611816400001,39.839477539],[112.86108398400002,39.823730469],[112.84271240200002,39.796081543],[112.78808593700002,39.784912109],[112.76629638700001,39.739318848],[112.69750976600001,39.730712891],[112.64630127,39.724304199],[112.60748291000002,39.737487793],[112.58770752,39.760925293],[112.57971191400001,39.799682617],[112.58007812500001,39.835083008],[112.57470703100002,39.862121582],[112.58148193400001,39.907714844],[112.59271240200002,39.950683594],[112.59710693400001,39.981689453],[112.60412597700001,40.010314941],[112.60632324200002,40.044677734],[112.59088134800001,40.08392334],[112.59631347700001,40.23828125]]]}}
