{"type":"Feature","id":"bulk-99377448B34205535815628","bbox":[89.77691650400001,29.243103027,92.59332275400001,31.044494629],"properties":{"id":"bulk-99377448B34205535815628","name":"Lhasa","nameEn":"Lhasa","fullName":"Lhasa","level":"city","boundaryRole":"administrative-extent","boundaryQuality":"generalized-source-2020","boundaryYearRepresented":"2020","bounds":[[89.77691650400001,29.243103027],[92.59332275400001,31.044494629]],"center":[91.18511962900001,30.143798828],"centerMethod":"bounding-box midpoint; camera framing only","license":"CC-BY-3.0-IGO","attribution":"geoBoundaries / HDX, China administrative boundaries (2020)","source":{"provider":"geoBoundaries gbHumanitarian / HDX","url":"https://github.com/wmgeolab/geoBoundaries/raw/9469f09/releaseData/gbHumanitarian/CHN/ADM2/geoBoundaries-CHN-ADM2.geojson","metadataUrl":"https://www.geoboundaries.org/api/current/gbHumanitarian/CHN/ADM2/","shapeID":"99377448B34205535815628","shapeName":"Lhasa","boundaryID":"CHN-ADM2-99377448","commit":"9469f09"},"geometryCounts":{"coordinates":294,"components":1,"holes":0},"boundaryNotice":"geoBoundaries / HDX 2020 年行政区数据，海岸和边界经过源数据概化，并非当前测绘成果。"},"geometry":{"type":"Polygon","coordinates":[[[92.37548828100002,29.789306641],[92.35668945300002,29.795898437],[92.32470703100002,29.808105469],[92.27728271500001,29.824523926],[92.24212646500001,29.837524414],[92.19671630900001,29.86529541],[92.17810058600001,29.887695312],[92.18450927700002,29.915527344],[92.22229003900001,29.926879883],[92.254882812,29.946472168],[92.27911377,29.968322754],[92.302490234,29.991516113],[92.34112548800002,30.016113281],[92.37451171900001,29.994689941],[92.41729736300002,29.998718262],[92.44830322300001,30.017700195],[92.46392822300001,30.044494629],[92.461914062,30.076293945],[92.49908447300001,30.096923828],[92.53088378900001,30.100524902],[92.55090332000002,30.122314453],[92.57409668000001,30.187683105],[92.59332275400001,30.218688965],[92.55792236300002,30.239685059],[92.52130127,30.240722656],[92.48907470700001,30.249694824],[92.45831298800002,30.260925293],[92.42211914100001,30.261474609],[92.38110351600001,30.25592041],[92.34191894500002,30.25189209],[92.302490234,30.277526855],[92.27990722700001,30.300476074],[92.25109863300001,30.312072754],[92.22052002,30.296081543],[92.21667480500001,30.255126953],[92.20568847700001,30.221679687],[92.177124023,30.208129883],[92.13427734400001,30.217529297],[92.07452392600001,30.215698242],[92.043518066,30.197692871],[92.00207519500002,30.186279297],[91.97290039100001,30.204711914],[91.945129395,30.25970459],[91.90008544900002,30.286315918],[91.86871337900001,30.301086426],[91.86791992200001,30.340698242],[91.86608886700002,30.375305176],[91.85687255900001,30.403930664],[91.82373046900001,30.425720215],[91.82147216800001,30.460327148],[91.83190918000001,30.491699219],[91.86407470700001,30.510498047],[91.861877441,30.545471191],[91.83551025400001,30.580871582],[91.81469726600001,30.60168457],[91.788085937,30.624694824],[91.770874023,30.652709961],[91.74267578100002,30.676330566],[91.703125,30.673095703],[91.66467285200001,30.660095215],[91.62768554700001,30.647705078],[91.58007812500001,30.641906738],[91.545898437,30.638305664],[91.51391601600001,30.664672852],[91.49188232400002,30.692077637],[91.45391845700001,30.708496094],[91.44329834000001,30.735107422],[91.45507812500001,30.768127441],[91.44250488300001,30.802490234],[91.410705566,30.826477051],[91.39050293000001,30.852478027],[91.385314941,30.881103516],[91.38067627,30.915893555],[91.37548828100002,30.944519043],[91.370117187,30.974121094],[91.36352539100001,31.00769043],[91.31292724600002,31.028076172],[91.26788330100001,31.01550293],[91.24450683600001,31.040527344],[91.20471191400001,31.044494629],[91.16552734400001,31.030700684],[91.14648437500001,31.000915527],[91.163085937,30.971313477],[91.11468505900001,30.953308105],[91.04711914100001,30.953308105],[90.994689941,30.953125],[90.94830322300001,30.961303711],[90.917724609,30.974304199],[90.887695312,30.986328125],[90.85949707000002,31.001281738],[90.820129395,31.007873535],[90.78869628900001,30.988098145],[90.74670410200001,30.967529297],[90.73071289100001,30.919677734],[90.71868896500001,30.867492676],[90.71368408200001,30.82208252],[90.71752929700001,30.780273437],[90.71307373,30.747070312],[90.70550537100002,30.720092773],[90.69769287100002,30.693481445],[90.68011474600002,30.658691406],[90.66247558600001,30.627929687],[90.63848877,30.602111816],[90.61749267600001,30.582092285],[90.61950683600001,30.54510498],[90.64208984400001,30.513122559],[90.66510009800001,30.481689453],[90.655273437,30.444519043],[90.60791015600002,30.42010498],[90.561889648,30.402099609],[90.51391601600001,30.383728027],[90.48071289100001,30.369506836],[90.44927978500002,30.354309082],[90.421691895,30.334899902],[90.39752197300001,30.3125],[90.36669921900001,30.293518066],[90.335327148,30.286682129],[90.294311523,30.277893066],[90.25427246100001,30.254272461],[90.22570800800001,30.232910156],[90.20349121100001,30.207519531],[90.187683105,30.173706055],[90.17810058600001,30.140686035],[90.17309570300002,30.102722168],[90.160705566,30.063720703],[90.14331054700001,30.032897949],[90.128295898,30.001525879],[90.11132812500001,29.973510742],[90.08410644500002,29.956298828],[90.046875,29.921875],[90.01647949200002,29.892089844],[89.95727539100001,29.864929199],[89.92132568400001,29.876281738],[89.88909912100002,29.887329102],[89.83831787100002,29.863098145],[89.80352783200001,29.844299316],[89.77691650400001,29.815917969],[89.795898437,29.774475098],[89.79992675800001,29.737670898],[89.82849121100001,29.702514648],[89.85552978500002,29.687072754],[89.88751220700001,29.662902832],[89.91229248,29.641479492],[89.91748046900001,29.604492187],[89.89929199200002,29.581298828],[89.885314941,29.543884277],[89.878723145,29.510681152],[89.85827636700002,29.48828125],[89.78948974600002,29.46307373],[89.82849121100001,29.445495605],[89.86132812500001,29.424316406],[89.89489746100001,29.40447998],[89.920471191,29.387512207],[89.94567871100001,29.370910645],[89.98211669900002,29.337097168],[90.011901855,29.332519531],[90.05828857400002,29.32989502],[90.15167236300002,29.356689453],[90.19812011700002,29.354125977],[90.31652832000002,29.328308105],[90.35009765600002,29.326904297],[90.36828613300001,29.319274902],[90.38427734400001,29.304321289],[90.37268066400001,29.291870117],[90.41271972700001,29.257080078],[90.437683105,29.243103027],[90.502502441,29.24432373],[90.57989502,29.266479492],[90.65350341800001,29.284912109],[90.669677734,29.306274414],[90.70129394500002,29.349121094],[90.72332763700001,29.35168457],[90.76007080100001,29.336914062],[90.84527587900001,29.335876465],[90.902099609,29.347473145],[90.98889160200001,29.384277344],[91.06207275400001,29.422729492],[91.05712890600002,29.436096191],[91.061523437,29.442077637],[91.07611084000001,29.44128418],[91.094299316,29.445922852],[91.10052490200002,29.463684082],[91.111083984,29.465087891],[91.14892578100002,29.476501465],[91.15850830100001,29.490112305],[91.18487548800002,29.517089844],[91.20391845700001,29.521728516],[91.22308349600002,29.526489258],[91.24530029300001,29.52911377],[91.27648925800001,29.525878906],[91.28448486300002,29.526672363],[91.31671142600001,29.522888184],[91.32312011700002,29.516723633],[91.33190918000001,29.513122559],[91.35650634800001,29.501281738],[91.37170410200001,29.49609375],[91.39849853500002,29.486877441],[91.40930175800001,29.492675781],[91.43072509800001,29.516906738],[91.45471191400001,29.525085449],[91.470092773,29.536315918],[91.49108886700002,29.545715332],[91.50628662100002,29.55291748],[91.52807617200001,29.557678223],[91.53912353500002,29.573730469],[91.55908203100002,29.573730469],[91.57708740200002,29.568115234],[91.60467529300001,29.571289062],[91.628295898,29.581726074],[91.635314941,29.577087402],[91.63848877,29.558288574],[91.62408447300001,29.539672852],[91.64849853500002,29.528503418],[91.66992187500001,29.535522461],[91.67730712900001,29.54107666],[91.68908691400001,29.534484863],[91.68908691400001,29.52130127],[91.72607421900001,29.527282715],[91.72772216800001,29.543518066],[91.73449707000002,29.547912598],[91.74249267600001,29.546875],[91.75988769500002,29.544128418],[91.76690673800002,29.546508789],[91.78112793000001,29.553283691],[91.78607177700002,29.560119629],[91.79229736300002,29.556091309],[91.80810546900001,29.55267334],[91.80950927700002,29.567504883],[91.821289062,29.577087402],[91.83972168000001,29.580871582],[91.87811279300001,29.580505371],[91.89050293000001,29.575073242],[91.90228271500001,29.5703125],[91.91271972700001,29.56628418],[91.919311523,29.577087402],[91.92492675800001,29.579711914],[91.93292236300002,29.580505371],[91.937683105,29.577270508],[91.95428466800001,29.57611084],[91.95928955100001,29.574707031],[91.97308349600002,29.573486328],[91.97607421900001,29.575683594],[91.98388671900001,29.577514648],[91.98968505900001,29.571289062],[91.99572753900001,29.561096191],[92.004882812,29.553283691],[92.01208496100001,29.55291748],[92.02569580100001,29.553527832],[92.043518066,29.549926758],[92.05090332000002,29.539672852],[92.05792236300002,29.533508301],[92.0625,29.532104492],[92.08068847700001,29.54107666],[92.094299316,29.558288574],[92.10308837900001,29.567321777],[92.11291503900001,29.571105957],[92.12390136700002,29.574523926],[92.14569091800001,29.577087402],[92.16168212900001,29.567687988],[92.178283691,29.565917969],[92.18908691400001,29.562927246],[92.19329834000001,29.55871582],[92.22369384800001,29.556091309],[92.23992919900002,29.555908203],[92.24908447300001,29.563476562],[92.25750732400002,29.576477051],[92.259521484,29.577697754],[92.26312255900001,29.578125],[92.27331543000001,29.571289062],[92.28509521500001,29.569702148],[92.288879395,29.572875977],[92.29132080100001,29.582092285],[92.29107666000002,29.590881348],[92.29412841800001,29.592285156],[92.301330566,29.591125488],[92.310302734,29.585083008],[92.31848144500002,29.577087402],[92.33032226600001,29.575683594],[92.33447265600002,29.57611084],[92.34991455100001,29.582519531],[92.35687255900001,29.589294434],[92.37188720700001,29.619689941],[92.384521484,29.644714355],[92.38311767600001,29.653320312],[92.37628173800002,29.659484863],[92.37548828100002,29.664123535],[92.37847900400001,29.69128418],[92.38049316400001,29.701293945],[92.37768554700001,29.727478027],[92.36651611300002,29.74987793],[92.36370849600002,29.758728027],[92.36169433600001,29.771911621],[92.370483398,29.783874512],[92.37548828100002,29.789306641]]]}}
