{"type":"Feature","id":"bulk-99377448B83008825870071","bbox":[119.52612304700001,36.584716797,121.88970947300001,37.823486328],"properties":{"id":"bulk-99377448B83008825870071","name":"Yantai","nameEn":"Yantai","fullName":"Yantai","level":"city","boundaryRole":"administrative-extent","boundaryQuality":"generalized-source-2020","boundaryYearRepresented":"2020","bounds":[[119.52612304700001,36.584716797],[121.88970947300001,37.823486328]],"center":[120.70791626000002,37.2041015625],"centerMethod":"bounding-box midpoint; camera framing only","license":"CC-BY-3.0-IGO","attribution":"geoBoundaries / HDX, China administrative boundaries (2020)","source":{"provider":"geoBoundaries gbHumanitarian / HDX","url":"https://github.com/wmgeolab/geoBoundaries/raw/9469f09/releaseData/gbHumanitarian/CHN/ADM2/geoBoundaries-CHN-ADM2.geojson","metadataUrl":"https://www.geoboundaries.org/api/current/gbHumanitarian/CHN/ADM2/","shapeID":"99377448B83008825870071","shapeName":"Yantai","boundaryID":"CHN-ADM2-99377448","commit":"9469f09"},"geometryCounts":{"coordinates":485,"components":5,"holes":0},"boundaryNotice":"geoBoundaries / HDX 2020 年行政区数据，海岸和边界经过源数据概化，并非当前测绘成果。"},"geometry":{"type":"MultiPolygon","coordinates":[[[[121.02410888700001,36.589294434],[121.04089355500001,36.60369873],[121.04132080100001,36.604309082],[121.04107666000002,36.608886719],[121.03790283200001,36.61328125],[121.03350830100001,36.625671387],[121.02667236300002,36.626281738],[121.01629638700001,36.632507324],[121.01568603500002,36.632507324],[121.02227783200001,36.589294434],[121.02410888700001,36.589294434]]],[[[120.88952636700002,36.63470459],[120.89251709000001,36.641113281],[120.88732910200001,36.643920898],[120.88488769500002,36.638122559],[120.88470459000001,36.636901855],[120.88952636700002,36.63470459]]],[[[121.14752197300001,36.66809082],[121.16528320300002,36.677490234],[121.15948486300002,36.6796875],[121.15350341800001,36.676879883],[121.14550781200002,36.67791748],[121.14752197300001,36.66809082]]],[[[121.57672119100002,37.440673828],[121.58007812500001,37.44128418],[121.60827636700002,37.465881348],[121.60369873000002,37.463928223],[121.59729003900001,37.456481934],[121.59069824200002,37.455505371],[121.57690429700001,37.444702148],[121.57672119100002,37.440673828]]],[[[120.74932861300002,36.595703125],[120.74890136700002,36.601074219],[120.75592041000002,36.610473633],[120.77807617200001,36.619873047],[120.77288818400001,36.621887207],[120.78430175800001,36.626281738],[120.78729248000002,36.623718262],[120.80572509800001,36.635498047],[120.82788085900002,36.644470215],[120.82928466800001,36.644287109],[120.84051513700001,36.644104004],[120.84210205100001,36.645690918],[120.84570312500001,36.647277832],[120.84851074200002,36.654296875],[120.86352539100001,36.656677246],[120.87207031200002,36.659729004],[120.878723145,36.666320801],[120.88153076200001,36.664306641],[120.87768554700001,36.658325195],[120.87628173800002,36.656311035],[120.87829589800002,36.656311035],[120.88012695300002,36.656311035],[120.88488769500002,36.659118652],[120.88787841800001,36.654724121],[120.89410400400001,36.653320312],[120.89331054700001,36.641296387],[120.89447021500001,36.639526367],[120.89849853500002,36.640075684],[120.90588378900001,36.640075684],[120.90728759800001,36.646911621],[120.91070556600002,36.648681641],[120.91607666000002,36.648681641],[120.921875,36.643920898],[120.93048095700001,36.643920898],[120.93267822300001,36.633483887],[120.93688964800002,36.633300781],[120.94067382800002,36.645690918],[120.94470214800002,36.645874023],[120.94671630900001,36.627319336],[120.94427490200002,36.623901367],[120.94470214800002,36.618713379],[120.93872070300002,36.607116699],[120.93707275400001,36.603881836],[120.93487548800002,36.603088379],[120.93029785200001,36.604675293],[120.93048095700001,36.600280762],[120.92828369100002,36.597290039],[120.92907714800002,36.594299316],[120.95629882800002,36.584716797],[120.96148681600002,36.585876465],[120.97088623000002,36.596923828],[120.97711181600002,36.600097656],[120.98828125000001,36.602111816],[120.99530029300001,36.599487305],[120.995910645,36.599487305],[120.99328613300001,36.60369873],[120.98187255900001,36.622680664],[120.99890136700002,36.635681152],[121.01452636700002,36.639892578],[121.01470947300001,36.63848877],[121.01550293000001,36.639709473],[121.02551269500002,36.63848877],[121.03710937500001,36.640686035],[121.04467773400002,36.639282227],[121.04547119100002,36.640686035],[121.03570556600002,36.651306152],[121.03692627,36.655700684],[121.04888916000002,36.64630127],[121.05090332000002,36.644287109],[121.06030273400002,36.645080566],[121.07452392600001,36.650695801],[121.07830810500002,36.650512695],[121.08148193400001,36.648498535],[121.07391357400002,36.644470215],[121.07031250000001,36.640686035],[121.05987548800002,36.637695312],[121.05548095700001,36.633911133],[121.05511474600002,36.62689209],[121.05828857400002,36.619873047],[121.05810546900001,36.618530273],[121.06072998000002,36.620727539],[121.07092285200001,36.627075195],[121.08630371100001,36.637512207],[121.10888671900001,36.642272949],[121.11688232400002,36.646728516],[121.11248779300001,36.667907715],[121.13970947300001,36.679321289],[121.13952636700002,36.680114746],[121.14672851600001,36.68572998],[121.16809082000002,36.687072754],[121.17431640600002,36.6875],[121.17907714800002,36.69128418],[121.18347168000001,36.70489502],[121.18487548800002,36.705078125],[121.187316895,36.701721191],[121.18927002,36.701904297],[121.19110107400002,36.700073242],[121.18292236300002,36.688110352],[121.18487548800002,36.684692383],[121.20812988300001,36.692687988],[121.22113037100002,36.694702148],[121.22271728500002,36.694702148],[121.23071289100001,36.694274902],[121.24090576200001,36.691711426],[121.25488281200002,36.697692871],[121.26751709000001,36.706726074],[121.27728271500001,36.709289551],[121.28527832000002,36.713928223],[121.29370117200001,36.714111328],[121.30230712900001,36.716674805],[121.30847168000001,36.714477539],[121.31591796900001,36.71472168],[121.33148193400001,36.720275879],[121.35168457000002,36.721130371],[121.35589599600002,36.723876953],[121.35229492200001,36.729492187],[121.35308837900001,36.731506348],[121.35388183600001,36.732727051],[121.35913085900002,36.732299805],[121.36090087900001,36.728515625],[121.36108398400002,36.725708008],[121.37268066400001,36.729309082],[121.37188720700001,36.730712891],[121.37432861300002,36.737487793],[121.38769531200002,36.750915527],[121.40429687500001,36.760498047],[121.40869140600002,36.761291504],[121.42449951200001,36.756103516],[121.43109130900001,36.758300781],[121.43487548800002,36.758117676],[121.43487548800002,36.758728027],[121.43347168000001,36.766906738],[121.37249755900001,36.789306641],[121.34667968700002,36.812683105],[121.34588623000002,36.844909668],[121.34027099600002,36.878723145],[121.32110595700001,36.906921387],[121.28588867200001,36.906677246],[121.23632812500001,36.913085937],[121.21667480500001,36.943115234],[121.20269775400001,36.971130371],[121.17529296900001,36.987670898],[121.15789794900002,37.013671875],[121.14410400400001,37.078308105],[121.22192382800002,37.071105957],[121.25109863300001,37.09588623],[121.26971435500002,37.119873047],[121.31829834000001,37.110473633],[121.35772705100001,37.088500977],[121.39270019500002,37.07989502],[121.45507812500001,37.080688477],[121.49328613300001,37.085876465],[121.54467773400002,37.101501465],[121.57427978500002,37.121704102],[121.62469482400002,37.118286133],[121.65887451200001,37.105285645],[121.71868896500001,37.11529541],[121.72088623000002,37.143676758],[121.72949218700002,37.179077148],[121.73352050800001,37.208312988],[121.75170898400002,37.24609375],[121.77630615200002,37.269714355],[121.80932617200001,37.294921875],[121.83349609400001,37.315490723],[121.85809326200001,37.338928223],[121.88470459000001,37.370727539],[121.88928222700001,37.402893066],[121.88970947300001,37.448730469],[121.87969970700001,37.448303223],[121.83129882800002,37.446289062],[121.79888916000002,37.441894531],[121.76391601600001,37.444091797],[121.75451660200001,37.443481445],[121.75268554700001,37.44128418],[121.75488281200002,37.438293457],[121.76031494100002,37.436523437],[121.76330566400001,37.429870605],[121.77172851600001,37.428710937],[121.77270507800002,37.425109863],[121.77111816400001,37.417724609],[121.76971435500002,37.415893555],[121.76593017600001,37.41607666],[121.75689697300001,37.420898437],[121.75549316400001,37.425476074],[121.75067138700001,37.426879883],[121.74810791000002,37.432312012],[121.74249267600001,37.43572998],[121.73889160200001,37.442321777],[121.72949218700002,37.441711426],[121.73309326200001,37.410705566],[121.70330810500002,37.424072266],[121.68548584000001,37.438293457],[121.68487548800002,37.438476562],[121.67767334000001,37.436523437],[121.66827392600001,37.430908203],[121.65850830100001,37.4296875],[121.64910888700001,37.436706543],[121.64392089800002,37.438293457],[121.64251709000001,37.437316895],[121.65588378900001,37.421875],[121.60351562500001,37.424682617],[121.57330322300001,37.426696777],[121.57250976600001,37.424499512],[121.57373046900001,37.419921875],[121.57092285200001,37.41809082],[121.56152343700002,37.42767334],[121.55487060500002,37.427307129],[121.54589843700002,37.431518555],[121.54449462900001,37.431274414],[121.54290771500001,37.419921875],[121.51770019500002,37.42388916],[121.50207519500002,37.437927246],[121.47113037100002,37.44128418],[121.43011474600002,37.461303711],[121.42449951200001,37.495300293],[121.42309570300002,37.509887695],[121.41229248000002,37.517089844],[121.39349365200002,37.525085449],[121.37591552700002,37.533691406],[121.36212158200001,37.544677734],[121.34210205100001,37.560913086],[121.34509277300002,37.573303223],[121.363098145,37.575317383],[121.36291503900001,37.576721191],[121.36590576200001,37.585327148],[121.37469482400002,37.592102051],[121.38012695300002,37.592285156],[121.38232421900001,37.594299316],[121.36572265600002,37.600280762],[121.36572265600002,37.598876953],[121.363098145,37.590698242],[121.35687255900001,37.585510254],[121.34448242200001,37.583312988],[121.33227539100001,37.576477051],[121.320129395,37.574523926],[121.31427002,37.573486328],[121.30828857400002,37.571105957],[121.29870605500001,37.565490723],[121.29852294900002,37.562927246],[121.29107666000002,37.555480957],[121.29052734400001,37.545715332],[121.28570556600002,37.53692627],[121.27612304700001,37.527099609],[121.27447509800001,37.529907227],[121.28228759800001,37.540100098],[121.28472900400001,37.551879883],[121.29071044900002,37.560913086],[121.28387451200001,37.556884766],[121.26672363300001,37.544677734],[121.25830078100002,37.526489258],[121.25250244100002,37.559509277],[121.23071289100001,37.564086914],[121.19927978500002,37.557678223],[121.14727783200001,37.572875977],[121.12231445300002,37.597473145],[121.11907959000001,37.600524902],[121.10791015600002,37.611328125],[121.11389160200001,37.62890625],[121.11791992200001,37.641113281],[121.09631347700001,37.655700684],[121.11688232400002,37.693725586],[121.09368896500001,37.703674316],[121.07489013700001,37.705688477],[121.06188964800002,37.701904297],[121.04327392600001,37.705505371],[121.00109863300001,37.699523926],[120.99407959000001,37.726318359],[120.92852783200001,37.755126953],[120.90850830100001,37.77130127],[120.90991210900002,37.807312012],[120.87030029300001,37.812316895],[120.85430908200001,37.823486328],[120.85131835900002,37.820129395],[120.84411621100001,37.814697266],[120.83673095700001,37.810302734],[120.83087158200001,37.809326172],[120.80511474600002,37.811279297],[120.80487060500002,37.811279297],[120.79327392600001,37.810302734],[120.76867675800001,37.81048584],[120.74407959000001,37.820678711],[120.73150634800001,37.822875977],[120.71728515600002,37.819519043],[120.69268798800002,37.805114746],[120.66009521500001,37.782714844],[120.63488769500002,37.772705078],[120.61791992200001,37.778503418],[120.60308837900001,37.767089844],[120.59350585900002,37.75970459],[120.58392334000001,37.75567627],[120.55487060500002,37.75189209],[120.55432128900001,37.751525879],[120.55267334000001,37.751525879],[120.51788330100001,37.747070312],[120.51110839800002,37.747070312],[120.50952148400002,37.746704102],[120.49267578100002,37.740112305],[120.46752929700001,37.737487793],[120.44531250000001,37.741882324],[120.44488525400001,37.741699219],[120.39971923800002,37.708129883],[120.39892578100002,37.707702637],[120.38110351600001,37.699523926],[120.35791015600002,37.691894531],[120.35632324200002,37.68927002],[120.31750488300001,37.6796875],[120.28271484400001,37.682678223],[120.26428222700001,37.68170166],[120.24688720700001,37.684326172],[120.24212646500001,37.684875488],[120.23052978500002,37.68371582],[120.230285645,37.68371582],[120.22650146500001,37.683288574],[120.22113037100002,37.682922363],[120.22589111300002,37.669494629],[120.22949218700002,37.669494629],[120.23327636700002,37.672485352],[120.24090576200001,37.670898437],[120.29589843700002,37.673522949],[120.30090332000002,37.671875],[120.32171630900001,37.659301758],[120.32110595700001,37.652893066],[120.32232666000002,37.651306152],[120.32672119100002,37.644714355],[120.31628418000001,37.628723145],[120.31591796900001,37.610473633],[120.31329345700001,37.604675293],[120.29968261700002,37.588317871],[120.288879395,37.580688477],[120.27227783200001,37.563110352],[120.25952148400002,37.555297852],[120.24768066400001,37.551086426],[120.24108886700002,37.546875],[120.23510742200001,37.534484863],[120.22052002,37.522277832],[120.18811035200001,37.498901367],[120.18511962900001,37.496887207],[120.17529296900001,37.49029541],[120.16308593700002,37.484680176],[120.15191650400001,37.476074219],[120.13989257800002,37.469909668],[120.09649658200001,37.455688477],[120.09429931600002,37.45489502],[120.09069824200002,37.450500488],[120.08807373000002,37.449279785],[120.08691406200002,37.443481445],[120.08087158200001,37.440307617],[120.06109619100002,37.436096191],[120.05487060500002,37.433898926],[120.04852294900002,37.43170166],[120.04650878900001,37.432678223],[120.01208496100001,37.422119141],[119.97491455100001,37.406677246],[119.94049072300001,37.403930664],[119.9375,37.403686523],[119.93267822300001,37.399108887],[119.93371582000002,37.391723633],[119.93487548800002,37.387878418],[119.93267822300001,37.383728027],[119.92468261700002,37.379089355],[119.91552734400001,37.37689209],[119.89910888700001,37.375671387],[119.86407470700001,37.363525391],[119.84472656200002,37.355529785],[119.84252929700001,37.353881836],[119.84088134800001,37.349304199],[119.84307861300002,37.344726562],[119.85028076200001,37.340881348],[119.85247802700002,37.33392334],[119.85571289100001,37.331726074],[119.87268066400001,37.330688477],[119.87609863300001,37.327880859],[119.87908935500002,37.32232666],[119.88287353500002,37.315307617],[119.88769531200002,37.31072998],[119.89227294900002,37.302124023],[119.89508056600002,37.301513672],[119.89508056600002,37.305725098],[119.89251709000001,37.311096191],[119.89770507800002,37.312927246],[119.90551757800002,37.296875],[119.89410400400001,37.262878418],[119.88647460900002,37.251525879],[119.88787841800001,37.245910645],[119.88067627,37.231079102],[119.87829589800002,37.231872559],[119.86651611300002,37.227111816],[119.85668945300002,37.22869873],[119.84271240200002,37.22052002],[119.84167480500001,37.217102051],[119.84069824200002,37.212890625],[119.83770752,37.208679199],[119.82708740200002,37.202514648],[119.81311035200001,37.197509766],[119.80267334000001,37.189880371],[119.77929687500001,37.17767334],[119.77691650400001,37.158874512],[119.75128173800002,37.148925781],[119.74371337900001,37.116088867],[119.70452880900001,37.109924316],[119.68029785200001,37.103515625],[119.62652587900001,37.112915039],[119.59271240200002,37.113525391],[119.58752441400001,37.112487793],[119.570129395,37.109680176],[119.54589843700002,37.103271484],[119.52612304700001,37.04309082],[119.56927490200002,36.996887207],[119.62408447300001,36.977111816],[119.67108154300001,36.967102051],[119.70611572300001,36.966491699],[119.75012207000002,36.974121094],[119.79510498000002,36.978881836],[119.84509277300002,36.97088623],[119.89392089800002,36.969909668],[119.93811035200001,36.973693848],[119.97369384800001,36.977905273],[120.01208496100001,36.982299805],[120.05987548800002,36.990478516],[120.10632324200002,36.998718262],[120.13989257800002,37.008117676],[120.18432617200001,37.017883301],[120.20910644500002,37.051086426],[120.21008300800001,37.082275391],[120.21887207000002,37.112915039],[120.25830078100002,37.114685059],[120.29351806600002,37.095092773],[120.31951904300001,37.070678711],[120.36071777300002,37.081481934],[120.40289306600002,37.094726562],[120.44287109400001,37.104919434],[120.49688720700001,37.115905762],[120.51428222700001,37.064086914],[120.53167724600002,37.037719727],[120.57891845700001,37.033691406],[120.59167480500001,37.007080078],[120.57830810500002,36.981323242],[120.54852294900002,36.961914062],[120.54827880900001,36.925109863],[120.56970214800002,36.897277832],[120.59869384800001,36.872070312],[120.59228515600002,36.843688965],[120.59368896500001,36.813720703],[120.58068847700001,36.783081055],[120.54711914100001,36.776489258],[120.52429199200002,36.752929687],[120.54089355500001,36.72052002],[120.57672119100002,36.694702148],[120.60247802700002,36.674682617],[120.62609863300001,36.648071289],[120.64410400400001,36.62109375],[120.64447021500001,36.592895508],[120.69128418000001,36.592712402],[120.74932861300002,36.595703125]]]]}}
