{"type":"Feature","id":"bulk-99377448B83260804460433","bbox":[124.49951171900001,43.257080078,127.06329345700001,45.235473633],"properties":{"id":"bulk-99377448B83260804460433","name":"Changchun","nameEn":"Changchun","fullName":"Changchun","level":"city","boundaryRole":"administrative-extent","boundaryQuality":"generalized-source-2020","boundaryYearRepresented":"2020","bounds":[[124.49951171900001,43.257080078],[127.06329345700001,45.235473633]],"center":[125.78140258800002,44.2462768555],"centerMethod":"bounding-box midpoint; camera framing only","license":"CC-BY-3.0-IGO","attribution":"geoBoundaries / HDX, China administrative boundaries (2020)","source":{"provider":"geoBoundaries gbHumanitarian / HDX","url":"https://github.com/wmgeolab/geoBoundaries/raw/9469f09/releaseData/gbHumanitarian/CHN/ADM2/geoBoundaries-CHN-ADM2.geojson","metadataUrl":"https://www.geoboundaries.org/api/current/gbHumanitarian/CHN/ADM2/","shapeID":"99377448B83260804460433","shapeName":"Changchun","boundaryID":"CHN-ADM2-99377448","commit":"9469f09"},"geometryCounts":{"coordinates":211,"components":1,"holes":0},"boundaryNotice":"geoBoundaries / HDX 2020 年行政区数据，海岸和边界经过源数据概化，并非当前测绘成果。"},"geometry":{"type":"Polygon","coordinates":[[[125.671691895,43.257080078],[125.71392822300001,43.262512207],[125.74407959000001,43.287109375],[125.78930664100001,43.296508789],[125.84112548800002,43.285888672],[125.89288330100001,43.291870117],[125.94067382800002,43.309326172],[125.97888183600001,43.329711914],[125.96069335900002,43.384277344],[125.87567138700001,43.429504395],[125.84088134800001,43.442687988],[125.81707763700001,43.465698242],[125.82531738300001,43.49609375],[125.82550048800002,43.523498535],[125.83209228500002,43.55267334],[125.85351562500001,43.586914062],[125.85168457000002,43.625915527],[125.83612060500002,43.66229248],[125.81072998000002,43.694885254],[125.78851318400001,43.722473145],[125.76867675800001,43.752075195],[125.75988769500002,43.780273437],[125.76330566400001,43.813476562],[125.79028320300002,43.859130859],[125.83569335900002,43.83770752],[125.87792968700002,43.833679199],[125.94128418000001,43.843688965],[125.98767089800002,43.874328613],[126.01428222700001,43.898498535],[126.01910400400001,43.932495117],[125.98828125000001,43.957275391],[125.97570800800001,43.991271973],[125.97448730500001,44.032470703],[125.99310302700002,44.061279297],[126.01788330100001,44.090698242],[126.05249023400002,44.119506836],[126.07830810500002,44.146118164],[126.09588623000002,44.174926758],[126.12469482400002,44.202087402],[126.16131591800001,44.188720703],[126.18872070300002,44.210327148],[126.23468017600001,44.218322754],[126.28649902300002,44.218688965],[126.33227539100001,44.21307373],[126.39508056600002,44.220092773],[126.42712402300002,44.238708496],[126.43048095700001,44.274719238],[126.437316895,44.313110352],[126.42071533200001,44.361083984],[126.44110107400002,44.407897949],[126.39190673800002,44.436706543],[126.37530517600001,44.464904785],[126.38049316400001,44.506896973],[126.37072753900001,44.544311523],[126.35107421900001,44.559692383],[126.45007324200002,44.577514648],[126.50250244100002,44.586303711],[126.54852294900002,44.588500977],[126.61132812500001,44.58807373],[126.65032959000001,44.574279785],[126.69409179700001,44.552490234],[126.74230957000002,44.544311523],[126.78112793000001,44.549682617],[126.82690429700001,44.574279785],[126.86450195300002,44.56829834],[126.90948486300002,44.567871094],[126.95410156200002,44.577514648],[127.00390625000001,44.601074219],[127.00610351600001,44.622680664],[126.99951171900001,44.653076172],[126.96868896500001,44.699707031],[126.98229980500001,44.773681641],[126.96588134800001,44.821716309],[126.97070312500001,44.840881348],[127.00207519500002,44.873291016],[127.01751709000001,44.897705078],[127.06329345700001,44.91192627],[127.05969238300001,44.935302734],[126.96972656200002,45.008728027],[126.95092773400002,45.047302246],[126.94891357400002,45.077087402],[126.93609619100002,45.121520996],[126.92327880900001,45.126281738],[126.87127685500002,45.125915527],[126.79431152300002,45.118713379],[126.77587890600002,45.120910645],[126.69451904300001,45.173278809],[126.64031982400002,45.183105469],[126.59149169900002,45.215087891],[126.53051757800002,45.235473633],[126.48150634800001,45.228088379],[126.43048095700001,45.211120605],[126.40588378900001,45.207275391],[126.34411621100001,45.204711914],[126.30908203100002,45.17590332],[126.28527832000002,45.175292969],[126.26007080100001,45.148681641],[126.23968505900001,45.141113281],[126.13287353500002,45.127075195],[126.13891601600001,45.063903809],[126.13909912100002,45.023925781],[126.14569091800001,44.995727539],[126.14990234400001,44.967712402],[126.14312744100002,44.938720703],[126.10192871100001,44.930725098],[126.06170654300001,44.928283691],[126.02569580100001,44.918273926],[126.00531005900001,44.88848877],[126.00927734400001,44.853088379],[126.00451660200001,44.777099609],[125.93188476600001,44.765686035],[125.88171386700002,44.77130127],[125.82928466800001,44.849487305],[125.79132080100001,44.847290039],[125.75109863300001,44.855102539],[125.730285645,44.886901855],[125.72167968700002,44.910888672],[125.703125,44.932678223],[125.67712402300002,44.942077637],[125.64508056600002,44.945678711],[125.62609863300001,44.944519043],[125.56567382800002,44.905273437],[125.51947021500001,44.887329102],[125.43908691400001,44.883117676],[125.40850830100001,44.893127441],[125.34167480500001,44.887329102],[125.27069091800001,44.862121582],[125.21051025400001,44.865478516],[125.20507812500001,44.859130859],[125.18530273400002,44.825073242],[125.13867187500001,44.801696777],[125.09252929700001,44.78692627],[125.04248046900001,44.774902344],[125.00671386700002,44.789672852],[124.96948242200001,44.779724121],[124.93408203100002,44.754089355],[124.88787841800001,44.755310059],[124.85412597700001,44.738525391],[124.81469726600001,44.71270752],[124.76947021500001,44.690490723],[124.72351074200002,44.677124023],[124.67852783200001,44.668701172],[124.63208007800002,44.66192627],[124.59448242200001,44.651123047],[124.55889892600001,44.62890625],[124.53790283200001,44.599304199],[124.52429199200002,44.568908691],[124.49951171900001,44.543884277],[124.52648925800001,44.512878418],[124.56567382800002,44.501281738],[124.570129395,44.471130371],[124.53430175800001,44.458679199],[124.50488281200002,44.439880371],[124.53332519500002,44.415527344],[124.55187988300001,44.384094238],[124.55651855500001,44.34588623],[124.56811523400002,44.31628418],[124.58648681600002,44.282470703],[124.60791015600002,44.254516602],[124.64691162100002,44.241882324],[124.69091796900001,44.242126465],[124.72747802700002,44.227294922],[124.71032714800002,44.202514648],[124.70031738300001,44.155273437],[124.70849609400001,44.121887207],[124.730285645,44.094909668],[124.75689697300001,44.071289062],[124.80151367200001,44.038879395],[124.83709716800001,44.01751709],[124.88287353500002,43.967529297],[124.89788818400001,43.940490723],[124.94732666000002,43.909912109],[125.00109863300001,43.903076172],[125.04650878900001,43.909912109],[125.07891845700001,43.878479004],[125.08630371100001,43.848693848],[125.09228515600002,43.821899414],[125.10168457000002,43.784301758],[125.12628173800002,43.752075195],[125.14227294900002,43.72668457],[125.17370605500001,43.702880859],[125.21270752,43.698303223],[125.25891113300001,43.700683594],[125.25891113300001,43.670288086],[125.26171875000001,43.642883301],[125.27490234400001,43.613891602],[125.25329589800002,43.574523926],[125.25347900400001,43.538513184],[125.24487304700001,43.508728027],[125.21887207000002,43.471313477],[125.20568847700001,43.443481445],[125.23651123000002,43.419677734],[125.29571533200001,43.42791748],[125.32830810500002,43.445922852],[125.33551025400001,43.489929199],[125.34167480500001,43.528686523],[125.36688232400002,43.55291748],[125.40728759800001,43.569885254],[125.42968750000001,43.528930664],[125.43267822300001,43.499511719],[125.45867919900002,43.469726562],[125.48071289100001,43.446472168],[125.47332763700001,43.411071777],[125.51470947300001,43.401916504],[125.55468750000001,43.400085449],[125.54248046900001,43.371276855],[125.52032470700001,43.343322754],[125.54351806600002,43.314697266],[125.57031250000001,43.293273926],[125.60552978500002,43.273925781],[125.671691895,43.257080078]]]}}
