{"type":"Feature","id":"bulk-99377448B51861862768598","bbox":[84.76409912100002,43.102478027,91.59790039100001,45.437316895],"properties":{"id":"bulk-99377448B51861862768598","name":"Changji Hui Autonomous Prefecture","nameEn":"Changji Hui Autonomous Prefecture","fullName":"Changji Hui Autonomous Prefecture","level":"city","boundaryRole":"administrative-extent","boundaryQuality":"generalized-source-2020","boundaryYearRepresented":"2020","bounds":[[84.76409912100002,43.102478027],[91.59790039100001,45.437316895]],"center":[88.180999756,44.269897461],"centerMethod":"bounding-box midpoint; camera framing only","license":"CC-BY-3.0-IGO","attribution":"geoBoundaries / HDX, China administrative boundaries (2020)","source":{"provider":"geoBoundaries gbHumanitarian / HDX","url":"https://github.com/wmgeolab/geoBoundaries/raw/9469f09/releaseData/gbHumanitarian/CHN/ADM2/geoBoundaries-CHN-ADM2.geojson","metadataUrl":"https://www.geoboundaries.org/api/current/gbHumanitarian/CHN/ADM2/","shapeID":"99377448B51861862768598","shapeName":"Changji Hui Autonomous Prefecture","boundaryID":"CHN-ADM2-99377448","commit":"9469f09"},"geometryCounts":{"coordinates":449,"components":1,"holes":1},"boundaryNotice":"geoBoundaries / HDX 2020 年行政区数据，海岸和边界经过源数据概化，并非当前测绘成果。"},"geometry":{"type":"Polygon","coordinates":[[[88.95129394500002,43.60369873],[89.01348877,43.587280273],[89.051330566,43.574279785],[89.09289550800001,43.576904297],[89.14093017600001,43.576477051],[89.18328857400002,43.561889648],[89.20629882800002,43.529296875],[89.25030517600001,43.521118164],[89.293518066,43.524291992],[89.33148193400001,43.50012207],[89.370483398,43.46472168],[89.40588378900001,43.446472168],[89.454101562,43.43371582],[89.52770996100001,43.422485352],[89.57189941400001,43.413696289],[89.62249755900001,43.396484375],[89.66229248,43.38067627],[89.70227050800001,43.39831543],[89.76092529300001,43.420288086],[89.79089355500001,43.437072754],[89.83349609400001,43.446289062],[89.879089355,43.440917969],[89.91809082000002,43.43170166],[89.96307373,43.447692871],[89.98992919900002,43.479675293],[90.03588867200001,43.501281738],[90.077880859,43.50012207],[90.12487793000001,43.511108398],[90.17651367200001,43.546691895],[90.21508789100001,43.532287598],[90.25909423800002,43.521911621],[90.31732177700002,43.503479004],[90.39031982400002,43.491088867],[90.42529296900001,43.504089355],[90.47888183600001,43.496887207],[90.52667236300002,43.490112305],[90.578125,43.479919434],[90.618896484,43.479492187],[90.63732910200001,43.508728027],[90.68450927700002,43.506713867],[90.72369384800001,43.500671387],[90.761474609,43.497924805],[90.804870605,43.497680664],[90.86627197300001,43.499084473],[90.91351318400001,43.499084473],[90.98352050800001,43.495483398],[91.02410888700001,43.484924316],[91.05932617200001,43.472717285],[91.11492919900002,43.460876465],[91.13989257800002,43.490478516],[91.18908691400001,43.515319824],[91.21948242200001,43.541687012],[91.25671386700002,43.5546875],[91.33367919900002,43.558105469],[91.37689209000001,43.572509766],[91.38330078100002,43.59967041],[91.37231445300002,43.637329102],[91.36389160200001,43.665100098],[91.436096191,43.710876465],[91.493896484,43.719726562],[91.53308105500001,43.742492676],[91.54852294900002,43.774475098],[91.53009033200001,43.805725098],[91.50750732400002,43.841308594],[91.45971679700001,43.878723145],[91.429077148,43.894714355],[91.37768554700001,43.917297363],[91.335693359,43.946289062],[91.31671142600001,43.977294922],[91.31591796900001,44.007324219],[91.31927490200002,44.036499023],[91.31707763700001,44.08972168],[91.33148193400001,44.145690918],[91.32147216800001,44.190124512],[91.31750488300001,44.241088867],[91.32611084000001,44.288879395],[91.32611084000001,44.316101074],[91.32391357400002,44.346679687],[91.327514648,44.38269043],[91.33068847700001,44.421691895],[91.33709716800001,44.461303711],[91.34912109400001,44.496704102],[91.36090087900001,44.537475586],[91.37609863300001,44.587097168],[91.38287353500002,44.614074707],[91.39190673800002,44.651123047],[91.40087890600002,44.69329834],[91.410705566,44.720703125],[91.43670654300001,44.760314941],[91.47290039100001,44.77911377],[91.51452636700002,44.797302246],[91.560302734,44.814880371],[91.595092773,44.839477539],[91.59790039100001,44.867126465],[91.58111572300001,44.899475098],[91.562683105,44.931274414],[91.53247070300002,44.967102051],[91.579101562,45.05090332],[91.56768798800002,45.051879883],[91.51690673800002,45.08770752],[91.49169921900001,45.111877441],[91.45568847700001,45.13671875],[91.43292236300002,45.135070801],[91.42108154300001,45.126098633],[91.40930175800001,45.127929687],[91.38848877,45.107299805],[91.38092041000002,45.110107422],[91.33807373,45.126281738],[91.30230712900001,45.127075195],[91.25970459000001,45.132324219],[91.22668457000002,45.132324219],[91.171875,45.157287598],[91.169311523,45.180908203],[91.13153076200001,45.19708252],[91.10052490200002,45.207702637],[91.06652832000002,45.207275391],[91.06048584000001,45.208312988],[91.04290771500001,45.206115723],[90.96789550800001,45.190307617],[90.85668945300002,45.166503906],[90.86712646500001,45.190124512],[90.89648437500001,45.221923828],[90.879089355,45.268676758],[90.82373046900001,45.290527344],[90.81469726600001,45.317077637],[90.802124023,45.360900879],[90.77191162100002,45.40612793],[90.77429199200002,45.411315918],[90.73852539100001,45.437316895],[90.62609863300001,45.416687012],[90.56872558600001,45.400085449],[90.52069091800001,45.387329102],[90.487670898,45.372680664],[90.45727539100001,45.340698242],[90.427490234,45.297485352],[90.39770507800002,45.259277344],[90.37292480500001,45.230285645],[90.347473145,45.195495605],[90.320495605,45.167297363],[90.28247070300002,45.131103516],[90.26232910200001,45.091674805],[90.237304687,45.049072266],[90.21527099600002,45.024719238],[90.21771240200002,44.98828125],[90.21710205100001,44.951477051],[90.17651367200001,44.952697754],[90.12548828100002,44.960083008],[90.06689453100002,44.955505371],[90.02728271500001,44.955078125],[89.97308349600002,44.958312988],[89.93310546900001,44.954284668],[89.859924316,44.954284668],[89.81610107400002,44.954711914],[89.76428222700001,44.955078125],[89.70050048800002,44.954284668],[89.636901855,44.955688477],[89.57189941400001,44.95690918],[89.51367187500001,44.955322266],[89.44927978500002,44.955078125],[89.38049316400001,44.956481934],[89.31707763700001,44.963500977],[89.27252197300001,44.953491211],[89.19952392600001,44.956726074],[89.152526855,44.954284668],[89.102478027,44.950683594],[89.04809570300002,44.949279785],[88.98632812500001,44.947692871],[88.92388916000002,44.948913574],[88.86450195300002,44.948303223],[88.81512451200001,44.946716309],[88.76409912100002,44.946716309],[88.70111084000001,44.953491211],[88.643127441,44.950683594],[88.60430908200001,44.951293945],[88.55767822300001,44.952087402],[88.50152587900001,44.947509766],[88.43927002,44.943481445],[88.38189697300001,44.9453125],[88.31549072300001,44.946289062],[88.25811767600001,44.945922852],[88.15869140600002,44.94152832],[88.08972168000001,44.940124512],[87.99029541000002,44.949890137],[87.903686523,44.942871094],[87.82452392600001,44.938476562],[87.78552246100001,44.93572998],[87.73272705100001,44.936889648],[87.68188476600001,44.937683105],[87.600524902,44.952087402],[87.551330566,44.946289062],[87.50689697300001,44.947875977],[87.429504395,44.949890137],[87.38928222700001,44.950073242],[87.33270263700001,44.961120605],[87.33367919900002,44.988708496],[87.33789062500001,45.026123047],[87.33831787100002,45.072875977],[87.33770752,45.126098633],[87.33709716800001,45.162719727],[87.335693359,45.19128418],[87.33709716800001,45.220092773],[87.33172607400002,45.290527344],[87.24450683600001,45.276916504],[87.19891357400002,45.275512695],[87.12768554700001,45.275085449],[87.07849121100001,45.280273437],[87.01507568400001,45.278503418],[86.953308105,45.278320312],[86.90850830100001,45.278320312],[86.84490966800001,45.278686523],[86.79528808600001,45.277282715],[86.72027587900001,45.286315918],[86.65570068400001,45.274902344],[86.60589599600002,45.275695801],[86.535705566,45.279907227],[86.475524902,45.278320312],[86.41333007800002,45.280700684],[86.36907959000001,45.280883789],[86.27447509800001,45.283081055],[86.19750976600001,45.282287598],[86.12811279300001,45.281921387],[86.07171630900001,45.280883789],[86.01129150400001,45.278076172],[85.97027587900001,45.279907227],[85.91168212900001,45.280700684],[85.84729003900001,45.280090332],[85.78131103500002,45.281311035],[85.74249267600001,45.280883789],[85.67852783200001,45.288085937],[85.635681152,45.291503906],[85.56408691400001,45.293273926],[85.520874023,45.292480469],[85.45007324200002,45.290527344],[85.41131591800001,45.291320801],[85.33630371100001,45.298706055],[85.26989746100001,45.290527344],[85.29748535200001,45.258483887],[85.27172851600001,45.232116699],[85.24072265600002,45.207092285],[85.222473145,45.155273437],[85.24407959000001,45.129272461],[85.26788330100001,45.092529297],[85.26232910200001,45.059692383],[85.237670898,45.019714355],[85.20227050800001,44.985717773],[85.15509033200001,44.944274902],[85.12609863300001,44.925292969],[85.09967041000002,44.904296875],[85.08392334000001,44.872497559],[85.077880859,44.823730469],[85.078674316,44.777893066],[85.08752441400001,44.737121582],[84.995117187,44.739501953],[84.94488525400001,44.748718262],[84.90112304700001,44.753295898],[84.862670898,44.750305176],[84.827880859,44.72088623],[84.84448242200001,44.692504883],[84.86907959000001,44.655517578],[84.82067871100001,44.655883789],[84.84588623,44.59588623],[84.86590576200001,44.550720215],[84.862304687,44.509887695],[84.87249755900001,44.479675293],[84.869689941,44.445495605],[84.83947753900001,44.423278809],[84.81048584000001,44.399291992],[84.78869628900001,44.356689453],[84.79071044900002,44.323486328],[84.79730224600002,44.285705566],[84.80731201200001,44.254089355],[84.80828857400002,44.223693848],[84.79852294900002,44.192321777],[84.778686523,44.153076172],[84.76409912100002,44.119506836],[84.79248046900001,44.101318359],[84.83892822300001,44.09588623],[84.88909912100002,44.096130371],[84.936096191,44.109680176],[84.97229003900001,44.128112793],[84.99530029300001,44.153930664],[85.01727294900002,44.180297852],[85.034118652,44.219299316],[85.053283691,44.255310059],[85.09729003900001,44.282470703],[85.18109130900001,44.301696777],[85.18048095700001,44.295471191],[85.17547607400002,44.26171875],[85.16369628900001,44.212524414],[85.14831543000001,44.18371582],[85.127929687,44.152526855],[85.10668945300002,44.125305176],[85.06787109400001,44.082885742],[85.034912109,44.061096191],[84.99407959000001,44.035888672],[84.969299316,44.00012207],[84.95849609400001,43.966308594],[84.953125,43.938903809],[84.94970703100002,43.907897949],[84.96130371100001,43.87890625],[84.97509765600002,43.850891113],[85.00531005900001,43.818481445],[85.00347900400001,43.779724121],[84.995910645,43.730895996],[84.99670410200001,43.701293945],[84.99072265600002,43.65612793],[84.97869873,43.622680664],[84.93487548800002,43.594116211],[84.86132812500001,43.547302246],[84.89831543000001,43.512695312],[84.93127441400001,43.488525391],[84.94989013700001,43.452514648],[84.95147705100001,43.42010498],[85.019287109,43.407897949],[85.05792236300002,43.397521973],[85.10388183600001,43.379699707],[85.145507812,43.356079102],[85.169677734,43.334472656],[85.21649169900002,43.333129883],[85.259887695,43.35168457],[85.303283691,43.351501465],[85.31707763700001,43.320922852],[85.35467529300001,43.306091309],[85.40429687500001,43.312927246],[85.47412109400001,43.312072754],[85.536499023,43.30291748],[85.584899902,43.297302246],[85.62249755900001,43.296691895],[85.67132568400001,43.312683105],[85.701721191,43.340698242],[85.72351074200002,43.365722656],[85.74047851600001,43.390319824],[85.75592041000002,43.418884277],[85.80651855500001,43.427124023],[85.860717773,43.408691406],[85.89172363300001,43.390686035],[85.91290283200001,43.363891602],[85.96868896500001,43.347900391],[86.045898437,43.332092285],[86.112304687,43.355102539],[86.16009521500001,43.374511719],[86.21832275400001,43.413085937],[86.25469970700001,43.433898926],[86.303710937,43.453308105],[86.34692382800002,43.440124512],[86.33807373,43.394287109],[86.318908691,43.361083984],[86.29510498,43.333679199],[86.27972412100002,43.297119141],[86.29211425800001,43.251281738],[86.32489013700001,43.223876953],[86.379089355,43.20111084],[86.45629882800002,43.155883789],[86.51647949200002,43.124511719],[86.56652832,43.120727539],[86.62072753900001,43.112121582],[86.66168212900001,43.102478027],[86.71307373,43.111083984],[86.75231933600001,43.113098145],[86.79449462900001,43.10949707],[86.82189941400001,43.142883301],[86.845092773,43.168518066],[86.86212158200001,43.201293945],[86.87951660200001,43.247680664],[86.89770507800002,43.289672852],[86.920471191,43.318481445],[86.92852783200001,43.351074219],[86.91687011700002,43.379699707],[86.90008544900002,43.409484863],[86.92608642600001,43.444274902],[86.96649169900002,43.472900391],[86.98950195300002,43.500671387],[87.01568603500002,43.529724121],[87.06127929700001,43.556091309],[87.101318359,43.576293945],[87.12811279300001,43.596313477],[87.16412353500002,43.632080078],[87.19909668000001,43.673095703],[87.22851562500001,43.709716797],[87.24072265600002,43.727478027],[87.27368164100001,43.785888672],[87.28131103500002,43.814880371],[87.27392578100002,43.86151123],[87.26910400400001,43.892700195],[87.284912109,43.932312012],[87.32269287100002,43.973693848],[87.34967041000002,44.001098633],[87.37951660200001,44.029907227],[87.41247558600001,44.051330566],[87.461120605,44.06652832],[87.50531005900001,44.073913574],[87.54888916000002,44.024475098],[87.56091308600001,43.994689941],[87.55047607400002,43.963684082],[87.54992675800001,43.930297852],[87.576721191,43.910095215],[87.618103027,43.902099609],[87.65631103500002,43.913330078],[87.69671630900001,43.929077148],[87.73931884800001,43.905883789],[87.76770019500002,43.873474121],[87.80651855500001,43.847717285],[87.83587646500001,43.817077637],[87.87432861300002,43.786682129],[87.905273437,43.75970459],[87.94488525400001,43.736328125],[87.99267578100002,43.727478027],[88.03509521500001,43.735290527],[88.078308105,43.744689941],[88.11688232400002,43.751098633],[88.17730712900001,43.729675293],[88.226318359,43.740905762],[88.25689697300001,43.759277344],[88.29571533200001,43.764892578],[88.34088134800001,43.762084961],[88.402526855,43.760925293],[88.44610595700001,43.765319824],[88.49151611300002,43.806518555],[88.530273437,43.793518066],[88.56469726600001,43.780517578],[88.60272216800001,43.763671875],[88.64532470700001,43.730712891],[88.67370605500001,43.710327148],[88.71008300800001,43.682495117],[88.77368164100001,43.682128906],[88.83172607400002,43.683288574],[88.86431884800001,43.669677734],[88.89050293000001,43.641906738],[88.91729736300002,43.617919922],[88.95129394500002,43.60369873]],[[86.176696777,44.410705566],[86.10949707,44.266723633],[86.118103027,44.112304687],[86.078125,44.096923828],[86.08471679700001,44.067321777],[86.06427002,44.122497559],[86.02172851600001,44.123474121],[85.98327636700002,44.120300293],[85.94952392600001,44.139892578],[85.94171142600001,44.172485352],[85.93811035200001,44.218078613],[85.93048095700001,44.244689941],[85.91510009800001,44.289306641],[85.910705566,44.346496582],[85.93487548800002,44.369873047],[85.97387695300002,44.390319824],[86.01690673800002,44.397888184],[86.05651855500001,44.40411377],[86.176696777,44.410705566]]]}}
