{"type":"Feature","id":"bulk-99377448B48782932282592","bbox":[112.55487060500002,30.362915039,113.46392822300001,30.918701172],"properties":{"id":"bulk-99377448B48782932282592","name":"Tianmen","nameEn":"Tianmen","fullName":"Tianmen","level":"city","boundaryRole":"administrative-extent","boundaryQuality":"generalized-source-2020","boundaryYearRepresented":"2020","bounds":[[112.55487060500002,30.362915039],[113.46392822300001,30.918701172]],"center":[113.00939941400001,30.6408081055],"centerMethod":"bounding-box midpoint; camera framing only","license":"CC-BY-3.0-IGO","attribution":"geoBoundaries / HDX, China administrative boundaries (2020)","source":{"provider":"geoBoundaries gbHumanitarian / HDX","url":"https://github.com/wmgeolab/geoBoundaries/raw/9469f09/releaseData/gbHumanitarian/CHN/ADM2/geoBoundaries-CHN-ADM2.geojson","metadataUrl":"https://www.geoboundaries.org/api/current/gbHumanitarian/CHN/ADM2/","shapeID":"99377448B48782932282592","shapeName":"Tianmen","boundaryID":"CHN-ADM2-99377448","commit":"9469f09"},"geometryCounts":{"coordinates":87,"components":1,"holes":0},"boundaryNotice":"geoBoundaries / HDX 2020 年行政区数据，海岸和边界经过源数据概化，并非当前测绘成果。"},"geometry":{"type":"Polygon","coordinates":[[[112.60150146500001,30.639099121],[112.60888671900001,30.63067627],[112.65209960900002,30.629699707],[112.69531250000001,30.628723145],[112.671875,30.574523926],[112.64868164100001,30.520507812],[112.69232177700002,30.533081055],[112.71392822300001,30.532470703],[112.73590087900001,30.545715332],[112.75750732400002,30.545288086],[112.77911377,30.544677734],[112.80029296900001,30.530517578],[112.79931640600002,30.503295898],[112.820129395,30.475280762],[112.84167480500001,30.474914551],[112.86370849600002,30.487915039],[112.88568115200002,30.501098633],[112.86450195300002,30.515319824],[112.86511230500001,30.528930664],[112.86547851600001,30.542724609],[112.88751220700001,30.555725098],[112.92388916000002,30.536682129],[112.92932128900001,30.513671875],[112.972473145,30.512695312],[112.99407959000001,30.512084961],[113.01568603500002,30.511474609],[113.03668212900001,30.497314453],[113.05792236300002,30.483093262],[113.03491210900002,30.442687988],[113.05627441400001,30.442077637],[113.07849121100001,30.455078125],[113.10009765600002,30.454528809],[113.12152099600002,30.454101562],[113.12011718700002,30.413085937],[113.14111328100002,30.398681641],[113.18432617200001,30.397521973],[113.20568847700001,30.397094727],[113.24951171900001,30.409484863],[113.27111816400001,30.408874512],[113.29309082000002,30.421875],[113.31469726600001,30.421325684],[113.33569335900002,30.407104492],[113.35668945300002,30.392700195],[113.37768554700001,30.378479004],[113.39868164100001,30.364074707],[113.42028808600001,30.363525391],[113.44189453100002,30.362915039],[113.46392822300001,30.375915527],[113.42608642600001,30.469116211],[113.41552734400001,30.503723145],[113.40832519500002,30.542724609],[113.42431640600002,30.573730469],[113.43170166000002,30.605102539],[113.421875,30.642883301],[113.40631103500002,30.672485352],[113.40368652300002,30.709716797],[113.40411377,30.741699219],[113.38848877,30.789916992],[113.37292480500001,30.826721191],[113.33148193400001,30.893676758],[113.30792236300002,30.918701172],[113.27209472700001,30.906677246],[113.23510742200001,30.879089355],[113.18829345700001,30.840881348],[113.16290283200001,30.818725586],[113.11291503900001,30.810302734],[113.07470703100002,30.837280273],[113.04528808600001,30.820495605],[113.03808593700002,30.789489746],[112.99768066400001,30.788879395],[112.94848632800002,30.770874023],[112.91687011700002,30.751281738],[112.87792968700002,30.735473633],[112.81127929700001,30.698913574],[112.81927490200002,30.754882812],[112.79589843700002,30.777526855],[112.78210449200002,30.820678711],[112.753723145,30.837890625],[112.70867919900002,30.801696777],[112.68048095700001,30.784301758],[112.65588378900001,30.758300781],[112.63171386700002,30.740722656],[112.597473145,30.743896484],[112.58532714800002,30.749694824],[112.55487060500002,30.682922363],[112.570129395,30.657714844],[112.60150146500001,30.639099121]]]}}
