{"type":"Feature","id":"bulk-99377448B50161408183083","bbox":[98.09069824200002,24.127075195,100.15991210900002,25.848083496],"properties":{"id":"bulk-99377448B50161408183083","name":"Baoshan","nameEn":"Baoshan","fullName":"Baoshan","level":"city","boundaryRole":"administrative-extent","boundaryQuality":"generalized-source-2020","boundaryYearRepresented":"2020","bounds":[[98.09069824200002,24.127075195],[100.15991210900002,25.848083496]],"center":[99.12530517550002,24.987579345500002],"centerMethod":"bounding-box midpoint; camera framing only","license":"CC-BY-3.0-IGO","attribution":"geoBoundaries / HDX, China administrative boundaries (2020)","source":{"provider":"geoBoundaries gbHumanitarian / HDX","url":"https://github.com/wmgeolab/geoBoundaries/raw/9469f09/releaseData/gbHumanitarian/CHN/ADM2/geoBoundaries-CHN-ADM2.geojson","metadataUrl":"https://www.geoboundaries.org/api/current/gbHumanitarian/CHN/ADM2/","shapeID":"99377448B50161408183083","shapeName":"Baoshan","boundaryID":"CHN-ADM2-99377448","commit":"9469f09"},"geometryCounts":{"coordinates":303,"components":1,"holes":0},"boundaryNotice":"geoBoundaries / HDX 2020 年行政区数据，海岸和边界经过源数据概化，并非当前测绘成果。"},"geometry":{"type":"Polygon","coordinates":[[[98.88549804700001,25.598083496],[98.88787841800001,25.570678711],[98.84210205100001,25.554321289],[98.80609130900001,25.555908203],[98.77709960900002,25.591491699],[98.76068115200002,25.625488281],[98.76092529300001,25.669677734],[98.75830078100002,25.696716309],[98.74890136700002,25.73651123],[98.73748779300001,25.770874023],[98.72552490200002,25.806884766],[98.71148681600002,25.841491699],[98.69049072300001,25.822509766],[98.66052246100001,25.801696777],[98.64587402300002,25.808105469],[98.64349365200002,25.806518555],[98.64172363300001,25.800720215],[98.63287353500002,25.799926758],[98.63012695300002,25.80090332],[98.63031005900001,25.805480957],[98.62249755900001,25.810119629],[98.61767578100002,25.808898926],[98.61407470700001,25.810119629],[98.61132812500001,25.81451416],[98.60412597700001,25.813903809],[98.59130859400001,25.825683594],[98.58410644500002,25.827697754],[98.579101562,25.827270508],[98.57690429700001,25.831115723],[98.578308105,25.83392334],[98.57507324200002,25.840515137],[98.56610107400002,25.843688965],[98.562316895,25.848083496],[98.55310058600001,25.846130371],[98.55230712900001,25.844299316],[98.54931640600002,25.843322754],[98.54730224600002,25.844909668],[98.53051757800002,25.841308594],[98.53009033200001,25.840270996],[98.52770996100001,25.83972168],[98.52032470700001,25.828491211],[98.52111816400001,25.827880859],[98.52069091800001,25.825073242],[98.51672363300001,25.822875977],[98.50231933600001,25.800292969],[98.49108886700002,25.776123047],[98.49151611300002,25.743896484],[98.469726562,25.708496094],[98.469726562,25.708312988],[98.46929931600002,25.707885742],[98.461914062,25.695678711],[98.461120605,25.69152832],[98.45867919900002,25.688903809],[98.45751953100002,25.688720703],[98.45367431600002,25.682678223],[98.43310546900001,25.654724121],[98.421691895,25.634094238],[98.40948486300002,25.617675781],[98.40991210900002,25.611083984],[98.40393066400001,25.605285645],[98.40350341800001,25.599487305],[98.39672851600001,25.600280762],[98.38372802700002,25.582885742],[98.362304687,25.567687988],[98.33508300800001,25.558105469],[98.32470703100002,25.56427002],[98.32409668000001,25.563720703],[98.32031250000001,25.558898926],[98.32092285200001,25.557678223],[98.31567382800002,25.548706055],[98.30767822300001,25.549682617],[98.30291748,25.552307129],[98.30108642600001,25.559326172],[98.29711914100001,25.563293457],[98.29608154300001,25.567077637],[98.29748535200001,25.569274902],[98.29412841800001,25.577270508],[98.28912353500002,25.578308105],[98.28167724600002,25.58190918],[98.27612304700001,25.593505859],[98.26867675800001,25.595092773],[98.26531982400002,25.601074219],[98.25708007800002,25.603088379],[98.24890136700002,25.606079102],[98.24249267600001,25.612915039],[98.23748779300001,25.608520508],[98.22491455100001,25.612304687],[98.21667480500001,25.611877441],[98.21508789100001,25.616516113],[98.20550537100002,25.620300293],[98.20129394500002,25.615112305],[98.19110107400002,25.615112305],[98.18347168000001,25.626525879],[98.17932128900001,25.627075195],[98.18151855500001,25.613891602],[98.18090820300002,25.597473145],[98.18212890600002,25.595092773],[98.18310546900001,25.591308594],[98.18511962900001,25.581298828],[98.18908691400001,25.57409668],[98.18432617200001,25.567077637],[98.18408203100002,25.560913086],[98.18170166000002,25.557922363],[98.179077148,25.5546875],[98.17852783200001,25.539916992],[98.15972900400001,25.535888672],[98.15948486300002,25.526672363],[98.15588378900001,25.527282715],[98.145507812,25.520874023],[98.13970947300001,25.519897461],[98.13671875000001,25.520690918],[98.14788818400001,25.503112793],[98.16192627,25.476074219],[98.17431640600002,25.451721191],[98.14892578100002,25.428100586],[98.15209960900002,25.425720215],[98.15429687500001,25.420898437],[98.14807128900001,25.415710449],[98.14727783200001,25.412719727],[98.14892578100002,25.410095215],[98.14849853500002,25.406921387],[98.143920898,25.403503418],[98.14367675800001,25.396484375],[98.13787841800001,25.387084961],[98.13488769500002,25.386108398],[98.12072753900001,25.384887695],[98.10827636700002,25.39251709],[98.10510253900001,25.393493652],[98.10131835900002,25.390930176],[98.09851074200002,25.380126953],[98.097473145,25.368896484],[98.09729003900001,25.354675293],[98.09527587900001,25.351318359],[98.09289550800001,25.35168457],[98.09069824200002,25.347900391],[98.09088134800001,25.343322754],[98.14227294900002,25.3125],[98.16888427700002,25.274475098],[98.17529296900001,25.233703613],[98.17230224600002,25.206726074],[98.17749023400002,25.177307129],[98.21270752,25.172119141],[98.245117187,25.160888672],[98.26049804700001,25.133300781],[98.26129150400001,25.093505859],[98.25170898400002,25.057678223],[98.23229980500001,25.022521973],[98.23370361300002,24.990905762],[98.24908447300001,24.952880859],[98.28967285200001,24.948730469],[98.32867431600002,24.956298828],[98.36871337900001,24.930114746],[98.40991210900002,24.922119141],[98.44128418000001,24.915710449],[98.47772216800001,24.899291992],[98.51232910200001,24.908874512],[98.54028320300002,24.880126953],[98.55230712900001,24.844482422],[98.51647949200002,24.823913574],[98.48150634800001,24.818725586],[98.44451904300001,24.800292969],[98.42889404300001,24.77331543],[98.44873046900001,24.724487305],[98.46850585900002,24.681274414],[98.47912597700001,24.622924805],[98.50872802700002,24.598083496],[98.54052734400001,24.593322754],[98.578125,24.598876953],[98.62268066400001,24.604492187],[98.66107177700002,24.606506348],[98.69592285200001,24.593078613],[98.711914062,24.550109863],[98.72668457000002,24.522277832],[98.72888183600001,24.490722656],[98.69927978500002,24.464294434],[98.70129394500002,24.437072754],[98.71789550800001,24.406921387],[98.73248291000002,24.37512207],[98.730285645,24.33190918],[98.71008300800001,24.30267334],[98.71307373,24.27130127],[98.71929931600002,24.24407959],[98.71850585900002,24.200500488],[98.71173095700001,24.171508789],[98.72088623,24.13067627],[98.72192382800002,24.13067627],[98.73632812500001,24.128295898],[98.74310302700002,24.13067627],[98.75732421900001,24.127075195],[98.76611328100002,24.129089355],[98.77252197300001,24.13269043],[98.79168701200001,24.133117676],[98.79608154300001,24.133728027],[98.79907226600001,24.134521484],[98.80670166000002,24.134887695],[98.81909179700001,24.136474609],[98.82067871100001,24.135925293],[98.84191894500002,24.137329102],[98.86767578100002,24.144714355],[98.87811279300001,24.155883789],[98.88549804700001,24.145324707],[98.92749023400002,24.18347168],[98.96228027300002,24.205688477],[98.98748779300001,24.22052002],[99.01647949200002,24.236083984],[99.04632568400001,24.245117187],[99.096679687,24.26348877],[99.12451171900001,24.274719238],[99.15948486300002,24.292907715],[99.18670654300001,24.312683105],[99.21429443400001,24.347290039],[99.23791503900001,24.385314941],[99.26391601600001,24.431091309],[99.28167724600002,24.454528809],[99.31970214800002,24.463684082],[99.344726562,24.423522949],[99.36352539100001,24.384887695],[99.37329101600001,24.343322754],[99.37170410200001,24.315124512],[99.37487793000001,24.288085937],[99.403320312,24.252929687],[99.45111084000001,24.260070801],[99.48089599600002,24.288085937],[99.50091552700002,24.319091797],[99.52429199200002,24.34552002],[99.56652832000002,24.364501953],[99.60229492200001,24.385681152],[99.61407470700001,24.422485352],[99.63732910200001,24.457702637],[99.68249511700002,24.459289551],[99.67449951200001,24.491516113],[99.66528320300002,24.524475098],[99.66668701200001,24.5625],[99.671875,24.598693848],[99.70007324200002,24.629272461],[99.71990966800001,24.655883789],[99.74468994100002,24.676513672],[99.77429199200002,24.68951416],[99.82647705100001,24.708312988],[99.84649658200001,24.709716797],[99.87530517600001,24.725891113],[99.92272949200002,24.759094238],[99.96807861300002,24.79888916],[100.00030517600001,24.83807373],[100.02288818400001,24.863525391],[100.04827880900001,24.888916016],[100.09210205100001,24.938110352],[100.12628173800002,24.966674805],[100.14331054700001,24.984924316],[100.15728759800001,25.003112793],[100.15991210900002,25.033691406],[100.12927246100001,25.030883789],[100.10168457000002,25.014709473],[100.07849121100001,24.993713379],[100.046691895,25.001098633],[100.05072021500001,25.037902832],[100.02770996100001,25.069274902],[100.03491210900002,25.096923828],[100.04870605500001,25.12487793],[100.06311035200001,25.151672363],[100.05731201200001,25.181518555],[100.03967285200001,25.211914062],[100.00909423800002,25.235717773],[99.96691894500002,25.237487793],[99.91149902300002,25.221679687],[99.879089355,25.192077637],[99.85607910200001,25.155517578],[99.836914062,25.13470459],[99.77807617200001,25.119873047],[99.72308349600002,25.090698242],[99.69030761700002,25.095092773],[99.65948486300002,25.107727051],[99.62768554700001,25.125671387],[99.59729003900001,25.13067627],[99.54907226600001,25.135314941],[99.51727294900002,25.135314941],[99.48529052700002,25.152099609],[99.453125,25.190917969],[99.42492675800001,25.221130371],[99.40167236300002,25.245117187],[99.378723145,25.269287109],[99.34692382800002,25.31072998],[99.31610107400002,25.332885742],[99.29412841800001,25.354125977],[99.29870605500001,25.403076172],[99.28948974600002,25.43170166],[99.32647705100001,25.430480957],[99.36132812500001,25.450683594],[99.35668945300002,25.491516113],[99.30468750000001,25.528686523],[99.25311279300001,25.549499512],[99.21350097700001,25.528076172],[99.18707275400001,25.503112793],[99.15429687500001,25.478881836],[99.11328125000001,25.468078613],[99.08929443400001,25.488708496],[99.08007812500001,25.524475098],[99.04992675800001,25.55267334],[99.01489257800002,25.569885254],[98.99688720700001,25.591674805],[98.98132324200002,25.617675781],[98.946289062,25.614929199],[98.88549804700001,25.598083496]]]}}
