{"type":"Feature","id":"bulk-99377448B43290754724916","bbox":[119.60852050800001,27.160705566,121.21148681600002,28.574707031],"properties":{"id":"bulk-99377448B43290754724916","name":"Wenzhou","nameEn":"Wenzhou","fullName":"Wenzhou","level":"city","boundaryRole":"administrative-extent","boundaryQuality":"generalized-source-2020","boundaryYearRepresented":"2020","bounds":[[119.60852050800001,27.160705566],[121.21148681600002,28.574707031]],"center":[120.41000366200001,27.8677062985],"centerMethod":"bounding-box midpoint; camera framing only","license":"CC-BY-3.0-IGO","attribution":"geoBoundaries / HDX, China administrative boundaries (2020)","source":{"provider":"geoBoundaries gbHumanitarian / HDX","url":"https://github.com/wmgeolab/geoBoundaries/raw/9469f09/releaseData/gbHumanitarian/CHN/ADM2/geoBoundaries-CHN-ADM2.geojson","metadataUrl":"https://www.geoboundaries.org/api/current/gbHumanitarian/CHN/ADM2/","shapeID":"99377448B43290754724916","shapeName":"Wenzhou","boundaryID":"CHN-ADM2-99377448","commit":"9469f09"},"geometryCounts":{"coordinates":362,"components":4,"holes":0},"boundaryNotice":"geoBoundaries / HDX 2020 年行政区数据，海岸和边界经过源数据概化，并非当前测绘成果。"},"geometry":{"type":"MultiPolygon","coordinates":[[[[120.46728515600002,27.160705566],[120.46807861300002,27.161071777],[120.46667480500001,27.160888672],[120.46728515600002,27.160705566]]],[[[120.78228759800001,27.999694824],[120.77807617200001,28.008483887],[120.77349853500002,28.013122559],[120.76531982400002,28.017272949],[120.75268554700001,28.018920898],[120.77050781200002,28.00567627],[120.78228759800001,27.999694824]]],[[[120.671691895,28.035095215],[120.68530273400002,28.03729248],[120.68591308600001,28.039672852],[120.66851806600002,28.040893555],[120.66888427700002,28.037109375],[120.671691895,28.035095215]]],[[[119.60852050800001,27.666687012],[119.61712646500001,27.663879395],[119.61669921900001,27.638671875],[119.63049316400001,27.611694336],[119.63348388700001,27.571899414],[119.66931152300002,27.519714355],[119.68469238300001,27.490722656],[119.69812011700002,27.460083008],[119.70648193400001,27.421691895],[119.71630859400001,27.38671875],[119.72747802700002,27.362487793],[119.73889160200001,27.338317871],[119.75109863300001,27.296875],[119.77447509800001,27.298278809],[119.78808593700002,27.299316406],[119.79168701200001,27.306274414],[119.83447265600002,27.31628418],[119.85913085900002,27.307128906],[119.89849853500002,27.312927246],[119.91052246100001,27.330688477],[119.92431640600002,27.347473145],[119.93487548800002,27.360290527],[119.96789550800001,27.371887207],[119.98468017600001,27.357116699],[120.00689697300001,27.34552002],[120.02947998000002,27.348083496],[120.06170654300001,27.362487793],[120.07427978500002,27.384887695],[120.10052490200002,27.410522461],[120.11907959000001,27.423522949],[120.15850830100001,27.428283691],[120.20550537100002,27.409118652],[120.24688720700001,27.395690918],[120.27789306600002,27.398498535],[120.31311035200001,27.403686523],[120.32751464800002,27.394287109],[120.33270263700001,27.366882324],[120.328125,27.34387207],[120.37750244100002,27.289489746],[120.39929199200002,27.275085449],[120.39587402300002,27.233886719],[120.39550781200002,27.210693359],[120.40112304700001,27.189880371],[120.40350341800001,27.18572998],[120.41632080100001,27.175720215],[120.41748046900001,27.176086426],[120.42248535200001,27.182312012],[120.42108154300001,27.183105469],[120.41912841800001,27.192321777],[120.42132568400001,27.1953125],[120.42547607400002,27.1953125],[120.42968750000001,27.197692871],[120.43151855500001,27.208129883],[120.44451904300001,27.209106445],[120.44769287100002,27.218688965],[120.45092773400002,27.218688965],[120.45727539100001,27.216491699],[120.46228027300002,27.209289551],[120.46630859400001,27.20690918],[120.46850585900002,27.205688477],[120.46832275400001,27.194885254],[120.46630859400001,27.189880371],[120.45989990200002,27.190917969],[120.45867919900002,27.188293457],[120.46270752,27.181518555],[120.46350097700001,27.174682617],[120.47088623000002,27.165100098],[120.47308349600002,27.163879395],[120.48211669900002,27.169128418],[120.48968505900001,27.180114746],[120.49810791000002,27.187683105],[120.49731445300002,27.205505371],[120.51568603500002,27.223083496],[120.50952148400002,27.258483887],[120.53790283200001,27.288879395],[120.51452636700002,27.321105957],[120.51989746100001,27.328674316],[120.51007080100001,27.335876465],[120.50909423800002,27.338317871],[120.51348877,27.338317871],[120.52087402300002,27.335876465],[120.52569580100001,27.337097168],[120.53228759800001,27.346313477],[120.53070068400001,27.349914551],[120.53210449200002,27.358093262],[120.53509521500001,27.357910156],[120.53350830100001,27.377075195],[120.52832031200002,27.394897461],[120.53930664100001,27.401306152],[120.54327392600001,27.399902344],[120.54412841800001,27.401916504],[120.54492187500001,27.402282715],[120.54748535200001,27.403320312],[120.55267334000001,27.403320312],[120.56170654300001,27.399108887],[120.57550048800002,27.395874023],[120.58209228500002,27.386901855],[120.59112548800002,27.378295898],[120.59429931600002,27.381530762],[120.59912109400001,27.383117676],[120.60247802700002,27.388305664],[120.61029052700002,27.390075684],[120.61108398400002,27.381103516],[120.61370849600002,27.378723145],[120.62188720700001,27.376708984],[120.62109375000001,27.373718262],[120.61547851600001,27.36932373],[120.61511230500001,27.366088867],[120.62030029300001,27.362487793],[120.62170410200001,27.362304687],[120.62792968700002,27.37689209],[120.62731933600001,27.397888184],[120.63311767600001,27.421081543],[120.63928222700001,27.426696777],[120.63989257800002,27.428100586],[120.64288330100001,27.4296875],[120.64947509800001,27.43548584],[120.64990234400001,27.437683105],[120.64727783200001,27.443908691],[120.65710449200002,27.443481445],[120.66528320300002,27.456726074],[120.63708496100001,27.491271973],[120.62768554700001,27.482910156],[120.60650634800001,27.479492187],[120.59411621100001,27.506103516],[120.58508300800001,27.536315918],[120.58349609400001,27.558288574],[120.554504395,27.559875488],[120.53649902300002,27.56628418],[120.54071044900002,27.57208252],[120.56890869100002,27.582275391],[120.58050537100002,27.586120605],[120.59472656200002,27.585876465],[120.59429931600002,27.586914062],[120.59710693400001,27.594482422],[120.60449218700002,27.596313477],[120.61047363300001,27.601928711],[120.61791992200001,27.595275879],[120.62127685500002,27.594909668],[120.62768554700001,27.599487305],[120.63568115200002,27.599121094],[120.63848877,27.600708008],[120.63708496100001,27.604919434],[120.64007568400001,27.610473633],[120.64050293000001,27.614929199],[120.65209960900002,27.612487793],[120.65747070300002,27.614929199],[120.66168212900001,27.62890625],[120.65789794900002,27.635681152],[120.65832519500002,27.635681152],[120.65252685500002,27.641723633],[120.65808105500001,27.653076172],[120.65911865200002,27.65612793],[120.65789794900002,27.657104492],[120.65710449200002,27.659729004],[120.66229248000002,27.674072266],[120.66271972700001,27.676330566],[120.66131591800001,27.682128906],[120.64367675800001,27.708312988],[120.62609863300001,27.727294922],[120.60913085900002,27.76171875],[120.63952636700002,27.745300293],[120.66589355500001,27.729125977],[120.679504395,27.722106934],[120.68029785200001,27.722900391],[120.6875,27.720092773],[120.69689941400001,27.719482422],[120.70227050800001,27.720092773],[120.71008300800001,27.723327637],[120.72491455100001,27.736694336],[120.73211669900002,27.742675781],[120.73590087900001,27.748718262],[120.74047851600001,27.76348877],[120.74688720700001,27.774475098],[120.74969482400002,27.785888672],[120.75952148400002,27.796081543],[120.76428222700001,27.803894043],[120.77069091800001,27.813720703],[120.78729248000002,27.82611084],[120.80731201200001,27.847473145],[120.82952880900001,27.860473633],[120.83673095700001,27.862915039],[120.83752441400001,27.875305176],[120.84008789100001,27.896118164],[120.83728027300002,27.916503906],[120.81988525400001,27.938293457],[120.79248046900001,27.944274902],[120.77508544900002,27.948730469],[120.74249267600001,27.955322266],[120.73632812500001,27.960693359],[120.72930908200001,27.966674805],[120.72113037100002,27.977478027],[120.70788574200002,27.988708496],[120.70147705100001,27.992675781],[120.68188476600001,28.008300781],[120.69787597700001,28.016479492],[120.70007324200002,28.01751709],[120.69049072300001,28.018676758],[120.67352294900002,28.019897461],[120.66351318400001,28.025878906],[120.65588378900001,28.026489258],[120.65032959000001,28.024902344],[120.64312744100002,28.03692627],[120.65832519500002,28.040893555],[120.66668701200001,28.051086426],[120.67230224600002,28.048278809],[120.67968750000001,28.044311523],[120.68811035200001,28.045288086],[120.69372558600001,28.040710449],[120.73889160200001,28.03112793],[120.76428222700001,28.024291992],[120.77868652300002,28.018920898],[120.78790283200001,28.010498047],[120.79107666000002,28.00769043],[120.796691895,27.996520996],[120.80108642600001,27.993530273],[120.81872558600001,27.989074707],[120.82568359400001,27.989501953],[120.83728027300002,27.99407959],[120.85711669900002,27.99810791],[120.87969970700001,27.998474121],[120.90728759800001,27.992126465],[120.91607666000002,27.991088867],[120.92651367200001,27.989929199],[120.94592285200001,27.980102539],[120.94769287100002,27.98651123],[120.95507812500001,27.983886719],[120.95849609400001,27.985107422],[120.95452880900001,27.991088867],[120.96667480500001,28.00769043],[120.97552490200002,28.02331543],[120.97827148400002,28.026489258],[120.98010253900001,28.034912109],[120.98767089800002,28.063476562],[120.97869873000002,28.084472656],[120.99768066400001,28.129089355],[121.01251220700001,28.131103516],[121.02331543000001,28.145324707],[121.02648925800001,28.147277832],[121.03448486300002,28.142883301],[121.04290771500001,28.143493652],[121.04370117200001,28.143493652],[121.05047607400002,28.147888184],[121.05828857400002,28.15032959],[121.07769775400001,28.167724609],[121.08190918000001,28.168273926],[121.08691406200002,28.165527344],[121.08709716800001,28.165710449],[121.08807373000002,28.182922363],[121.09692382800002,28.187072754],[121.09649658200001,28.190307617],[121.10351562500001,28.199890137],[121.10247802700002,28.204528809],[121.10827636700002,28.208496094],[121.10992431600002,28.21472168],[121.11328125000001,28.226318359],[121.05133056600002,28.230102539],[121.02288818400001,28.269287109],[121.02667236300002,28.304077148],[121.04650878900001,28.30670166],[121.04608154300001,28.307678223],[121.04931640600002,28.31072998],[121.05828857400002,28.30871582],[121.05871582000002,28.308288574],[121.07507324200002,28.310302734],[121.09631347700001,28.330322266],[121.11328125000001,28.367126465],[121.13830566400001,28.389282227],[121.16967773400002,28.381896973],[121.17028808600001,28.38269043],[121.16888427700002,28.387329102],[121.16967773400002,28.386901855],[121.17132568400001,28.389282227],[121.17633056600002,28.390075684],[121.19128418000001,28.386474609],[121.19909668000001,28.38848877],[121.21148681600002,28.402282715],[121.18609619100002,28.418518066],[121.17407226600001,28.451904297],[121.16888427700002,28.479492187],[121.14251709000001,28.505310059],[121.11108398400002,28.510681152],[121.07287597700001,28.497497559],[121.04229736300002,28.473327637],[120.95007324200002,28.474121094],[120.91650390600002,28.470703125],[120.88067627,28.473083496],[120.84887695300002,28.47668457],[120.82611084000001,28.496276855],[120.81732177700002,28.52331543],[120.79809570300002,28.574707031],[120.76690673800002,28.558105469],[120.72912597700001,28.566711426],[120.69152832000002,28.56829834],[120.64172363300001,28.561096191],[120.62548828100002,28.53527832],[120.59649658200001,28.518676758],[120.56628418000001,28.526123047],[120.53808593700002,28.540283203],[120.49768066400001,28.557495117],[120.45330810500002,28.566711426],[120.41607666000002,28.5546875],[120.41632080100001,28.519287109],[120.41571044900002,28.48651123],[120.40808105500001,28.458312988],[120.37249755900001,28.464294434],[120.36651611300002,28.424499512],[120.35827636700002,28.395507812],[120.32830810500002,28.413085937],[120.30310058600001,28.388671875],[120.33032226600001,28.350097656],[120.38012695300002,28.30847168],[120.39190673800002,28.24987793],[120.39111328100002,28.217285156],[120.38348388700001,28.190124512],[120.36688232400002,28.155517578],[120.37487793000001,28.124084473],[120.35607910200001,28.091674805],[120.33691406200002,28.058288574],[120.32208252,28.02947998],[120.27368164100001,27.983520508],[120.23291015600002,27.97467041],[120.20672607400002,27.959716797],[120.17248535200001,27.920288086],[120.13012695300002,27.963317871],[120.09649658200001,27.977111816],[120.05609130900001,27.965087891],[120.01428222700001,27.952270508],[119.97448730500001,27.937683105],[119.94268798800002,27.937316895],[119.93847656200002,27.964111328],[119.90527343700002,27.970703125],[119.87707519500002,27.949890137],[119.86029052700002,27.980529785],[119.80609130900001,27.921508789],[119.77032470700001,27.915893555],[119.77008056600002,27.887695312],[119.76629638700001,27.846679687],[119.73992919900002,27.81628418],[119.72351074200002,27.785705566],[119.69348144500002,27.764526367],[119.66149902300002,27.753723145],[119.63549804700001,27.727294922],[119.61987304700001,27.702514648],[119.60852050800001,27.666687012]]]]}}
