{"type":"Feature","id":"bulk-99377448B58261692517016","bbox":[82.019714355,27.267883301,90.38427734400001,31.829528809],"properties":{"id":"bulk-99377448B58261692517016","name":"Xigazê","nameEn":"Xigazê","fullName":"Xigazê","level":"city","boundaryRole":"administrative-extent","boundaryQuality":"generalized-source-2020","boundaryYearRepresented":"2020","bounds":[[82.019714355,27.267883301],[90.38427734400001,31.829528809]],"center":[86.20199584950001,29.548706055],"centerMethod":"bounding-box midpoint; camera framing only","license":"CC-BY-3.0-IGO","attribution":"geoBoundaries / HDX, China administrative boundaries (2020)","source":{"provider":"geoBoundaries gbHumanitarian / HDX","url":"https://github.com/wmgeolab/geoBoundaries/raw/9469f09/releaseData/gbHumanitarian/CHN/ADM2/geoBoundaries-CHN-ADM2.geojson","metadataUrl":"https://www.geoboundaries.org/api/current/gbHumanitarian/CHN/ADM2/","shapeID":"99377448B58261692517016","shapeName":"Xigazê","boundaryID":"CHN-ADM2-99377448","commit":"9469f09"},"geometryCounts":{"coordinates":1507,"components":1,"holes":0},"boundaryNotice":"geoBoundaries / HDX 2020 年行政区数据，海岸和边界经过源数据概化，并非当前测绘成果。"},"geometry":{"type":"Polygon","coordinates":[[[90.046875,29.921875],[90.02252197300001,29.942321777],[89.978271484,29.98828125],[89.94830322300001,30.001281738],[89.91827392600001,30.032287598],[89.89447021500001,30.064880371],[89.87188720700001,30.093078613],[89.84069824200002,30.113098145],[89.81567382800002,30.129882812],[89.77368164100001,30.147521973],[89.73712158200001,30.170898437],[89.69989013700001,30.190917969],[89.67071533200001,30.208312988],[89.63427734400001,30.229919434],[89.597473145,30.252929687],[89.570495605,30.266906738],[89.53210449200002,30.269897461],[89.47528076200001,30.254516602],[89.421875,30.252075195],[89.39752197300001,30.231506348],[89.36450195300002,30.248291016],[89.33752441400001,30.272888184],[89.29608154300001,30.261108398],[89.254882812,30.258911133],[89.23907470700001,30.292297363],[89.20050048800002,30.29888916],[89.17431640600002,30.273681641],[89.14929199200002,30.250915527],[89.10870361300002,30.253479004],[89.07287597700001,30.265319824],[89.020507812,30.249328613],[88.995117187,30.217712402],[88.96490478500002,30.200073242],[88.92468261700002,30.215881348],[88.88830566400001,30.213317871],[88.836120605,30.190917969],[88.794677734,30.206298828],[88.74487304700001,30.221130371],[88.709899902,30.223876953],[88.66668701200001,30.212280273],[88.644287109,30.171691895],[88.61590576200001,30.147277832],[88.58007812500001,30.125671387],[88.56750488300001,30.090087891],[88.538085937,30.068481445],[88.49688720700001,30.082885742],[88.48248291000002,30.127075195],[88.49951171900001,30.16192627],[88.49450683600001,30.193481445],[88.46569824200002,30.215270996],[88.43249511700002,30.245483398],[88.377929687,30.264526367],[88.34069824200002,30.272094727],[88.31707763700001,30.245483398],[88.28131103500002,30.232727051],[88.24670410200001,30.223693848],[88.21569824200002,30.235473633],[88.19927978500002,30.261474609],[88.16748046900001,30.26751709],[88.13989257800002,30.282470703],[88.12408447300001,30.305908203],[88.11932373,30.334472656],[88.113098145,30.367675781],[88.087280273,30.384094238],[88.04870605500001,30.366882324],[87.98632812500001,30.389709473],[87.93371582000002,30.371887207],[87.90087890600002,30.380310059],[87.86212158200001,30.384277344],[87.828674316,30.380493164],[87.79711914100001,30.36730957],[87.76647949200002,30.334472656],[87.72607421900001,30.346313477],[87.67889404300001,30.349304199],[87.66027832000002,30.372314453],[87.63171386700002,30.385681152],[87.58068847700001,30.376708984],[87.553710937,30.392700195],[87.52270507800002,30.431884766],[87.55047607400002,30.48248291],[87.55651855500001,30.512878418],[87.49987793000001,30.511108398],[87.46887207000002,30.520874023],[87.43548584000001,30.52911377],[87.40728759800001,30.516296387],[87.37451171900001,30.531677246],[87.34552002,30.551513672],[87.31628418000001,30.540710449],[87.28149414100001,30.54510498],[87.24670410200001,30.56427002],[87.20611572300001,30.558288574],[87.170471191,30.562072754],[87.16668701200001,30.58972168],[87.17370605500001,30.62487793],[87.18231201200001,30.660095215],[87.18408203100002,30.691711426],[87.17150878900001,30.720275879],[87.135681152,30.749511719],[87.11907959000001,30.779296875],[87.11828613300001,30.8125],[87.12347412100002,30.838928223],[87.12927246100001,30.869506836],[87.12268066400001,30.902526855],[87.09289550800001,30.923095703],[87.06329345700001,30.905273437],[87.03930664100001,30.884094238],[87.03509521500001,30.853881836],[87.04168701200001,30.822692871],[87.01708984400001,30.792480469],[86.98547363300001,30.777099609],[86.9375,30.762329102],[86.895874023,30.750915527],[86.88830566400001,30.777893066],[86.91430664100001,30.809692383],[86.94067382800002,30.836914062],[86.960693359,30.861694336],[86.96948242200001,30.887878418],[86.97332763700001,30.919921875],[86.93048095700001,30.913513184],[86.884521484,30.901489258],[86.845092773,30.906677246],[86.80987548800002,30.907714844],[86.77447509800001,30.884521484],[86.77349853500002,30.854919434],[86.74731445300002,30.823913574],[86.768493652,30.789306641],[86.79711914100001,30.766906738],[86.80792236300002,30.739501953],[86.81207275400001,30.711120605],[86.79327392600001,30.688903809],[86.81488037100002,30.660522461],[86.85668945300002,30.658874512],[86.895874023,30.653930664],[86.89050293000001,30.62487793],[86.92230224600002,30.592102051],[86.93988037100002,30.565917969],[86.94909668000001,30.535522461],[86.91088867200001,30.535888672],[86.879089355,30.558898926],[86.83807373,30.55267334],[86.804870605,30.551513672],[86.768493652,30.56628418],[86.73211669900002,30.553283691],[86.70489502,30.53527832],[86.68511962900001,30.512329102],[86.653686523,30.496276855],[86.65087890600002,30.468688965],[86.65649414100001,30.435302734],[86.62310791000002,30.413879395],[86.58587646500001,30.421875],[86.54888916000002,30.446716309],[86.54028320300002,30.473510742],[86.49987793000001,30.475708008],[86.45947265600002,30.471313477],[86.44409179700001,30.511901855],[86.45788574200002,30.551696777],[86.45648193400001,30.586730957],[86.44567871100001,30.618286133],[86.42492675800001,30.643493652],[86.41430664100001,30.671691895],[86.42651367200001,30.706481934],[86.42248535200001,30.733520508],[86.40191650400001,30.756286621],[86.37329101600001,30.782714844],[86.351318359,30.813720703],[86.34368896500001,30.847106934],[86.33990478500002,30.883483887],[86.327880859,30.916687012],[86.33129882800002,30.94732666],[86.30310058600001,30.971679687],[86.27111816400001,30.984313965],[86.235290527,31.004516602],[86.202880859,31.027709961],[86.16949462900001,31.010925293],[86.145874023,30.990478516],[86.08331298800002,30.981079102],[86.077514648,30.930297852],[86.08630371100001,30.899475098],[86.09027099600002,30.872314453],[86.08947753900001,30.840270996],[86.07727050800001,30.811096191],[86.04870605500001,30.78692627],[86.02069091800001,30.772888184],[85.977478027,30.756713867],[85.943481445,30.770507812],[85.90032959000001,30.768493652],[85.86529541000002,30.768493652],[85.83508300800001,30.782714844],[85.813476562,30.75970459],[85.82208252,30.731079102],[85.843505859,30.708496094],[85.86389160200001,30.68371582],[85.83587646500001,30.669128418],[85.802490234,30.678527832],[85.77728271500001,30.69708252],[85.74090576200001,30.686279297],[85.72528076200001,30.656311035],[85.75268554700001,30.623474121],[85.78869628900001,30.614929199],[85.81872558600001,30.60369873],[85.85748291000002,30.586914062],[85.894714355,30.558898926],[85.91009521500001,30.524475098],[85.91711425800001,30.484680176],[85.91412353500002,30.448486328],[85.91009521500001,30.421508789],[85.89672851600001,30.391113281],[85.88189697300001,30.362121582],[85.86529541000002,30.333496094],[85.84832763700001,30.307128906],[85.82531738300001,30.285705566],[85.79010009800001,30.273071289],[85.81567382800002,30.241271973],[85.85388183600001,30.22869873],[85.89007568400001,30.213317871],[85.913879395,30.186706543],[85.88409423800002,30.160522461],[85.86791992200001,30.13269043],[85.87487793000001,30.095275879],[85.86651611300002,30.063903809],[85.84490966800001,30.043701172],[85.803710937,30.034729004],[85.778320312,30.010070801],[85.73950195300002,30.00189209],[85.70471191400001,29.984130859],[85.70867919900002,29.940673828],[85.67388916000002,29.924682617],[85.63891601600001,29.928100586],[85.59771728500002,29.93347168],[85.56127929700001,29.919677734],[85.55908203100002,29.885314941],[85.54968261700002,29.856323242],[85.52368164100001,29.832885742],[85.488098145,29.830505371],[85.46569824200002,29.85748291],[85.43432617200001,29.850280762],[85.413879395,29.81829834],[85.40747070300002,29.774902344],[85.42071533200001,29.74609375],[85.393127441,29.720092773],[85.35510253900001,29.698120117],[85.32067871100001,29.683105469],[85.29772949200002,29.706298828],[85.26391601600001,29.72052002],[85.23449707,29.707275391],[85.19189453100002,29.711914062],[85.17010498,29.731689453],[85.136474609,29.756286621],[85.10028076200001,29.780273437],[85.07067871100001,29.801513672],[85.03192138700001,29.827880859],[84.996276855,29.849304199],[84.96832275400001,29.872497559],[84.93890380900001,29.890686035],[84.92388916000002,29.919677734],[84.89709472700001,29.937927246],[84.87890625000001,29.962280273],[84.86627197300001,29.99029541],[84.83050537100002,29.989929199],[84.76550293000001,30.00592041],[84.75427246100001,30.04107666],[84.75549316400001,30.07611084],[84.74230957,30.102111816],[84.751708984,30.133483887],[84.75592041000002,30.169128418],[84.74951171900001,30.198120117],[84.72113037100002,30.22869873],[84.71832275400001,30.271118164],[84.6875,30.287719727],[84.65228271500001,30.329711914],[84.60687255900001,30.385681152],[84.60168457,30.422302246],[84.635314941,30.460876465],[84.611877441,30.48449707],[84.58032226600001,30.509277344],[84.571289062,30.539306641],[84.53472900400001,30.576477051],[84.51989746100001,30.616516113],[84.55389404300001,30.62512207],[84.543518066,30.656311035],[84.53967285200001,30.689880371],[84.56048584000001,30.725280762],[84.59088134800001,30.749511719],[84.61529541000002,30.77947998],[84.63189697300001,30.808898926],[84.65747070300002,30.840881348],[84.68487548800002,30.866088867],[84.71447753900001,30.876098633],[84.74810791000002,30.891113281],[84.74829101600001,30.921691895],[84.78369140600002,30.93371582],[84.76867675800001,30.97088623],[84.74108886700002,30.985717773],[84.701293945,30.997924805],[84.70648193400001,31.044921875],[84.68908691400001,31.082702637],[84.65948486300002,31.112670898],[84.67590332,31.158081055],[84.69671630900001,31.183898926],[84.67211914100001,31.203918457],[84.627502441,31.1953125],[84.59210205100001,31.200317383],[84.57330322300001,31.240722656],[84.57031250000001,31.274475098],[84.55609130900001,31.301513672],[84.52130127,31.318725586],[84.49987793000001,31.343505859],[84.46710205100001,31.367675781],[84.43347168000001,31.377685547],[84.413085937,31.348083496],[84.37609863300001,31.354492187],[84.343078613,31.366882324],[84.358703613,31.397888184],[84.38232421900001,31.425292969],[84.40808105500001,31.448303223],[84.43872070300002,31.471679687],[84.47070312500001,31.481689453],[84.51409912100002,31.48248291],[84.552490234,31.497497559],[84.585693359,31.515319824],[84.626708984,31.518920898],[84.65692138700001,31.531677246],[84.64532470700001,31.567321777],[84.63269043000001,31.600280762],[84.63427734400001,31.637695312],[84.67968750000001,31.672302246],[84.652526855,31.691711426],[84.61450195300002,31.708496094],[84.57928466800001,31.706481934],[84.53631591800001,31.705688477],[84.49792480500001,31.711120605],[84.46551513700001,31.734924316],[84.45568847700001,31.76550293],[84.44409179700001,31.805297852],[84.40612793000001,31.829528809],[84.362670898,31.822875977],[84.361083984,31.788879395],[84.38348388700001,31.752502441],[84.39770507800002,31.710876465],[84.41027832,31.680114746],[84.38848877,31.65411377],[84.355285645,31.653686523],[84.32849121100001,31.623474121],[84.31170654300001,31.650878906],[84.27587890600002,31.67791748],[84.23132324200002,31.685302734],[84.15087890600002,31.682312012],[84.134094238,31.654296875],[84.111877441,31.631896973],[84.08807373,31.651916504],[84.052124023,31.645324707],[84.020080566,31.635681152],[83.97692871100001,31.65447998],[83.935302734,31.665710449],[83.886901855,31.66192627],[83.86132812500001,31.638305664],[83.84930419900002,31.610473633],[83.81671142600001,31.618103027],[83.76428222700001,31.653076172],[83.71667480500001,31.663879395],[83.659484863,31.65612793],[83.610290527,31.635070801],[83.57952880900001,31.620300293],[83.52148437500001,31.587280273],[83.475891113,31.600280762],[83.454101562,31.620300293],[83.43127441400001,31.644714355],[83.40008544900002,31.654296875],[83.36407470700001,31.652099609],[83.32989502,31.652709961],[83.28509521500001,31.660705566],[83.24108886700002,31.64050293],[83.21008300800001,31.621276855],[83.16748046900001,31.60369873],[83.13330078100002,31.590087891],[83.09613037100002,31.568481445],[83.06048584000001,31.536499023],[83.04211425800001,31.509887695],[83.071289062,31.473876953],[83.12451171900001,31.43371582],[83.15771484400001,31.401489258],[83.192687988,31.391296387],[83.19927978500002,31.423095703],[83.243896484,31.422119141],[83.27032470700001,31.388122559],[83.270507812,31.353515625],[83.27288818400001,31.312072754],[83.27691650400001,31.269470215],[83.26831054700001,31.235900879],[83.24127197300001,31.215515137],[83.20812988300001,31.196289062],[83.18347168000001,31.148925781],[83.179504395,31.098083496],[83.16192627,31.059082031],[83.13891601600001,31.000671387],[83.12530517600001,30.967895508],[83.10650634800001,30.936706543],[83.078125,30.909912109],[83.05072021500001,30.894714355],[83.04309082,30.854492187],[83.07250976600001,30.836303711],[83.11090087900001,30.834899902],[83.14227294900002,30.828674316],[83.163879395,30.79888916],[83.16912841800001,30.765930176],[83.168518066,30.729492187],[83.15509033200001,30.671875],[83.13232421900001,30.635314941],[83.12408447300001,30.600708008],[83.09130859400001,30.578674316],[83.069702148,30.553283691],[83.02893066400001,30.538696289],[83.001281738,30.555480957],[82.97271728500002,30.570922852],[82.938476562,30.590881348],[82.93908691400001,30.630493164],[82.93432617200001,30.662109375],[82.905273437,30.689697266],[82.86791992200001,30.692871094],[82.83850097700001,30.713684082],[82.820129395,30.74230957],[82.80468750000001,30.767089844],[82.783325195,30.805297852],[82.74450683600001,30.814880371],[82.73388671900001,30.842529297],[82.702880859,30.863708496],[82.669311523,30.88848877],[82.653686523,30.922119141],[82.626281738,30.94732666],[82.59588623,30.929870605],[82.55688476600001,30.912475586],[82.51330566400001,30.905700684],[82.487670898,30.882873535],[82.48132324200002,30.853881836],[82.47467041000002,30.821105957],[82.466918945,30.788879395],[82.467712402,30.742919922],[82.49169921900001,30.706481934],[82.50787353500002,30.678894043],[82.50830078100002,30.64630127],[82.508728027,30.605895996],[82.51531982400002,30.573913574],[82.50311279300001,30.539123535],[82.46173095700001,30.544677734],[82.43011474600002,30.55670166],[82.39929199200002,30.56451416],[82.35687255900001,30.558898926],[82.31091308600001,30.535888672],[82.277893066,30.530517578],[82.24731445300002,30.545898437],[82.20751953100002,30.558288574],[82.179504395,30.540710449],[82.15472412100002,30.513305664],[82.12768554700001,30.530883789],[82.09631347700001,30.552124023],[82.05932617200001,30.558898926],[82.03308105500001,30.540100098],[82.020080566,30.50567627],[82.019714355,30.471313477],[82.03210449200002,30.435302734],[82.04510498,30.410705566],[82.05969238300001,30.384887695],[82.077880859,30.354919434],[82.08087158200001,30.356079102],[82.08947753900001,30.352111816],[82.10009765600002,30.34967041],[82.10607910200001,30.356079102],[82.12768554700001,30.335876465],[82.13348388700001,30.32232666],[82.134887695,30.289672852],[82.13848877,30.269714355],[82.14990234400001,30.236877441],[82.163085937,30.198486328],[82.17248535200001,30.190490723],[82.177124023,30.191101074],[82.18347168000001,30.190307617],[82.18627929700001,30.188476562],[82.186096191,30.184509277],[82.20727539100001,30.176513672],[82.24011230500001,30.130126953],[82.20190429700001,30.118713379],[82.21252441400001,30.084472656],[82.21588134800001,30.068481445],[82.221679687,30.067871094],[82.22912597700001,30.068725586],[82.23168945300002,30.070129395],[82.238098145,30.073486328],[82.24450683600001,30.074523926],[82.251281738,30.072509766],[82.25653076200001,30.068908691],[82.294677734,30.071899414],[82.30548095700001,30.040100098],[82.30871582,30.038696289],[82.31689453100002,30.041503906],[82.32952880900001,30.047119141],[82.33111572300001,30.047912598],[82.33587646500001,30.047302246],[82.34069824200002,30.043273926],[82.34710693400001,30.045288086],[82.36767578100002,30.030517578],[82.37152099600002,30.019470215],[82.374328613,30.026306152],[82.379089355,30.026916504],[82.395874023,30.020690918],[82.40307617200001,30.01751709],[82.40612793000001,30.018310547],[82.419311523,30.02532959],[82.44610595700001,30.012084961],[82.47351074200002,29.977478027],[82.50152587900001,29.950317383],[82.50671386700002,29.950683594],[82.50769043000001,29.950927734],[82.51232910200001,29.953918457],[82.517700195,29.957885742],[82.52490234400001,29.961303711],[82.53308105500001,29.96307373],[82.53967285200001,29.962890625],[82.551330566,29.961730957],[82.55889892600001,29.958496094],[82.56567382800002,29.947509766],[82.594726562,29.943115234],[82.63330078100002,29.897888184],[82.653320312,29.884887695],[82.66229248,29.868286133],[82.64990234400001,29.835876465],[82.651672363,29.836486816],[82.66210937500001,29.840270996],[82.66949462900001,29.843505859],[82.679504395,29.848510742],[82.68548584000001,29.851074219],[82.686523437,29.851501465],[82.69451904300001,29.851928711],[82.701721191,29.850708008],[82.710327148,29.843322754],[82.73168945300002,29.856079102],[82.725524902,29.831115723],[82.72869873,29.828674316],[82.73352050800001,29.821105957],[82.736083984,29.812927246],[82.735290527,29.809326172],[82.727111816,29.803710937],[82.72088623,29.799316406],[82.71728515600002,29.798278809],[82.712280273,29.778686523],[82.71331787100002,29.765930176],[82.71990966800001,29.766723633],[82.72772216800001,29.768493652],[82.73748779300001,29.769104004],[82.745910645,29.768676758],[82.74609375000001,29.768676758],[82.75469970700001,29.765075684],[82.754882812,29.764709473],[82.76727294900002,29.766723633],[82.784118652,29.739685059],[82.802490234,29.724487305],[82.83551025400001,29.73449707],[82.84832763700001,29.696105957],[82.86047363300001,29.690307617],[82.868103027,29.690490723],[82.87469482400002,29.689697266],[82.88348388700001,29.692077637],[82.894714355,29.70111084],[82.90307617200001,29.702514648],[82.91052246100001,29.704101562],[82.911071777,29.704284668],[82.918518066,29.70489502],[82.93127441400001,29.707275391],[82.93890380900001,29.709716797],[82.944274902,29.712097168],[82.94610595700001,29.707885742],[82.94671630900001,29.701293945],[82.95971679700001,29.706115723],[82.97027587900001,29.690917969],[82.98150634800001,29.666503906],[82.98187255900001,29.666687012],[82.99249267600001,29.668701172],[83.004882812,29.67010498],[83.00567627,29.670288086],[83.01507568400001,29.672485352],[83.036499023,29.671081543],[83.0625,29.652893066],[83.086486816,29.637084961],[83.09991455100001,29.626098633],[83.109924316,29.618286133],[83.11730957,29.623474121],[83.11987304700001,29.625305176],[83.126281738,29.626525879],[83.13470459000001,29.624511719],[83.14569091800001,29.622924805],[83.14630127,29.622680664],[83.15191650400001,29.625488281],[83.17529296900001,29.615112305],[83.186096191,29.599914551],[83.187316895,29.600891113],[83.188476562,29.602111816],[83.19171142600001,29.605895996],[83.19689941400001,29.60748291],[83.202087402,29.606689453],[83.20629882800002,29.605895996],[83.21289062500001,29.603881836],[83.237670898,29.612304687],[83.24572753900001,29.591674805],[83.30932617200001,29.565490723],[83.30511474600002,29.544677734],[83.29949951200001,29.528320312],[83.30047607400002,29.508728027],[83.311523437,29.500305176],[83.31207275400001,29.500488281],[83.317687988,29.503479004],[83.32269287100002,29.50592041],[83.32928466800001,29.503479004],[83.33068847700001,29.502685547],[83.344299316,29.506103516],[83.35949707,29.503112793],[83.37390136700002,29.479309082],[83.38507080100001,29.451904297],[83.41552734400001,29.426086426],[83.44647216800001,29.418518066],[83.44012451200001,29.364318848],[83.46051025400001,29.341918945],[83.48052978500002,29.300720215],[83.50469970700001,29.277282715],[83.536499023,29.266906738],[83.561889648,29.222290039],[83.57232666000002,29.208312988],[83.57568359400001,29.207275391],[83.57611084000001,29.203308105],[83.57928466800001,29.19909668],[83.61492919900002,29.180297852],[83.65490722700001,29.178527832],[83.65728759800001,29.17767334],[83.65850830100001,29.180114746],[83.659118652,29.18347168],[83.659912109,29.193481445],[83.66333007800002,29.19732666],[83.66467285200001,29.203491211],[83.67028808600001,29.206298828],[83.678283691,29.210693359],[83.684509277,29.215087891],[83.68829345700001,29.218688965],[83.68951416000002,29.220092773],[83.69409179700001,29.226501465],[83.70007324200002,29.231079102],[83.70391845700001,29.23449707],[83.70867919900002,29.238708496],[83.71411132800002,29.241516113],[83.716918945,29.243896484],[83.71948242200001,29.245117187],[83.72491455100001,29.247680664],[83.73327636700002,29.248718262],[83.73852539100001,29.258483887],[83.79248046900001,29.254272461],[83.79992675800001,29.255126953],[83.803283691,29.259521484],[83.80047607400002,29.268920898],[83.79748535200001,29.271728516],[83.79632568400001,29.274719238],[83.80389404300001,29.282470703],[83.81567382800002,29.294128418],[83.81787109400001,29.297302246],[83.82330322300001,29.30090332],[83.83367919900002,29.302490234],[83.84149169900002,29.296875],[83.84912109400001,29.298095703],[83.85510253900001,29.301879883],[83.86248779300001,29.307128906],[83.870910645,29.311889648],[83.88348388700001,29.316101074],[83.900512695,29.322509766],[83.909484863,29.326721191],[83.91510009800001,29.327880859],[83.92730712900001,29.326293945],[83.93188476600001,29.323913574],[83.95849609400001,29.32409668],[83.96130371100001,29.326477051],[83.96630859400001,29.328674316],[83.97729492200001,29.32989502],[83.98468017600001,29.328125],[83.99072265600002,29.32409668],[84.01867675800001,29.324279785],[84.001281738,29.294494629],[84.00689697300001,29.293884277],[84.03289794900002,29.293884277],[84.04949951200001,29.299926758],[84.05627441400001,29.299072266],[84.06311035200001,29.294311523],[84.08551025400001,29.294677734],[84.09252929700001,29.297485352],[84.10272216800001,29.295898437],[84.10369873,29.295288086],[84.12188720700001,29.295715332],[84.13427734400001,29.283691406],[84.14691162100002,29.250915527],[84.167724609,29.250915527],[84.193481445,29.250671387],[84.19848632800002,29.250488281],[84.21508789100001,29.243103027],[84.22967529300001,29.238098145],[84.22772216800001,29.227294922],[84.188476562,29.199523926],[84.193481445,29.169677734],[84.20947265600002,29.149902344],[84.22369384800001,29.111877441],[84.22088623,29.082092285],[84.20867919900002,29.05871582],[84.25189209000001,29.060119629],[84.26751709000001,29.048706055],[84.28088378900001,29.030273437],[84.267700195,28.992492676],[84.25671386700002,28.941101074],[84.251708984,28.922119141],[84.25231933600001,28.906311035],[84.320495605,28.890075684],[84.35192871100001,28.880493164],[84.41052246100001,28.877685547],[84.43591308600001,28.876525879],[84.42651367200001,28.85748291],[84.44750976600001,28.832275391],[84.45568847700001,28.8125],[84.466918945,28.790710449],[84.49487304700001,28.749328613],[84.544677734,28.76348877],[84.59411621100001,28.76550293],[84.627929687,28.740478516],[84.64288330100001,28.726928711],[84.72430419900002,28.684692383],[84.73828125000001,28.639099121],[84.80792236300002,28.627685547],[84.83288574200002,28.617492676],[84.85388183600001,28.601501465],[84.88391113300001,28.585876465],[84.88732910200001,28.587280273],[84.887695312,28.587524414],[84.89447021500001,28.590881348],[84.89910888700001,28.591674805],[84.90490722700001,28.592712402],[84.908325195,28.593078613],[84.946289062,28.617919922],[84.945129395,28.597106934],[84.98510742200001,28.607910156],[84.99108886700002,28.609130859],[84.99328613300001,28.615112305],[84.99932861300002,28.622070312],[85.00567627,28.629272461],[85.01708984400001,28.641479492],[85.02032470700001,28.645324707],[85.025512695,28.664123535],[85.04449462900001,28.667480469],[85.054504395,28.67791748],[85.05969238300001,28.678894043],[85.079101562,28.694885254],[85.111877441,28.686279297],[85.13092041000002,28.6953125],[85.15429687500001,28.682678223],[85.171875,28.670715332],[85.228271484,28.642272949],[85.19787597700001,28.580871582],[85.20928955100001,28.561096191],[85.202087402,28.55291748],[85.18670654300001,28.546875],[85.18432617200001,28.54309082],[85.17687988300001,28.536682129],[85.17010498,28.533691406],[85.16809082,28.529296875],[85.163879395,28.525085449],[85.16290283200001,28.51751709],[85.16271972700001,28.516113281],[85.15930175800001,28.503479004],[85.15789794900002,28.496276855],[85.15551757800002,28.49432373],[85.15148925800001,28.490905762],[85.14611816400001,28.486877441],[85.12768554700001,28.485900879],[85.120117187,28.482910156],[85.11547851600001,28.479125977],[85.13848877,28.443725586],[85.14807128900001,28.394287109],[85.143920898,28.36151123],[85.19329834000001,28.344482422],[85.23107910200001,28.344482422],[85.24871826200001,28.368286133],[85.27447509800001,28.365478516],[85.29992675800001,28.327087402],[85.32647705100001,28.317321777],[85.36907959000001,28.315490723],[85.40112304700001,28.306091309],[85.40270996100001,28.30847168],[85.40728759800001,28.314880371],[85.411499023,28.322875977],[85.41607666000002,28.329528809],[85.427124023,28.332519531],[85.429504395,28.332885742],[85.43389892600001,28.333312988],[85.44610595700001,28.338684082],[85.452087402,28.337280273],[85.45568847700001,28.336730957],[85.47271728500002,28.348083496],[85.53228759800001,28.351074219],[85.56072998,28.327270508],[85.609924316,28.325073242],[85.63067627,28.30267334],[85.63830566400001,28.276123047],[85.64831543000001,28.287475586],[85.653320312,28.301513672],[85.65728759800001,28.31451416],[85.65887451200001,28.32208252],[85.65972900400001,28.331115723],[85.66571044900002,28.345275879],[85.67248535200001,28.346313477],[85.68048095700001,28.347473145],[85.68072509800001,28.379699707],[85.68572998,28.382080078],[85.69732666000002,28.382324219],[85.71008300800001,28.385070801],[85.71447753900001,28.383728027],[85.71630859400001,28.380126953],[85.72491455100001,28.385314941],[85.752929687,28.388671875],[85.76647949200002,28.356872559],[85.77270507800002,28.328308105],[85.78112793000001,28.288879395],[85.79632568400001,28.258483887],[85.813476562,28.237121582],[85.83630371100001,28.202697754],[85.86389160200001,28.196716309],[85.89868164100001,28.169677734],[85.91552734400001,28.137695312],[85.93048095700001,28.104492187],[85.93548584000001,28.071899414],[85.96667480500001,28.034729004],[86.001708984,28.014099121],[85.96752929700001,27.969116211],[85.97930908200001,27.961486816],[86.004882812,27.939880371],[86.06549072300001,27.915710449],[86.12432861300002,27.9375],[86.12408447300001,27.939086914],[86.119689941,27.944519043],[86.11791992200001,27.945678711],[86.11212158200001,27.951293945],[86.109130859,27.954528809],[86.10791015600002,27.964477539],[86.10607910200001,27.970275879],[86.10510253900001,27.974487305],[86.10272216800001,27.980712891],[86.10192871100001,27.987487793],[86.09967041000002,27.992675781],[86.093505859,28.00012207],[86.08587646500001,28.006286621],[86.084899902,28.007873535],[86.08129882800002,28.014099121],[86.08068847700001,28.021728516],[86.08288574200002,28.032714844],[86.084899902,28.043518066],[86.08587646500001,28.05090332],[86.08709716800001,28.060302734],[86.08172607400002,28.075500488],[86.07989502,28.083496094],[86.08050537100002,28.089904785],[86.08428955100001,28.093505859],[86.10369873,28.092285156],[86.11352539100001,28.090881348],[86.11407470700001,28.090881348],[86.110290527,28.102478027],[86.14208984400001,28.12310791],[86.14367675800001,28.12487793],[86.15069580100001,28.131530762],[86.15588378900001,28.135681152],[86.159912109,28.138122559],[86.17211914100001,28.145507812],[86.17388916000002,28.153930664],[86.17352294900002,28.164672852],[86.17407226600001,28.165527344],[86.17651367200001,28.163879395],[86.178283691,28.158874512],[86.176696777,28.147521973],[86.17730712900001,28.146484375],[86.18267822300001,28.150085449],[86.20867919900002,28.179077148],[86.22888183600001,28.176086426],[86.23907470700001,28.139892578],[86.26330566400001,28.119873047],[86.24108886700002,28.087890625],[86.22851562500001,28.053283691],[86.236083984,28.023071289],[86.25567627,27.988098145],[86.269714355,27.98828125],[86.31207275400001,27.97869873],[86.33312988300001,27.966308594],[86.33331298800002,27.966674805],[86.33392334000001,27.968078613],[86.336914062,27.965087891],[86.336914062,27.96472168],[86.361877441,27.961486816],[86.39227294900002,27.956726074],[86.43127441400001,27.936096191],[86.453308105,27.915283203],[86.453674316,27.915283203],[86.462280273,27.926086426],[86.46630859400001,27.931091309],[86.46649169900002,27.932128906],[86.46752929700001,27.936096191],[86.46807861300002,27.940490723],[86.469726562,27.944274902],[86.47387695300002,27.948120117],[86.48211669900002,27.950317383],[86.49169921900001,27.953674316],[86.49871826200001,27.955078125],[86.50787353500002,27.956481934],[86.51251220700001,27.958679199],[86.51550293000001,27.962890625],[86.51629638700001,27.964111328],[86.51788330100001,27.972473145],[86.51727294900002,27.978088379],[86.51428222700001,27.983276367],[86.512695312,27.988525391],[86.51208496100001,27.992675781],[86.511474609,28.00012207],[86.51788330100001,28.006713867],[86.528320312,28.021728516],[86.53112793000001,28.028076172],[86.53112793000001,28.034729004],[86.53131103500002,28.039916992],[86.53210449200002,28.044311523],[86.535705566,28.048522949],[86.54571533200001,28.048706055],[86.55627441400001,28.051330566],[86.55987548800002,28.058288574],[86.563476562,28.071899414],[86.56372070300002,28.081481934],[86.563476562,28.087280273],[86.56372070300002,28.09967041],[86.56707763700001,28.106872559],[86.58148193400001,28.107299805],[86.59228515600002,28.105102539],[86.59692382800002,28.104309082],[86.59930419900002,28.101928711],[86.600524902,28.098510742],[86.618530273,28.084716797],[86.63891601600001,28.080688477],[86.65588378900001,28.083679199],[86.65789794900002,28.086303711],[86.65808105500001,28.086914062],[86.65948486300002,28.093505859],[86.66088867200001,28.095703125],[86.66870117200001,28.097900391],[86.68811035200001,28.103515625],[86.69689941400001,28.105102539],[86.69909668000001,28.10748291],[86.74072265600002,28.115478516],[86.777893066,28.10168457],[86.794677734,28.075500488],[86.80548095700001,28.044921875],[86.82067871100001,28.01751709],[86.82312011700002,28.016906738],[86.82568359400001,28.016296387],[86.83868408200001,28.019897461],[86.84588623,28.023071289],[86.853271484,28.026916504],[86.85607910200001,28.026672363],[86.86248779300001,28.026306152],[86.86907959000001,28.019897461],[86.87030029300001,28.018127441],[86.90667724600002,28.019470215],[86.91192627,28.001098633],[86.97290039100001,27.952880859],[86.97668457,27.952270508],[86.98468017600001,27.952270508],[86.99932861300002,27.952087402],[87.010314941,27.953918457],[87.02490234400001,27.951721191],[87.02612304700001,27.951477051],[87.03247070300002,27.950073242],[87.03289794900002,27.949890137],[87.03387451200001,27.950073242],[87.06567382800002,27.94732666],[87.09631347700001,27.929504395],[87.12310791000002,27.870483398],[87.14868164100001,27.839477539],[87.168884277,27.832519531],[87.21887207,27.828918457],[87.235717773,27.830078125],[87.23791503900001,27.833679199],[87.23870849600002,27.835083008],[87.24731445300002,27.843078613],[87.25689697300001,27.847717285],[87.26367187500001,27.848876953],[87.27209472700001,27.848693848],[87.27893066400001,27.848876953],[87.28851318400001,27.846679687],[87.29510498,27.844299316],[87.30810546900001,27.843688965],[87.327087402,27.842895508],[87.35308837900001,27.826904297],[87.354492187,27.826477051],[87.36169433600001,27.827697754],[87.37347412100002,27.838928223],[87.37390136700002,27.839294434],[87.38110351600001,27.843688965],[87.38751220700001,27.847290039],[87.39672851600001,27.851928711],[87.40551757800002,27.854125977],[87.41247558600001,27.857910156],[87.41687011700002,27.860717773],[87.42028808600001,27.862304687],[87.42230224600002,27.864074707],[87.42608642600001,27.862915039],[87.43170166000002,27.856872559],[87.436889648,27.859130859],[87.46789550800001,27.87109375],[87.48248291000002,27.839294434],[87.48791503900001,27.841125488],[87.49688720700001,27.842895508],[87.50811767600001,27.843688965],[87.51232910200001,27.84387207],[87.52191162100002,27.844482422],[87.53192138700001,27.844482422],[87.53387451200001,27.844909668],[87.53668212900001,27.84552002],[87.538879395,27.846923828],[87.54528808600001,27.853515625],[87.54968261700002,27.860107422],[87.55670166000002,27.866699219],[87.561889648,27.86730957],[87.56652832000002,27.867492676],[87.57208252,27.866271973],[87.57232666000002,27.866088867],[87.578674316,27.86328125],[87.58410644500002,27.857910156],[87.58807373,27.852294922],[87.58911132800002,27.848876953],[87.60351562500001,27.846679687],[87.63269043000001,27.827270508],[87.63409423800002,27.832275391],[87.636474609,27.834716797],[87.64648437500001,27.836303711],[87.65447998,27.837097168],[87.66192627,27.837280273],[87.667724609,27.835876465],[87.66827392600001,27.833312988],[87.66870117200001,27.831298828],[87.66668701200001,27.823120117],[87.66668701200001,27.82208252],[87.67968750000001,27.833129883],[87.69128418000001,27.810302734],[87.69708252,27.81048584],[87.69989013700001,27.810302734],[87.70812988300001,27.809875488],[87.71612548800002,27.808288574],[87.72113037100002,27.80670166],[87.72528076200001,27.806518555],[87.72967529300001,27.809875488],[87.735717773,27.813110352],[87.73712158200001,27.819274902],[87.73968505900001,27.827697754],[87.74267578100002,27.832885742],[87.743896484,27.834716797],[87.74908447300001,27.83807373],[87.75653076200001,27.840881348],[87.76007080100001,27.84552002],[87.76470947300001,27.856079102],[87.76831054700001,27.85748291],[87.77349853500002,27.861877441],[87.77569580100001,27.863891602],[87.777893066,27.868896484],[87.777526855,27.878723145],[87.77911377,27.892089844],[87.78009033200001,27.894287109],[87.784912109,27.897094727],[87.788879395,27.900512695],[87.79150390600002,27.902526855],[87.79571533200001,27.905700684],[87.80010986300002,27.908874512],[87.80389404300001,27.91229248],[87.80908203100002,27.916320801],[87.81707763700001,27.923522949],[87.82208252,27.928283691],[87.82409668000001,27.93170166],[87.82409668000001,27.936889648],[87.82269287100002,27.942687988],[87.82373046900001,27.94708252],[87.82690429700001,27.950073242],[87.83087158200001,27.951721191],[87.836120605,27.950500488],[87.84448242200001,27.949279785],[87.85272216800001,27.946105957],[87.85748291000002,27.943115234],[87.85827636700002,27.942077637],[87.87347412100002,27.962097168],[87.88592529300001,27.931884766],[87.89410400400001,27.912475586],[87.89727783200001,27.912475586],[87.91229248,27.914306641],[87.91870117200001,27.914123535],[87.937683105,27.921875],[87.971679687,27.897888184],[88.00128173800002,27.89831543],[88.01049804700001,27.89630127],[88.01629638700001,27.89831543],[88.02130127,27.900512695],[88.02850341800001,27.903686523],[88.034912109,27.905273437],[88.04730224600002,27.897521973],[88.05969238300001,27.890075684],[88.06530761700002,27.890686035],[88.067321777,27.891113281],[88.07568359400001,27.893676758],[88.08270263700001,27.892272949],[88.08850097700001,27.888916016],[88.08929443400001,27.887695312],[88.09167480500001,27.887512207],[88.12927246100001,27.88067627],[88.12951660200001,27.88067627],[88.13507080100001,27.882080078],[88.13470459000001,27.886474609],[88.129882812,27.899902344],[88.12847900400001,27.903930664],[88.127929687,27.904724121],[88.12170410200001,27.912719727],[88.118103027,27.918518066],[88.11907959000001,27.922119141],[88.12548828100002,27.926330566],[88.136474609,27.936279297],[88.13629150400001,27.937683105],[88.135681152,27.950073242],[88.14093017600001,27.957885742],[88.14147949200002,27.958679199],[88.14331054700001,27.959289551],[88.14630127,27.960510254],[88.14648437500001,27.960510254],[88.15411377,27.961303711],[88.15771484400001,27.959716797],[88.16247558600001,27.957275391],[88.17608642600001,27.952880859],[88.18151855500001,27.950927734],[88.19189453100002,27.94708252],[88.20129394500002,27.946899414],[88.20269775400001,27.948303223],[88.203674316,27.94909668],[88.20867919900002,27.960083008],[88.20928955100001,27.961486816],[88.211486816,27.967895508],[88.21569824200002,27.965515137],[88.219726562,27.962890625],[88.22271728500002,27.960876465],[88.22729492200001,27.964477539],[88.22869873,27.965881348],[88.23150634800001,27.969116211],[88.236083984,27.970275879],[88.23992919900002,27.970703125],[88.24169921900001,27.96472168],[88.24572753900001,27.955078125],[88.24768066400001,27.950683594],[88.25048828100002,27.944519043],[88.25592041000002,27.944274902],[88.28210449200002,27.960510254],[88.288085937,27.962890625],[88.294677734,27.967529297],[88.30151367200001,27.967529297],[88.30731201200001,27.967529297],[88.30889892600001,27.968688965],[88.313476562,27.971923828],[88.31872558600001,27.974914551],[88.32092285200001,27.976074219],[88.32568359400001,27.977478027],[88.326721191,27.977905273],[88.33312988300001,27.97869873],[88.33410644500002,27.979309082],[88.33947753900001,27.981689453],[88.34387207000002,27.985290527],[88.35028076200001,27.987121582],[88.35491943400001,27.989929199],[88.36730957000002,27.990478516],[88.38012695300002,27.986877441],[88.38812255900001,27.983703613],[88.39868164100001,27.980285645],[88.403320312,27.980285645],[88.40808105500001,27.981872559],[88.41369628900001,27.984313965],[88.42010498,27.993713379],[88.42407226600001,28.00012207],[88.42468261700002,28.000488281],[88.43310546900001,28.005493164],[88.44067382800002,28.009094238],[88.44812011700002,28.010498047],[88.45788574200002,28.012512207],[88.46667480500001,28.01348877],[88.47210693400001,28.018127441],[88.472473145,28.023071289],[88.47369384800001,28.031921387],[88.476318359,28.036499023],[88.47668457000002,28.03729248],[88.48272705100001,28.040100098],[88.48510742200001,28.04107666],[88.49572753900001,28.044677734],[88.50189209000001,28.04510498],[88.50988769500002,28.043518066],[88.51391601600001,28.041320801],[88.518127441,28.038879395],[88.553283691,28.042907715],[88.553283691,28.045288086],[88.55712890600002,28.067687988],[88.55889892600001,28.075927734],[88.56091308600001,28.080871582],[88.56530761700002,28.084106445],[88.56628418000001,28.084106445],[88.57208252,28.084899902],[88.58068847700001,28.08392334],[88.59368896500001,28.082885742],[88.59808349600002,28.084899902],[88.60089111300002,28.085876465],[88.60229492200001,28.093688965],[88.62969970700001,28.107727051],[88.63287353500002,28.111877441],[88.63848877,28.114685059],[88.64190673800002,28.115112305],[88.643127441,28.115112305],[88.645507812,28.112487793],[88.645507812,28.112304687],[88.671875,28.117492676],[88.68988037100002,28.109680176],[88.71948242200001,28.090270996],[88.74230957000002,28.088317871],[88.794677734,28.071289062],[88.83367919900002,28.039672852],[88.846679687,28.018127441],[88.86688232400002,27.989685059],[88.87390136700002,27.947875977],[88.88287353500002,27.917114258],[88.89648437500001,27.879699707],[88.89147949200002,27.857299805],[88.89910888700001,27.814880371],[88.89172363300001,27.789306641],[88.89031982400002,27.761108398],[88.87768554700001,27.727111816],[88.86212158200001,27.692321777],[88.85192871100001,27.648498535],[88.84790039100001,27.617919922],[88.82769775400001,27.593505859],[88.80310058600001,27.569091797],[88.81488037100002,27.551879883],[88.81689453100002,27.527099609],[88.813476562,27.506896973],[88.81951904300001,27.482910156],[88.86132812500001,27.44708252],[88.88629150400001,27.410888672],[88.920471191,27.375671387],[88.96508789100001,27.29888916],[89.00268554700001,27.291870117],[89.06689453100002,27.267883301],[89.07067871100001,27.270690918],[89.069702148,27.277893066],[89.07067871100001,27.286682129],[89.07550048800002,27.290527344],[89.08850097700001,27.297912598],[89.10668945300002,27.307128906],[89.10791015600002,27.307922363],[89.112304687,27.314880371],[89.13128662100002,27.331481934],[89.15649414100001,27.34387207],[89.15771484400001,27.352111816],[89.159118652,27.358886719],[89.16607666000002,27.365112305],[89.177124023,27.374328613],[89.18090820300002,27.377319336],[89.18029785200001,27.381286621],[89.17010498,27.389099121],[89.16333007800002,27.394714355],[89.16131591800001,27.402282715],[89.16131591800001,27.410522461],[89.15930175800001,27.415710449],[89.15008544900002,27.424682617],[89.13751220700001,27.43371582],[89.13549804700001,27.435119629],[89.13470459000001,27.439880371],[89.13250732400002,27.443481445],[89.13012695300002,27.444702148],[89.12548828100002,27.443908691],[89.121276855,27.442504883],[89.118896484,27.442077637],[89.11688232400002,27.443481445],[89.11090087900001,27.457275391],[89.105285645,27.466125488],[89.09307861300002,27.474914551],[89.093505859,27.491271973],[89.09411621100001,27.495300293],[89.09808349600002,27.501098633],[89.10150146500001,27.50567627],[89.10168457000002,27.509887695],[89.10150146500001,27.514892578],[89.10028076200001,27.530273437],[89.102111816,27.538085937],[89.10668945300002,27.54107666],[89.11389160200001,27.54309082],[89.12170410200001,27.544311523],[89.13067627,27.547912598],[89.14129638700001,27.5546875],[89.15148925800001,27.564880371],[89.159118652,27.574707031],[89.16088867200001,27.577880859],[89.15087890600002,27.586730957],[89.14672851600001,27.598510742],[89.13409423800002,27.607727051],[89.12811279300001,27.610717773],[89.12512207000002,27.614501953],[89.12487793000001,27.615722656],[89.12432861300002,27.618103027],[89.12707519500002,27.626098633],[89.128723145,27.632324219],[89.12927246100001,27.637084961],[89.13348388700001,27.63848877],[89.13787841800001,27.641296387],[89.13928222700001,27.646118164],[89.14691162100002,27.655090332],[89.153320312,27.660522461],[89.16510009800001,27.667297363],[89.17431640600002,27.671081543],[89.17767334000001,27.672302246],[89.18249511700002,27.677124023],[89.18249511700002,27.683105469],[89.18231201200001,27.684082031],[89.18188476600001,27.686279297],[89.18829345700001,27.695495605],[89.18927002,27.696899414],[89.193115234,27.701293945],[89.19708252,27.708496094],[89.19769287100002,27.709899902],[89.20190429700001,27.720703125],[89.20507812500001,27.723693848],[89.20709228500002,27.725280762],[89.212280273,27.725280762],[89.21807861300002,27.725891113],[89.221679687,27.727478027],[89.22607421900001,27.736694336],[89.22387695300002,27.741271973],[89.22332763700001,27.747680664],[89.22070312500001,27.758483887],[89.22070312500001,27.758728027],[89.22149658200001,27.768127441],[89.22430419900002,27.780517578],[89.22888183600001,27.787475586],[89.23132324200002,27.792724609],[89.236877441,27.800476074],[89.24267578100002,27.8046875],[89.25207519500002,27.808105469],[89.252929687,27.80847168],[89.26092529300001,27.814086914],[89.26672363300001,27.822509766],[89.27111816400001,27.828918457],[89.27972412100002,27.835693359],[89.28668212900001,27.83972168],[89.28930664100001,27.845092773],[89.28967285200001,27.84552002],[89.29370117200001,27.851928711],[89.29852294900002,27.854675293],[89.30889892600001,27.856323242],[89.31689453100002,27.855895996],[89.31768798800002,27.855895996],[89.370483398,27.888916016],[89.39569091800001,27.910522461],[89.39727783200001,27.913879395],[89.40032959000001,27.919311523],[89.40393066400001,27.924316406],[89.41650390600002,27.938293457],[89.42291259800001,27.945129395],[89.426696777,27.949707031],[89.43170166000002,27.957519531],[89.43591308600001,27.962890625],[89.44091796900001,27.972290039],[89.44372558600001,27.979492187],[89.44671630900001,27.985290527],[89.44927978500002,27.990905762],[89.44952392600001,27.991882324],[89.45031738300001,27.995483398],[89.45050048800002,28.00012207],[89.453125,28.006713867],[89.45770263700001,28.008911133],[89.45867919900002,28.009277344],[89.46868896500001,28.012878418],[89.47070312500001,28.015686035],[89.469299316,28.022705078],[89.46789550800001,28.023925781],[89.45910644500002,28.032104492],[89.45947265600002,28.035522461],[89.46728515600002,28.042114258],[89.47412109400001,28.04888916],[89.49108886700002,28.065307617],[89.494689941,28.075073242],[89.49890136700002,28.080871582],[89.50268554700001,28.083129883],[89.50628662100002,28.08770752],[89.50891113300001,28.089904785],[89.51232910200001,28.090515137],[89.51727294900002,28.091674805],[89.52209472700001,28.090515137],[89.52288818400001,28.091308594],[89.54931640600002,28.110473633],[89.55670166000002,28.119873047],[89.561889648,28.123474121],[89.569274902,28.125671387],[89.57269287100002,28.13067627],[89.58209228500002,28.139099121],[89.59069824200002,28.149108887],[89.59710693400001,28.158325195],[89.60388183600001,28.165710449],[89.605285645,28.166320801],[89.60791015600002,28.166870117],[89.636901855,28.171508789],[89.65228271500001,28.180297852],[89.69329834000001,28.191711426],[89.761108398,28.197692871],[89.77349853500002,28.203674316],[89.78289794900002,28.217102051],[89.780273437,28.219726562],[89.77429199200002,28.222106934],[89.77148437500001,28.225708008],[89.77288818400001,28.228515625],[89.78149414100001,28.230285645],[89.78729248,28.232299805],[89.78771972700001,28.235717773],[89.78668212900001,28.240722656],[89.78790283200001,28.244689941],[89.79290771500001,28.248291016],[89.80090332000002,28.248474121],[89.80432128900001,28.246704102],[89.80749511700002,28.244506836],[89.82568359400001,28.251281738],[89.85809326200001,28.24987793],[89.88348388700001,28.237670898],[89.90490722700001,28.219299316],[89.934509277,28.207092285],[89.97491455100001,28.211730957],[90.03869628900001,28.181518555],[90.078674316,28.17010498],[90.11871337900001,28.168273926],[90.119689941,28.170288086],[90.12170410200001,28.183288574],[90.12188720700001,28.192871094],[90.12310791000002,28.194274902],[90.12347412100002,28.194274902],[90.14208984400001,28.308288574],[90.14447021500001,28.339477539],[90.12408447300001,28.361877441],[90.10308837900001,28.383483887],[90.094726562,28.423095703],[90.10272216800001,28.461486816],[90.12530517600001,28.484313965],[90.14947509800001,28.512878418],[90.14288330100001,28.54888916],[90.120910645,28.585327148],[90.09631347700001,28.603515625],[90.08929443400001,28.629699707],[90.112304687,28.668884277],[90.17730712900001,28.694091797],[90.195129395,28.730712891],[90.18890380900001,28.763122559],[90.16668701200001,28.801330566],[90.15948486300002,28.827880859],[90.17230224600002,28.856323242],[90.19451904300001,28.876525879],[90.18872070300002,28.906677246],[90.18829345700001,28.936096191],[90.201721191,28.965087891],[90.20867919900002,28.993530273],[90.22271728500002,29.019287109],[90.25030517600001,29.048278809],[90.24871826200001,29.087280273],[90.24810791000002,29.118530273],[90.26629638700001,29.153320312],[90.29449462900001,29.168884277],[90.31848144500002,29.200500488],[90.33349609400001,29.250671387],[90.37268066400001,29.291870117],[90.38427734400001,29.304321289],[90.36828613300001,29.319274902],[90.35009765600002,29.326904297],[90.31652832000002,29.328308105],[90.19812011700002,29.354125977],[90.15167236300002,29.356689453],[90.05828857400002,29.32989502],[90.011901855,29.332519531],[89.98211669900002,29.337097168],[89.94567871100001,29.370910645],[89.920471191,29.387512207],[89.89489746100001,29.40447998],[89.86132812500001,29.424316406],[89.82849121100001,29.445495605],[89.78948974600002,29.46307373],[89.85827636700002,29.48828125],[89.878723145,29.510681152],[89.885314941,29.543884277],[89.89929199200002,29.581298828],[89.91748046900001,29.604492187],[89.91229248,29.641479492],[89.88751220700001,29.662902832],[89.85552978500002,29.687072754],[89.82849121100001,29.702514648],[89.79992675800001,29.737670898],[89.795898437,29.774475098],[89.77691650400001,29.815917969],[89.80352783200001,29.844299316],[89.83831787100002,29.863098145],[89.88909912100002,29.887329102],[89.92132568400001,29.876281738],[89.95727539100001,29.864929199],[90.01647949200002,29.892089844],[90.046875,29.921875]]]}}
