{"type":"Feature","id":"bulk-99377448B31401805556249","bbox":[106.58111572300001,39.229492187,107.10247802700002,39.862915039],"properties":{"id":"bulk-99377448B31401805556249","name":"Wuhai","nameEn":"Wuhai","fullName":"Wuhai","level":"city","boundaryRole":"administrative-extent","boundaryQuality":"generalized-source-2020","boundaryYearRepresented":"2020","bounds":[[106.58111572300001,39.229492187],[107.10247802700002,39.862915039]],"center":[106.84179687500001,39.546203613],"centerMethod":"bounding-box midpoint; camera framing only","license":"CC-BY-3.0-IGO","attribution":"geoBoundaries / HDX, China administrative boundaries (2020)","source":{"provider":"geoBoundaries gbHumanitarian / HDX","url":"https://github.com/wmgeolab/geoBoundaries/raw/9469f09/releaseData/gbHumanitarian/CHN/ADM2/geoBoundaries-CHN-ADM2.geojson","metadataUrl":"https://www.geoboundaries.org/api/current/gbHumanitarian/CHN/ADM2/","shapeID":"99377448B31401805556249","shapeName":"Wuhai","boundaryID":"CHN-ADM2-99377448","commit":"9469f09"},"geometryCounts":{"coordinates":55,"components":1,"holes":0},"boundaryNotice":"geoBoundaries / HDX 2020 年行政区数据，海岸和边界经过源数据概化，并非当前测绘成果。"},"geometry":{"type":"Polygon","coordinates":[[[106.73431396500001,39.380126953],[106.75512695300002,39.351318359],[106.76647949200002,39.260070801],[106.78228759800001,39.229492187],[106.855285645,39.267089844],[106.89367675800001,39.280700684],[106.91790771500001,39.309082031],[106.92230224600002,39.319274902],[106.92492675800001,39.319274902],[106.95947265600002,39.32232666],[106.96728515600002,39.331481934],[106.972473145,39.340881348],[106.99810791000002,39.365112305],[107.04791259800001,39.427490234],[107.06927490200002,39.462280273],[107.07287597700001,39.483276367],[107.08172607400002,39.509094238],[107.09472656200002,39.523071289],[107.10089111300002,39.532287598],[107.10247802700002,39.538330078],[107.09552002,39.555725098],[107.06848144500002,39.590270996],[107.05651855500001,39.61529541],[107.03271484400001,39.729309082],[107.02130127,39.776306152],[107.01507568400001,39.82208252],[106.99652099600002,39.842285156],[106.97528076200001,39.861328125],[106.945129395,39.862915039],[106.92272949200002,39.850524902],[106.85449218700002,39.825683594],[106.80828857400002,39.810913086],[106.79388427700002,39.799499512],[106.77850341800001,39.800720215],[106.75207519500002,39.81048584],[106.72509765600002,39.797912598],[106.73272705100001,39.775085449],[106.73150634800001,39.713684082],[106.76593017600001,39.67767334],[106.73492431600002,39.637084961],[106.71649169900002,39.587524414],[106.70611572300001,39.547302246],[106.69848632800002,39.534912109],[106.63311767600001,39.527099609],[106.59252929700001,39.519897461],[106.58111572300001,39.501281738],[106.58673095700001,39.467712402],[106.60009765600002,39.443481445],[106.62530517600001,39.43170166],[106.67047119100002,39.426696777],[106.70751953100002,39.424682617],[106.71588134800001,39.418701172],[106.71667480500001,39.40032959],[106.72552490200002,39.388305664],[106.73431396500001,39.380126953]]]}}
