{"type":"Feature","id":"bulk-99377448B83676952467802","bbox":[113.82452392600001,39.538879395,116.45428466800001,42.141113281],"properties":{"id":"bulk-99377448B83676952467802","name":"Zhangjiakou","nameEn":"Zhangjiakou","fullName":"Zhangjiakou","level":"city","boundaryRole":"administrative-extent","boundaryQuality":"generalized-source-2020","boundaryYearRepresented":"2020","bounds":[[113.82452392600001,39.538879395],[116.45428466800001,42.141113281]],"center":[115.13940429700001,40.839996338000006],"centerMethod":"bounding-box midpoint; camera framing only","license":"CC-BY-3.0-IGO","attribution":"geoBoundaries / HDX, China administrative boundaries (2020)","source":{"provider":"geoBoundaries gbHumanitarian / HDX","url":"https://github.com/wmgeolab/geoBoundaries/raw/9469f09/releaseData/gbHumanitarian/CHN/ADM2/geoBoundaries-CHN-ADM2.geojson","metadataUrl":"https://www.geoboundaries.org/api/current/gbHumanitarian/CHN/ADM2/","shapeID":"99377448B83676952467802","shapeName":"Zhangjiakou","boundaryID":"CHN-ADM2-99377448","commit":"9469f09"},"geometryCounts":{"coordinates":253,"components":1,"holes":0},"boundaryNotice":"geoBoundaries / HDX 2020 年行政区数据，海岸和边界经过源数据概化，并非当前测绘成果。"},"geometry":{"type":"Polygon","coordinates":[[[116.32391357400002,40.906494141],[116.28668212900001,40.963500977],[116.25891113300001,40.995727539],[116.25451660200001,41.025878906],[116.24487304700001,41.06048584],[116.23590087900001,41.087524414],[116.22131347700001,41.112670898],[116.20410156200002,41.143493652],[116.19873046900001,41.190673828],[116.18572998000002,41.219909668],[116.17572021500001,41.251281738],[116.17309570300002,41.287719727],[116.16552734400001,41.318908691],[116.12969970700001,41.344482422],[116.08630371100001,41.355102539],[116.03771972700001,41.354492187],[116.01568603500002,41.388305664],[115.98449707000002,41.419494629],[115.95947265600002,41.453918457],[115.94689941400001,41.482116699],[115.93707275400001,41.516296387],[115.90649414100001,41.563903809],[115.88647460900002,41.59967041],[115.90789794900002,41.634521484],[115.96887207000002,41.670288086],[116.00750732400002,41.698486328],[116.03149414100001,41.757324219],[115.98309326200001,41.782897949],[115.97851562500001,41.82208252],[115.94787597700001,41.856872559],[115.92388916000002,41.897705078],[115.92108154300001,41.900085449],[115.89147949200002,41.924682617],[115.83929443400001,41.91809082],[115.78747558600001,41.903503418],[115.70727539100001,41.874511719],[115.66571044900002,41.838684082],[115.59411621100001,41.80670166],[115.54748535200001,41.786071777],[115.49792480500001,41.773681641],[115.46209716800001,41.744689941],[115.41351318400001,41.709106445],[115.363098145,41.722290039],[115.31811523400002,41.725524902],[115.28192138700001,41.688476562],[115.30908203100002,41.654907227],[115.35412597700001,41.59588623],[115.34130859400001,41.58392334],[115.30572509800001,41.577880859],[115.27447509800001,41.586914062],[115.23291015600002,41.602478027],[115.20031738300001,41.567077637],[115.13891601600001,41.599304199],[115.09332275400001,41.60949707],[115.06268310500002,41.587524414],[114.99090576200001,41.586120605],[114.94671630900001,41.60168457],[114.84887695300002,41.583496094],[114.83990478500002,41.581726074],[114.86187744100002,41.605895996],[114.86730957000002,41.639282227],[114.87750244100002,41.693115234],[114.86853027300002,41.751098633],[114.87127685500002,41.780090332],[114.89868164100001,41.814880371],[114.913879395,41.847106934],[114.90631103500002,41.886474609],[114.90252685500002,41.929870605],[114.88708496100001,41.982727051],[114.85607910200001,42.019897461],[114.85211181600002,42.059875488],[114.85107421900001,42.106323242],[114.83471679700001,42.112487793],[114.81451416000002,42.135681152],[114.80749511700002,42.141113281],[114.76788330100001,42.135070801],[114.76129150400001,42.101501465],[114.72692871100001,42.102478027],[114.69567871100001,42.114074707],[114.62609863300001,42.117675781],[114.57708740200002,42.119873047],[114.51867675800001,42.102905273],[114.46490478500002,42.080505371],[114.45452880900001,42.044311523],[114.46569824200002,41.996276855],[114.48547363300001,41.975280762],[114.44848632800002,41.946105957],[114.38549804700001,41.930908203],[114.31951904300001,41.93170166],[114.28332519500002,41.914916992],[114.21411132800002,41.843078613],[114.19470214800002,41.820495605],[114.17871093700002,41.760681152],[114.16711425800001,41.717529297],[114.16711425800001,41.716491699],[114.17309570300002,41.664306641],[114.18829345700001,41.59387207],[114.22668457000002,41.511474609],[114.19348144500002,41.503295898],[114.17407226600001,41.519897461],[114.08709716800001,41.531677246],[114.02648925800001,41.537475586],[113.95947265600002,41.476074219],[113.90948486300002,41.438293457],[113.86047363300001,41.396118164],[113.89532470700001,41.390930176],[113.94769287100002,41.363098145],[113.91912841800001,41.315917969],[113.91412353500002,41.278076172],[113.91369628900001,41.27532959],[113.94848632800002,41.235717773],[114.00732421900001,41.226318359],[113.97888183600001,41.18347168],[113.94311523400002,41.164916992],[113.88311767600001,41.146728516],[113.86907959000001,41.125915527],[113.82452392600001,41.07208252],[113.91888427700002,41.015075684],[114.07971191400001,40.759277344],[114.13049316400001,40.663085937],[114.15032959000001,40.651306152],[114.16430664100001,40.642089844],[114.19732666000002,40.626098633],[114.22027587900001,40.60168457],[114.23510742200001,40.557922363],[114.24951171900001,40.506286621],[114.25811767600001,40.456481934],[114.26849365200002,40.421875],[114.27691650400001,40.369506836],[114.28948974600002,40.354919434],[114.32910156200002,40.334472656],[114.38592529300001,40.320678711],[114.45007324200002,40.31451416],[114.472473145,40.306884766],[114.47467041000002,40.305725098],[114.49011230500001,40.298278809],[114.47729492200001,40.282897949],[114.42230224600002,40.253295898],[114.36767578100002,40.239685059],[114.32232666000002,40.212524414],[114.25549316400001,40.210876465],[114.24249267600001,40.213684082],[114.20068359400001,40.21307373],[114.17071533200001,40.18548584],[114.09869384800001,40.175720215],[114.06268310500002,40.169494629],[114.06207275400001,40.167907715],[114.04907226600001,40.131896973],[114.06927490200002,40.098693848],[114.06311035200001,40.06427002],[114.03771972700001,40.056884766],[114.02532959000001,40.071289062],[113.94989013700001,40.095275879],[113.93969726600001,40.048706055],[113.921875,40.022521973],[113.90447998000002,39.993286133],[113.95812988300001,39.991699219],[113.98248291000002,39.961120605],[114.00549316400001,39.9375],[114.06329345700001,39.901672363],[114.08947753900001,39.891723633],[114.13012695300002,39.876098633],[114.18170166000002,39.86328125],[114.26190185500002,39.848876953],[114.34307861300002,39.860107422],[114.36932373000002,39.85949707],[114.39868164100001,39.801086426],[114.39508056600002,39.748291016],[114.36791992200001,39.724304199],[114.36212158200001,39.701477051],[114.39007568400001,39.644104004],[114.39410400400001,39.641113281],[114.44848632800002,39.600097656],[114.48272705100001,39.571716309],[114.50189209000001,39.55267334],[114.49768066400001,39.538879395],[114.56909179700001,39.543518066],[114.60131835900002,39.563720703],[114.63549804700001,39.595092773],[114.67230224600002,39.622314453],[114.71051025400001,39.635681152],[114.74707031200002,39.63269043],[114.78967285200001,39.606872559],[114.82647705100001,39.599121094],[114.85668945300002,39.624328613],[114.89910888700001,39.628295898],[114.94189453100002,39.629089355],[114.98352050800001,39.648071289],[115.01110839800002,39.677124023],[115.07910156200002,39.649108887],[115.13208007800002,39.658874512],[115.17987060500002,39.672912598],[115.21252441400001,39.688293457],[115.25592041000002,39.719726562],[115.28472900400001,39.740112305],[115.32391357400002,39.786315918],[115.34667968700002,39.817687988],[115.37188720700001,39.867919922],[115.42248535200001,39.937316895],[115.40429687500001,39.975097656],[115.40789794900002,40.01550293],[115.44927978500002,40.031921387],[115.52087402300002,40.033874512],[115.54168701200001,40.049072266],[115.56207275400001,40.064086914],[115.60388183600001,40.103271484],[115.67431640600002,40.122070312],[115.73712158200001,40.114501953],[115.79089355500001,40.133728027],[115.84851074200002,40.143920898],[115.85369873000002,40.144714355],[115.85827636700002,40.179870605],[115.921691895,40.216491699],[115.92388916000002,40.235717773],[115.92749023400002,40.266723633],[115.89587402300002,40.295288086],[115.84588623000002,40.350280762],[115.77447509800001,40.394470215],[115.74688720700001,40.430114746],[115.73632812500001,40.450927734],[115.71130371100001,40.473876953],[115.70812988300001,40.498718262],[115.73352050800001,40.519104004],[115.76531982400002,40.536071777],[115.79608154300001,40.554321289],[115.81109619100002,40.560913086],[115.83789062500001,40.565124512],[115.89770507800002,40.585693359],[115.94970703100002,40.572692871],[116.00512695300002,40.570129395],[116.03729248000002,40.577697754],[116.06030273400002,40.594482422],[116.07708740200002,40.622314453],[116.10308837900001,40.64251709],[116.12908935500002,40.666320801],[116.15869140600002,40.700683594],[116.19067382800002,40.734924316],[116.20812988300001,40.741271973],[116.23492431600002,40.743713379],[116.24890136700002,40.735900879],[116.27508544900002,40.731079102],[116.28509521500001,40.734130859],[116.30072021500001,40.747680664],[116.31549072300001,40.748718262],[116.39447021500001,40.737915039],[116.45428466800001,40.739501953],[116.42987060500002,40.768310547],[116.39392089800002,40.784912109],[116.36492919900002,40.800292969],[116.29949951200001,40.879089355],[116.29711914100001,40.910095215],[116.31170654300001,40.913085937],[116.32391357400002,40.906494141]]]}}
