{"type":"Feature","id":"bulk-99377448B94818240681852","bbox":[108.61767578100002,18.717529297,109.11730957000002,19.307678223],"properties":{"id":"bulk-99377448B94818240681852","name":"Dongfang City","nameEn":"Dongfang City","fullName":"Dongfang City","level":"city","boundaryRole":"administrative-extent","boundaryQuality":"generalized-source-2020","boundaryYearRepresented":"2020","bounds":[[108.61767578100002,18.717529297],[109.11730957000002,19.307678223]],"center":[108.86749267550002,19.012603759999998],"centerMethod":"bounding-box midpoint; camera framing only","license":"CC-BY-3.0-IGO","attribution":"geoBoundaries / HDX, China administrative boundaries (2020)","source":{"provider":"geoBoundaries gbHumanitarian / HDX","url":"https://github.com/wmgeolab/geoBoundaries/raw/9469f09/releaseData/gbHumanitarian/CHN/ADM2/geoBoundaries-CHN-ADM2.geojson","metadataUrl":"https://www.geoboundaries.org/api/current/gbHumanitarian/CHN/ADM2/","shapeID":"99377448B94818240681852","shapeName":"Dongfang City","boundaryID":"CHN-ADM2-99377448","commit":"9469f09"},"geometryCounts":{"coordinates":482,"components":4,"holes":0},"boundaryNotice":"geoBoundaries / HDX 2020 年行政区数据，海岸和边界经过源数据概化，并非当前测绘成果。"},"geometry":{"type":"MultiPolygon","coordinates":[[[[108.63232421900001,19.215270996],[108.63372802700002,19.217529297],[108.63470459000001,19.217712402],[108.63208007800002,19.217712402],[108.63208007800002,19.217285156],[108.63189697300001,19.217285156],[108.63189697300001,19.217102051],[108.63153076200001,19.217102051],[108.63153076200001,19.216918945],[108.63128662100002,19.216918945],[108.63128662100002,19.216308594],[108.63110351600001,19.216308594],[108.63110351600001,19.215698242],[108.63067627,19.215698242],[108.63067627,19.215515137],[108.63049316400001,19.215515137],[108.63049316400001,19.214904785],[108.63012695300002,19.214904785],[108.63012695300002,19.21472168],[108.62988281200002,19.21472168],[108.62988281200002,19.214111328],[108.62969970700001,19.214111328],[108.62969970700001,19.213500977],[108.62927246100001,19.213500977],[108.62927246100001,19.212890625],[108.62908935500002,19.21307373],[108.62908935500002,19.21270752],[108.628723145,19.21270752],[108.628723145,19.212097168],[108.62847900400001,19.212097168],[108.62847900400001,19.211486816],[108.62927246100001,19.208129883],[108.63049316400001,19.207885742],[108.63208007800002,19.207275391],[108.63348388700001,19.210510254],[108.63348388700001,19.211120605],[108.63330078100002,19.211120605],[108.63330078100002,19.211303711],[108.63269043000001,19.211303711],[108.63269043000001,19.211914062],[108.63287353500002,19.211914062],[108.63287353500002,19.212524414],[108.63232421900001,19.215270996]]],[[[108.63909912100002,19.295471191],[108.63848877,19.295471191],[108.63848877,19.295288086],[108.63830566400001,19.295288086],[108.63830566400001,19.294921875],[108.63787841800001,19.294921875],[108.63787841800001,19.294677734],[108.63769531200002,19.294677734],[108.63769531200002,19.294311523],[108.63751220700001,19.294311523],[108.63751220700001,19.294128418],[108.63708496100001,19.294128418],[108.63708496100001,19.293884277],[108.63690185500002,19.293884277],[108.63690185500002,19.293518066],[108.63647460900002,19.293518066],[108.63647460900002,19.293273926],[108.63629150400001,19.293273926],[108.63629150400001,19.292907715],[108.63610839800002,19.292907715],[108.63610839800002,19.292724609],[108.63568115200002,19.292724609],[108.63568115200002,19.292480469],[108.63549804700001,19.292480469],[108.63549804700001,19.292114258],[108.63507080100001,19.292114258],[108.63507080100001,19.291870117],[108.63488769500002,19.291870117],[108.63488769500002,19.291503906],[108.63470459000001,19.291503906],[108.63470459000001,19.290710449],[108.63452148400002,19.290710449],[108.63427734400001,19.290710449],[108.63427734400001,19.289306641],[108.63409423800002,19.289306641],[108.63409423800002,19.287902832],[108.63427734400001,19.287902832],[108.63427734400001,19.28729248],[108.63470459000001,19.287109375],[108.63470459000001,19.286315918],[108.63488769500002,19.286315918],[108.63488769500002,19.285705566],[108.63507080100001,19.285705566],[108.63507080100001,19.284912109],[108.63549804700001,19.284912109],[108.63549804700001,19.284301758],[108.63610839800002,19.28527832],[108.63909912100002,19.295471191]]],[[[108.67492675800001,19.294921875],[108.66192627,19.299072266],[108.66009521500001,19.299316406],[108.65991210900002,19.299499512],[108.65509033200001,19.299926758],[108.65228271500001,19.299682617],[108.64648437500001,19.296325684],[108.64410400400001,19.293273926],[108.64111328100002,19.281677246],[108.63507080100001,19.272888184],[108.63507080100001,19.272705078],[108.63549804700001,19.272705078],[108.63549804700001,19.270507812],[108.63507080100001,19.270507812],[108.63507080100001,19.267883301],[108.63488769500002,19.267883301],[108.63488769500002,19.266723633],[108.63507080100001,19.26550293],[108.64007568400001,19.253479004],[108.63848877,19.246276855],[108.63629150400001,19.241516113],[108.63629150400001,19.240722656],[108.63610839800002,19.240722656],[108.63610839800002,19.239074707],[108.63568115200002,19.239074707],[108.63568115200002,19.237487793],[108.63549804700001,19.237487793],[108.63549804700001,19.236328125],[108.63507080100001,19.236328125],[108.63507080100001,19.235290527],[108.63488769500002,19.235290527],[108.63488769500002,19.234313965],[108.63470459000001,19.234313965],[108.63470459000001,19.233276367],[108.63427734400001,19.233276367],[108.63427734400001,19.23248291],[108.63409423800002,19.23248291],[108.63409423800002,19.231323242],[108.63372802700002,19.231323242],[108.63372802700002,19.230529785],[108.63348388700001,19.230529785],[108.63348388700001,19.229309082],[108.63330078100002,19.229309082],[108.63330078100002,19.228881836],[108.63287353500002,19.228881836],[108.63287353500002,19.228271484],[108.63269043000001,19.228271484],[108.63269043000001,19.227905273],[108.63250732400002,19.227905273],[108.63250732400002,19.227722168],[108.63208007800002,19.227722168],[108.63208007800002,19.227111816],[108.63189697300001,19.227111816],[108.63189697300001,19.226928711],[108.63153076200001,19.226928711],[108.63153076200001,19.226501465],[108.63128662100002,19.226501465],[108.63128662100002,19.226074219],[108.63110351600001,19.226074219],[108.63110351600001,19.225708008],[108.63067627,19.225708008],[108.63067627,19.225280762],[108.63049316400001,19.225280762],[108.63049316400001,19.224121094],[108.63012695300002,19.224121094],[108.63012695300002,19.223876953],[108.63128662100002,19.223876953],[108.63128662100002,19.223327637],[108.63153076200001,19.223327637],[108.63153076200001,19.222717285],[108.63189697300001,19.222717285],[108.63189697300001,19.221923828],[108.63208007800002,19.221923828],[108.63208007800002,19.221313477],[108.63250732400002,19.221313477],[108.63250732400002,19.220703125],[108.63269043000001,19.220703125],[108.63269043000001,19.22052002],[108.63507080100001,19.22052002],[108.63507080100001,19.220703125],[108.63549804700001,19.220703125],[108.63549804700001,19.22088623],[108.63568115200002,19.22088623],[108.63568115200002,19.220275879],[108.63549804700001,19.220275879],[108.63549804700001,19.219726562],[108.63568115200002,19.219726562],[108.63568115200002,19.219116211],[108.63610839800002,19.219116211],[108.63610839800002,19.218505859],[108.63708496100001,19.218505859],[108.63708496100001,19.218322754],[108.63787841800001,19.218322754],[108.63970947300001,19.218505859],[108.65008544900002,19.211730957],[108.65008544900002,19.211914062],[108.65069580100001,19.211914062],[108.65069580100001,19.211486816],[108.65112304700001,19.211486816],[108.65112304700001,19.211303711],[108.65148925800001,19.211303711],[108.65148925800001,19.211120605],[108.65209960900002,19.211120605],[108.65209960900002,19.210693359],[108.65270996100001,19.210693359],[108.65270996100001,19.210510254],[108.65289306600002,19.210510254],[108.65289306600002,19.210083008],[108.65350341800001,19.210083008],[108.65350341800001,19.209899902],[108.65411377,19.209899902],[108.65411377,19.209716797],[108.65472412100002,19.209716797],[108.65472412100002,19.209289551],[108.65527343700002,19.209289551],[108.65527343700002,19.209106445],[108.65551757800002,19.209106445],[108.65551757800002,19.208679199],[108.65612793000001,19.208679199],[108.65612793000001,19.208496094],[108.65649414100001,19.208496094],[108.65649414100001,19.208312988],[108.65710449200002,19.208312988],[108.65710449200002,19.207885742],[108.65728759800001,19.207885742],[108.65728759800001,19.207702637],[108.65771484400001,19.207702637],[108.65771484400001,19.207275391],[108.65832519500002,19.207275391],[108.65832519500002,19.207092285],[108.65850830100001,19.207092285],[108.65850830100001,19.20690918],[108.65911865200002,19.20690918],[108.65911865200002,19.206481934],[108.65930175800001,19.206481934],[108.65930175800001,19.206298828],[108.65948486300002,19.206298828],[108.65948486300002,19.206115723],[108.66027832000002,19.206115723],[108.66027832000002,19.205688477],[108.66052246100001,19.205688477],[108.66052246100001,19.205505371],[108.66070556600002,19.205505371],[108.66070556600002,19.205078125],[108.66131591800001,19.205078125],[108.66131591800001,19.20489502],[108.66168212900001,19.20489502],[108.66149902300002,19.204711914],[108.66192627,19.204711914],[108.66192627,19.204284668],[108.66210937500001,19.204284668],[108.66210937500001,19.204101562],[108.66247558600001,19.204101562],[108.66247558600001,19.203918457],[108.66271972700001,19.203674316],[108.67108154300001,19.198303223],[108.67907714800002,19.191711426],[108.68127441400001,19.187072754],[108.68109130900001,19.175720215],[108.67572021500001,19.160705566],[108.671875,19.154724121],[108.66931152300002,19.150512695],[108.66430664100001,19.134094238],[108.65649414100001,19.122070312],[108.64508056600002,19.111694336],[108.62707519500002,19.100708008],[108.61853027300002,19.097106934],[108.61767578100002,19.095275879],[108.61767578100002,19.094726562],[108.61791992200001,19.094726562],[108.61791992200001,19.094299316],[108.61853027300002,19.094299316],[108.61853027300002,19.093505859],[108.61828613300001,19.093505859],[108.61828613300001,19.093322754],[108.61767578100002,19.093322754],[108.61767578100002,19.092102051],[108.61767578100002,19.090698242],[108.61791992200001,19.090087891],[108.628723145,19.06829834],[108.63732910200001,19.04510498],[108.63812255900001,19.037475586],[108.63629150400001,19.030090332],[108.64929199200002,19.000671387],[108.64910888700001,18.976318359],[108.64849853500002,18.968505859],[108.65008544900002,18.960693359],[108.66107177700002,18.94708252],[108.66192627,18.938110352],[108.66009521500001,18.916320801],[108.65649414100001,18.901916504],[108.65649414100001,18.893920898],[108.65429687500001,18.888916016],[108.63409423800002,18.864074707],[108.63409423800002,18.862915039],[108.63348388700001,18.862915039],[108.63348388700001,18.862670898],[108.63330078100002,18.862670898],[108.63330078100002,18.862487793],[108.63287353500002,18.862487793],[108.63153076200001,18.859130859],[108.63153076200001,18.847290039],[108.62750244100002,18.839294434],[108.62969970700001,18.825317383],[108.64251709000001,18.823303223],[108.65368652300002,18.817687988],[108.66088867200001,18.810302734],[108.66931152300002,18.798278809],[108.67309570300002,18.790283203],[108.67468261700002,18.790283203],[108.67468261700002,18.789916992],[108.67431640600002,18.789916992],[108.67431640600002,18.789306641],[108.67407226600001,18.789306641],[108.67407226600001,18.789123535],[108.67370605500001,18.789123535],[108.67449951200001,18.787719727],[108.68408203100002,18.762695312],[108.68432617200001,18.762084961],[108.68688964800002,18.759094238],[108.69549560500002,18.756103516],[108.68969726600001,18.751281738],[108.68890380900001,18.749328613],[108.69952392600001,18.735473633],[108.69647216800001,18.731689453],[108.69647216800001,18.730529785],[108.69628906200002,18.730529785],[108.69628906200002,18.729675293],[108.69610595700001,18.729675293],[108.69610595700001,18.729309082],[108.69567871100001,18.729309082],[108.69567871100001,18.729125977],[108.69567871100001,18.727294922],[108.69787597700001,18.723083496],[108.69927978500002,18.723327637],[108.70947265600002,18.730285645],[108.71472168000001,18.731506348],[108.72088623000002,18.731323242],[108.72747802700002,18.731872559],[108.73431396500001,18.732116699],[108.74371337900001,18.732299805],[108.75207519500002,18.735717773],[108.75787353500002,18.733886719],[108.76531982400002,18.726318359],[108.77069091800001,18.719726562],[108.77392578100002,18.717529297],[108.78009033200001,18.722900391],[108.78570556600002,18.723876953],[108.79229736300002,18.723083496],[108.80029296900001,18.721923828],[108.80767822300001,18.721923828],[108.81567382800002,18.730285645],[108.82489013700001,18.740112305],[108.83087158200001,18.745117187],[108.84069824200002,18.752685547],[108.85150146500001,18.756530762],[108.86328125000001,18.761474609],[108.87207031200002,18.769714355],[108.88189697300001,18.776123047],[108.88610839800002,18.779724121],[108.89208984400001,18.782897949],[108.89770507800002,18.785095215],[108.90631103500002,18.78729248],[108.91308593700002,18.789306641],[108.92492675800001,18.792114258],[108.93487548800002,18.790100098],[108.94989013700001,18.788879395],[108.95751953100002,18.787475586],[108.96551513700001,18.788085937],[108.97430419900002,18.78692627],[108.98327636700002,18.787902832],[108.98651123000002,18.790100098],[108.99353027300002,18.798278809],[109.00091552700002,18.806518555],[109.01092529300001,18.806091309],[109.02587890600002,18.806274414],[109.04010009800001,18.805114746],[109.05487060500002,18.801086426],[109.06372070300002,18.805114746],[109.06872558600001,18.810119629],[109.07092285200001,18.819519043],[109.07189941400001,18.828125],[109.08227539100001,18.841125488],[109.08929443400001,18.845275879],[109.09649658200001,18.852478027],[109.10491943400001,18.854919434],[109.11187744100002,18.858093262],[109.11328125000001,18.862121582],[109.11389160200001,18.864074707],[109.11730957000002,18.869689941],[109.11627197300001,18.874328613],[109.11151123000002,18.877685547],[109.10913085900002,18.879699707],[109.10711669900002,18.88092041],[109.10131835900002,18.884887695],[109.09411621100001,18.890686035],[109.08947753900001,18.897521973],[109.08868408200001,18.900512695],[109.08789062500001,18.904907227],[109.08752441400001,18.910888672],[109.08770752,18.914489746],[109.08911132800002,18.923095703],[109.09350585900002,18.933105469],[109.09692382800002,18.940917969],[109.10192871100001,18.948120117],[109.10510253900001,18.955688477],[109.10449218700002,18.967285156],[109.10290527300002,18.979675293],[109.10131835900002,18.991516113],[109.10131835900002,18.997680664],[109.09912109400001,19.00592041],[109.09350585900002,19.028320312],[109.08148193400001,19.034912109],[109.06927490200002,19.039489746],[109.062316895,19.042297363],[109.05609130900001,19.04510498],[109.04107666000002,19.048706055],[109.02990722700001,19.047729492],[109.02087402300002,19.048522949],[109.01287841800001,19.048522949],[109.00488281200002,19.045471191],[109.003723145,19.057678223],[109.00567627,19.065307617],[109.00549316400001,19.078491211],[109.00848388700001,19.085083008],[109.00750732400002,19.090087891],[109.00531005900001,19.098510742],[109.00988769500002,19.105895996],[109.01452636700002,19.11328125],[109.01129150400001,19.124328613],[109.00732421900001,19.12890625],[108.99707031200002,19.130493164],[108.98852539100001,19.13092041],[108.98510742200001,19.13269043],[108.98388671900001,19.139892578],[108.99450683600001,19.146911621],[108.98968505900001,19.151672363],[108.98327636700002,19.154296875],[108.97570800800001,19.156677246],[108.97192382800002,19.162475586],[108.97027587900001,19.168273926],[108.96929931600002,19.172302246],[108.96752929700001,19.185119629],[108.96752929700001,19.187072754],[108.96728515600002,19.197692871],[108.96130371100001,19.208496094],[108.95428466800001,19.214477539],[108.94830322300001,19.22088623],[108.94531250000001,19.223327637],[108.93609619100002,19.227111816],[108.921875,19.223510742],[108.91168212900001,19.220275879],[108.90393066400001,19.219726562],[108.89227294900002,19.229125977],[108.88488769500002,19.231079102],[108.87408447300001,19.233886719],[108.86651611300002,19.236694336],[108.85791015600002,19.242126465],[108.85192871100001,19.245910645],[108.84149169900002,19.24810791],[108.83367919900002,19.259277344],[108.82647705100001,19.260681152],[108.81829834000001,19.262084961],[108.81072998000002,19.257873535],[108.80267334000001,19.252319336],[108.79431152300002,19.247924805],[108.78607177700002,19.245910645],[108.78088378900001,19.246520996],[108.77648925800001,19.247497559],[108.77209472700001,19.248901367],[108.76831054700001,19.250915527],[108.75512695300002,19.254516602],[108.73907470700001,19.256896973],[108.73107910200001,19.260314941],[108.722473145,19.260925293],[108.71228027300002,19.262084961],[108.70452880900001,19.260070801],[108.69470214800002,19.263916016],[108.69030761700002,19.269897461],[108.68811035200001,19.27331543],[108.68292236300002,19.279724121],[108.68109130900001,19.282104492],[108.67907714800002,19.283691406],[108.68048095700001,19.284484863],[108.67651367200001,19.292297363],[108.67492675800001,19.294921875]]],[[[108.663879395,19.307678223],[108.66571044900002,19.304077148],[108.67352294900002,19.297302246],[108.671875,19.300109863],[108.663879395,19.307678223]]]]}}
