{"type":"Feature","id":"bulk-99377448B65784518566084","bbox":[109.64367675800001,28.880126953,111.29388427700002,29.782287598],"properties":{"id":"bulk-99377448B65784518566084","name":"Zhangjiajie","nameEn":"Zhangjiajie","fullName":"Zhangjiajie","level":"city","boundaryRole":"administrative-extent","boundaryQuality":"generalized-source-2020","boundaryYearRepresented":"2020","bounds":[[109.64367675800001,28.880126953],[111.29388427700002,29.782287598]],"center":[110.46878051750002,29.3312072755],"centerMethod":"bounding-box midpoint; camera framing only","license":"CC-BY-3.0-IGO","attribution":"geoBoundaries / HDX, China administrative boundaries (2020)","source":{"provider":"geoBoundaries gbHumanitarian / HDX","url":"https://github.com/wmgeolab/geoBoundaries/raw/9469f09/releaseData/gbHumanitarian/CHN/ADM2/geoBoundaries-CHN-ADM2.geojson","metadataUrl":"https://www.geoboundaries.org/api/current/gbHumanitarian/CHN/ADM2/","shapeID":"99377448B65784518566084","shapeName":"Zhangjiajie","boundaryID":"CHN-ADM2-99377448","commit":"9469f09"},"geometryCounts":{"coordinates":122,"components":1,"holes":0},"boundaryNotice":"geoBoundaries / HDX 2020 年行政区数据，海岸和边界经过源数据概化，并非当前测绘成果。"},"geometry":{"type":"Polygon","coordinates":[[[109.64367675800001,29.631713867],[109.671691895,29.609924316],[109.73492431600002,29.598876953],[109.74932861300002,29.565307617],[109.72967529300001,29.529724121],[109.74688720700001,29.497497559],[109.76788330100001,29.476074219],[109.78930664100001,29.448120117],[109.78430175800001,29.41229248],[109.79888916000002,29.381286621],[109.86291503900001,29.407287598],[109.90850830100001,29.432495117],[109.93011474600002,29.41192627],[109.93231201200001,29.384521484],[109.9375,29.35748291],[109.94067382800002,29.322875977],[109.97149658200001,29.294677734],[110.00347900400001,29.29107666],[110.04290771500001,29.301879883],[110.11468505900001,29.325500488],[110.07031250000001,29.256713867],[110.05487060500002,29.210876465],[110.05310058600001,29.178100586],[110.06530761700002,29.143920898],[110.09869384800001,29.12487793],[110.13092041000002,29.151672363],[110.16711425800001,29.170471191],[110.18530273400002,29.14630127],[110.21771240200002,29.127685547],[110.23590087900001,29.102111816],[110.28649902300002,29.071472168],[110.31268310500002,29.042907715],[110.32110595700001,29.010070801],[110.31988525400001,28.979309082],[110.29870605500001,28.956298828],[110.32391357400002,28.930908203],[110.35192871100001,28.917114258],[110.36047363300001,28.887084961],[110.42492675800001,28.887329102],[110.46490478500002,28.880126953],[110.48547363300001,28.900695801],[110.52172851600001,28.90411377],[110.50347900400001,28.934326172],[110.51849365200002,28.967712402],[110.55072021500001,28.99432373],[110.57348632800002,28.975524902],[110.60467529300001,28.956481934],[110.63232421900001,28.936096191],[110.64892578100002,28.903076172],[110.68432617200001,28.907897949],[110.71173095700001,28.921875],[110.73608398400002,28.902526855],[110.76330566400001,28.917724609],[110.78167724600002,28.947875977],[110.82287597700001,28.95892334],[110.84490966800001,28.997070312],[110.88189697300001,28.995910645],[110.90972900400001,29.011901855],[110.88732910200001,29.031677246],[110.85510253900001,29.05871582],[110.83392334000001,29.098693848],[110.89752197300001,29.116271973],[110.93072509800001,29.124694824],[110.97009277300002,29.11907959],[111.00628662100002,29.117492676],[111.04010009800001,29.135681152],[111.06927490200002,29.157470703],[111.10028076200001,29.184082031],[111.13208007800002,29.203125],[111.16607666000002,29.200500488],[111.20910644500002,29.205688477],[111.21490478500002,29.238891602],[111.23950195300002,29.261108398],[111.245910645,29.305297852],[111.24932861300002,29.343688965],[111.27252197300001,29.420715332],[111.28570556600002,29.44732666],[111.29388427700002,29.497680664],[111.27911377,29.539672852],[111.25451660200001,29.567077637],[111.20251464800002,29.599121094],[111.16149902300002,29.593688965],[111.12030029300001,29.601318359],[111.07348632800002,29.603881836],[111.03167724600002,29.612915039],[111.00811767600001,29.642089844],[110.98107910200001,29.665710449],[110.94488525400001,29.665283203],[110.91210937500001,29.668273926],[110.87048339800002,29.686706543],[110.81408691400001,29.680114746],[110.75592041000002,29.66229248],[110.72729492200001,29.704101562],[110.68292236300002,29.692321777],[110.64788818400001,29.707092285],[110.62329101600001,29.725280762],[110.58612060500002,29.759887695],[110.54309082000002,29.719299316],[110.50012207000002,29.692077637],[110.45727539100001,29.678527832],[110.41448974600002,29.664916992],[110.39288330100001,29.633117676],[110.37152099600002,29.619506836],[110.35028076200001,29.614929199],[110.34411621100001,29.639099121],[110.27807617200001,29.664489746],[110.25830078100002,29.666320801],[110.24230957000002,29.69909668],[110.18872070300002,29.736083984],[110.13928222700001,29.758117676],[110.09228515600002,29.772888184],[110.03051757800002,29.782287598],[109.99188232400002,29.780273437],[109.90209960900002,29.765319824],[109.84252929700001,29.765686035],[109.81347656200002,29.758483887],[109.78308105500001,29.750915527],[109.73968505900001,29.720275879],[109.73388671900001,29.689086914],[109.68652343700002,29.642272949],[109.65447998000002,29.631286621],[109.64367675800001,29.631713867]]]}}
