{"type":"Feature","id":"bulk-99377448B38031150263725","bbox":[116.35449218700002,32.567687988,117.17791748000002,33.031677246],"properties":{"id":"bulk-99377448B38031150263725","name":"Huainan","nameEn":"Huainan","fullName":"Huainan","level":"city","boundaryRole":"administrative-extent","boundaryQuality":"generalized-source-2020","boundaryYearRepresented":"2020","bounds":[[116.35449218700002,32.567687988],[117.17791748000002,33.031677246]],"center":[116.76620483350001,32.799682617],"centerMethod":"bounding-box midpoint; camera framing only","license":"CC-BY-3.0-IGO","attribution":"geoBoundaries / HDX, China administrative boundaries (2020)","source":{"provider":"geoBoundaries gbHumanitarian / HDX","url":"https://github.com/wmgeolab/geoBoundaries/raw/9469f09/releaseData/gbHumanitarian/CHN/ADM2/geoBoundaries-CHN-ADM2.geojson","metadataUrl":"https://www.geoboundaries.org/api/current/gbHumanitarian/CHN/ADM2/","shapeID":"99377448B38031150263725","shapeName":"Huainan","boundaryID":"CHN-ADM2-99377448","commit":"9469f09"},"geometryCounts":{"coordinates":58,"components":1,"holes":0},"boundaryNotice":"geoBoundaries / HDX 2020 年行政区数据，海岸和边界经过源数据概化，并非当前测绘成果。"},"geometry":{"type":"Polygon","coordinates":[[[116.73370361300002,32.932495117],[116.66070556600002,32.944274902],[116.62408447300001,32.942504883],[116.58032226600001,32.926086426],[116.54809570300002,32.919921875],[116.51470947300001,32.936279297],[116.49511718700002,32.967102051],[116.47027587900001,32.995300293],[116.43829345700001,33.015319824],[116.36871337900001,33.031677246],[116.37207031200002,32.992919922],[116.35992431600002,32.959289551],[116.35949707000002,32.92791748],[116.35449218700002,32.891479492],[116.36767578100002,32.879882812],[116.36468505900001,32.843505859],[116.37591552700002,32.843078613],[116.42492675800001,32.827087402],[116.44030761700002,32.80267334],[116.43951416000002,32.768676758],[116.44671630900001,32.72467041],[116.46789550800001,32.692077637],[116.50408935500002,32.671691895],[116.51708984400001,32.64050293],[116.52868652300002,32.610717773],[116.58129882800002,32.582519531],[116.63311767600001,32.592529297],[116.69030761700002,32.598693848],[116.72332763700001,32.61730957],[116.76428222700001,32.644897461],[116.79089355500001,32.627319336],[116.81127929700001,32.602111816],[116.83972168000001,32.572875977],[116.91027832000002,32.567687988],[116.94250488300001,32.582885742],[116.98107910200001,32.606689453],[117.01489257800002,32.609313965],[117.05908203100002,32.612304687],[117.10968017600001,32.614685059],[117.17791748000002,32.619873047],[117.13610839800002,32.65032959],[117.12432861300002,32.692871094],[117.11889648400002,32.727294922],[117.12030029300001,32.760498047],[117.11749267600001,32.773498535],[117.09887695300002,32.770874023],[117.07592773400002,32.765686035],[117.04949951200001,32.75012207],[117.01068115200002,32.758728027],[116.98510742200001,32.783508301],[116.95007324200002,32.80291748],[116.91247558600001,32.820678711],[116.87652587900001,32.836914062],[116.84490966800001,32.854675293],[116.81811523400002,32.877685547],[116.79272460900002,32.89831543],[116.76531982400002,32.913513184],[116.73370361300002,32.932495117]]]}}
