{"type":"Feature","id":"bulk-99377448B40139494047258","bbox":[119.19488525400001,39.976318359,121.05792236300002,41.153076172],"properties":{"id":"bulk-99377448B40139494047258","name":"Huludao","nameEn":"Huludao","fullName":"Huludao","level":"city","boundaryRole":"administrative-extent","boundaryQuality":"generalized-source-2020","boundaryYearRepresented":"2020","bounds":[[119.19488525400001,39.976318359],[121.05792236300002,41.153076172]],"center":[120.12640380850002,40.5646972655],"centerMethod":"bounding-box midpoint; camera framing only","license":"CC-BY-3.0-IGO","attribution":"geoBoundaries / HDX, China administrative boundaries (2020)","source":{"provider":"geoBoundaries gbHumanitarian / HDX","url":"https://github.com/wmgeolab/geoBoundaries/raw/9469f09/releaseData/gbHumanitarian/CHN/ADM2/geoBoundaries-CHN-ADM2.geojson","metadataUrl":"https://www.geoboundaries.org/api/current/gbHumanitarian/CHN/ADM2/","shapeID":"99377448B40139494047258","shapeName":"Huludao","boundaryID":"CHN-ADM2-99377448","commit":"9469f09"},"geometryCounts":{"coordinates":187,"components":1,"holes":0},"boundaryNotice":"geoBoundaries / HDX 2020 年行政区数据，海岸和边界经过源数据概化，并非当前测绘成果。"},"geometry":{"type":"Polygon","coordinates":[[[119.80407714800002,39.976318359],[119.81768798800002,39.980712891],[119.83508300800001,39.981689453],[119.83569335900002,39.981689453],[119.85571289100001,39.98828125],[119.85687255900001,39.988525391],[119.86627197300001,39.996887207],[119.87030029300001,40.019104004],[119.87548828100002,40.031311035],[119.88909912100002,40.042114258],[119.92108154300001,40.055297852],[119.95269775400001,40.064697266],[119.96691894500002,40.071899414],[120.01831054700001,40.074523926],[120.04528808600001,40.086120605],[120.08447265600002,40.096679687],[120.13830566400001,40.118103027],[120.18048095700001,40.134094238],[120.23052978500002,40.153076172],[120.27893066400001,40.178283691],[120.33148193400001,40.19708252],[120.38531494100002,40.190307617],[120.45147705100001,40.246887207],[120.44970703100002,40.25592041],[120.44848632800002,40.261474609],[120.45770263700001,40.284301758],[120.46087646500001,40.307678223],[120.47113037100002,40.3203125],[120.48449707000002,40.328491211],[120.49908447300001,40.337280273],[120.51751709000001,40.347717285],[120.53948974600002,40.355895996],[120.54608154300001,40.363708496],[120.54272460900002,40.364074707],[120.53192138700001,40.369873047],[120.53271484400001,40.373291016],[120.50927734400001,40.368103027],[120.49969482400002,40.377929687],[120.49627685500002,40.389099121],[120.49768066400001,40.398925781],[120.51208496100001,40.414916992],[120.54132080100001,40.423522949],[120.54388427700002,40.442321777],[120.54907226600001,40.453674316],[120.55871582000002,40.460327148],[120.57751464800002,40.472473145],[120.61352539100001,40.485107422],[120.61791992200001,40.508300781],[120.62768554700001,40.526489258],[120.63708496100001,40.541870117],[120.65393066400001,40.547912598],[120.67449951200001,40.554504395],[120.69610595700001,40.560119629],[120.71350097700001,40.579528809],[120.71771240200002,40.591918945],[120.74108886700002,40.601928711],[120.75872802700002,40.614074707],[120.76770019500002,40.626098633],[120.77569580100001,40.648071289],[120.78228759800001,40.669311523],[120.78967285200001,40.67590332],[120.79089355500001,40.676696777],[120.80548095700001,40.684692383],[120.81829834000001,40.688110352],[120.83087158200001,40.682678223],[120.85772705100001,40.689697266],[120.87347412100002,40.696472168],[120.89788818400001,40.705505371],[120.92248535200001,40.714477539],[120.97967529300001,40.710083008],[120.96411132800002,40.72467041],[120.95471191400001,40.721313477],[120.94909668000001,40.721679687],[120.94250488300001,40.72668457],[120.93707275400001,40.727294922],[120.93328857400002,40.722290039],[120.92767334000001,40.721496582],[120.92712402300002,40.731872559],[120.92327880900001,40.737487793],[120.92272949200002,40.739501953],[120.91247558600001,40.737915039],[120.89428710900002,40.739318848],[120.87927246100001,40.746704102],[120.87750244100002,40.760498047],[120.88049316400001,40.772888184],[120.91888427700002,40.782470703],[120.90527343700002,40.808105469],[120.91491699200002,40.815490723],[120.92852783200001,40.825317383],[120.94427490200002,40.831298828],[120.95751953100002,40.830322266],[120.97570800800001,40.836120605],[120.99688720700001,40.827697754],[121.01129150400001,40.860900879],[121.01287841800001,40.895324707],[121.00732421900001,40.931884766],[120.99572753900001,40.958679199],[121.05792236300002,40.998718262],[120.97308349600002,40.995910645],[120.93872070300002,41.013305664],[120.92907714800002,41.044311523],[120.94329834000001,41.073486328],[120.91809082000002,41.095092773],[120.91149902300002,41.122924805],[120.87487793000001,41.129882812],[120.84167480500001,41.103881836],[120.80212402300002,41.09588623],[120.76928710900002,41.11907959],[120.74407959000001,41.153076172],[120.67492675800001,41.134521484],[120.62927246100001,41.122070312],[120.59429931600002,41.090881348],[120.57751464800002,41.064880371],[120.56170654300001,41.033081055],[120.54467773400002,41.004516602],[120.51428222700001,40.97668457],[120.48272705100001,40.963317871],[120.43792724600002,40.968322754],[120.40570068400001,40.943481445],[120.36767578100002,40.933288574],[120.33050537100002,40.951293945],[120.29388427700002,40.953674316],[120.25408935500002,40.935913086],[120.22167968700002,40.92010498],[120.19152832000002,40.905273437],[120.14270019500002,40.881286621],[120.14270019500002,40.914489746],[120.14270019500002,40.972717285],[120.12548828100002,40.996276855],[120.09509277300002,41.038085937],[120.06292724600002,41.054504395],[120.00909423800002,41.093322754],[119.99792480500001,41.062927246],[119.98187255900001,41.031921387],[119.97729492200001,40.999084473],[119.97967529300001,40.956115723],[119.96331787100002,40.926513672],[119.94030761700002,40.905273437],[119.88989257800002,40.887084961],[119.85107421900001,40.887512207],[119.80889892600001,40.892883301],[119.78228759800001,40.87109375],[119.77807617200001,40.832275391],[119.74987793000001,40.809326172],[119.71270752,40.805908203],[119.67071533200001,40.818115234],[119.65447998000002,40.782470703],[119.63208007800002,40.752685547],[119.59167480500001,40.778930664],[119.56909179700001,40.800109863],[119.53527832000002,40.778503418],[119.49548339800002,40.801086426],[119.47668457000002,40.774475098],[119.45568847700001,40.748474121],[119.42248535200001,40.704284668],[119.41192627,40.678283691],[119.39288330100001,40.649108887],[119.35290527300002,40.61730957],[119.29388427700002,40.594299316],[119.25152587900001,40.58392334],[119.19647216800001,40.577697754],[119.20550537100002,40.565307617],[119.19488525400001,40.525085449],[119.22967529300001,40.513122559],[119.27508544900002,40.500488281],[119.320129395,40.516479492],[119.39831543000001,40.527282715],[119.46649169900002,40.514099121],[119.49890136700002,40.492492676],[119.51611328100002,40.464904785],[119.53228759800001,40.438903809],[119.54449462900001,40.419494629],[119.54492187500001,40.411071777],[119.54730224600002,40.372314453],[119.53649902300002,40.320678711],[119.56671142600001,40.269287109],[119.56750488300001,40.268127441],[119.60229492200001,40.216918945],[119.64727783200001,40.193481445],[119.72467041000002,40.149475098],[119.722473145,40.110473633],[119.72711181600002,40.09588623],[119.73291015600002,40.077087402],[119.77227783200001,40.016723633],[119.78332519500002,40.009887695],[119.80670166000002,39.985107422],[119.80407714800002,39.976318359]]]}}
