{"type":"Feature","id":"bulk-99377448B62635864914094","bbox":[129.474914551,45.939697266,134.726501465,48.394470215],"properties":{"id":"bulk-99377448B62635864914094","name":"Jiamusi","nameEn":"Jiamusi","fullName":"Jiamusi","level":"city","boundaryRole":"administrative-extent","boundaryQuality":"generalized-source-2020","boundaryYearRepresented":"2020","bounds":[[129.474914551,45.939697266],[134.726501465,48.394470215]],"center":[132.10070800800003,47.167083740500004],"centerMethod":"bounding-box midpoint; camera framing only","license":"CC-BY-3.0-IGO","attribution":"geoBoundaries / HDX, China administrative boundaries (2020)","source":{"provider":"geoBoundaries gbHumanitarian / HDX","url":"https://github.com/wmgeolab/geoBoundaries/raw/9469f09/releaseData/gbHumanitarian/CHN/ADM2/geoBoundaries-CHN-ADM2.geojson","metadataUrl":"https://www.geoboundaries.org/api/current/gbHumanitarian/CHN/ADM2/","shapeID":"99377448B62635864914094","shapeName":"Jiamusi","boundaryID":"CHN-ADM2-99377448","commit":"9469f09"},"geometryCounts":{"coordinates":425,"components":1,"holes":0},"boundaryNotice":"geoBoundaries / HDX 2020 年行政区数据，海岸和边界经过源数据概化，并非当前测绘成果。"},"geometry":{"type":"Polygon","coordinates":[[[130.203125,46.116882324],[130.28308105500003,46.093505859],[130.46911621100003,46.030700684],[130.533874512,45.980285645],[130.59948730500003,45.956298828],[130.63391113300003,45.944091797],[130.66052246100003,45.939697266],[130.704284668,45.946716309],[130.729675293,45.974304199],[130.765930176,45.99432373],[130.821289062,46.004089355],[130.883300781,46.00769043],[130.93450927700002,46.013305664],[130.97412109400003,46.025512695],[131.00549316400003,46.055908203],[131.044677734,46.080322266],[131.06927490200002,46.102478027],[131.07672119100002,46.133117676],[131.08050537100002,46.176086426],[131.106872559,46.205688477],[131.144104004,46.221923828],[131.179077148,46.237487793],[131.171081543,46.266113281],[131.20507812500003,46.290100098],[131.24450683600003,46.299499512],[131.243896484,46.327697754],[131.228088379,46.357116699],[131.17309570300003,46.356872559],[131.128479004,46.365112305],[131.08050537100002,46.369873047],[131.03747558600003,46.379089355],[131.01428222700002,46.41809082],[131.006713867,46.451477051],[130.98687744100002,46.482910156],[130.94287109400003,46.503112793],[130.91229248000002,46.530883789],[130.90747070300003,46.561096191],[130.85369873000002,46.557495117],[130.80151367200003,46.558105469],[130.74987793000003,46.575317383],[130.70849609400003,46.587890625],[130.704528809,46.62487793],[130.6875,46.658874512],[130.65667724600002,46.688293457],[130.645874023,46.74029541],[130.67028808600003,46.77947998],[130.71289062500003,46.803283691],[130.76751709,46.816894531],[130.80352783200001,46.844726562],[130.81268310500002,46.872680664],[130.849914551,46.899475098],[130.89727783200001,46.919311523],[130.93029785200002,46.934509277],[130.99328613300003,46.953918457],[131.060302734,46.959472656],[131.06750488300003,46.928283691],[131.10107421900003,46.912475586],[131.13067627,46.931274414],[131.183898926,46.945922852],[131.23352050800003,46.952087402],[131.29309082,46.960083008],[131.338928223,46.968688965],[131.41333007800003,46.979675293],[131.446716309,46.997497559],[131.49310302700002,47.007873535],[131.50408935500002,46.944702148],[131.509887695,46.907897949],[131.52368164100002,46.88092041],[131.601501465,46.871276855],[131.641479492,46.869873047],[131.711914062,46.866271973],[131.78948974600002,46.86932373],[131.83227539100002,46.886901855],[131.85229492200003,46.922729492],[131.911315918,46.952514648],[131.964294434,46.956481934],[132.02612304700003,46.95690918],[132.08752441400003,46.943481445],[132.131530762,46.9375],[132.20532226600002,46.926330566],[132.215698242,46.888916016],[132.17687988300003,46.866271973],[132.17510986300002,46.832519531],[132.172729492,46.796875],[132.228088379,46.776489258],[132.339294434,46.741088867],[132.33789062500003,46.773681641],[132.362487793,46.799316406],[132.41369628900003,46.796875],[132.45489502,46.777099609],[132.49291992200003,46.768310547],[132.55090332,46.776489258],[132.60412597700002,46.781494141],[132.67932128900003,46.777709961],[132.76428222700002,46.778503418],[132.81451416000002,46.770507812],[132.849914551,46.791503906],[132.89709472700002,46.805725098],[132.924316406,46.823120117],[132.99169921900003,46.875305176],[133.077514648,46.888122559],[133.11651611300002,46.898681641],[133.11987304700003,46.94909668],[133.14227294900002,46.993896484],[133.13372802700002,47.009887695],[133.14532470700001,47.022705078],[133.16229248000002,47.051330566],[133.15447998000002,47.069702148],[133.17590332,47.131713867],[133.18829345700001,47.146728516],[133.194702148,47.165100098],[133.21771240200002,47.190490723],[133.24810791000002,47.283508301],[133.26391601600002,47.313110352],[133.29351806600002,47.333129883],[133.309082031,47.362487793],[133.31127929700003,47.397888184],[133.34112548800002,47.428283691],[133.370910645,47.453308105],[133.408325195,47.430114746],[133.46270752,47.423706055],[133.51989746100003,47.441894531],[133.56372070300003,47.474914551],[133.663085937,47.513671875],[133.73828125000003,47.51348877],[133.78448486300002,47.513122559],[133.83770752,47.52130127],[133.917724609,47.515319824],[133.937072754,47.509521484],[134.06109619100002,47.50592041],[134.09649658200001,47.514526367],[134.115722656,47.538085937],[134.122497559,47.53692627],[134.12591552700002,47.516906738],[134.147888184,47.488708496],[134.19769287100002,47.438903809],[134.256896973,47.406677246],[134.275695801,47.420898437],[134.29528808600003,47.422485352],[134.29547119100002,47.422729492],[134.30590820300003,47.428100586],[134.32049560500002,47.435119629],[134.33947753900003,47.436279297],[134.353088379,47.436096191],[134.36688232400002,47.436523437],[134.38708496100003,47.437072754],[134.40771484400003,47.437683105],[134.43292236300002,47.44152832],[134.44152832,47.444519043],[134.451293945,47.4453125],[134.45849609400003,47.444702148],[134.45867919900002,47.444885254],[134.49230957,47.469299316],[134.51568603500002,47.514282227],[134.55267334,47.536499023],[134.598327637,47.562683105],[134.61352539100002,47.585510254],[134.627929687,47.61328125],[134.66027832,47.649291992],[134.68151855500003,47.673095703],[134.709289551,47.710876465],[134.67687988300003,47.743713379],[134.60870361300002,47.800476074],[134.61492919900002,47.87512207],[134.520874023,47.880493164],[134.49768066400003,47.905090332],[134.479919434,47.947875977],[134.483276367,47.972717285],[134.49310302700002,47.999511719],[134.524108887,48.019714355],[134.557312012,48.05291748],[134.59167480500003,48.082092285],[134.609680176,48.115905762],[134.61669921900003,48.15447998],[134.61907959,48.210876465],[134.640930176,48.246887207],[134.725097656,48.276123047],[134.725280762,48.276489258],[134.71789550800003,48.297912598],[134.718322754,48.316711426],[134.726501465,48.337280273],[134.70111084,48.33807373],[134.63427734400003,48.366271973],[134.56750488300003,48.394470215],[134.36688232400002,48.375488281],[134.36132812500003,48.371887207],[134.35070800800003,48.367919922],[134.33508300800003,48.36730957],[134.321472168,48.366699219],[134.30987548800002,48.368286133],[134.30548095700001,48.369689941],[134.28131103500002,48.36730957],[134.12451171900003,48.333496094],[134.12347412100002,48.332885742],[134.11907959,48.332275391],[134.104919434,48.329284668],[134.01971435500002,48.317687988],[134.01068115200002,48.31451416],[134.003479004,48.307678223],[133.995300293,48.303100586],[133.988098145,48.301330566],[133.981323242,48.30090332],[133.970092773,48.292114258],[133.917907715,48.252075195],[133.84167480500003,48.250488281],[133.78747558600003,48.257507324],[133.78308105500003,48.25567627],[133.766479492,48.256103516],[133.753479004,48.25567627],[133.734680176,48.252685547],[133.717102051,48.241088867],[133.717285156,48.237487793],[133.71667480500003,48.225280762],[133.71490478500002,48.217712402],[133.70989990200002,48.209289551],[133.702514648,48.197692871],[133.69409179700003,48.190124512],[133.68572998000002,48.184692383],[133.659729004,48.181091309],[133.64831543000003,48.182922363],[133.640075684,48.185119629],[133.62231445300003,48.170715332],[133.602905273,48.167297363],[133.561889648,48.157897949],[133.55932617200003,48.156921387],[133.55792236300002,48.152099609],[133.55548095700001,48.143493652],[133.55267334,48.134887695],[133.54571533200001,48.12512207],[133.53833007800003,48.11907959],[133.528686523,48.115478516],[133.52331543000003,48.114074707],[133.51409912100002,48.112670898],[133.50231933600003,48.112487793],[133.498901367,48.113098145],[133.49310302700002,48.096313477],[133.319885254,48.074890137],[133.23852539100002,48.061279297],[133.15667724600002,48.102478027],[133.01550293000003,48.074890137],[133.01232910200002,48.066101074],[133.01049804700003,48.06048584],[133.008300781,48.051879883],[133.00109863300003,48.042724609],[132.995300293,48.038696289],[132.98449707,48.033081055],[132.97229003900003,48.02911377],[132.96331787100002,48.026489258],[132.954284668,48.024108887],[132.946289062,48.02130127],[132.94128418000003,48.014099121],[132.907104492,47.994873047],[132.867492676,47.991088867],[132.86407470700001,47.985900879],[132.857727051,47.978088379],[132.85107421900003,47.971496582],[132.83789062500003,47.954711914],[132.826477051,47.943908691],[132.819702148,47.939697266],[132.811523437,47.934692383],[132.80328369100002,47.933105469],[132.79492187500003,47.932495117],[132.783325195,47.932678223],[132.76049804700003,47.914306641],[132.715515137,47.904296875],[132.66027832,47.926086426],[132.65289306600002,47.92791748],[132.65490722700002,47.92010498],[132.659729004,47.912109375],[132.676086426,47.890319824],[132.67828369100002,47.886108398],[132.67987060500002,47.88269043],[132.67852783200001,47.880310059],[132.675720215,47.875671387],[132.672912598,47.872680664],[132.66552734400003,47.863525391],[132.65490722700002,47.851928711],[132.645874023,47.846130371],[132.62487793000003,47.834899902],[132.614318848,47.826477051],[132.61047363300003,47.821472168],[132.60668945300003,47.815917969],[132.59771728500002,47.804077148],[132.593688965,47.796691895],[132.591918945,47.790100098],[132.592285156,47.779907227],[132.593688965,47.772277832],[132.595275879,47.763122559],[132.598510742,47.758911133],[132.59967041000002,47.75592041],[132.59771728500002,47.748718262],[132.59307861300002,47.738525391],[132.59112548800002,47.734680176],[132.58489990200002,47.72869873],[132.56329345700001,47.718688965],[132.55090332,47.716125488],[132.540100098,47.715087891],[132.531921387,47.714904785],[132.52490234400003,47.702514648],[132.48229980500003,47.678100586],[132.46148681600002,47.67791748],[132.42687988300003,47.649475098],[132.403503418,47.611694336],[132.41070556600002,47.600891113],[132.389526367,47.5703125],[132.32391357400002,47.534301758],[132.288879395,47.493713379],[132.27508544900002,47.452087402],[132.25787353500002,47.432922363],[132.25567627,47.432128906],[132.20892334,47.413879395],[132.12072753900003,47.383911133],[132.062316895,47.368713379],[132.02270507800003,47.345703125],[132.00592041000002,47.294921875],[131.98370361300002,47.25970459],[131.943481445,47.234313965],[131.911499023,47.234313965],[131.77111816400003,47.260681152],[131.65411377,47.227478027],[131.609680176,47.222106934],[131.532287598,47.224121094],[131.43811035200002,47.22869873],[131.357727051,47.1875],[131.30987548800002,47.170288086],[131.248901367,47.179504395],[131.136291504,47.203491211],[131.09613037100002,47.199707031],[131.07690429700003,47.217102051],[131.005310059,47.237304687],[130.96472168000003,47.243103027],[130.92687988300003,47.258300781],[130.91888427700002,47.300476074],[130.88110351600002,47.315673828],[130.78967285200002,47.329101562],[130.699890137,47.325073242],[130.58367919900002,47.327270508],[130.48071289100002,47.345092773],[130.485900879,47.331726074],[130.536315918,47.288330078],[130.59271240200002,47.241516113],[130.66607666000002,47.204284668],[130.658874512,47.159484863],[130.61651611300002,47.145080566],[130.577697754,47.114929199],[130.54370117200003,47.095275879],[130.49230957,47.087280273],[130.438903809,47.101074219],[130.38867187500003,47.091308594],[130.345275879,47.091308594],[130.34271240200002,47.057678223],[130.334289551,47.021728516],[130.29528808600003,47.014099121],[130.25451660200002,47.023071289],[130.207519531,47.032287598],[130.152282715,47.05847168],[130.12487793000003,47.087097168],[130.125488281,47.114685059],[130.10168457,47.154296875],[130.076477051,47.177307129],[130.024475098,47.19152832],[129.970275879,47.201721191],[129.93188476600002,47.214294434],[129.89312744100002,47.231506348],[129.85070800800003,47.248474121],[129.827880859,47.216491699],[129.786682129,47.222717285],[129.770690918,47.195678711],[129.739501953,47.166687012],[129.709289551,47.143676758],[129.71911621100003,47.114501953],[129.692077637,47.091918945],[129.657104492,47.0703125],[129.66748046900003,47.038879395],[129.65008544900002,47.010681152],[129.60351562500003,47.002319336],[129.55010986300002,46.983520508],[129.53790283200001,46.950927734],[129.546081543,46.916503906],[129.55267334,46.881530762],[129.563903809,46.846923828],[129.59307861300002,46.80670166],[129.612487793,46.774291992],[129.596679687,46.738708496],[129.55810546900003,46.71307373],[129.54089355500003,46.67767334],[129.53167724600002,46.651489258],[129.49468994100002,46.639282227],[129.474914551,46.609313965],[129.536682129,46.601928711],[129.58312988300003,46.581115723],[129.60870361300002,46.536682129],[129.63067627,46.516906738],[129.671081543,46.511291504],[129.712097168,46.520080566],[129.79351806600002,46.571289062],[129.83990478500002,46.598510742],[129.92211914100002,46.563293457],[129.959289551,46.538513184],[130.02148437500003,46.540283203],[130.044677734,46.568908691],[130.077880859,46.589477539],[130.14227294900002,46.577270508],[130.15008544900002,46.547119141],[130.12731933600003,46.515686035],[130.114685059,46.48651123],[130.133483887,46.454711914],[130.127929687,46.425720215],[130.07611084,46.404296875],[130.04309082,46.375305176],[130.00549316400003,46.366088867],[129.932495117,46.378723145],[129.87890625000003,46.374328613],[129.851318359,46.363708496],[129.93371582,46.347290039],[129.96911621100003,46.337524414],[129.991088867,46.317687988],[130.017700195,46.265686035],[130.03289794900002,46.246887207],[130.07690429700003,46.231079102],[130.10552978500002,46.210083008],[130.136474609,46.150512695],[130.14709472700002,46.139282227],[130.15588378900003,46.133300781],[130.203125,46.116882324]]]}}
