{"type":"Feature","id":"bulk-99377448B70402331246951","bbox":[113.68371582000002,31.377502441,115.88787841800001,32.684692383],"properties":{"id":"bulk-99377448B70402331246951","name":"Xinyang","nameEn":"Xinyang","fullName":"Xinyang","level":"city","boundaryRole":"administrative-extent","boundaryQuality":"generalized-source-2020","boundaryYearRepresented":"2020","bounds":[[113.68371582000002,31.377502441],[115.88787841800001,32.684692383]],"center":[114.78579711900002,32.031097412],"centerMethod":"bounding-box midpoint; camera framing only","license":"CC-BY-3.0-IGO","attribution":"geoBoundaries / HDX, China administrative boundaries (2020)","source":{"provider":"geoBoundaries gbHumanitarian / HDX","url":"https://github.com/wmgeolab/geoBoundaries/raw/9469f09/releaseData/gbHumanitarian/CHN/ADM2/geoBoundaries-CHN-ADM2.geojson","metadataUrl":"https://www.geoboundaries.org/api/current/gbHumanitarian/CHN/ADM2/","shapeID":"99377448B70402331246951","shapeName":"Xinyang","boundaryID":"CHN-ADM2-99377448","commit":"9469f09"},"geometryCounts":{"coordinates":211,"components":1,"holes":0},"boundaryNotice":"geoBoundaries / HDX 2020 年行政区数据，海岸和边界经过源数据概化，并非当前测绘成果。"},"geometry":{"type":"Polygon","coordinates":[[[115.16668701200001,32.636901855],[115.08447265600002,32.644287109],[115.05670166000002,32.671325684],[115.01269531200002,32.684692383],[114.95648193400001,32.678283691],[114.87628173800002,32.678100586],[114.86047363300001,32.652099609],[114.81652832000002,32.609313965],[114.82550048800002,32.582275391],[114.78967285200001,32.545471191],[114.74572753900001,32.543884277],[114.69311523400002,32.558105469],[114.67687988300001,32.534484863],[114.64288330100001,32.528076172],[114.60571289100001,32.528076172],[114.58691406200002,32.504089355],[114.59069824200002,32.477294922],[114.60247802700002,32.450927734],[114.62487793000001,32.426879883],[114.64312744100002,32.401123047],[114.64587402300002,32.374328613],[114.59851074200002,32.29309082],[114.54888916000002,32.297912598],[114.50311279300001,32.267883301],[114.48168945300002,32.277709961],[114.47052002,32.278076172],[114.47088623000002,32.282714844],[114.44830322300001,32.274475098],[114.41448974600002,32.262084961],[114.38171386700002,32.267700195],[114.36047363300001,32.282287598],[114.31732177700002,32.301879883],[114.31768798800002,32.311096191],[114.29730224600002,32.343688965],[114.29827880900001,32.361694336],[114.27911377,32.417114258],[114.26892089800002,32.43548584],[114.23889160200001,32.495727539],[114.20349121100001,32.511108398],[114.19171142600001,32.454101562],[114.15289306600002,32.43572998],[114.10870361300002,32.438720703],[114.09112548800002,32.472106934],[114.08673095700001,32.49987793],[114.06829834000001,32.52911377],[114.02667236300002,32.529724121],[113.96087646500001,32.553527832],[113.921875,32.576477051],[113.89910888700001,32.614318848],[113.87628173800002,32.634521484],[113.83770752,32.646118164],[113.8125,32.624511719],[113.77429199200002,32.613891602],[113.75787353500002,32.590515137],[113.73150634800001,32.560913086],[113.72631835900002,32.527893066],[113.72607421900001,32.489318848],[113.70367431600002,32.456726074],[113.68371582000002,32.39831543],[113.68670654300001,32.398071289],[113.70190429700001,32.366699219],[113.72027587900001,32.305114746],[113.72790527300002,32.273071289],[113.70428466800001,32.246887207],[113.72229003900001,32.202270508],[113.74127197300001,32.164672852],[113.74353027300002,32.129882812],[113.71228027300002,32.100524902],[113.695129395,32.09552002],[113.687316895,32.093078613],[113.70050048800002,32.068115234],[113.72869873000002,32.045288086],[113.74987793000001,32.034118652],[113.74291992200001,32.020874023],[113.72210693400001,32.004516602],[113.72747802700002,31.976928711],[113.77191162100002,31.956481934],[113.79351806600002,31.928283691],[113.80230712900001,31.901489258],[113.81372070300002,31.860473633],[113.85388183600001,31.8125],[113.87548828100002,31.848327637],[113.89190673800002,31.860290527],[113.90789794900002,31.855529785],[113.91748046900001,31.798522949],[113.91687011700002,31.747924805],[113.92828369100002,31.711303711],[113.96508789100001,31.72088623],[113.97467041000002,31.751708984],[114.03210449200002,31.767883301],[114.05371093700002,31.800292969],[114.06072998000002,31.842712402],[114.08068847700001,31.862487793],[114.12829589800002,31.871887207],[114.15747070300002,31.859313965],[114.17468261700002,31.851928711],[114.20751953100002,31.81829834],[114.23150634800001,31.79888916],[114.29748535200001,31.762512207],[114.35247802700002,31.748474121],[114.39752197300001,31.747924805],[114.43188476600001,31.748718262],[114.49328613300001,31.75567627],[114.52569580100001,31.761901855],[114.54827880900001,31.767272949],[114.55072021500001,31.765075684],[114.56268310500002,31.753723145],[114.55969238300001,31.710327148],[114.54608154300001,31.664489746],[114.52947998000002,31.628723145],[114.53088378900001,31.585083008],[114.53747558600001,31.581298828],[114.56732177700002,31.56451416],[114.59228515600002,31.601074219],[114.61651611300002,31.591308594],[114.64367675800001,31.554870605],[114.66247558600001,31.517089844],[114.71789550800001,31.539306641],[114.73010253900001,31.525695801],[114.75549316400001,31.497314453],[114.78912353500002,31.463317871],[114.81530761700002,31.459289551],[114.82629394500002,31.457702637],[114.86712646500001,31.464294434],[114.90972900400001,31.485107422],[114.96173095700001,31.478881836],[115.02368164100001,31.478515625],[115.04589843700002,31.538879395],[115.05590820300002,31.548278809],[115.10888671900001,31.584472656],[115.14868164100001,31.608093262],[115.163879395,31.58190918],[115.16827392600001,31.574523926],[115.17590332000002,31.532470703],[115.17272949200002,31.492675781],[115.17510986300002,31.456115723],[115.17767334000001,31.424926758],[115.18609619100002,31.398925781],[115.21289062500001,31.403320312],[115.22387695300002,31.408325195],[115.23651123000002,31.405883789],[115.33331298800002,31.377502441],[115.35949707000002,31.412109375],[115.36810302700002,31.450683594],[115.36047363300001,31.491882324],[115.37890625000001,31.532897949],[115.39691162100002,31.55267334],[115.40667724600002,31.573730469],[115.41809082000002,31.587280273],[115.42871093700002,31.62689209],[115.48327636700002,31.685302734],[115.53930664100001,31.709716797],[115.56787109400001,31.722717285],[115.60729980500001,31.738891602],[115.64367675800001,31.755310059],[115.67712402300002,31.760925293],[115.68847656200002,31.762512207],[115.73547363300001,31.768493652],[115.77850341800001,31.791503906],[115.82092285200001,31.819885254],[115.85992431600002,31.855895996],[115.88250732400002,31.93951416],[115.88592529300001,31.989318848],[115.88787841800001,32.016479492],[115.86950683600001,32.067504883],[115.86169433600001,32.113525391],[115.85748291000002,32.209289551],[115.83551025400001,32.210327148],[115.85888671900001,32.227478027],[115.86547851600001,32.322692871],[115.85711669900002,32.35949707],[115.84808349600002,32.387329102],[115.83831787100002,32.405883789],[115.81829834000001,32.434326172],[115.80810546900001,32.448486328],[115.78668212900001,32.458496094],[115.75347900400001,32.460083008],[115.75390625000001,32.46472168],[115.74389648400002,32.478881836],[115.71032714800002,32.475891113],[115.69909668000001,32.471923828],[115.67730712900001,32.477478027],[115.65447998000002,32.469482422],[115.65332031200002,32.451293945],[115.64007568400001,32.42010498],[115.65087890600002,32.414916992],[115.64892578100002,32.387695312],[115.62689209000001,32.388671875],[115.56628418000001,32.390075684],[115.53930664100001,32.401916504],[115.51788330100001,32.412109375],[115.50787353500002,32.430725098],[115.48651123000002,32.440673828],[115.47631835900002,32.45489502],[115.46691894500002,32.478088379],[115.42449951200001,32.507324219],[115.39288330100001,32.531494141],[115.38232421900001,32.54107666],[115.37231445300002,32.555114746],[115.36151123000002,32.560119629],[115.33868408200001,32.552124023],[115.304504395,32.53527832],[115.28167724600002,32.527282715],[115.25970459000001,32.528320312],[115.26171875000001,32.559875488],[115.25848388700001,32.56829834],[115.17388916000002,32.572875977],[115.16271972700001,32.573486328],[115.15307617200001,32.596496582],[115.15490722700001,32.623718262],[115.16668701200001,32.636901855]]]}}
