{"type":"Feature","id":"bulk-99377448B46055629764853","bbox":[120.71350097700001,40.820678711,122.53112793000001,42.099121094],"properties":{"id":"bulk-99377448B46055629764853","name":"Jinzhou","nameEn":"Jinzhou","fullName":"Jinzhou","level":"city","boundaryRole":"administrative-extent","boundaryQuality":"generalized-source-2020","boundaryYearRepresented":"2020","bounds":[[120.71350097700001,40.820678711],[122.53112793000001,42.099121094]],"center":[121.62231445350001,41.4598999025],"centerMethod":"bounding-box midpoint; camera framing only","license":"CC-BY-3.0-IGO","attribution":"geoBoundaries / HDX, China administrative boundaries (2020)","source":{"provider":"geoBoundaries gbHumanitarian / HDX","url":"https://github.com/wmgeolab/geoBoundaries/raw/9469f09/releaseData/gbHumanitarian/CHN/ADM2/geoBoundaries-CHN-ADM2.geojson","metadataUrl":"https://www.geoboundaries.org/api/current/gbHumanitarian/CHN/ADM2/","shapeID":"99377448B46055629764853","shapeName":"Jinzhou","boundaryID":"CHN-ADM2-99377448","commit":"9469f09"},"geometryCounts":{"coordinates":180,"components":2,"holes":0},"boundaryNotice":"geoBoundaries / HDX 2020 年行政区数据，海岸和边界经过源数据概化，并非当前测绘成果。"},"geometry":{"type":"MultiPolygon","coordinates":[[[[121.25268554700001,40.915527344],[121.26910400400001,40.915893555],[121.25512695300002,40.925476074],[121.25268554700001,40.915527344]]],[[[122.44348144500002,41.559875488],[122.45330810500002,41.57989502],[122.47747802700002,41.609924316],[122.51147460900002,41.660095215],[122.53070068400001,41.697509766],[122.53112793000001,41.732116699],[122.46990966800001,41.804870605],[122.43872070300002,41.844909668],[122.42687988300001,41.86907959],[122.43707275400001,41.891296387],[122.453125,41.910705566],[122.45947265600002,41.928527832],[122.45330810500002,41.966125488],[122.44488525400001,42.010925293],[122.43627929700001,42.034729004],[122.41448974600002,42.055297852],[122.39990234400001,42.082092285],[122.39007568400001,42.099121094],[122.37152099600002,42.083679199],[122.34027099600002,42.068725586],[122.30047607400002,42.053283691],[122.24548339800002,42.031921387],[122.20831298800002,42.016723633],[122.16168212900001,41.997314453],[122.12310791000002,41.980712891],[122.07287597700001,41.957885742],[122.04510498000002,41.93927002],[122.01452636700002,41.91607666],[121.98669433600001,41.894287109],[121.96112060500002,41.873474121],[121.93048095700001,41.852905273],[121.89532470700001,41.831481934],[121.84948730500001,41.811889648],[121.81927490200002,41.795898437],[121.83068847700001,41.765075684],[121.74108886700002,41.759521484],[121.69207763700001,41.767272949],[121.65008544900002,41.76550293],[121.60791015600002,41.755126953],[121.5625,41.752075195],[121.51751709000001,41.769714355],[121.48168945300002,41.775085449],[121.44189453100002,41.772277832],[121.40509033200001,41.768676758],[121.35131835900002,41.755310059],[121.31787109400001,41.73651123],[121.29248046900001,41.75567627],[121.25708007800002,41.78729248],[121.22790527300002,41.735900879],[121.20812988300001,41.701721191],[121.19189453100002,41.676330566],[121.16552734400001,41.653503418],[121.12548828100002,41.622497559],[121.09692382800002,41.59967041],[121.05548095700001,41.582275391],[121.01367187500001,41.577270508],[120.97790527300002,41.563903809],[120.95227050800001,41.533508301],[120.91668701200001,41.506103516],[120.89788818400001,41.47088623],[120.88568115200002,41.444274902],[120.87408447300001,41.417724609],[120.86108398400002,41.388916016],[120.82910156200002,41.37512207],[120.76647949200002,41.373291016],[120.74987793000001,41.33972168],[120.72589111300002,41.30267334],[120.71350097700001,41.270080566],[120.71752929700001,41.229125977],[120.73107910200001,41.194274902],[120.74407959000001,41.153076172],[120.76928710900002,41.11907959],[120.80212402300002,41.09588623],[120.84167480500001,41.103881836],[120.87487793000001,41.129882812],[120.91149902300002,41.122924805],[120.91809082000002,41.095092773],[120.94329834000001,41.073486328],[120.92907714800002,41.044311523],[120.93872070300002,41.013305664],[120.97308349600002,40.995910645],[121.05792236300002,40.998718262],[120.99572753900001,40.958679199],[121.00732421900001,40.931884766],[121.01287841800001,40.895324707],[121.01129150400001,40.860900879],[120.99688720700001,40.827697754],[121.00128173800002,40.825927734],[121.00189209000001,40.835510254],[121.00891113300001,40.835083008],[121.01867675800001,40.825683594],[121.01867675800001,40.82232666],[121.02471923800002,40.820678711],[121.02410888700001,40.831298828],[121.03332519500002,40.844116211],[121.03948974600002,40.852722168],[121.04589843700002,40.863098145],[121.05548095700001,40.870483398],[121.07928466800001,40.87310791],[121.09252929700001,40.879272461],[121.10150146500001,40.889526367],[121.13568115200002,40.938476562],[121.16333007800002,40.934326172],[121.18249511700002,40.930114746],[121.18432617200001,40.930297852],[121.18927002,40.937072754],[121.19189453100002,40.930480957],[121.20471191400001,40.931091309],[121.22192382800002,40.917114258],[121.22668457000002,40.922485352],[121.23071289100001,40.922302246],[121.22851562500001,40.915100098],[121.24407959000001,40.915283203],[121.24389648400002,40.917297363],[121.24908447300001,40.921508789],[121.24951171900001,40.929504395],[121.23211669900002,40.94152832],[121.26147460900002,40.964477539],[121.27667236300002,40.942504883],[121.29467773400002,40.931884766],[121.31927490200002,40.93170166],[121.32568359400001,40.940307617],[121.33032226600001,40.931274414],[121.33349609400001,40.932495117],[121.33508300800001,40.9296875],[121.33367919900002,40.925109863],[121.33587646500001,40.920715332],[121.35290527300002,40.919128418],[121.36492919900002,40.919677734],[121.36651611300002,40.91809082],[121.363098145,40.912109375],[121.36352539100001,40.909118652],[121.37390136700002,40.905090332],[121.37689209000001,40.90447998],[121.40948486300002,40.909118652],[121.43090820300002,40.919921875],[121.45410156200002,40.934326172],[121.48309326200001,40.914672852],[121.50531005900001,40.907470703],[121.53729248000002,40.906677246],[121.54870605500001,40.884887695],[121.55389404300001,40.870117187],[121.56311035200001,40.85748291],[121.57928466800001,40.858886719],[121.61468505900001,40.890686035],[121.61810302700002,40.893920898],[121.64251709000001,40.920288086],[121.66009521500001,40.957275391],[121.65032959000001,40.989685059],[121.66888427700002,41.016479492],[121.68927002,41.05267334],[121.60772705100001,41.069274902],[121.56451416000002,41.080688477],[121.54467773400002,41.111694336],[121.56732177700002,41.141906738],[121.57989502,41.176696777],[121.58752441400001,41.204711914],[121.61608886700002,41.245727539],[121.68072509800001,41.27331543],[121.72308349600002,41.297485352],[121.75628662100002,41.31628418],[121.80468750000001,41.328308105],[121.84649658200001,41.319091797],[121.89349365200002,41.323303223],[121.93347168000001,41.339294434],[122.00689697300001,41.372924805],[122.03552246100001,41.393493652],[122.06970214800002,41.408874512],[122.09771728500002,41.424926758],[122.12609863300001,41.443115234],[122.15008544900002,41.473327637],[122.19207763700001,41.497314453],[122.24847412100002,41.531494141],[122.31207275400001,41.569702148],[122.37609863300001,41.573120117],[122.44348144500002,41.559875488]]]]}}
