{"type":"Feature","id":"bulk-99377448B75294717621677","bbox":[103.61248779300001,26.38671875,106.72930908200001,27.769104004],"properties":{"id":"bulk-99377448B75294717621677","name":"Bijie","nameEn":"Bijie","fullName":"Bijie","level":"city","boundaryRole":"administrative-extent","boundaryQuality":"generalized-source-2020","boundaryYearRepresented":"2020","bounds":[[103.61248779300001,26.38671875],[106.72930908200001,27.769104004]],"center":[105.17089843750001,27.077911377],"centerMethod":"bounding-box midpoint; camera framing only","license":"CC-BY-3.0-IGO","attribution":"geoBoundaries / HDX, China administrative boundaries (2020)","source":{"provider":"geoBoundaries gbHumanitarian / HDX","url":"https://github.com/wmgeolab/geoBoundaries/raw/9469f09/releaseData/gbHumanitarian/CHN/ADM2/geoBoundaries-CHN-ADM2.geojson","metadataUrl":"https://www.geoboundaries.org/api/current/gbHumanitarian/CHN/ADM2/","shapeID":"99377448B75294717621677","shapeName":"Bijie","boundaryID":"CHN-ADM2-99377448","commit":"9469f09"},"geometryCounts":{"coordinates":249,"components":1,"holes":0},"boundaryNotice":"geoBoundaries / HDX 2020 年行政区数据，海岸和边界经过源数据概化，并非当前测绘成果。"},"geometry":{"type":"Polygon","coordinates":[[[105.33227539100001,27.711914062],[105.32507324200002,27.700317383],[105.32971191400001,27.653686523],[105.27227783200001,27.618286133],[105.26788330100001,27.608093262],[105.24670410200001,27.567687988],[105.26947021500001,27.521118164],[105.25708007800002,27.48828125],[105.24188232400002,27.451904297],[105.22027587900001,27.415893555],[105.14227294900002,27.428710937],[105.02752685500002,27.371704102],[104.94012451200001,27.354309082],[104.89947509800001,27.285095215],[104.86431884800001,27.306274414],[104.82452392600001,27.330322266],[104.78851318400001,27.32232666],[104.71771240200002,27.332519531],[104.64349365200002,27.315490723],[104.55267334000001,27.303100586],[104.52307128900001,27.354675293],[104.51031494100002,27.395324707],[104.46087646500001,27.419921875],[104.45690918000001,27.422912598],[104.42132568400001,27.450317383],[104.38128662100002,27.43927002],[104.35949707000002,27.413085937],[104.33129882800002,27.377502441],[104.28668212900001,27.3125],[104.25628662100002,27.280273437],[104.22668457000002,27.273498535],[104.19732666000002,27.266479492],[104.13952636700002,27.311096191],[104.04168701200001,27.403076172],[103.99047851600001,27.436279297],[103.95471191400001,27.467712402],[103.93371582000002,27.444702148],[103.89691162100002,27.404296875],[103.87908935500002,27.338684082],[103.81329345700001,27.263305664],[103.75451660200001,27.206115723],[103.74151611300002,27.188293457],[103.72027587900001,27.159118652],[103.66229248000002,27.131713867],[103.64770507800002,27.124511719],[103.65350341800001,27.098876953],[103.67132568400001,27.077270508],[103.63751220700001,27.053710937],[103.61248779300001,27.036071777],[103.629882812,27.010498047],[103.63708496100001,27.004272461],[103.70147705100001,27.038513184],[103.76770019500002,26.977478027],[103.77288818400001,26.877929687],[103.73107910200001,26.838684082],[103.72070312500001,26.772277832],[103.73211669900002,26.655090332],[103.76470947300001,26.594726562],[103.82788085900002,26.557678223],[103.89428710900002,26.514526367],[103.92010498000002,26.517700195],[103.99932861300002,26.527526855],[104.08312988300001,26.540100098],[104.10748291000002,26.61151123],[104.19952392600001,26.639709473],[104.29351806600002,26.621276855],[104.40728759800001,26.734924316],[104.48272705100001,26.710876465],[104.46691894500002,26.638916016],[104.54107666000002,26.599304199],[104.56372070300002,26.585693359],[104.65887451200001,26.567077637],[104.703125,26.577087402],[104.69171142600001,26.60369873],[104.71112060500002,26.632873535],[104.74267578100002,26.652893066],[104.75567627,26.68548584],[104.75292968700002,26.727294922],[104.75109863300001,26.762084961],[104.75592041000002,26.801696777],[104.77307128900001,26.826477051],[104.79229736300002,26.852478027],[104.82690429700001,26.895080566],[104.86047363300001,26.878295898],[104.88531494100002,26.859680176],[104.92089843700002,26.858703613],[104.94451904300001,26.886291504],[104.97412109400001,26.920288086],[105.01831054700001,26.934082031],[105.03448486300002,26.898925781],[105.00549316400001,26.86932373],[104.97589111300002,26.848083496],[104.99951171900001,26.829284668],[105.02990722700001,26.829284668],[105.05291748000002,26.805725098],[105.07287597700001,26.764099121],[105.08050537100002,26.730895996],[105.08508300800001,26.698303223],[105.08288574200002,26.662719727],[105.08007812500001,26.632324219],[105.10772705100001,26.615478516],[105.14147949200002,26.615478516],[105.17370605500001,26.608703613],[105.19451904300001,26.588928223],[105.20709228500002,26.554077148],[105.23327636700002,26.534912109],[105.27807617200001,26.540893555],[105.31951904300001,26.546325684],[105.36547851600001,26.531921387],[105.35870361300002,26.501098633],[105.39868164100001,26.492126465],[105.44128418000001,26.488708496],[105.47192382800002,26.488708496],[105.49871826200001,26.473083496],[105.50427246100001,26.437927246],[105.53308105500001,26.38671875],[105.56890869100002,26.421691895],[105.59472656200002,26.447509766],[105.62487793000001,26.461303711],[105.65411377,26.47088623],[105.69268798800002,26.479919434],[105.73431396500001,26.468688965],[105.76208496100001,26.453125],[105.79229736300002,26.481689453],[105.83270263700001,26.493286133],[105.88153076200001,26.516723633],[105.92529296900001,26.538696289],[105.96691894500002,26.527099609],[106.02807617200001,26.446289062],[106.08428955100001,26.448303223],[106.09991455100001,26.455871582],[106.10809326200001,26.456298828],[106.12310791000002,26.478271484],[106.13891601600001,26.486083984],[106.16107177700002,26.529907227],[106.16851806600002,26.544494629],[106.16748046900001,26.565917969],[106.17529296900001,26.573486328],[106.16668701200001,26.587524414],[106.16589355500001,26.601928711],[106.14929199200002,26.615722656],[106.12408447300001,26.636291504],[106.13153076200001,26.650878906],[106.14770507800002,26.651489258],[106.17108154300001,26.666687012],[106.16827392600001,26.731079102],[106.17608642600001,26.738525391],[106.17572021500001,26.745727539],[106.15008544900002,26.780700684],[106.13330078100002,26.794494629],[106.12451171900001,26.80847168],[106.171875,26.831726074],[106.19610595700001,26.832519531],[106.19549560500002,26.846923828],[106.21130371100001,26.854492187],[106.22650146500001,26.876525879],[106.25048828100002,26.884521484],[106.25067138700001,26.877502441],[106.26751709000001,26.863708496],[106.27648925800001,26.842285156],[106.29132080100001,26.871520996],[106.33172607400002,26.872924805],[106.37170410200001,26.881286621],[106.36529541000002,26.901489258],[106.36791992200001,26.940673828],[106.37768554700001,26.977905273],[106.41931152300002,26.983886719],[106.44873046900001,27.006286621],[106.42889404300001,27.033691406],[106.40972900400001,27.0703125],[106.39550781200002,27.096496582],[106.41827392600001,27.150878906],[106.44787597700001,27.178527832],[106.46911621100001,27.198303223],[106.50708007800002,27.216308594],[106.55047607400002,27.229675293],[106.58447265600002,27.239685059],[106.60687255900001,27.261474609],[106.628723145,27.280700684],[106.65588378900001,27.30090332],[106.72930908200001,27.312072754],[106.71948242200001,27.376281738],[106.72192382800002,27.403930664],[106.70587158200001,27.431884766],[106.69567871100001,27.459289551],[106.65948486300002,27.468322754],[106.63372802700002,27.49230957],[106.62231445300002,27.50567627],[106.62188720700001,27.512695312],[106.58929443400001,27.51171875],[106.57330322300001,27.504089355],[106.54187011700002,27.474487305],[106.50952148400002,27.473510742],[106.46728515600002,27.507873535],[106.44268798800002,27.514282227],[106.41107177700002,27.491882324],[106.37908935500002,27.476501465],[106.35107421900001,27.476318359],[106.31768798800002,27.489501953],[106.32708740200002,27.523925781],[106.32489013700001,27.557678223],[106.31427002,27.597106934],[106.27868652300002,27.588684082],[106.24847412100002,27.572875977],[106.22210693400001,27.556274414],[106.19152832000002,27.550109863],[106.15808105500001,27.553283691],[106.13269043000001,27.576293945],[106.11529541000002,27.608093262],[106.10070800800001,27.635681152],[106.06652832000002,27.65032959],[106.02770996100001,27.650695801],[105.99670410200001,27.671508789],[105.99652099600002,27.703674316],[106.00891113300001,27.743286133],[105.97711181600002,27.727905273],[105.93530273400002,27.747924805],[105.90112304700001,27.739685059],[105.89587402300002,27.717895508],[105.89312744100002,27.717712402],[105.87969970700001,27.717285156],[105.87152099600002,27.716918945],[105.86370849600002,27.709472656],[105.85552978500002,27.709289551],[105.855285645,27.716308594],[105.83068847700001,27.715515137],[105.81408691400001,27.722106934],[105.79791259800001,27.721496582],[105.79010009800001,27.713928223],[105.76568603500002,27.71307373],[105.75012207000002,27.698120117],[105.74230957000002,27.690673828],[105.72631835900002,27.682922363],[105.69372558600001,27.68170166],[105.65228271500001,27.694519043],[105.63568115200002,27.700927734],[105.61132812500001,27.700073242],[105.59472656200002,27.706481934],[105.57830810500002,27.705871582],[105.56091308600001,27.72668457],[105.53607177700002,27.732910156],[105.52728271500001,27.746887207],[105.51531982400002,27.749328613],[105.47668457000002,27.769104004],[105.42547607400002,27.75189209],[105.39190673800002,27.730712891],[105.38287353500002,27.725891113],[105.34387207000002,27.710876465],[105.33227539100001,27.711914062]]]}}
