{"type":"Feature","id":"bulk-99377448B58353621411907","bbox":[115.69891357400002,37.486083984,117.78387451200001,38.920471191],"properties":{"id":"bulk-99377448B58353621411907","name":"Cangzhou","nameEn":"Cangzhou","fullName":"Cangzhou","level":"city","boundaryRole":"administrative-extent","boundaryQuality":"generalized-source-2020","boundaryYearRepresented":"2020","bounds":[[115.69891357400002,37.486083984],[117.78387451200001,38.920471191]],"center":[116.74139404300001,38.2032775875],"centerMethod":"bounding-box midpoint; camera framing only","license":"CC-BY-3.0-IGO","attribution":"geoBoundaries / HDX, China administrative boundaries (2020)","source":{"provider":"geoBoundaries gbHumanitarian / HDX","url":"https://github.com/wmgeolab/geoBoundaries/raw/9469f09/releaseData/gbHumanitarian/CHN/ADM2/geoBoundaries-CHN-ADM2.geojson","metadataUrl":"https://www.geoboundaries.org/api/current/gbHumanitarian/CHN/ADM2/","shapeID":"99377448B58353621411907","shapeName":"Cangzhou","boundaryID":"CHN-ADM2-99377448","commit":"9469f09"},"geometryCounts":{"coordinates":181,"components":1,"holes":0},"boundaryNotice":"geoBoundaries / HDX 2020 年行政区数据，海岸和边界经过源数据概化，并非当前测绘成果。"},"geometry":{"type":"Polygon","coordinates":[[[116.72528076200001,38.747314453],[116.71649169900002,38.682922363],[116.73211669900002,38.657714844],[116.71508789100001,38.627075195],[116.69329834000001,38.605529785],[116.64990234400001,38.581115723],[116.62792968700002,38.55267334],[116.61511230500001,38.527282715],[116.59350585900002,38.496520996],[116.56427002,38.473083496],[116.52612304700001,38.476318359],[116.47412109400001,38.475708008],[116.43072509800001,38.506713867],[116.41992187500001,38.542297363],[116.40948486300002,38.569091797],[116.37231445300002,38.597900391],[116.33892822300001,38.641906738],[116.35827636700002,38.668273926],[116.39050293000001,38.694274902],[116.39971923800002,38.756713867],[116.34588623000002,38.782897949],[116.31127929700001,38.789916992],[116.27429199200002,38.796081543],[116.22192382800002,38.815307617],[116.19567871100001,38.843688965],[116.195129395,38.91607666],[116.15270996100001,38.920471191],[116.09832763700001,38.904907227],[116.07049560500002,38.882080078],[116.05249023400002,38.849304199],[116.03112793000001,38.812316895],[116.00671386700002,38.77532959],[115.98052978500002,38.743286133],[115.95947265600002,38.676086426],[115.95892334000001,38.633911133],[115.95489502,38.600708008],[115.94311523400002,38.56652832],[115.91430664100001,38.517883301],[115.84667968700002,38.517272949],[115.81152343700002,38.522521973],[115.77929687500001,38.494506836],[115.74890136700002,38.47869873],[115.72229003900001,38.454101562],[115.70367431600002,38.419677734],[115.69891357400002,38.390319824],[115.70111084000001,38.350708008],[115.74151611300002,38.33972168],[115.77752685500002,38.338684082],[115.81292724600002,38.321289062],[115.82391357400002,38.284484863],[115.83569335900002,38.253112793],[115.84088134800001,38.224304199],[115.84552002,38.188720703],[115.86370849600002,38.16192627],[115.90008544900002,38.137695312],[115.95190429700001,38.132873535],[115.98889160200001,38.129516602],[116.02850341800001,38.110290527],[116.07427978500002,38.061096191],[116.06732177700002,38.034912109],[116.09490966800001,37.983520508],[116.10913085900002,37.909912109],[116.14471435500002,37.943481445],[116.18572998000002,37.964111328],[116.21612548800002,37.972717285],[116.25787353500002,37.960510254],[116.31530761700002,37.977905273],[116.34027099600002,38.00189209],[116.37750244100002,38.012512207],[116.43408203100002,38.019897461],[116.51147460900002,38.003295898],[116.50408935500002,37.953491211],[116.47888183600001,37.889282227],[116.46752929700001,37.872314453],[116.43988037100002,37.856079102],[116.42510986300002,37.836730957],[116.41290283200001,37.817871094],[116.39990234400001,37.770080566],[116.37768554700001,37.741088867],[116.35687255900001,37.727111816],[116.32727050800001,37.685913086],[116.32049560500002,37.643493652],[116.27893066400001,37.575073242],[116.34667968700002,37.567871094],[116.36608886700002,37.515686035],[116.37890625000001,37.486083984],[116.38647460900002,37.488891602],[116.42608642600001,37.503479004],[116.45129394500002,37.522277832],[116.45507812500001,37.53112793],[116.52569580100001,37.590515137],[116.60852050800001,37.639099121],[116.61932373000002,37.651123047],[116.628723145,37.683288574],[116.64050293000001,37.705322266],[116.65447998000002,37.717102051],[116.70031738300001,37.752502441],[116.71868896500001,37.774108887],[116.73547363300001,37.815917969],[116.76971435500002,37.831726074],[116.82348632800002,37.835693359],[116.82928466800001,37.836120605],[116.87890625000001,37.841125488],[116.93951416000002,37.8203125],[116.98229980500001,37.820495605],[117.00927734400001,37.829101562],[117.03308105500001,37.837890625],[117.14868164100001,37.844116211],[117.18792724600002,37.841918945],[117.30090332000002,37.853088379],[117.32427978500002,37.856872559],[117.36010742200001,37.854919434],[117.40710449200002,37.864685059],[117.44232177700002,37.887878418],[117.45007324200002,37.899902344],[117.50469970700001,37.987304687],[117.53289794900002,38.038513184],[117.57110595700001,38.058898926],[117.61810302700002,38.06628418],[117.67230224600002,38.080688477],[117.71392822300001,38.100891113],[117.73632812500001,38.127075195],[117.74609375000001,38.156677246],[117.78387451200001,38.20489502],[117.76171875000001,38.1875],[117.76031494100002,38.197509766],[117.77807617200001,38.221679687],[117.77209472700001,38.232727051],[117.75891113300001,38.220092773],[117.74029541000002,38.221130371],[117.72210693400001,38.218505859],[117.70709228500002,38.209472656],[117.68249511700002,38.19909668],[117.67852783200001,38.220092773],[117.69189453100002,38.232116699],[117.703125,38.242126465],[117.69311523400002,38.274108887],[117.72552490200002,38.266113281],[117.73968505900001,38.267089844],[117.76330566400001,38.290100098],[117.74707031200002,38.306274414],[117.72528076200001,38.325500488],[117.70452880900001,38.343688965],[117.68127441400001,38.373901367],[117.65429687500001,38.402282715],[117.61572265600002,38.445129395],[117.59552002,38.483093262],[117.57629394500002,38.51751709],[117.54608154300001,38.564086914],[117.52032470700001,38.589477539],[117.51232910200001,38.590698242],[117.46087646500001,38.591491699],[117.43450927700002,38.583129883],[117.39428710900002,38.563903809],[117.36767578100002,38.555480957],[117.32128906200002,38.557678223],[117.28308105500001,38.563110352],[117.22808837900001,38.54888916],[117.20947265600002,38.55090332],[117.18212890600002,38.571472168],[117.20330810500002,38.588317871],[117.22607421900001,38.608276367],[117.19451904300001,38.622314453],[117.16027832000002,38.619506836],[117.11987304700001,38.591918945],[117.11450195300002,38.58807373],[117.10809326200001,38.583129883],[117.03271484400001,38.603515625],[117.03247070300002,38.63092041],[117.02569580100001,38.663085937],[117.00268554700001,38.681884766],[116.94989013700001,38.68170166],[116.90032959000001,38.676879883],[116.86907959000001,38.681884766],[116.82952880900001,38.68371582],[116.81951904300001,38.69128418],[116.80432128900001,38.706115723],[116.78027343700002,38.715087891],[116.74871826200001,38.728881836],[116.73309326200001,38.738525391],[116.72528076200001,38.747314453]]]}}
