{"type":"Feature","id":"bulk-99377448B96004516625202","bbox":[117.30609130900001,36.034301758,117.96148681600002,36.524108887],"properties":{"id":"bulk-99377448B96004516625202","name":"Laiwu","nameEn":"Laiwu","fullName":"Laiwu","level":"city","boundaryRole":"administrative-extent","boundaryQuality":"generalized-source-2020","boundaryYearRepresented":"2020","bounds":[[117.30609130900001,36.034301758],[117.96148681600002,36.524108887]],"center":[117.63378906250001,36.2792053225],"centerMethod":"bounding-box midpoint; camera framing only","license":"CC-BY-3.0-IGO","attribution":"geoBoundaries / HDX, China administrative boundaries (2020)","source":{"provider":"geoBoundaries gbHumanitarian / HDX","url":"https://github.com/wmgeolab/geoBoundaries/raw/9469f09/releaseData/gbHumanitarian/CHN/ADM2/geoBoundaries-CHN-ADM2.geojson","metadataUrl":"https://www.geoboundaries.org/api/current/gbHumanitarian/CHN/ADM2/","shapeID":"99377448B96004516625202","shapeName":"Laiwu","boundaryID":"CHN-ADM2-99377448","commit":"9469f09"},"geometryCounts":{"coordinates":52,"components":1,"holes":0},"boundaryNotice":"geoBoundaries / HDX 2020 年行政区数据，海岸和边界经过源数据概化，并非当前测绘成果。"},"geometry":{"type":"Polygon","coordinates":[[[117.30609130900001,36.45489502],[117.31188964800002,36.415527344],[117.31530761700002,36.387329102],[117.32287597700001,36.349121094],[117.347473145,36.318908691],[117.37408447300001,36.294128418],[117.37152099600002,36.257080078],[117.37011718700002,36.226074219],[117.40490722700001,36.222717285],[117.43432617200001,36.192687988],[117.44567871100001,36.164916992],[117.41967773400002,36.139526367],[117.41851806600002,36.098327637],[117.43109130900001,36.071105957],[117.47192382800002,36.083129883],[117.51452636700002,36.106689453],[117.554504395,36.103088379],[117.57049560500002,36.078491211],[117.58190918000001,36.046081543],[117.61871337900001,36.034301758],[117.671691895,36.041870117],[117.70190429700001,36.060913086],[117.73687744100002,36.06427002],[117.75592041000002,36.035522461],[117.82031250000001,36.034484863],[117.83728027300002,36.059875488],[117.86492919900002,36.091308594],[117.88812255900001,36.121276855],[117.92028808600001,36.153076172],[117.95471191400001,36.176086426],[117.96148681600002,36.213317871],[117.95568847700001,36.255126953],[117.92932128900001,36.278076172],[117.92071533200001,36.313720703],[117.88647460900002,36.32989502],[117.84448242200001,36.346313477],[117.81927490200002,36.375305176],[117.80749511700002,36.410095215],[117.76947021500001,36.432128906],[117.75152587900001,36.461914062],[117.75091552700002,36.493530273],[117.70867919900002,36.524108887],[117.65771484400001,36.500671387],[117.61492919900002,36.516906738],[117.57672119100002,36.504882812],[117.54028320300002,36.484130859],[117.50732421900001,36.473510742],[117.47070312500001,36.460876465],[117.43310546900001,36.449279785],[117.39770507800002,36.438110352],[117.36450195300002,36.430725098],[117.30609130900001,36.45489502]]]}}
