{"type":"Feature","id":"bulk-99377448B56741167230874","bbox":[115.43652343700002,28.165100098,116.54168701200001,29.164672852],"properties":{"id":"bulk-99377448B56741167230874","name":"Nanchang","nameEn":"Nanchang","fullName":"Nanchang","level":"city","boundaryRole":"administrative-extent","boundaryQuality":"generalized-source-2020","boundaryYearRepresented":"2020","bounds":[[115.43652343700002,28.165100098],[116.54168701200001,29.164672852]],"center":[115.98910522450001,28.664886475],"centerMethod":"bounding-box midpoint; camera framing only","license":"CC-BY-3.0-IGO","attribution":"geoBoundaries / HDX, China administrative boundaries (2020)","source":{"provider":"geoBoundaries gbHumanitarian / HDX","url":"https://github.com/wmgeolab/geoBoundaries/raw/9469f09/releaseData/gbHumanitarian/CHN/ADM2/geoBoundaries-CHN-ADM2.geojson","metadataUrl":"https://www.geoboundaries.org/api/current/gbHumanitarian/CHN/ADM2/","shapeID":"99377448B56741167230874","shapeName":"Nanchang","boundaryID":"CHN-ADM2-99377448","commit":"9469f09"},"geometryCounts":{"coordinates":150,"components":1,"holes":0},"boundaryNotice":"geoBoundaries / HDX 2020 年行政区数据，海岸和边界经过源数据概化，并非当前测绘成果。"},"geometry":{"type":"Polygon","coordinates":[[[116.54168701200001,28.469482422],[116.51171875000001,28.513916016],[116.49572753900001,28.539123535],[116.47747802700002,28.582885742],[116.46228027300002,28.626098633],[116.45867919900002,28.657470703],[116.45050048800002,28.683898926],[116.42651367200001,28.707275391],[116.39550781200002,28.720092773],[116.296875,28.770324707],[116.29907226600001,28.771911621],[116.27807617200001,28.807128906],[116.26867675800001,28.837280273],[116.25152587900001,28.830078125],[116.24169921900001,28.860107422],[116.32171630900001,28.859130859],[116.33410644500002,28.863708496],[116.33709716800001,28.878295898],[116.33990478500002,28.879272461],[116.34167480500001,28.881713867],[116.35131835900002,28.889526367],[116.35632324200002,28.893676758],[116.36767578100002,28.919311523],[116.37408447300001,28.926513672],[116.378723145,28.934082031],[116.38970947300001,28.946289062],[116.39172363300001,28.960693359],[116.39007568400001,28.968078613],[116.39068603500002,28.977478027],[116.39251709000001,28.985107422],[116.39910888700001,28.999084473],[116.40008544900002,29.007873535],[116.39788818400001,29.020507812],[116.40209960900002,29.033508301],[116.40270996100001,29.042724609],[116.40069580100001,29.051696777],[116.39489746100001,29.055480957],[116.38208007800002,29.056884766],[116.37969970700001,29.060913086],[116.37652587900001,29.067504883],[116.36889648400002,29.073486328],[116.36370849600002,29.074707031],[116.347473145,29.076293945],[116.33489990200002,29.080078125],[116.33007812500001,29.084472656],[116.31469726600001,29.102722168],[116.30212402300002,29.118713379],[116.28833007800002,29.131896973],[116.27911377,29.136291504],[116.27471923800002,29.13848877],[116.27032470700001,29.141723633],[116.27008056600002,29.14630127],[116.26672363300001,29.154724121],[116.26348877,29.159118652],[116.25769043000001,29.162109375],[116.23492431600002,29.155090332],[116.22650146500001,29.148681641],[116.21228027300002,29.140686035],[116.19927978500002,29.136474609],[116.19232177700002,29.135314941],[116.18768310500002,29.135681152],[116.18310546900001,29.136901855],[116.179504395,29.137878418],[116.17468261700002,29.142883301],[116.16809082000002,29.153076172],[116.16448974600002,29.164672852],[116.14611816400001,29.160522461],[116.13928222700001,29.161071777],[116.13012695300002,29.157287598],[116.09869384800001,29.143127441],[116.07409668000001,29.127075195],[116.07769775400001,29.125305176],[116.06787109400001,29.120483398],[116.02972412100002,29.105285645],[115.98852539100001,29.108520508],[115.95751953100002,29.097900391],[115.93548584000001,29.067321777],[115.91827392600001,29.039306641],[115.89031982400002,29.004882812],[115.85809326200001,28.969482422],[115.82952880900001,28.933898926],[115.80670166000002,28.897521973],[115.74127197300001,28.90411377],[115.70867919900002,28.919128418],[115.67810058600001,28.938476562],[115.64648437500001,28.947875977],[115.60809326200001,28.946105957],[115.57269287100002,28.960693359],[115.53912353500002,28.98449707],[115.50592041000002,29.006286621],[115.47491455100001,29.016113281],[115.46972656200002,28.985900879],[115.48510742200001,28.945129395],[115.50292968700002,28.91027832],[115.51770019500002,28.883911133],[115.49932861300002,28.857299805],[115.47827148400002,28.81628418],[115.46270752,28.792907715],[115.43652343700002,28.759277344],[115.44628906200002,28.729492187],[115.49450683600001,28.715515137],[115.52911377,28.729675293],[115.55609130900001,28.708129883],[115.54827880900001,28.676696777],[115.53692627,28.627319336],[115.55090332000002,28.593078613],[115.56268310500002,28.56451416],[115.55749511700002,28.529296875],[115.55133056600002,28.495117187],[115.54388427700002,28.464477539],[115.53228759800001,28.433288574],[115.52429199200002,28.40612793],[115.51568603500002,28.376525879],[115.55047607400002,28.368286133],[115.57727050800001,28.387084961],[115.60229492200001,28.364929199],[115.60748291000002,28.335876465],[115.63171386700002,28.311279297],[115.65472412100002,28.332275391],[115.68908691400001,28.342712402],[115.72949218700002,28.330871582],[115.77087402300002,28.333129883],[115.812316895,28.352478027],[115.84149169900002,28.335083008],[115.85791015600002,28.30847168],[115.88787841800001,28.28692627],[115.91790771500001,28.272705078],[115.95751953100002,28.256713867],[115.99487304700001,28.259277344],[116.02868652300002,28.272888184],[116.07312011700002,28.30090332],[116.08032226600001,28.247680664],[116.11029052700002,28.230102539],[116.12988281200002,28.210693359],[116.16992187500001,28.181091309],[116.18988037100002,28.16607666],[116.21087646500001,28.165100098],[116.23388671900001,28.19128418],[116.25488281200002,28.190124512],[116.32427978500002,28.192077637],[116.38031005900001,28.218322754],[116.42388916000002,28.222106934],[116.44909668000001,28.244873047],[116.46527099600002,28.276489258],[116.48828125000001,28.299316406],[116.49627685500002,28.331726074],[116.51232910200001,28.364318848],[116.52752685500002,28.395690918],[116.52172851600001,28.4296875],[116.54168701200001,28.469482422]]]}}
