{"type":"Feature","id":"bulk-99377448B25624223732516","bbox":[125.21691894500002,40.847106934,126.72149658200001,42.98828125],"properties":{"id":"bulk-99377448B25624223732516","name":"Tonghua","nameEn":"Tonghua","fullName":"Tonghua","level":"city","boundaryRole":"administrative-extent","boundaryQuality":"generalized-source-2020","boundaryYearRepresented":"2020","bounds":[[125.21691894500002,40.847106934],[126.72149658200001,42.98828125]],"center":[125.96920776350001,41.917694092000005],"centerMethod":"bounding-box midpoint; camera framing only","license":"CC-BY-3.0-IGO","attribution":"geoBoundaries / HDX, China administrative boundaries (2020)","source":{"provider":"geoBoundaries gbHumanitarian / HDX","url":"https://github.com/wmgeolab/geoBoundaries/raw/9469f09/releaseData/gbHumanitarian/CHN/ADM2/geoBoundaries-CHN-ADM2.geojson","metadataUrl":"https://www.geoboundaries.org/api/current/gbHumanitarian/CHN/ADM2/","shapeID":"99377448B25624223732516","shapeName":"Tonghua","boundaryID":"CHN-ADM2-99377448","commit":"9469f09"},"geometryCounts":{"coordinates":667,"components":3,"holes":0},"boundaryNotice":"geoBoundaries / HDX 2020 年行政区数据，海岸和边界经过源数据概化，并非当前测绘成果。"},"geometry":{"type":"MultiPolygon","coordinates":[[[[125.98907470700001,40.893127441],[125.98388671900001,40.895507812],[125.98468017600001,40.895080566],[125.98529052700002,40.894714355],[125.98571777300002,40.894287109],[125.98651123000002,40.894104004],[125.98687744100002,40.893920898],[125.98712158200001,40.893676758],[125.98791503900001,40.893493652],[125.98852539100001,40.893310547],[125.98889160200001,40.893127441],[125.98907470700001,40.893127441]]],[[[126.49310302700002,41.346313477],[126.49291992200001,41.35369873],[126.49127197300001,41.356323242],[126.48992919900002,41.355712891],[126.48828125000001,41.355102539],[126.48632812500001,41.354675293],[126.48431396500001,41.354125977],[126.48187255900001,41.35369873],[126.480285645,41.353271484],[126.47888183600001,41.352905273],[126.47747802700002,41.352294922],[126.47650146500001,41.351928711],[126.47607421900001,41.351501465],[126.47528076200001,41.350708008],[126.47491455100001,41.350097656],[126.47448730500001,41.349304199],[126.47448730500001,41.348510742],[126.47448730500001,41.347900391],[126.47448730500001,41.346923828],[126.47509765600002,41.346496582],[126.47552490200002,41.34588623],[126.47607421900001,41.345703125],[126.47692871100001,41.34552002],[126.47790527300002,41.345092773],[126.47930908200001,41.345092773],[126.480285645,41.345092773],[126.48132324200002,41.345275879],[126.48291015600002,41.34552002],[126.48413085900002,41.345703125],[126.48510742200001,41.34588623],[126.48632812500001,41.34588623],[126.48791503900001,41.346130371],[126.48968505900001,41.346313477],[126.49127197300001,41.346496582],[126.49267578100002,41.346313477],[126.49310302700002,41.346313477]]],[[[125.53552246100001,40.928100586],[125.54107666000002,40.891723633],[125.55389404300001,40.890075684],[125.61187744100002,40.912719727],[125.65252685500002,40.875488281],[125.66308593700002,40.847106934],[125.69390869100002,40.858093262],[125.69909668000001,40.859924316],[125.69927978500002,40.860290527],[125.69989013700001,40.860717773],[125.70050048800002,40.861083984],[125.70068359400001,40.861694336],[125.70111084000001,40.862121582],[125.70147705100001,40.862487793],[125.70208740200002,40.863098145],[125.70227050800001,40.86328125],[125.70269775400001,40.863525391],[125.70349121100001,40.864074707],[125.70391845700001,40.864685059],[125.70452880900001,40.865112305],[125.70507812500001,40.865722656],[125.70568847700001,40.866088867],[125.70629882800002,40.866699219],[125.70709228500002,40.867126465],[125.70770263700001,40.867492676],[125.70849609400001,40.867919922],[125.70928955100001,40.868286133],[125.71008300800001,40.868530273],[125.71087646500001,40.868896484],[125.71173095700001,40.86932373],[125.71270752,40.869506836],[125.71368408200001,40.869873047],[125.71447753900001,40.870117187],[125.71551513700001,40.870300293],[125.71630859400001,40.870483398],[125.71728515600002,40.870727539],[125.71832275400001,40.870727539],[125.71948242200001,40.870727539],[125.72027587900001,40.870727539],[125.72131347700001,40.870727539],[125.722473145,40.870483398],[125.72369384800001,40.870300293],[125.72467041000002,40.870117187],[125.72570800800001,40.870117187],[125.72692871100001,40.869873047],[125.72729492200001,40.869873047],[125.73132324200002,40.871276855],[125.73608398400002,40.868713379],[125.73669433600001,40.868530273],[125.73748779300001,40.868530273],[125.73852539100001,40.868286133],[125.73968505900001,40.868286133],[125.74072265600002,40.868103027],[125.74212646500001,40.868103027],[125.74310302700002,40.868103027],[125.74407959000001,40.868103027],[125.74548339800002,40.867919922],[125.74688720700001,40.867919922],[125.74792480500001,40.867919922],[125.74908447300001,40.867919922],[125.75012207000002,40.868103027],[125.75067138700001,40.868286133],[125.75128173800002,40.868713379],[125.75152587900001,40.86932373],[125.75189209000001,40.869873047],[125.75231933600001,40.870300293],[125.75250244100002,40.870910645],[125.75292968700002,40.871887207],[125.75329589800002,40.872497559],[125.753723145,40.873291016],[125.75390625000001,40.873901367],[125.75408935500002,40.87512207],[125.75408935500002,40.876098633],[125.75427246100001,40.877075195],[125.75427246100001,40.877929687],[125.75451660200001,40.878723145],[125.75469970700001,40.879272461],[125.75488281200002,40.880126953],[125.75512695300002,40.88092041],[125.75531005900001,40.881530762],[125.75567627,40.882080078],[125.75592041000002,40.88269043],[125.75628662100002,40.883300781],[125.75671386700002,40.883911133],[125.75732421900001,40.884277344],[125.75787353500002,40.884887695],[125.75830078100002,40.885498047],[125.75872802700002,40.885925293],[125.75909423800002,40.886474609],[125.75952148400002,40.887084961],[125.75970459000001,40.887512207],[125.76007080100001,40.887878418],[125.76049804700001,40.888305664],[125.76129150400001,40.888916016],[125.76208496100001,40.889526367],[125.76287841800001,40.889892578],[125.76348877,40.890319824],[125.76428222700001,40.890686035],[125.76531982400002,40.890930176],[125.76611328100002,40.891296387],[125.76690673800002,40.891479492],[125.76788330100001,40.891723633],[125.76892089800002,40.891723633],[125.77008056600002,40.891723633],[125.77111816400001,40.891479492],[125.77191162100002,40.891479492],[125.77288818400001,40.891296387],[125.77410888700001,40.891296387],[125.77508544900002,40.891113281],[125.77587890600002,40.890930176],[125.77709960900002,40.890686035],[125.77807617200001,40.890686035],[125.77911377,40.89050293],[125.77972412100002,40.890319824],[125.78070068400001,40.889892578],[125.78192138700001,40.889526367],[125.78289794900002,40.889099121],[125.78387451200001,40.888671875],[125.78448486300002,40.88848877],[125.78509521500001,40.888122559],[125.78588867200001,40.887695312],[125.78649902300002,40.887329102],[125.78729248000002,40.886901855],[125.78808593700002,40.886474609],[125.788879395,40.885925293],[125.78967285200001,40.885498047],[125.79028320300002,40.884887695],[125.79107666000002,40.884521484],[125.79168701200001,40.883911133],[125.79248046900001,40.883300781],[125.79327392600001,40.88269043],[125.79388427700002,40.882080078],[125.79449462900001,40.881530762],[125.79528808600001,40.881103516],[125.79608154300001,40.880310059],[125.796691895,40.879699707],[125.79711914100001,40.879089355],[125.79711914100001,40.87890625],[125.804504395,40.883728027],[125.82507324200002,40.894104004],[125.84613037100002,40.887084961],[125.85607910200001,40.88470459],[125.85632324200002,40.884887695],[125.85711669900002,40.885498047],[125.85809326200001,40.886291504],[125.85870361300002,40.887084961],[125.85931396500001,40.887695312],[125.85992431600002,40.88848877],[125.86029052700002,40.889282227],[125.86047363300001,40.889526367],[125.86108398400002,40.890686035],[125.86169433600001,40.891723633],[125.86212158200001,40.89251709],[125.86248779300001,40.893493652],[125.86267089800002,40.894104004],[125.863098145,40.894897461],[125.86328125000001,40.895507812],[125.86352539100001,40.896118164],[125.86370849600002,40.896484375],[125.86407470700001,40.897277832],[125.86450195300002,40.898071289],[125.86468505900001,40.898925781],[125.86529541000002,40.899475098],[125.86590576200001,40.900695801],[125.86651611300002,40.901489258],[125.86688232400002,40.902099609],[125.86730957000002,40.902709961],[125.86767578100002,40.903076172],[125.86810302700002,40.903503418],[125.86853027300002,40.903686523],[125.86871337900001,40.90411377],[125.86932373000002,40.90447998],[125.86968994100002,40.904724121],[125.87030029300001,40.904907227],[125.87072753900001,40.905090332],[125.87152099600002,40.905273437],[125.87207031200002,40.905273437],[125.87292480500001,40.905517578],[125.87371826200001,40.905517578],[125.87451171900001,40.905273437],[125.87530517600001,40.905273437],[125.87591552700002,40.905273437],[125.87628173800002,40.905090332],[125.87707519500002,40.904907227],[125.87768554700001,40.904724121],[125.87847900400001,40.904296875],[125.87890625000001,40.90411377],[125.87951660200001,40.903686523],[125.88012695300002,40.903320312],[125.88067627,40.902709961],[125.88128662100002,40.902282715],[125.88189697300001,40.901672363],[125.88232421900001,40.901306152],[125.88269043000001,40.900878906],[125.88330078100002,40.90032959],[125.88348388700001,40.900085449],[125.88391113300001,40.899719238],[125.88470459000001,40.899291992],[125.88507080100001,40.898681641],[125.88568115200002,40.89831543],[125.88647460900002,40.897888184],[125.88708496100001,40.897705078],[125.88769531200002,40.897521973],[125.88830566400001,40.897277832],[125.88909912100002,40.897094727],[125.88970947300001,40.896911621],[125.89050293000001,40.896728516],[125.89129638700001,40.896728516],[125.89227294900002,40.896484375],[125.89312744100002,40.896484375],[125.89428710900002,40.896484375],[125.89508056600002,40.896484375],[125.89587402300002,40.896728516],[125.89691162100002,40.896728516],[125.89752197300001,40.896911621],[125.89849853500002,40.897277832],[125.89929199200002,40.897521973],[125.89990234400001,40.898071289],[125.90069580100001,40.898681641],[125.90130615200002,40.899291992],[125.90191650400001,40.899902344],[125.90228271500001,40.900512695],[125.90270996100001,40.901123047],[125.90332031200002,40.902282715],[125.90368652300002,40.903076172],[125.90411377,40.903686523],[125.90447998000002,40.90447998],[125.90472412100002,40.905273437],[125.90527343700002,40.906311035],[125.90570068400001,40.907104492],[125.90612793000001,40.907897949],[125.90649414100001,40.908508301],[125.90710449200002,40.909118652],[125.90747070300002,40.909484863],[125.90789794900002,40.909912109],[125.90850830100001,40.910522461],[125.90887451200001,40.910705566],[125.90948486300002,40.910888672],[125.91027832000002,40.910705566],[125.91070556600002,40.910522461],[125.91149902300002,40.910095215],[125.91192627,40.909301758],[125.91247558600001,40.908874512],[125.91290283200001,40.908325195],[125.91308593700002,40.907714844],[125.91308593700002,40.907104492],[125.91308593700002,40.906311035],[125.91308593700002,40.905883789],[125.91308593700002,40.905273437],[125.91308593700002,40.904724121],[125.91290283200001,40.90411377],[125.91247558600001,40.903320312],[125.91229248000002,40.902893066],[125.91210937500001,40.902282715],[125.91210937500001,40.902099609],[125.91168212900001,40.901489258],[125.91131591800001,40.900878906],[125.91088867200001,40.900085449],[125.91027832000002,40.899719238],[125.90991210900002,40.899108887],[125.90948486300002,40.898681641],[125.90911865200002,40.89831543],[125.90869140600002,40.897705078],[125.90832519500002,40.897277832],[125.90789794900002,40.896728516],[125.90728759800001,40.896118164],[125.90710449200002,40.895507812],[125.90667724600002,40.895080566],[125.90631103500002,40.894287109],[125.90612793000001,40.893676758],[125.90588378900001,40.893127441],[125.90612793000001,40.89251709],[125.90612793000001,40.891906738],[125.90631103500002,40.891296387],[125.90631103500002,40.890930176],[125.90667724600002,40.890319824],[125.90692138700001,40.889709473],[125.90710449200002,40.889282227],[125.90728759800001,40.888916016],[125.90771484400001,40.888305664],[125.90789794900002,40.887878418],[125.90808105500001,40.887512207],[125.90850830100001,40.887084961],[125.90869140600002,40.88671875],[125.90887451200001,40.886474609],[125.90911865200002,40.886108398],[125.90948486300002,40.885681152],[125.90972900400001,40.885314941],[125.91027832000002,40.884887695],[125.91052246100001,40.884521484],[125.91107177700002,40.884094238],[125.91149902300002,40.883483887],[125.91210937500001,40.883300781],[125.91247558600001,40.882873535],[125.91308593700002,40.88269043],[125.91351318400001,40.882324219],[125.913879395,40.882080078],[125.91448974600002,40.881896973],[125.91467285200001,40.881530762],[125.91528320300002,40.881286621],[125.91607666000002,40.88092041],[125.91650390600002,40.88067627],[125.91687011700002,40.880493164],[125.91729736300002,40.880310059],[125.91809082000002,40.879882812],[125.91870117200001,40.879882812],[125.91912841800001,40.879516602],[125.91992187500001,40.879272461],[125.92071533200001,40.879089355],[125.92132568400001,40.879089355],[125.92211914100001,40.878723145],[125.92272949200002,40.878479004],[125.92327880900001,40.878479004],[125.92388916000002,40.878295898],[125.92449951200001,40.878112793],[125.92529296900001,40.877929687],[125.92633056600002,40.877685547],[125.92712402300002,40.877502441],[125.92767334000001,40.877319336],[125.92871093700002,40.877075195],[125.92932128900001,40.87689209],[125.93011474600002,40.87689209],[125.93072509800001,40.876708984],[125.93151855500001,40.876708984],[125.93231201200001,40.876525879],[125.93310546900001,40.876525879],[125.93389892600001,40.876525879],[125.93469238300001,40.876525879],[125.93572998000002,40.876525879],[125.93627929700001,40.876525879],[125.93670654300001,40.876525879],[125.93768310500002,40.876281738],[125.93847656200002,40.876281738],[125.93927002,40.876525879],[125.94030761700002,40.876525879],[125.94128418000001,40.876708984],[125.94189453100002,40.876708984],[125.94268798800002,40.87689209],[125.94348144500002,40.87689209],[125.94470214800002,40.877075195],[125.94549560500002,40.877319336],[125.94628906200002,40.877502441],[125.94732666000002,40.877685547],[125.94830322300001,40.877929687],[125.94952392600001,40.878112793],[125.95050048800002,40.878295898],[125.95147705100001,40.878479004],[125.95208740200002,40.878723145],[125.953125,40.879089355],[125.95367431600002,40.879272461],[125.95452880900001,40.879516602],[125.95532226600001,40.879882812],[125.95587158200001,40.880126953],[125.95648193400001,40.880493164],[125.95727539100001,40.88092041],[125.95812988300001,40.881286621],[125.95892334000001,40.881713867],[125.95971679700001,40.882080078],[125.96032714800002,40.882507324],[125.96087646500001,40.882873535],[125.96148681600002,40.883300781],[125.96191406200002,40.883728027],[125.96228027300002,40.884094238],[125.96289062500001,40.88470459],[125.96307373000002,40.885070801],[125.96350097700001,40.885681152],[125.96392822300001,40.886291504],[125.96411132800002,40.886901855],[125.96429443400001,40.887512207],[125.96429443400001,40.888122559],[125.96411132800002,40.888671875],[125.96392822300001,40.889282227],[125.96368408200001,40.890075684],[125.96350097700001,40.890930176],[125.96350097700001,40.891723633],[125.96350097700001,40.892272949],[125.96350097700001,40.893127441],[125.96368408200001,40.894287109],[125.96368408200001,40.895080566],[125.96411132800002,40.89630127],[125.96447753900001,40.896911621],[125.96508789100001,40.897888184],[125.96551513700001,40.898498535],[125.96588134800001,40.899108887],[125.96649169900002,40.899719238],[125.96710205100001,40.900085449],[125.96728515600002,40.900695801],[125.96771240200002,40.900878906],[125.96807861300002,40.901123047],[125.96850585900002,40.901489258],[125.96911621100001,40.901916504],[125.96972656200002,40.902282715],[125.93670654300001,40.917724609],[125.94470214800002,40.931274414],[126.00048828100002,40.949279785],[126.00732421900001,40.975097656],[126.03070068400001,41.008728027],[126.06091308600001,41.022521973],[126.07952880900001,41.051330566],[126.097473145,41.077514648],[126.11749267600001,41.087524414],[126.11767578100002,41.087890625],[126.11810302700002,41.088317871],[126.11871337900001,41.088500977],[126.11932373000002,41.088928223],[126.11987304700001,41.089111328],[126.12048339800002,41.089294434],[126.12109375000001,41.089477539],[126.12127685500002,41.089477539],[126.12689209000001,41.092285156],[126.16650390600002,41.108703613],[126.19427490200002,41.122680664],[126.22131347700001,41.144104004],[126.24670410200001,41.174926758],[126.27728271500001,41.212280273],[126.29968261700002,41.251708984],[126.33850097700001,41.281677246],[126.36187744100002,41.308105469],[126.38171386700002,41.330322266],[126.40869140600002,41.350891113],[126.42968750000001,41.349121094],[126.42987060500002,41.349487305],[126.43048095700001,41.350280762],[126.43127441400001,41.350891113],[126.43231201200001,41.35168457],[126.43310546900001,41.351928711],[126.43408203100002,41.352294922],[126.43487548800002,41.352722168],[126.43572998000002,41.352905273],[126.43688964800002,41.353271484],[126.43792724600002,41.353515625],[126.43969726600001,41.35369873],[126.44128418000001,41.354125977],[126.44329834000001,41.354492187],[126.445129395,41.355102539],[126.44671630900001,41.355285645],[126.44848632800002,41.355712891],[126.45068359400001,41.356079102],[126.45251464800002,41.356323242],[126.45349121100001,41.356689453],[126.45532226600001,41.357299805],[126.45727539100001,41.357910156],[126.45867919900002,41.358520508],[126.46008300800001,41.359130859],[126.46173095700001,41.359680176],[126.46307373000002,41.360290527],[126.46472168000001,41.360900879],[126.46588134800001,41.361694336],[126.46728515600002,41.362487793],[126.46850585900002,41.36328125],[126.47009277300002,41.363891602],[126.47210693400001,41.364685059],[126.47369384800001,41.365722656],[126.47491455100001,41.366088867],[126.47631835900002,41.366699219],[126.47790527300002,41.36730957],[126.47930908200001,41.368103027],[126.48052978500002,41.368530273],[126.48187255900001,41.36907959],[126.48327636700002,41.369873047],[126.48352050800001,41.369873047],[126.46850585900002,41.395874023],[126.47491455100001,41.4296875],[126.49230957000002,41.463317871],[126.52331543000001,41.506896973],[126.52789306600002,41.512695312],[126.48388671900001,41.509094238],[126.43951416000002,41.504089355],[126.38189697300001,41.494506836],[126.35290527300002,41.52911377],[126.35107421900001,41.562927246],[126.36950683600001,41.589294434],[126.39947509800001,41.633483887],[126.37408447300001,41.664306641],[126.33947753900001,41.653930664],[126.29650878900001,41.640930176],[126.27789306600002,41.664672852],[126.25469970700001,41.707885742],[126.26068115200002,41.739074707],[126.28350830100001,41.765075684],[126.27648925800001,41.801879883],[126.21527099600002,41.83972168],[126.15869140600002,41.880126953],[126.13012695300002,41.903320312],[126.09887695300002,41.918518066],[126.11071777300002,41.945495605],[126.16229248000002,41.945678711],[126.19287109400001,41.96887207],[126.21972656200002,41.990112305],[126.25708007800002,42.009521484],[126.31628418000001,42.04107666],[126.35791015600002,42.061096191],[126.37548828100002,42.093322754],[126.40588378900001,42.111694336],[126.44348144500002,42.134277344],[126.45831298800002,42.159912109],[126.48968505900001,42.179870605],[126.53692627,42.187316895],[126.54187011700002,42.215515137],[126.50610351600001,42.240722656],[126.48828125000001,42.275695801],[126.495910645,42.302307129],[126.50030517600001,42.33392334],[126.48889160200001,42.379699707],[126.50048828100002,42.410888672],[126.53228759800001,42.43927002],[126.58551025400001,42.47088623],[126.61608886700002,42.496276855],[126.60589599600002,42.52947998],[126.605285645,42.564086914],[126.62011718700002,42.591125488],[126.65368652300002,42.610900879],[126.69750976600001,42.634521484],[126.72149658200001,42.660705566],[126.68011474600002,42.684082031],[126.62011718700002,42.713317871],[126.57928466800001,42.702880859],[126.54907226600001,42.678894043],[126.51348877,42.663879395],[126.47229003900001,42.655700684],[126.41491699200002,42.657104492],[126.38208007800002,42.674072266],[126.35607910200001,42.709716797],[126.34887695300002,42.747924805],[126.33972168000001,42.785888672],[126.296691895,42.795288086],[126.26031494100002,42.78729248],[126.22528076200001,42.774108887],[126.19189453100002,42.747070312],[126.15051269500002,42.754272461],[126.09588623000002,42.765075684],[126.05230712900001,42.768676758],[126.00653076200001,42.774475098],[125.95172119100002,42.783325195],[125.90850830100001,42.805725098],[125.87908935500002,42.848876953],[125.85687255900001,42.878295898],[125.84429931600002,42.913085937],[125.82672119100002,42.945678711],[125.80548095700001,42.971130371],[125.76428222700001,42.98828125],[125.69171142600001,42.979675293],[125.71752929700001,42.948913574],[125.71850585900002,42.919921875],[125.70568847700001,42.864685059],[125.71173095700001,42.833129883],[125.72692871100001,42.803710937],[125.75848388700001,42.782470703],[125.79852294900002,42.76348877],[125.79089355500001,42.735107422],[125.73889160200001,42.729919434],[125.69927978500002,42.731689453],[125.65167236300002,42.731506348],[125.62072753900001,42.716674805],[125.61212158200001,42.684326172],[125.61547851600001,42.654907227],[125.65393066400001,42.625915527],[125.671691895,42.602294922],[125.65032959000001,42.568481445],[125.62451171900001,42.545715332],[125.59948730500001,42.518493652],[125.58148193400001,42.484924316],[125.53808593700002,42.458679199],[125.49328613300001,42.433898926],[125.43572998000002,42.410705566],[125.39990234400001,42.392883301],[125.36230468700002,42.372314453],[125.31927490200002,42.34588623],[125.29089355500001,42.327514648],[125.21789550800001,42.293701172],[125.24169921900001,42.268493652],[125.22869873000002,42.213500977],[125.22930908200001,42.187316895],[125.25769043000001,42.180480957],[125.26452636700002,42.154724121],[125.26672363300001,42.124694824],[125.28167724600002,42.119506836],[125.33471679700001,42.146728516],[125.39050293000001,42.145874023],[125.39489746100001,42.140686035],[125.40728759800001,42.125915527],[125.38970947300001,42.101928711],[125.34527587900001,42.051330566],[125.29772949200002,41.974121094],[125.22589111300002,41.9453125],[125.21691894500002,41.917907715],[125.24511718700002,41.929077148],[125.25689697300001,41.87890625],[125.24108886700002,41.825317383],[125.28271484400001,41.768310547],[125.26208496100001,41.692504883],[125.28332519500002,41.686889648],[125.38208007800002,41.688720703],[125.41931152300002,41.674682617],[125.42749023400002,41.608520508],[125.43811035200001,41.557128906],[125.44287109400001,41.547485352],[125.47412109400001,41.48651123],[125.51330566400001,41.411071777],[125.51672363300001,41.377075195],[125.55627441400001,41.359924316],[125.57171630900001,41.35168457],[125.55670166000002,41.316711426],[125.57830810500002,41.297729492],[125.62969970700001,41.274719238],[125.64569091800001,41.252319336],[125.68908691400001,41.237304687],[125.69311523400002,41.222473145],[125.69250488300001,41.202880859],[125.69769287100002,41.181518555],[125.71368408200001,41.164489746],[125.73132324200002,41.122070312],[125.65911865200002,41.105285645],[125.65649414100001,41.070678711],[125.66668701200001,41.038879395],[125.62487793000001,40.981079102],[125.57708740200002,40.952514648],[125.57128906200002,40.946716309],[125.53552246100001,40.928100586]]]]}}
