{"type":"Feature","id":"bulk-99377448B9330296754627","bbox":[122.39172363300001,46.214477539,126.62567138700001,48.889892578],"properties":{"id":"bulk-99377448B9330296754627","name":"Qiqihar","nameEn":"Qiqihar","fullName":"Qiqihar","level":"city","boundaryRole":"administrative-extent","boundaryQuality":"generalized-source-2020","boundaryYearRepresented":"2020","bounds":[[122.39172363300001,46.214477539],[126.62567138700001,48.889892578]],"center":[124.50869751000002,47.5521850585],"centerMethod":"bounding-box midpoint; camera framing only","license":"CC-BY-3.0-IGO","attribution":"geoBoundaries / HDX, China administrative boundaries (2020)","source":{"provider":"geoBoundaries gbHumanitarian / HDX","url":"https://github.com/wmgeolab/geoBoundaries/raw/9469f09/releaseData/gbHumanitarian/CHN/ADM2/geoBoundaries-CHN-ADM2.geojson","metadataUrl":"https://www.geoboundaries.org/api/current/gbHumanitarian/CHN/ADM2/","shapeID":"99377448B9330296754627","shapeName":"Qiqihar","boundaryID":"CHN-ADM2-99377448","commit":"9469f09"},"geometryCounts":{"coordinates":315,"components":1,"holes":0},"boundaryNotice":"geoBoundaries / HDX 2020 年行政区数据，海岸和边界经过源数据概化，并非当前测绘成果。"},"geometry":{"type":"Polygon","coordinates":[[[123.09368896500001,46.248718262],[123.20031738300001,46.236328125],[123.23510742200001,46.233093262],[123.29248046900001,46.225097656],[123.33770752,46.214477539],[123.35809326200001,46.218078613],[123.429504395,46.241088867],[123.48291015600002,46.258728027],[123.50488281200002,46.24407959],[123.55871582000002,46.224487305],[123.61968994100002,46.260314941],[123.65130615200002,46.274475098],[123.68548584000001,46.268493652],[123.74609375000001,46.269104004],[123.77990722700001,46.280273437],[123.81732177700002,46.295471191],[123.80151367200001,46.32611084],[123.79632568400001,46.34588623],[123.79107666000002,46.365478516],[123.79229736300002,46.371887207],[123.81030273400002,46.414672852],[123.76910400400001,46.4453125],[123.77227783200001,46.483093262],[123.77111816400001,46.530517578],[123.75830078100002,46.565124512],[123.73291015600002,46.596923828],[123.71649169900002,46.63848877],[123.73089599600002,46.673706055],[123.77307128900001,46.694274902],[123.81671142600001,46.677307129],[123.82910156200002,46.649108887],[123.87188720700001,46.647705078],[123.90667724600002,46.663085937],[123.93847656200002,46.686889648],[123.95788574200002,46.723327637],[123.95147705100001,46.750915527],[123.92449951200001,46.776123047],[123.89007568400001,46.811889648],[123.89447021500001,46.848876953],[123.92633056600002,46.878723145],[123.95690918000001,46.897705078],[123.97631835900002,46.921875],[124.00531005900001,46.950073242],[124.05487060500002,46.965270996],[124.08673095700001,46.990905762],[124.09851074200002,47.01751709],[124.10308837900001,47.056884766],[124.13067627,47.079284668],[124.17230224600002,47.088684082],[124.23168945300002,47.10168457],[124.25610351600001,47.132324219],[124.27648925800001,47.163330078],[124.30871582000002,47.205871582],[124.36047363300001,47.238708496],[124.39367675800001,47.287902832],[124.44873046900001,47.282714844],[124.50750732400002,47.282287598],[124.55267334000001,47.283081055],[124.57751464800002,47.259887695],[124.61767578100002,47.262084961],[124.67907714800002,47.292907715],[124.71771240200002,47.314880371],[124.76947021500001,47.341308594],[124.84631347700001,47.370727539],[124.91229248000002,47.396728516],[124.98413085900002,47.409484863],[125.02832031200002,47.360717773],[125.07647705100001,47.33972168],[125.11047363300001,47.320495605],[125.14288330100001,47.298278809],[125.18927002,47.306274414],[125.23052978500002,47.307678223],[125.27587890600002,47.293701172],[125.28027343700002,47.255493164],[125.34368896500001,47.233886719],[125.39691162100002,47.234680176],[125.44189453100002,47.237487793],[125.52667236300002,47.253295898],[125.59411621100001,47.261901855],[125.64093017600001,47.265686035],[125.68127441400001,47.265686035],[125.722473145,47.267272949],[125.76928710900002,47.268920898],[125.81292724600002,47.265686035],[125.86608886700002,47.271911621],[125.91467285200001,47.277099609],[125.95971679700001,47.284301758],[126.00347900400001,47.292297363],[126.05529785200001,47.294494629],[126.09991455100001,47.297912598],[126.14410400400001,47.301879883],[126.19647216800001,47.304321289],[126.26092529300001,47.308288574],[126.31628418000001,47.31628418],[126.34967041000002,47.3203125],[126.38549804700001,47.352111816],[126.42370605500001,47.407714844],[126.46649169900002,47.467529297],[126.48187255900001,47.50189209],[126.47747802700002,47.555114746],[126.47808837900001,47.567687988],[126.48187255900001,47.606689453],[126.52008056600002,47.669128418],[126.53588867200001,47.698730469],[126.55767822300001,47.73651123],[126.57348632800002,47.769714355],[126.55291748000002,47.802307129],[126.554504395,47.842712402],[126.57189941400001,47.867675781],[126.61090087900001,47.890075684],[126.60632324200002,47.923278809],[126.57971191400001,47.949279785],[126.54290771500001,47.969909668],[126.55950927700002,48.022521973],[126.60491943400001,48.038513184],[126.62567138700001,48.070678711],[126.61767578100002,48.101501465],[126.60552978500002,48.129699707],[126.56628418000001,48.154724121],[126.52349853500002,48.16229248],[126.46228027300002,48.153320312],[126.437316895,48.127502441],[126.38110351600001,48.121520996],[126.33770752,48.12512207],[126.30487060500002,48.145874023],[126.29467773400002,48.1796875],[126.27972412100002,48.207885742],[126.25732421900001,48.231079102],[126.18109130900001,48.228271484],[126.13427734400001,48.221496582],[126.08471679700001,48.214904785],[126.04431152300002,48.216674805],[125.98907470700001,48.210327148],[125.97052002,48.235717773],[125.92687988300001,48.23828125],[125.88568115200002,48.239318848],[125.85571289100001,48.266479492],[125.82250976600001,48.294128418],[125.79168701200001,48.318481445],[125.77630615200002,48.348510742],[125.77490234400001,48.378112793],[125.77349853500002,48.409912109],[125.76989746100001,48.443481445],[125.74511718700002,48.465270996],[125.70892334000001,48.477905273],[125.69531250000001,48.509887695],[125.69628906200002,48.538330078],[125.73327636700002,48.565917969],[125.77508544900002,48.583129883],[125.81872558600001,48.589477539],[125.86492919900002,48.590270996],[125.90527343700002,48.594909668],[125.93548584000001,48.61529541],[125.94830322300001,48.643676758],[125.93212890600002,48.683288574],[125.90252685500002,48.710327148],[125.88867187500001,48.743713379],[125.88952636700002,48.774108887],[125.89672851600001,48.801696777],[125.89068603500002,48.841918945],[125.83172607400002,48.857116699],[125.78851318400001,48.859680176],[125.74609375000001,48.86328125],[125.70367431600002,48.851318359],[125.67108154300001,48.818481445],[125.63531494100002,48.790527344],[125.59368896500001,48.787475586],[125.55749511700002,48.799926758],[125.51269531200002,48.789306641],[125.46832275400001,48.775512695],[125.40209960900002,48.749328613],[125.37347412100002,48.722473145],[125.35089111300002,48.699707031],[125.30609130900001,48.678283691],[125.25830078100002,48.658874512],[125.222473145,48.64050293],[125.18170166000002,48.636291504],[125.14569091800001,48.655273437],[125.09527587900001,48.664489746],[125.04211425800001,48.664672852],[124.98730468700002,48.654296875],[124.93652343700002,48.671875],[124.93969726600001,48.70489502],[124.96929931600002,48.733276367],[124.98931884800001,48.759887695],[124.98388671900001,48.798522949],[124.95471191400001,48.820495605],[124.89868164100001,48.82409668],[124.83648681600002,48.82208252],[124.80169677700002,48.843688965],[124.75488281200002,48.864501953],[124.64532470700001,48.889892578],[124.597473145,48.821472168],[124.59210205100001,48.796508789],[124.59252929700001,48.748901367],[124.56091308600001,48.704528809],[124.55670166000002,48.635498047],[124.53588867200001,48.590087891],[124.50152587900001,48.556884766],[124.49652099600002,48.484313965],[124.46887207000002,48.432312012],[124.46209716800001,48.400085449],[124.50909423800002,48.293273926],[124.51031494100002,48.223876953],[124.47851562500001,48.201477051],[124.45928955100001,48.137695312],[124.42132568400001,48.086730957],[124.41772460900002,48.145507812],[124.355285645,48.206298828],[124.34271240200002,48.247680664],[124.30712890600002,48.283874512],[124.26947021500001,48.309509277],[124.25207519500002,48.329528809],[124.24908447300001,48.391906738],[124.25689697300001,48.42767334],[124.24169921900001,48.483886719],[124.16210937500001,48.517089844],[124.10211181600002,48.44909668],[124.03088378900001,48.413879395],[123.97412109400001,48.362670898],[123.88812255900001,48.301696777],[123.81750488300001,48.260925293],[123.75848388700001,48.218078613],[123.67767334000001,48.160095215],[123.64587402300002,48.110107422],[123.62408447300001,48.082092285],[123.56372070300002,48.037475586],[123.49267578100002,47.986877441],[123.40209960900002,47.950500488],[123.31512451200001,47.93927002],[123.28332519500002,47.92767334],[123.26849365200002,47.919677734],[123.23992919900002,47.851501465],[123.23248291000002,47.834106445],[123.14587402300002,47.769104004],[122.99847412100002,47.721496582],[122.94128418000001,47.717529297],[122.87548828100002,47.67791748],[122.85968017600001,47.668273926],[122.77911377,47.625488281],[122.72448730500001,47.600097656],[122.68310546900001,47.57611084],[122.570129395,47.542297363],[122.52429199200002,47.524475098],[122.50048828100002,47.483093262],[122.47167968700002,47.413085937],[122.43951416000002,47.383117676],[122.39172363300001,47.325683594],[122.40551757800002,47.313720703],[122.45971679700001,47.203918457],[122.54888916000002,47.141906738],[122.68627929700001,47.082702637],[122.81689453100002,47.045898437],[122.80249023400002,47.02532959],[122.74127197300001,47.009094238],[122.72808837900001,46.995727539],[122.72650146500001,46.930725098],[122.73889160200001,46.911499023],[122.78631591800001,46.910888672],[122.84667968700002,46.923706055],[122.87207031200002,46.917724609],[122.88427734400001,46.898681641],[122.87011718700002,46.823913574],[122.88549804700001,46.793518066],[122.90008544900002,46.75970459],[122.92327880900001,46.743103027],[122.94989013700001,46.74432373],[123.00927734400001,46.724487305],[123.09112548800002,46.738708496],[123.14508056600002,46.79888916],[123.15771484400001,46.83770752],[123.17687988300001,46.853881836],[123.25909423800002,46.842895508],[123.31591796900001,46.862915039],[123.33050537100002,46.883300781],[123.33728027300002,46.918884277],[123.320129395,46.938476562],[123.29571533200001,46.960083008],[123.31427002,46.989929199],[123.38287353500002,46.961730957],[123.43109130900001,46.964477539],[123.47930908200001,46.949890137],[123.46472168000001,46.924682617],[123.43847656200002,46.864685059],[123.437316895,46.835083008],[123.45971679700001,46.826477051],[123.49267578100002,46.823486328],[123.52893066400001,46.836486816],[123.53991699200002,46.868286133],[123.55468750000001,46.870300293],[123.57708740200002,46.86151123],[123.570129395,46.80291748],[123.56311035200001,46.767272949],[123.54589843700002,46.729492187],[123.51068115200002,46.696716309],[123.48327636700002,46.679504395],[123.41552734400001,46.67590332],[123.34771728500002,46.672302246],[123.30688476600001,46.659729004],[123.25708007800002,46.62487793],[123.23132324200002,46.591125488],[123.19708252,46.587524414],[123.15270996100001,46.604919434],[123.10028076200001,46.606323242],[123.06091308600001,46.600097656],[123.02050781200002,46.613708496],[123.00988769500002,46.608093262],[122.99108886700002,46.56048584],[122.96752929700001,46.536315918],[122.94427490200002,46.515319824],[122.94787597700001,46.508483887],[122.96691894500002,46.483703613],[122.99353027300002,46.422119141],[123.04547119100002,46.345092773],[123.09368896500001,46.248718262]]]}}
