{"type":"Feature","id":"bulk-99377448B93689173545558","bbox":[118.35791015600002,25.338928223,119.95068359400001,26.65447998],"properties":{"id":"bulk-99377448B93689173545558","name":"Fuzhou","nameEn":"Fuzhou","fullName":"Fuzhou","level":"city","boundaryRole":"administrative-extent","boundaryQuality":"generalized-source-2020","boundaryYearRepresented":"2020","bounds":[[118.35791015600002,25.338928223],[119.95068359400001,26.65447998]],"center":[119.15429687500001,25.9967041015],"centerMethod":"bounding-box midpoint; camera framing only","license":"CC-BY-3.0-IGO","attribution":"geoBoundaries / HDX, China administrative boundaries (2020)","source":{"provider":"geoBoundaries gbHumanitarian / HDX","url":"https://github.com/wmgeolab/geoBoundaries/raw/9469f09/releaseData/gbHumanitarian/CHN/ADM2/geoBoundaries-CHN-ADM2.geojson","metadataUrl":"https://www.geoboundaries.org/api/current/gbHumanitarian/CHN/ADM2/","shapeID":"99377448B93689173545558","shapeName":"Fuzhou","boundaryID":"CHN-ADM2-99377448","commit":"9469f09"},"geometryCounts":{"coordinates":1035,"components":18,"holes":0},"boundaryNotice":"geoBoundaries / HDX 2020 年行政区数据，海岸和边界经过源数据概化，并非当前测绘成果。"},"geometry":{"type":"MultiPolygon","coordinates":[[[[119.47631835900002,25.343505859],[119.48352050800001,25.344726562],[119.48352050800001,25.345092773],[119.48229980500001,25.347106934],[119.47827148400002,25.346130371],[119.47631835900002,25.343505859]]],[[[119.54528808600001,25.365905762],[119.54632568400001,25.366882324],[119.54229736300002,25.37109375],[119.53833007800002,25.369873047],[119.53369140600002,25.365722656],[119.53228759800001,25.363098145],[119.53308105500001,25.360473633],[119.54071044900002,25.366699219],[119.54528808600001,25.365905762]]],[[[119.55310058600001,25.380310059],[119.55529785200001,25.381530762],[119.55529785200001,25.38269043],[119.54949951200001,25.382080078],[119.55310058600001,25.380310059]]],[[[119.53527832000002,25.411071777],[119.53668212900001,25.413696289],[119.53527832000002,25.413513184],[119.53527832000002,25.411071777]]],[[[119.80389404300001,25.436096191],[119.80688476600001,25.436523437],[119.80828857400002,25.439086914],[119.80187988300001,25.449523926],[119.79949951200001,25.444274902],[119.80389404300001,25.436096191]]],[[[119.68627929700001,25.444091797],[119.69250488300001,25.448120117],[119.69128418000001,25.450927734],[119.69531250000001,25.45892334],[119.69451904300001,25.460693359],[119.68792724600002,25.462097168],[119.68511962900001,25.455688477],[119.68267822300001,25.454528809],[119.68249511700002,25.452880859],[119.68511962900001,25.450317383],[119.68627929700001,25.444091797]]],[[[119.84167480500001,25.455078125],[119.85009765600002,25.457275391],[119.84948730500001,25.460510254],[119.84051513700001,25.463500977],[119.84167480500001,25.455078125]]],[[[119.69952392600001,25.452270508],[119.70068359400001,25.453308105],[119.71270752,25.460510254],[119.71868896500001,25.461486816],[119.71307373000002,25.461730957],[119.70947265600002,25.463500977],[119.70288085900002,25.466918945],[119.70129394500002,25.464477539],[119.70172119100002,25.461486816],[119.69873046900001,25.456115723],[119.69952392600001,25.452270508]]],[[[119.70947265600002,25.486328125],[119.71551513700001,25.488708496],[119.71148681600002,25.489074707],[119.70831298800002,25.487487793],[119.70947265600002,25.486328125]]],[[[119.26110839800002,25.484680176],[119.27032470700001,25.491882324],[119.26727294900002,25.49407959],[119.26287841800001,25.493286133],[119.26110839800002,25.484680176]]],[[[119.86547851600001,25.545471191],[119.87127685500002,25.549316406],[119.87030029300001,25.549926758],[119.86187744100002,25.546875],[119.85107421900001,25.546875],[119.85168457000002,25.546691895],[119.85070800800001,25.539916992],[119.85272216800001,25.53692627],[119.85791015600002,25.537475586],[119.86212158200001,25.543273926],[119.86547851600001,25.545471191]]],[[[119.58770752,25.553527832],[119.59167480500001,25.563476562],[119.58648681600002,25.563293457],[119.58447265600002,25.561706543],[119.58428955100001,25.55847168],[119.58587646500001,25.555114746],[119.58770752,25.553527832]]],[[[119.29888916000002,25.414123535],[119.30212402300002,25.414306641],[119.31451416000002,25.430725098],[119.32128906200002,25.434082031],[119.32708740200002,25.434509277],[119.32092285200001,25.453674316],[119.33007812500001,25.473083496],[119.33007812500001,25.473510742],[119.32928466800001,25.478881836],[119.34008789100001,25.509277344],[119.34472656200002,25.514282227],[119.34027099600002,25.536682129],[119.33789062500001,25.553283691],[119.33209228500002,25.569885254],[119.33068847700001,25.567321777],[119.32647705100001,25.563293457],[119.32287597700001,25.5625],[119.31427002,25.551330566],[119.304504395,25.543518066],[119.30529785200001,25.541503906],[119.31707763700001,25.538513184],[119.28631591800001,25.452270508],[119.28771972700001,25.451293945],[119.28948974600002,25.448120117],[119.29107666000002,25.442687988],[119.28771972700001,25.438476562],[119.29290771500001,25.433105469],[119.29827880900001,25.414672852],[119.29888916000002,25.414123535]]],[[[119.36370849600002,25.566711426],[119.36492919900002,25.568481445],[119.36230468700002,25.571472168],[119.36187744100002,25.571289062],[119.36370849600002,25.566711426]]],[[[119.83508300800001,25.592712402],[119.83648681600002,25.598083496],[119.82489013700001,25.60168457],[119.78649902300002,25.604919434],[119.78631591800001,25.612670898],[119.78289794900002,25.615722656],[119.77307128900001,25.63067627],[119.77227783200001,25.640075684],[119.77191162100002,25.640075684],[119.75671386700002,25.631286621],[119.74548339800002,25.621276855],[119.73132324200002,25.610473633],[119.72009277300002,25.601318359],[119.71087646500001,25.590087891],[119.69989013700001,25.58190918],[119.69970703100002,25.580688477],[119.70849609400001,25.577087402],[119.70788574200002,25.582275391],[119.71832275400001,25.591918945],[119.72430419900002,25.591918945],[119.73327636700002,25.596496582],[119.73529052700002,25.595092773],[119.73828125000001,25.588317871],[119.74212646500001,25.584106445],[119.73748779300001,25.566894531],[119.73547363300001,25.564880371],[119.72930908200001,25.559326172],[119.72991943400001,25.557312012],[119.74029541000002,25.561096191],[119.73730468700002,25.514526367],[119.74047851600001,25.514892578],[119.75390625000001,25.534118652],[119.76007080100001,25.532104492],[119.76208496100001,25.528320312],[119.76849365200002,25.523498535],[119.77368164100001,25.522888184],[119.77551269500002,25.526489258],[119.77770996100001,25.526672363],[119.77929687500001,25.521484375],[119.77752685500002,25.514282227],[119.77569580100001,25.507324219],[119.77349853500002,25.504882812],[119.76147460900002,25.502075195],[119.75189209000001,25.494506836],[119.74810791000002,25.493896484],[119.73608398400002,25.496704102],[119.73529052700002,25.48248291],[119.73107910200001,25.483886719],[119.73211669900002,25.480712891],[119.730285645,25.478881836],[119.722473145,25.477294922],[119.72467041000002,25.473693848],[119.72167968700002,25.47088623],[119.71911621100001,25.461486816],[119.72412109400001,25.462280273],[119.73010253900001,25.460876465],[119.72711181600002,25.451904297],[119.71929931600002,25.445129395],[119.71148681600002,25.43951416],[119.70709228500002,25.434326172],[119.70587158200001,25.433288574],[119.70947265600002,25.431518555],[119.71710205100001,25.420288086],[119.73168945300002,25.417114258],[119.74627685500002,25.406677246],[119.75927734400001,25.399108887],[119.76867675800001,25.395507812],[119.76989746100001,25.400085449],[119.77008056600002,25.400085449],[119.76788330100001,25.404296875],[119.77807617200001,25.410095215],[119.77368164100001,25.413085937],[119.76867675800001,25.414306641],[119.76007080100001,25.411071777],[119.75512695300002,25.426330566],[119.75769043000001,25.436096191],[119.76049804700001,25.438903809],[119.76788330100001,25.440124512],[119.77447509800001,25.446289062],[119.78009033200001,25.445495605],[119.80072021500001,25.458312988],[119.80688476600001,25.45892334],[119.81829834000001,25.465881348],[119.82031250000001,25.467102051],[119.83349609400001,25.466918945],[119.82348632800002,25.472106934],[119.81707763700001,25.479125977],[119.81347656200002,25.490905762],[119.81091308600001,25.493286133],[119.80310058600001,25.494506836],[119.80212402300002,25.496276855],[119.80529785200001,25.506103516],[119.80511474600002,25.511291504],[119.80151367200001,25.519104004],[119.81188964800002,25.539489746],[119.83929443400001,25.550292969],[119.84088134800001,25.550292969],[119.84191894500002,25.56048584],[119.84332275400001,25.567871094],[119.83209228500002,25.573303223],[119.82708740200002,25.57409668],[119.82171630900001,25.569274902],[119.81628418000001,25.569885254],[119.81451416000002,25.571472168],[119.81390380900001,25.574890137],[119.82110595700001,25.584106445],[119.82489013700001,25.586120605],[119.82952880900001,25.591674805],[119.83508300800001,25.592712402]]],[[[119.58227539100001,25.667297363],[119.58850097700001,25.676086426],[119.58648681600002,25.678283691],[119.58312988300001,25.676696777],[119.57489013700001,25.668273926],[119.58227539100001,25.667297363]]],[[[119.74932861300002,26.355285645],[119.75451660200001,26.356872559],[119.74908447300001,26.356323242],[119.74908447300001,26.355895996],[119.74932861300002,26.355285645]]],[[[119.76049804700001,26.550720215],[119.71228027300002,26.534484863],[119.64569091800001,26.540283203],[119.58050537100002,26.559875488],[119.55987548800002,26.561706543],[119.52551269500002,26.571105957],[119.50769043000001,26.606689453],[119.48309326200001,26.627075195],[119.44830322300001,26.646484375],[119.40429687500001,26.65447998],[119.36187744100002,26.647705078],[119.34027099600002,26.612915039],[119.30389404300001,26.607116699],[119.27252197300001,26.62512207],[119.25610351600001,26.598327637],[119.25207519500002,26.567871094],[119.21447753900001,26.545898437],[119.20031738300001,26.577697754],[119.16308593700002,26.585327148],[119.13287353500002,26.573486328],[119.10888671900001,26.55291748],[119.07489013700001,26.569274902],[119.05651855500001,26.605895996],[119.03027343700002,26.619689941],[118.99792480500001,26.612121582],[118.98248291000002,26.582885742],[118.93890380900001,26.569091797],[118.90850830100001,26.547485352],[118.90930175800001,26.510925293],[118.87170410200001,26.50189209],[118.83532714800002,26.483093262],[118.80889892600001,26.467102051],[118.79132080100001,26.495117187],[118.76971435500002,26.521118164],[118.73767089800002,26.526916504],[118.71691894500002,26.503723145],[118.72070312500001,26.475708008],[118.72692871100001,26.443725586],[118.75250244100002,26.413085937],[118.78070068400001,26.393493652],[118.78771972700001,26.366516113],[118.76367187500001,26.342712402],[118.72607421900001,26.351928711],[118.65112304700001,26.343688965],[118.64392089800002,26.311096191],[118.64752197300001,26.283325195],[118.62628173800002,26.236328125],[118.59228515600002,26.224304199],[118.56311035200001,26.210510254],[118.55389404300001,26.18170166],[118.57049560500002,26.152893066],[118.59051513700001,26.131103516],[118.58209228500002,26.097290039],[118.54608154300001,26.080688477],[118.50811767600001,26.06072998],[118.49609375000001,26.016113281],[118.48907470700001,25.966308594],[118.48132324200002,25.940124512],[118.45367431600002,25.919494629],[118.42047119100002,25.92388916],[118.38970947300001,25.922485352],[118.37390136700002,25.890319824],[118.35791015600002,25.86151123],[118.36187744100002,25.82611084],[118.38171386700002,25.802490234],[118.40332031200002,25.77331543],[118.41290283200001,25.747070312],[118.44207763700001,25.734680176],[118.47650146500001,25.71887207],[118.50030517600001,25.695495605],[118.53527832000002,25.708129883],[118.57708740200002,25.719909668],[118.62329101600001,25.721679687],[118.66967773400002,25.715087891],[118.70892334000001,25.710693359],[118.73889160200001,25.708679199],[118.77648925800001,25.737487793],[118.83288574200002,25.755126953],[118.88507080100001,25.756286621],[118.91912841800001,25.763305664],[118.95428466800001,25.759094238],[118.988098145,25.761474609],[119.02410888700001,25.773498535],[119.05847168000001,25.792114258],[119.12530517600001,25.769287109],[119.12170410200001,25.735717773],[119.10870361300002,25.703125],[119.11547851600001,25.654907227],[119.13372802700002,25.621276855],[119.14508056600002,25.588928223],[119.17608642600001,25.606079102],[119.20989990200002,25.609924316],[119.21887207000002,25.579101562],[119.21270752,25.551879883],[119.19409179700001,25.524108887],[119.20349121100001,25.468688965],[119.20812988300001,25.473693848],[119.20690918000001,25.476928711],[119.20831298800002,25.487670898],[119.20330810500002,25.492919922],[119.20532226600001,25.493896484],[119.21209716800001,25.488525391],[119.21368408200001,25.480285645],[119.21948242200001,25.474487305],[119.22271728500002,25.473083496],[119.22430419900002,25.472473145],[119.22729492200001,25.473693848],[119.22967529300001,25.479492187],[119.23828125000001,25.488891602],[119.25488281200002,25.495483398],[119.26129150400001,25.500671387],[119.27209472700001,25.517272949],[119.27050781200002,25.521911621],[119.27227783200001,25.524902344],[119.28228759800001,25.52947998],[119.28308105500001,25.530517578],[119.28411865200002,25.542907715],[119.28247070300002,25.545288086],[119.28527832000002,25.552490234],[119.28491210900002,25.555908203],[119.28027343700002,25.562072754],[119.28350830100001,25.565124512],[119.28649902300002,25.568115234],[119.29150390600002,25.580078125],[119.29992675800001,25.573303223],[119.30468750000001,25.578674316],[119.30590820300002,25.565307617],[119.30731201200001,25.56451416],[119.31811523400002,25.574279785],[119.32928466800001,25.577087402],[119.33032226600001,25.578491211],[119.32647705100001,25.602111816],[119.33410644500002,25.602111816],[119.33349609400001,25.604675293],[119.32507324200002,25.609313965],[119.31671142600001,25.607116699],[119.31408691400001,25.60949707],[119.31488037100002,25.611083984],[119.31872558600001,25.613891602],[119.33367919900002,25.61328125],[119.33508300800001,25.616516113],[119.34411621100001,25.614929199],[119.34948730500001,25.617919922],[119.35107421900001,25.615722656],[119.35089111300002,25.605102539],[119.35571289100001,25.601318359],[119.35852050800001,25.596496582],[119.36108398400002,25.595275879],[119.36889648400002,25.60748291],[119.36987304700001,25.59588623],[119.36907959000001,25.59387207],[119.36767578100002,25.590698242],[119.36029052700002,25.587524414],[119.35827636700002,25.583679199],[119.35888671900001,25.580078125],[119.36187744100002,25.578918457],[119.36608886700002,25.580322266],[119.36968994100002,25.585327148],[119.37628173800002,25.589294434],[119.37847900400001,25.587280273],[119.37951660200001,25.584106445],[119.37347412100002,25.575317383],[119.37011718700002,25.56427002],[119.38549804700001,25.562316895],[119.36889648400002,25.525512695],[119.36950683600001,25.525085449],[119.38012695300002,25.525085449],[119.38232421900001,25.526672363],[119.38848877,25.522888184],[119.39227294900002,25.524291992],[119.39611816400001,25.523498535],[119.40472412100002,25.513916016],[119.41290283200001,25.512084961],[119.42089843700002,25.510314941],[119.42968750000001,25.506713867],[119.43450927700002,25.507080078],[119.43890380900001,25.513916016],[119.44329834000001,25.513305664],[119.44909668000001,25.509094238],[119.45349121100001,25.509887695],[119.46051025400001,25.51550293],[119.46472168000001,25.514282227],[119.45867919900002,25.500915527],[119.45971679700001,25.49407959],[119.45568847700001,25.479675293],[119.44549560500002,25.475097656],[119.44311523400002,25.471496582],[119.44873046900001,25.462890625],[119.44909668000001,25.460510254],[119.44927978500002,25.458312988],[119.43591308600001,25.4375],[119.43572998000002,25.434509277],[119.445129395,25.44128418],[119.45349121100001,25.443725586],[119.45709228500002,25.455505371],[119.46051025400001,25.458679199],[119.47528076200001,25.452880859],[119.48828125000001,25.456298828],[119.49548339800002,25.456481934],[119.49932861300002,25.454284668],[119.49890136700002,25.451721191],[119.49511718700002,25.44732666],[119.51068115200002,25.442687988],[119.49932861300002,25.43548584],[119.50170898400002,25.434692383],[119.50488281200002,25.428527832],[119.51367187500001,25.42388916],[119.51147460900002,25.413879395],[119.50952148400002,25.412475586],[119.49890136700002,25.414672852],[119.50830078100002,25.402099609],[119.51092529300001,25.389892578],[119.50549316400001,25.386108398],[119.50592041000002,25.385070801],[119.49511718700002,25.368713379],[119.49230957000002,25.364685059],[119.49572753900001,25.368286133],[119.49768066400001,25.369873047],[119.51171875000001,25.378295898],[119.52947998000002,25.378723145],[119.53411865200002,25.373718262],[119.53692627,25.375915527],[119.54370117200001,25.374694824],[119.54272460900002,25.377929687],[119.54492187500001,25.381530762],[119.54187011700002,25.381286621],[119.52612304700001,25.384521484],[119.52868652300002,25.395874023],[119.52191162100002,25.396728516],[119.52130127,25.399475098],[119.52307128900001,25.403320312],[119.52087402300002,25.407287598],[119.52130127,25.409118652],[119.53430175800001,25.421081543],[119.53411865200002,25.425292969],[119.53009033200001,25.43170166],[119.53948974600002,25.442504883],[119.54351806600002,25.455505371],[119.546875,25.453308105],[119.54870605500001,25.443725586],[119.55072021500001,25.442871094],[119.55590820300002,25.453308105],[119.56072998000002,25.45690918],[119.56610107400002,25.457275391],[119.56988525400001,25.455688477],[119.57568359400001,25.456481934],[119.58349609400001,25.454284668],[119.58532714800002,25.45111084],[119.58288574200002,25.442077637],[119.57849121100001,25.434692383],[119.57971191400001,25.431274414],[119.58331298800002,25.430480957],[119.58551025400001,25.432128906],[119.59307861300002,25.442077637],[119.59667968700002,25.436523437],[119.60089111300002,25.434875488],[119.60351562500001,25.431091309],[119.60052490200002,25.427490234],[119.58807373000002,25.426513672],[119.59210205100001,25.424926758],[119.58728027300002,25.406677246],[119.58831787100002,25.40447998],[119.58789062500001,25.403930664],[119.59130859400001,25.395080566],[119.59368896500001,25.392700195],[119.59832763700001,25.392272949],[119.59851074200002,25.382507324],[119.605285645,25.370300293],[119.60247802700002,25.357299805],[119.59991455100001,25.355895996],[119.60290527300002,25.342102051],[119.60729980500001,25.344482422],[119.62011718700002,25.33972168],[119.62207031200002,25.338928223],[119.62707519500002,25.339477539],[119.63409423800002,25.343322754],[119.63110351600001,25.349914551],[119.63647460900002,25.356506348],[119.62371826200001,25.355895996],[119.62011718700002,25.361083984],[119.62951660200001,25.362121582],[119.64227294900002,25.376708984],[119.64807128900001,25.372680664],[119.64868164100001,25.373718262],[119.64868164100001,25.376708984],[119.64892578100002,25.382873535],[119.64929199200002,25.382873535],[119.64849853500002,25.39251709],[119.64111328100002,25.407897949],[119.62628173800002,25.413696289],[119.63592529300001,25.428894043],[119.63531494100002,25.429321289],[119.62847900400001,25.4296875],[119.62750244100002,25.428894043],[119.62207031200002,25.42388916],[119.61810302700002,25.428283691],[119.60949707000002,25.4296875],[119.61090087900001,25.435302734],[119.613098145,25.437072754],[119.62152099600002,25.439086914],[119.62628173800002,25.442504883],[119.62530517600001,25.446472168],[119.62731933600001,25.448486328],[119.60552978500002,25.458679199],[119.60510253900001,25.473510742],[119.59667968700002,25.480529785],[119.57250976600001,25.472473145],[119.55010986300002,25.462280273],[119.55249023400002,25.475097656],[119.55688476600001,25.488525391],[119.59509277300002,25.494873047],[119.59790039100001,25.496276855],[119.59887695300002,25.497314453],[119.59051513700001,25.506103516],[119.58087158200001,25.506530762],[119.57391357400002,25.501098633],[119.57092285200001,25.500671387],[119.56732177700002,25.50012207],[119.56329345700001,25.49432373],[119.55987548800002,25.49407959],[119.55572509800001,25.499084473],[119.55371093700002,25.504089355],[119.55511474600002,25.507324219],[119.56152343700002,25.508483887],[119.57110595700001,25.516479492],[119.57489013700001,25.517089844],[119.58227539100001,25.514709473],[119.57550048800002,25.521911621],[119.57690429700001,25.525695801],[119.57489013700001,25.528320312],[119.57427978500002,25.532470703],[119.57769775400001,25.537109375],[119.57507324200002,25.539306641],[119.56988525400001,25.538330078],[119.56909179700001,25.54107666],[119.57031250000001,25.552307129],[119.57092285200001,25.558105469],[119.57910156200002,25.564880371],[119.57952880900001,25.565490723],[119.55291748000002,25.56048584],[119.53668212900001,25.571105957],[119.52069091800001,25.531921387],[119.48767089800002,25.55847168],[119.48687744100002,25.573730469],[119.48370361300002,25.578308105],[119.48107910200001,25.587890625],[119.48187255900001,25.595092773],[119.48327636700002,25.597290039],[119.48608398400002,25.602478027],[119.48748779300001,25.608886719],[119.48950195300002,25.61151123],[119.48907470700001,25.613525391],[119.47192382800002,25.603881836],[119.47088623000002,25.62109375],[119.47009277300002,25.620910645],[119.46392822300001,25.626281738],[119.46289062500001,25.630493164],[119.46411132800002,25.633911133],[119.44012451200001,25.631286621],[119.45111084000001,25.648925781],[119.45092773400002,25.667297363],[119.44049072300001,25.686523437],[119.46307373000002,25.677307129],[119.46710205100001,25.67590332],[119.46728515600002,25.676086426],[119.47131347700001,25.681274414],[119.47430419900002,25.680480957],[119.47888183600001,25.684082031],[119.48089599600002,25.688903809],[119.488098145,25.692504883],[119.51391601600001,25.690124512],[119.51788330100001,25.693481445],[119.52270507800002,25.703491211],[119.52752685500002,25.707519531],[119.52929687500001,25.712524414],[119.53668212900001,25.711730957],[119.54248046900001,25.714477539],[119.55010986300002,25.706481934],[119.56109619100002,25.700073242],[119.56152343700002,25.693481445],[119.57269287100002,25.691711426],[119.57531738300001,25.692077637],[119.57788085900002,25.692687988],[119.58068847700001,25.689697266],[119.58630371100001,25.688476562],[119.59771728500002,25.691894531],[119.59948730500001,25.699890137],[119.60430908200001,25.702880859],[119.60467529300001,25.706481934],[119.60150146500001,25.710693359],[119.59307861300002,25.716125488],[119.59411621100001,25.717712402],[119.60028076200001,25.718078613],[119.60308837900001,25.719909668],[119.60467529300001,25.729492187],[119.60711669900002,25.733276367],[119.61590576200001,25.73828125],[119.61791992200001,25.748474121],[119.62188720700001,25.751708984],[119.63012695300002,25.754272461],[119.63067627,25.758728027],[119.62628173800002,25.766296387],[119.62469482400002,25.766479492],[119.61749267600001,25.76751709],[119.61248779300001,25.772277832],[119.60992431600002,25.778320312],[119.61090087900001,25.781494141],[119.61492919900002,25.781494141],[119.61932373000002,25.78527832],[119.61352539100001,25.800292969],[119.60028076200001,25.807312012],[119.58972168000001,25.812683105],[119.58087158200001,25.826293945],[119.58447265600002,25.835083008],[119.58111572300001,25.85168457],[119.58111572300001,25.857299805],[119.58129882800002,25.861083984],[119.57690429700001,25.876281738],[119.58148193400001,25.872070312],[119.58148193400001,25.873474121],[119.57928466800001,25.877929687],[119.57550048800002,25.880126953],[119.57147216800001,25.879516602],[119.56732177700002,25.87512207],[119.56512451200001,25.878112793],[119.57232666000002,25.886474609],[119.57971191400001,25.889099121],[119.58068847700001,25.896484375],[119.58209228500002,25.897521973],[119.58367919900002,25.896728516],[119.58850097700001,25.885925293],[119.59588623000002,25.874694824],[119.59729003900001,25.85748291],[119.605285645,25.850097656],[119.60632324200002,25.850891113],[119.60687255900001,25.852294922],[119.61108398400002,25.859924316],[119.61889648400002,25.888305664],[119.63092041000002,25.908691406],[119.63647460900002,25.912719727],[119.64868164100001,25.911315918],[119.66229248000002,25.914916992],[119.67150878900001,25.912109375],[119.67449951200001,25.906494141],[119.68212890600002,25.906494141],[119.68872070300002,25.912719727],[119.68951416000002,25.917114258],[119.69348144500002,25.940124512],[119.69787597700001,25.950317383],[119.70788574200002,25.95892334],[119.71051025400001,25.966125488],[119.71350097700001,25.977722168],[119.71472168000001,25.98828125],[119.70867919900002,26.007507324],[119.68530273400002,26.008483887],[119.66027832000002,26.004272461],[119.63848877,26.00970459],[119.61608886700002,26.020874023],[119.58807373000002,26.03692627],[119.55871582000002,26.039306641],[119.51611328100002,26.041870117],[119.50988769500002,26.051513672],[119.50549316400001,26.058288574],[119.52392578100002,26.088928223],[119.54650878900001,26.110107422],[119.55407714800002,26.11151123],[119.55828857400002,26.112304687],[119.58612060500002,26.117675781],[119.59490966800001,26.126281738],[119.59289550800001,26.127502441],[119.58612060500002,26.125488281],[119.58532714800002,26.131530762],[119.59149169900002,26.131286621],[119.60168457000002,26.135070801],[119.60052490200002,26.143920898],[119.59710693400001,26.148071289],[119.59588623000002,26.15612793],[119.59692382800002,26.163879395],[119.60168457000002,26.171081543],[119.60729980500001,26.174926758],[119.60772705100001,26.174926758],[119.62451171900001,26.192504883],[119.63128662100002,26.197692871],[119.63287353500002,26.20111084],[119.63867187500001,26.203918457],[119.63928222700001,26.203674316],[119.64550781200002,26.208312988],[119.65429687500001,26.211486816],[119.65209960900002,26.215087891],[119.65307617200001,26.21887207],[119.66467285200001,26.224487305],[119.66711425800001,26.225097656],[119.66229248000002,26.233520508],[119.66070556600002,26.233886719],[119.65570068400001,26.238708496],[119.65527343700002,26.240478516],[119.63732910200001,26.247497559],[119.64367675800001,26.249694824],[119.64050293000001,26.252685547],[119.63488769500002,26.252929687],[119.63067627,26.250305176],[119.62768554700001,26.253112793],[119.64172363300001,26.264709473],[119.64672851600001,26.265930176],[119.65447998000002,26.265075684],[119.66192627,26.267089844],[119.67327880900001,26.265075684],[119.67730712900001,26.273681641],[119.68170166000002,26.273498535],[119.68768310500002,26.269287109],[119.69390869100002,26.275878906],[119.70092773400002,26.276123047],[119.71588134800001,26.272277832],[119.745910645,26.283691406],[119.74688720700001,26.281921387],[119.74749755900001,26.280517578],[119.75451660200001,26.283081055],[119.75549316400001,26.285522461],[119.75152587900001,26.286315918],[119.75091552700002,26.288513184],[119.75628662100002,26.292907715],[119.76190185500002,26.295288086],[119.76409912100002,26.294677734],[119.76593017600001,26.290283203],[119.77410888700001,26.293518066],[119.78228759800001,26.291320801],[119.78570556600002,26.285888672],[119.78350830100001,26.278503418],[119.78448486300002,26.276489258],[119.79492187500001,26.271118164],[119.80187988300001,26.284118652],[119.79528808600001,26.290710449],[119.79229736300002,26.29107666],[119.78771972700001,26.294921875],[119.78729248000002,26.295715332],[119.78588867200001,26.29888916],[119.78631591800001,26.299682617],[119.78607177700002,26.300109863],[119.78668212900001,26.300292969],[119.78833007800002,26.304077148],[119.79351806600002,26.307922363],[119.81469726600001,26.319702148],[119.82989502,26.320678711],[119.83508300800001,26.326477051],[119.84271240200002,26.328918457],[119.84790039100001,26.329101562],[119.85192871100001,26.323486328],[119.85589599600002,26.321716309],[119.86071777300002,26.32208252],[119.86370849600002,26.320129395],[119.86267089800002,26.311889648],[119.86389160200001,26.309875488],[119.86810302700002,26.309692383],[119.87048339800002,26.309326172],[119.87188720700001,26.309875488],[119.88232421900001,26.319274902],[119.88470459000001,26.318725586],[119.88488769500002,26.317504883],[119.88671875000001,26.31048584],[119.89971923800002,26.312316895],[119.90289306600002,26.319091797],[119.90130615200002,26.321289062],[119.90368652300002,26.325500488],[119.90631103500002,26.326293945],[119.90692138700001,26.327270508],[119.91229248000002,26.32989502],[119.91430664100001,26.334289551],[119.92248535200001,26.336914062],[119.921691895,26.340881348],[119.92431640600002,26.343078613],[119.93548584000001,26.346130371],[119.93688964800002,26.351074219],[119.94427490200002,26.352905273],[119.94592285200001,26.358520508],[119.95068359400001,26.363098145],[119.94769287100002,26.36328125],[119.93927002,26.360717773],[119.93927002,26.360107422],[119.93670654300001,26.359924316],[119.93591308600001,26.359680176],[119.93530273400002,26.35949707],[119.93292236300002,26.355529785],[119.93127441400001,26.357910156],[119.92767334000001,26.356323242],[119.92492675800001,26.353271484],[119.92309570300002,26.354492187],[119.90948486300002,26.350280762],[119.90228271500001,26.343505859],[119.89630127,26.340881348],[119.89532470700001,26.34588623],[119.89288330100001,26.347473145],[119.88427734400001,26.349487305],[119.87829589800002,26.347473145],[119.85772705100001,26.348510742],[119.85552978500002,26.350280762],[119.85748291000002,26.355102539],[119.86352539100001,26.359680176],[119.86950683600001,26.361328125],[119.87030029300001,26.364074707],[119.87072753900001,26.365905762],[119.87292480500001,26.368103027],[119.87207031200002,26.370300293],[119.87048339800002,26.371276855],[119.86572265600002,26.370483398],[119.86590576200001,26.377075195],[119.86187744100002,26.377502441],[119.85992431600002,26.38067627],[119.84887695300002,26.376281738],[119.84429931600002,26.37689209],[119.84271240200002,26.380126953],[119.84448242200001,26.384887695],[119.85510253900001,26.391113281],[119.85632324200002,26.393920898],[119.85589599600002,26.395690918],[119.85467529300001,26.396911621],[119.85327148400002,26.398681641],[119.84887695300002,26.398498535],[119.84808349600002,26.401489258],[119.84552002,26.401672363],[119.84490966800001,26.405883789],[119.84008789100001,26.408691406],[119.83489990200002,26.405273437],[119.83007812500001,26.405273437],[119.82891845700001,26.407104492],[119.83349609400001,26.409729004],[119.83648681600002,26.418518066],[119.83471679700001,26.420715332],[119.81170654300001,26.40447998],[119.80688476600001,26.400085449],[119.80548095700001,26.399902344],[119.79949951200001,26.395507812],[119.79968261700002,26.394897461],[119.79791259800001,26.394287109],[119.79150390600002,26.389526367],[119.79052734400001,26.386474609],[119.79589843700002,26.378479004],[119.79492187500001,26.376708984],[119.79168701200001,26.377929687],[119.78790283200001,26.377502441],[119.78509521500001,26.367919922],[119.78387451200001,26.36730957],[119.78771972700001,26.361328125],[119.77728271500001,26.363098145],[119.76971435500002,26.358276367],[119.75469970700001,26.356872559],[119.76367187500001,26.35168457],[119.75390625000001,26.341918945],[119.76129150400001,26.339477539],[119.76312255900001,26.331115723],[119.76190185500002,26.329528809],[119.75030517600001,26.321472168],[119.74432373000002,26.321289062],[119.73748779300001,26.314880371],[119.73492431600002,26.314697266],[119.73010253900001,26.309082031],[119.72210693400001,26.306274414],[119.72088623000002,26.306518555],[119.71228027300002,26.306884766],[119.71008300800001,26.310302734],[119.70971679700001,26.311706543],[119.69049072300001,26.315490723],[119.69030761700002,26.31829834],[119.68811035200001,26.318481445],[119.68530273400002,26.3203125],[119.68249511700002,26.326293945],[119.68267822300001,26.329711914],[119.68652343700002,26.333679199],[119.68988037100002,26.332275391],[119.68969726600001,26.338500977],[119.67407226600001,26.336120605],[119.67327880900001,26.338928223],[119.671875,26.338684082],[119.66931152300002,26.343078613],[119.66851806600002,26.350280762],[119.65808105500001,26.353515625],[119.65710449200002,26.353881836],[119.65447998000002,26.356079102],[119.66027832000002,26.366088867],[119.66430664100001,26.367919922],[119.66668701200001,26.370910645],[119.66650390600002,26.373474121],[119.66052246100001,26.375671387],[119.66168212900001,26.386474609],[119.65948486300002,26.395690918],[119.663879395,26.408691406],[119.65570068400001,26.429077148],[119.65307617200001,26.43170166],[119.64489746100001,26.440124512],[119.63769531200002,26.436096191],[119.63287353500002,26.43548584],[119.63171386700002,26.436279297],[119.62371826200001,26.43371582],[119.62072753900001,26.433288574],[119.61968994100002,26.432128906],[119.60772705100001,26.430114746],[119.60168457000002,26.430480957],[119.58972168000001,26.428710937],[119.58911132800002,26.427124023],[119.58087158200001,26.421081543],[119.57928466800001,26.428527832],[119.55731201200001,26.466674805],[119.57067871100001,26.472106934],[119.56848144500002,26.474304199],[119.56689453100002,26.480102539],[119.56408691400001,26.483703613],[119.56408691400001,26.486694336],[119.56970214800002,26.497314453],[119.57049560500002,26.498901367],[119.57470703100002,26.498718262],[119.57708740200002,26.492919922],[119.57250976600001,26.486083984],[119.57287597700001,26.482910156],[119.57690429700001,26.479492187],[119.58569335900002,26.479309082],[119.59008789100001,26.477722168],[119.59930419900002,26.478881836],[119.60168457000002,26.477294922],[119.605285645,26.471130371],[119.61932373000002,26.465270996],[119.620910645,26.46887207],[119.62451171900001,26.47088623],[119.63470459000001,26.483703613],[119.63391113300001,26.484130859],[119.63629150400001,26.488708496],[119.64147949200002,26.491882324],[119.64208984400001,26.492675781],[119.64288330100001,26.492675781],[119.64349365200002,26.493103027],[119.64550781200002,26.500305176],[119.64868164100001,26.503479004],[119.65472412100002,26.492492676],[119.65551757800002,26.492492676],[119.65771484400001,26.489929199],[119.66430664100001,26.495300293],[119.66491699200002,26.487304687],[119.66851806600002,26.48449707],[119.66827392600001,26.481323242],[119.66967773400002,26.479125977],[119.67889404300001,26.479492187],[119.68029785200001,26.478515625],[119.67468261700002,26.472290039],[119.68011474600002,26.464111328],[119.69549560500002,26.460510254],[119.69927978500002,26.463317871],[119.70532226600001,26.460327148],[119.70629882800002,26.459899902],[119.71429443400001,26.462280273],[119.71588134800001,26.461486816],[119.71112060500002,26.454284668],[119.71069335900002,26.450683594],[119.71252441400001,26.44732666],[119.71612548800002,26.444519043],[119.722473145,26.4453125],[119.72607421900001,26.438476562],[119.730285645,26.436096191],[119.73907470700001,26.437927246],[119.75952148400002,26.437072754],[119.75769043000001,26.420288086],[119.75830078100002,26.412109375],[119.76171875000001,26.407714844],[119.78631591800001,26.418273926],[119.80133056600002,26.427307129],[119.79467773400002,26.429504395],[119.79052734400001,26.434692383],[119.78930664100001,26.438110352],[119.79010009800001,26.440124512],[119.79327392600001,26.440673828],[119.80133056600002,26.434692383],[119.80828857400002,26.437072754],[119.81170654300001,26.433288574],[119.82189941400001,26.43927002],[119.82531738300001,26.441711426],[119.82550048800002,26.441711426],[119.82110595700001,26.447875977],[119.81909179700001,26.447875977],[119.81970214800002,26.449890137],[119.81408691400001,26.457519531],[119.81188964800002,26.455871582],[119.80987548800002,26.454711914],[119.80871582000002,26.457519531],[119.81091308600001,26.461914062],[119.79949951200001,26.475891113],[119.79229736300002,26.49029541],[119.78967285200001,26.489929199],[119.78369140600002,26.491882324],[119.78167724600002,26.494506836],[119.78808593700002,26.501098633],[119.78527832000002,26.508300781],[119.78448486300002,26.516296387],[119.77691650400001,26.516479492],[119.77490234400001,26.517883301],[119.78350830100001,26.523498535],[119.78289794900002,26.528076172],[119.78009033200001,26.52911377],[119.78009033200001,26.532714844],[119.76049804700001,26.550720215]]]]}}
