{"type":"Feature","id":"bulk-99377448B49058810453663","bbox":[113.45849609400001,33.413879395,114.30950927700002,33.985717773],"properties":{"id":"bulk-99377448B49058810453663","name":"Luohe","nameEn":"Luohe","fullName":"Luohe","level":"city","boundaryRole":"administrative-extent","boundaryQuality":"generalized-source-2020","boundaryYearRepresented":"2020","bounds":[[113.45849609400001,33.413879395],[114.30950927700002,33.985717773]],"center":[113.88400268550001,33.699798584],"centerMethod":"bounding-box midpoint; camera framing only","license":"CC-BY-3.0-IGO","attribution":"geoBoundaries / HDX, China administrative boundaries (2020)","source":{"provider":"geoBoundaries gbHumanitarian / HDX","url":"https://github.com/wmgeolab/geoBoundaries/raw/9469f09/releaseData/gbHumanitarian/CHN/ADM2/geoBoundaries-CHN-ADM2.geojson","metadataUrl":"https://www.geoboundaries.org/api/current/gbHumanitarian/CHN/ADM2/","shapeID":"99377448B49058810453663","shapeName":"Luohe","boundaryID":"CHN-ADM2-99377448","commit":"9469f09"},"geometryCounts":{"coordinates":103,"components":1,"holes":0},"boundaryNotice":"geoBoundaries / HDX 2020 年行政区数据，海岸和边界经过源数据概化，并非当前测绘成果。"},"geometry":{"type":"Polygon","coordinates":[[[114.28588867200001,33.487670898],[114.30950927700002,33.516906738],[114.30749511700002,33.558288574],[114.28771972700001,33.59552002],[114.26171875000001,33.627319336],[114.24871826200001,33.667907715],[114.20111084000001,33.710327148],[114.19348144500002,33.689086914],[114.16467285200001,33.675720215],[114.13592529300001,33.66192627],[114.09631347700001,33.67010498],[114.08349609400001,33.718688965],[114.10052490200002,33.744689941],[114.09350585900002,33.8046875],[114.08868408200001,33.806274414],[114.06927490200002,33.831115723],[114.07568359400001,33.881103516],[114.03430175800001,33.91229248],[114.00469970700001,33.94708252],[114.01269531200002,33.984924316],[113.97430419900002,33.985717773],[113.92828369100002,33.979309082],[113.90191650400001,33.949523926],[113.86291503900001,33.945495605],[113.82849121100001,33.919494629],[113.80548095700001,33.897277832],[113.75848388700001,33.889892578],[113.71649169900002,33.879089355],[113.71051025400001,33.840270996],[113.72668457000002,33.804504395],[113.73229980500001,33.768310547],[113.73468017600001,33.709716797],[113.66168212900001,33.709289551],[113.61627197300001,33.708129883],[113.58148193400001,33.702697754],[113.57952880900001,33.696472168],[113.57708740200002,33.692321777],[113.58270263700001,33.66229248],[113.59149169900002,33.651489258],[113.60491943400001,33.647277832],[113.61853027300002,33.640075684],[113.620910645,33.634887695],[113.62249755900001,33.631530762],[113.62188720700001,33.625305176],[113.61590576200001,33.621276855],[113.59948730500001,33.611083984],[113.56951904300001,33.59588623],[113.54748535200001,33.585083008],[113.538879395,33.575073242],[113.53851318400001,33.566101074],[113.53833007800002,33.542480469],[113.53070068400001,33.517883301],[113.52392578100002,33.513916016],[113.51611328100002,33.511474609],[113.50469970700001,33.509094238],[113.48931884800001,33.501708984],[113.48748779300001,33.497314453],[113.48529052700002,33.494689941],[113.48352050800001,33.484680176],[113.47332763700001,33.474121094],[113.46691894500002,33.465515137],[113.46807861300002,33.443115234],[113.45849609400001,33.437072754],[113.46447753900001,33.424316406],[113.46868896500001,33.424499512],[113.46948242200001,33.430725098],[113.47528076200001,33.433105469],[113.48089599600002,33.433898926],[113.495910645,33.431091309],[113.51208496100001,33.440673828],[113.51867675800001,33.442871094],[113.51989746100001,33.442871094],[113.52429199200002,33.4375],[113.52789306600002,33.432678223],[113.53790283200001,33.429321289],[113.55291748000002,33.42767334],[113.55432128900001,33.427490234],[113.56188964800002,33.421875],[113.57171630900001,33.428710937],[113.59869384800001,33.415527344],[113.61389160200001,33.414916992],[113.61791992200001,33.415893555],[113.62707519500002,33.422485352],[113.62951660200001,33.426086426],[113.65008544900002,33.424682617],[113.66467285200001,33.423278809],[113.67272949200002,33.421875],[113.65808105500001,33.413879395],[113.69970703100002,33.436523437],[113.73388671900001,33.443908691],[113.77069091800001,33.459716797],[113.81988525400001,33.469116211],[113.86328125000001,33.474304199],[113.90252685500002,33.475708008],[113.93548584000001,33.493530273],[113.96087646500001,33.522521973],[114.05847168000001,33.531494141],[114.09448242200001,33.521484375],[114.13092041000002,33.49609375],[114.16009521500001,33.469116211],[114.21087646500001,33.440673828],[114.24627685500002,33.455505371],[114.28588867200001,33.487670898]]]}}
