{"type":"Feature","id":"bulk-99377448B61463484204212","bbox":[113.91107177700002,28.661071777,116.86511230500001,30.064697266],"properties":{"id":"bulk-99377448B61463484204212","name":"Jiujiang","nameEn":"Jiujiang","fullName":"Jiujiang","level":"city","boundaryRole":"administrative-extent","boundaryQuality":"generalized-source-2020","boundaryYearRepresented":"2020","bounds":[[113.91107177700002,28.661071777],[116.86511230500001,30.064697266]],"center":[115.38809204100002,29.3628845215],"centerMethod":"bounding-box midpoint; camera framing only","license":"CC-BY-3.0-IGO","attribution":"geoBoundaries / HDX, China administrative boundaries (2020)","source":{"provider":"geoBoundaries gbHumanitarian / HDX","url":"https://github.com/wmgeolab/geoBoundaries/raw/9469f09/releaseData/gbHumanitarian/CHN/ADM2/geoBoundaries-CHN-ADM2.geojson","metadataUrl":"https://www.geoboundaries.org/api/current/gbHumanitarian/CHN/ADM2/","shapeID":"99377448B61463484204212","shapeName":"Jiujiang","boundaryID":"CHN-ADM2-99377448","commit":"9469f09"},"geometryCounts":{"coordinates":270,"components":1,"holes":0},"boundaryNotice":"geoBoundaries / HDX 2020 年行政区数据，海岸和边界经过源数据概化，并非当前测绘成果。"},"geometry":{"type":"Polygon","coordinates":[[[116.07769775400001,29.800109863],[116.06488037100002,29.782897949],[116.05572509800001,29.761901855],[116.03930664100001,29.749511719],[116.03308105500001,29.743286133],[115.99432373000002,29.725280762],[115.95928955100001,29.712280273],[115.93371582000002,29.707092285],[115.89251709000001,29.709106445],[115.86468505900001,29.717102051],[115.83331298800002,29.72869873],[115.79748535200001,29.742126465],[115.76470947300001,29.765075684],[115.74047851600001,29.787902832],[115.72552490200002,29.804504395],[115.69409179700001,29.819091797],[115.63732910200001,29.815124512],[115.54168701200001,29.810119629],[115.43530273400002,29.81652832],[115.44268798800002,29.77532959],[115.41510009800001,29.728271484],[115.36828613300001,29.689880371],[115.32769775400001,29.653320312],[115.27832031200002,29.627502441],[115.22808837900001,29.647277832],[115.18670654300001,29.655090332],[115.14770507800002,29.647521973],[115.10351562500001,29.662475586],[115.09368896500001,29.675292969],[115.11572265600002,29.614074707],[115.13507080100001,29.561523437],[115.13092041000002,29.540283203],[115.12847900400001,29.531921387],[115.12347412100002,29.514892578],[115.07470703100002,29.519287109],[115.04510498000002,29.555908203],[115.00909423800002,29.566101074],[114.95910644500002,29.568908691],[114.94012451200001,29.56072998],[114.93792724600002,29.559875488],[114.92907714800002,29.550292969],[114.93829345700001,29.526672363],[114.94091796900001,29.514282227],[114.92687988300001,29.504882812],[114.87329101600001,29.51751709],[114.86212158200001,29.50012207],[114.85552978500002,29.473510742],[114.86328125000001,29.459899902],[114.89831543000001,29.473876953],[114.90350341800001,29.47088623],[114.90771484400001,29.452087402],[114.88128662100002,29.418273926],[114.84613037100002,29.404296875],[114.73608398400002,29.385925293],[114.68969726600001,29.39630127],[114.63690185500002,29.405090332],[114.60070800800001,29.410705566],[114.55389404300001,29.385498047],[114.51330566400001,29.361877441],[114.49969482400002,29.344299316],[114.49572753900001,29.339294434],[114.45550537100002,29.324523926],[114.41992187500001,29.316711426],[114.38287353500002,29.329284668],[114.35089111300002,29.332092285],[114.31427002,29.336914062],[114.296875,29.339111328],[114.27111816400001,29.342529297],[114.22912597700001,29.332275391],[114.23150634800001,29.287475586],[114.22308349600002,29.259277344],[114.20709228500002,29.247314453],[114.18371582000002,29.23449707],[114.13171386700002,29.205688477],[114.07952880900001,29.208679199],[114.06750488300001,29.209289551],[114.03411865200002,29.20489502],[114.03710937500001,29.173706055],[114.00170898400002,29.141479492],[113.96588134800001,29.122924805],[113.93792724600002,29.125488281],[113.92529296900001,29.091125488],[113.921875,29.073730469],[113.92150878900001,29.071472168],[113.91107177700002,29.040710449],[113.91729736300002,29.011108398],[113.92248535200001,28.978881836],[113.95349121100001,28.946716309],[113.98187255900001,28.934509277],[114.03930664100001,28.886474609],[114.06408691400001,28.857299805],[114.08612060500002,28.837097168],[114.12670898400002,28.845703125],[114.13769531200002,28.83190918],[114.14068603500002,28.801513672],[114.13629150400001,28.762329102],[114.18371582000002,28.792297363],[114.20068359400001,28.829284668],[114.23187255900001,28.815917969],[114.26849365200002,28.793273926],[114.28790283200001,28.761291504],[114.304504395,28.732299805],[114.33410644500002,28.708679199],[114.37829589800002,28.704101562],[114.42089843700002,28.697875977],[114.46051025400001,28.696289062],[114.47467041000002,28.727478027],[114.50811767600001,28.751098633],[114.54290771500001,28.760498047],[114.57489013700001,28.75970459],[114.59088134800001,28.735290527],[114.61352539100001,28.714294434],[114.63671875000001,28.696289062],[114.67572021500001,28.661071777],[114.70971679700001,28.6875],[114.74810791000002,28.700317383],[114.77349853500002,28.717285156],[114.78771972700001,28.74810791],[114.82067871100001,28.756103516],[114.86328125000001,28.758300781],[114.88989257800002,28.786071777],[114.90270996100001,28.816894531],[114.91510009800001,28.857299805],[114.93029785200001,28.909301758],[114.96270752,28.913879395],[114.97290039100001,28.944885254],[114.98187255900001,28.979919434],[114.99969482400002,29.00769043],[115.03967285200001,29.032714844],[115.07489013700001,29.048278809],[115.11950683600001,29.0625],[115.15991210900002,29.077697754],[115.20147705100001,29.086914062],[115.24407959000001,29.095703125],[115.29052734400001,29.097473145],[115.34088134800001,29.089111328],[115.37609863300001,29.07232666],[115.43048095700001,29.078674316],[115.44628906200002,29.029724121],[115.47491455100001,29.016113281],[115.50592041000002,29.006286621],[115.53912353500002,28.98449707],[115.57269287100002,28.960693359],[115.60809326200001,28.946105957],[115.64648437500001,28.947875977],[115.67810058600001,28.938476562],[115.70867919900002,28.919128418],[115.74127197300001,28.90411377],[115.80670166000002,28.897521973],[115.82952880900001,28.933898926],[115.85809326200001,28.969482422],[115.89031982400002,29.004882812],[115.91827392600001,29.039306641],[115.93548584000001,29.067321777],[115.95751953100002,29.097900391],[115.98852539100001,29.108520508],[116.02972412100002,29.105285645],[116.06787109400001,29.120483398],[116.07769775400001,29.125305176],[116.07409668000001,29.127075195],[116.09869384800001,29.143127441],[116.13012695300002,29.157287598],[116.13928222700001,29.161071777],[116.14611816400001,29.160522461],[116.16448974600002,29.164672852],[116.16809082000002,29.153076172],[116.17468261700002,29.142883301],[116.179504395,29.137878418],[116.18310546900001,29.136901855],[116.18768310500002,29.135681152],[116.19232177700002,29.135314941],[116.19927978500002,29.136474609],[116.21228027300002,29.140686035],[116.22650146500001,29.148681641],[116.23492431600002,29.155090332],[116.25769043000001,29.162109375],[116.26348877,29.159118652],[116.26672363300001,29.154724121],[116.27008056600002,29.14630127],[116.27032470700001,29.141723633],[116.27471923800002,29.13848877],[116.27911377,29.136291504],[116.28833007800002,29.131896973],[116.30212402300002,29.118713379],[116.31469726600001,29.102722168],[116.33007812500001,29.084472656],[116.33489990200002,29.080078125],[116.347473145,29.076293945],[116.36370849600002,29.074707031],[116.36889648400002,29.073486328],[116.37652587900001,29.067504883],[116.37969970700001,29.060913086],[116.38208007800002,29.056884766],[116.39489746100001,29.055480957],[116.40588378900001,29.07232666],[116.42028808600001,29.087524414],[116.42492675800001,29.09387207],[116.42510986300002,29.101074219],[116.42230224600002,29.114074707],[116.41967773400002,29.123718262],[116.41949462900001,29.127685547],[116.42047119100002,29.134887695],[116.43029785200001,29.145690918],[116.44708252,29.159484863],[116.45532226600001,29.163879395],[116.45947265600002,29.167480469],[116.46710205100001,29.177490234],[116.47308349600002,29.181518555],[116.47607421900001,29.186523437],[116.48052978500002,29.186706543],[116.49212646500001,29.180297852],[116.50390625000001,29.229675293],[116.51489257800002,29.217712402],[116.52569580100001,29.189880371],[116.54949951200001,29.188110352],[116.55932617200001,29.201904297],[116.56188964800002,29.227722168],[116.55133056600002,29.254089355],[116.53692627,29.286682129],[116.53967285200001,29.321105957],[116.54168701200001,29.350280762],[116.53668212900001,29.380310059],[116.52532959000001,29.406677246],[116.52148437500001,29.436889648],[116.52429199200002,29.470092773],[116.52587890600002,29.509277344],[116.51989746100001,29.538696289],[116.50408935500002,29.562927246],[116.51910400400001,29.610107422],[116.56488037100002,29.602294922],[116.59667968700002,29.582519531],[116.63989257800002,29.580505371],[116.69232177700002,29.604309082],[116.66790771500001,29.662475586],[116.65209960900002,29.722290039],[116.67352294900002,29.759521484],[116.73052978500002,29.782470703],[116.80511474600002,29.846496582],[116.84631347700001,29.895874023],[116.86511230500001,29.940490723],[116.84411621100001,29.97088623],[116.80731201200001,29.98449707],[116.75347900400001,30.025512695],[116.74749755900001,30.02911377],[116.69689941400001,30.059509277],[116.61010742200001,30.064697266],[116.60913085900002,30.063903809],[116.59167480500001,30.055297852],[116.58227539100001,30.043701172],[116.56488037100002,29.996276855],[116.56127929700001,29.957885742],[116.55987548800002,29.937683105],[116.55468750000001,29.931274414],[116.53570556600002,29.910888672],[116.49951171900001,29.89251709],[116.45831298800002,29.87890625],[116.41888427700002,29.861877441],[116.38867187500001,29.847473145],[116.37268066400001,29.839477539],[116.34088134800001,29.820495605],[116.29431152300002,29.793273926],[116.24267578100002,29.778930664],[116.20690918000001,29.781494141],[116.19909668000001,29.790100098],[116.18408203100002,29.798522949],[116.16552734400001,29.808288574],[116.14971923800002,29.8125],[116.13110351600001,29.814697266],[116.09649658200001,29.810302734],[116.07769775400001,29.800109863]]]}}
