{"type":"Feature","id":"bulk-99377448B22500287874106","bbox":[77.40771484400001,35.201721191,84.97467041000002,39.556884766],"properties":{"id":"bulk-99377448B22500287874106","name":"Hotan Prefecture","nameEn":"Hotan Prefecture","fullName":"Hotan Prefecture","level":"city","boundaryRole":"administrative-extent","boundaryQuality":"generalized-source-2020","boundaryYearRepresented":"2020","bounds":[[77.40771484400001,35.201721191],[84.97467041000002,39.556884766]],"center":[81.19119262700002,37.3793029785],"centerMethod":"bounding-box midpoint; camera framing only","license":"CC-BY-3.0-IGO","attribution":"geoBoundaries / HDX, China administrative boundaries (2020)","source":{"provider":"geoBoundaries gbHumanitarian / HDX","url":"https://github.com/wmgeolab/geoBoundaries/raw/9469f09/releaseData/gbHumanitarian/CHN/ADM2/geoBoundaries-CHN-ADM2.geojson","metadataUrl":"https://www.geoboundaries.org/api/current/gbHumanitarian/CHN/ADM2/","shapeID":"99377448B22500287874106","shapeName":"Hotan Prefecture","boundaryID":"CHN-ADM2-99377448","commit":"9469f09"},"geometryCounts":{"coordinates":573,"components":2,"holes":0},"boundaryNotice":"geoBoundaries / HDX 2020 年行政区数据，海岸和边界经过源数据概化，并非当前测绘成果。"},"geometry":{"type":"MultiPolygon","coordinates":[[[[80.27447509800001,35.217529297],[80.27429199200002,35.214477539],[80.26867675800001,35.201721191],[80.27648925800001,35.212097168],[80.27447509800001,35.217529297]]],[[[84.97467041000002,35.673278809],[84.97052002,35.700927734],[84.96832275400001,35.74029541],[84.96130371100001,35.767089844],[84.952087402,35.809509277],[84.94488525400001,35.839294434],[84.93627929700001,35.877502441],[84.926330566,35.917480469],[84.918518066,35.958679199],[84.90393066400001,35.995117187],[84.88629150400001,36.024475098],[84.86090087900001,36.042724609],[84.827880859,36.067077637],[84.79992675800001,36.090087891],[84.77111816400001,36.114318848],[84.72912597700001,36.146484375],[84.67968750000001,36.184082031],[84.63952636700002,36.209716797],[84.58587646500001,36.228271484],[84.52770996100001,36.245117187],[84.47607421900001,36.254089355],[84.452880859,36.277282715],[84.44671630900001,36.305297852],[84.43908691400001,36.335327148],[84.43151855500001,36.365905762],[84.40808105500001,36.399475098],[84.384521484,36.428710937],[84.371276855,36.453674316],[84.36450195300002,36.49029541],[84.34692382800002,36.536071777],[84.32507324200002,36.569274902],[84.30072021500001,36.592895508],[84.277526855,36.615478516],[84.24407959000001,36.648681641],[84.20391845700001,36.681274414],[84.16571044900002,36.686279297],[84.12652587900001,36.684875488],[84.086914062,36.701477051],[83.99407959000001,36.75189209],[83.86248779300001,36.823730469],[83.834106445,36.966308594],[83.85772705100001,37.020874023],[83.84368896500001,37.183105469],[83.85888671900001,37.235900879],[83.861877441,37.267272949],[83.86932373,37.293273926],[83.88348388700001,37.331481934],[83.903320312,37.371887207],[83.93408203100002,37.411499023],[83.96630859400001,37.443725586],[83.98669433600001,37.478515625],[83.99871826200001,37.509094238],[83.99908447300001,37.539306641],[83.995910645,37.585083008],[83.98870849600002,37.61529541],[83.98010253900001,37.647888184],[83.96911621100001,37.687316895],[83.96130371100001,37.715515137],[83.953674316,37.757324219],[83.943908691,37.811523437],[83.93908691400001,37.839294434],[83.93511962900001,37.865722656],[83.925109863,37.891296387],[83.89672851600001,37.938903809],[83.87847900400001,37.968078613],[83.83990478500002,38.020690918],[83.81951904300001,38.042907715],[83.78289794900002,38.079711914],[83.73669433600001,38.100280762],[83.69451904300001,38.131713867],[83.635681152,38.168518066],[83.601318359,38.184509277],[83.56951904300001,38.195922852],[83.53833007800002,38.211730957],[83.50109863300001,38.233276367],[83.44207763700001,38.24987793],[83.41247558600001,38.278076172],[83.392700195,38.301330566],[83.37969970700001,38.339477539],[83.379089355,38.384887695],[83.38348388700001,38.413330078],[83.38751220700001,38.440673828],[83.39129638700001,38.472473145],[83.39410400400001,38.518493652],[83.394714355,38.551513672],[83.393920898,38.586914062],[83.393920898,38.622070312],[83.39129638700001,38.680908203],[83.38708496100001,38.728088379],[83.39093017600001,38.770507812],[83.395080566,38.815673828],[83.395507812,38.861877441],[83.39788818400001,38.900695801],[83.40008544900002,38.932495117],[83.402893066,38.984680176],[83.40588378900001,39.026123047],[83.41009521500001,39.059082031],[83.41333007800002,39.099487305],[83.41748046900001,39.141113281],[83.42150878900001,39.191711426],[83.42529296900001,39.240722656],[83.42651367200001,39.283508301],[83.425109863,39.325683594],[83.42767334000001,39.385070801],[83.444274902,39.485290527],[83.40447998,39.482727051],[83.353271484,39.483276367],[83.31707763700001,39.482727051],[83.26409912100002,39.483886719],[83.21649169900002,39.485107422],[83.177490234,39.483520508],[83.102905273,39.479919434],[83.043884277,39.480529785],[82.99127197300001,39.481689453],[82.94488525400001,39.483093262],[82.885681152,39.486328125],[82.83209228500002,39.489074707],[82.77850341800001,39.489929199],[82.72052002,39.486877441],[82.66168212900001,39.484924316],[82.60968017600001,39.486083984],[82.48712158200001,39.491882324],[82.44812011700002,39.496276855],[82.39569091800001,39.499084473],[82.33471679700001,39.50189209],[82.275512695,39.502502441],[82.22070312500001,39.504882812],[82.15789794900002,39.50769043],[82.08471679700001,39.504699707],[82.026306152,39.50390625],[81.95947265600002,39.504516602],[81.92132568400001,39.506103516],[81.86407470700001,39.508300781],[81.813476562,39.508483887],[81.774719238,39.510314941],[81.73187255900001,39.508483887],[81.67108154300001,39.506713867],[81.593505859,39.501708984],[81.533325195,39.503723145],[81.49029541000002,39.502929687],[81.44732666000002,39.502319336],[81.409912109,39.501525879],[81.359130859,39.500488281],[81.31488037100002,39.501708984],[81.24749755900001,39.496887207],[81.120117187,39.484313965],[81.05969238300001,39.48828125],[81.011901855,39.487304687],[80.91827392600001,39.501708984],[80.91247558600001,39.498718262],[80.872070312,39.506530762],[80.83050537100002,39.512695312],[80.784118652,39.514709473],[80.73211669900002,39.513122559],[80.67248535200001,39.510681152],[80.628723145,39.508911133],[80.585693359,39.506286621],[80.53967285200001,39.503479004],[80.495117187,39.501281738],[80.45507812500001,39.498901367],[80.418884277,39.495483398],[80.336120605,39.493103027],[80.27069091800001,39.493103027],[80.23510742200001,39.490905762],[80.179077148,39.489929199],[80.12231445300002,39.485107422],[80.068481445,39.481872559],[79.98992919900002,39.491699219],[79.957519531,39.503112793],[79.91027832,39.523681641],[79.86950683600001,39.539916992],[79.83148193400001,39.550109863],[79.79510498,39.556884766],[79.78912353500002,39.50390625],[79.79052734400001,39.455688477],[79.78430175800001,39.408508301],[79.77508544900002,39.363708496],[79.769714355,39.329284668],[79.76330566400001,39.292724609],[79.759521484,39.262878418],[79.75390625000001,39.182922363],[79.741516113,39.13067627],[79.73449707,39.097717285],[79.72729492200001,39.061889648],[79.72528076200001,39.028320312],[79.71868896500001,38.990722656],[79.709472656,38.962280273],[79.69787597700001,38.926330566],[79.63592529300001,38.889709473],[79.59332275400001,38.880126953],[79.52990722700001,38.873291016],[79.47290039100001,38.868286133],[79.42407226600001,38.862304687],[79.370483398,38.856323242],[79.30389404300001,38.849121094],[79.25109863300001,38.839111328],[79.192687988,38.827270508],[79.16131591800001,38.78527832],[79.10711669900002,38.755126953],[79.086486816,38.73248291],[79.05047607400002,38.683288574],[79.027893066,38.656311035],[78.999694824,38.63671875],[78.96051025400001,38.61907959],[78.92590332,38.602294922],[78.879882812,38.579711914],[78.843505859,38.545898437],[78.80810546900001,38.521118164],[78.768920898,38.50012207],[78.73071289100001,38.478271484],[78.694702148,38.451904297],[78.651306152,38.424316406],[78.62231445300002,38.405090332],[78.586120605,38.386291504],[78.553710937,38.374084473],[78.511474609,38.344482422],[78.49871826200001,38.316101074],[78.50109863300001,38.28527832],[78.482116699,38.255310059],[78.436096191,38.221923828],[78.38989257800002,38.197509766],[78.35931396500001,38.175109863],[78.32507324200002,38.147521973],[78.28710937500001,38.120483398],[78.23388671900001,38.091125488],[78.19012451200001,38.067077637],[78.144287109,38.035522461],[78.10192871100001,38.004089355],[78.061889648,37.978088379],[78.02532959000001,37.959289551],[77.98449707,37.931091309],[77.95550537100002,37.899475098],[77.933288574,37.863891602],[77.917297363,37.838500977],[77.89288330100001,37.788085937],[77.87512207,37.760681152],[77.84692382800002,37.73248291],[77.83209228500002,37.696716309],[77.82373046900001,37.664916992],[77.788879395,37.630310059],[77.74609375000001,37.598083496],[77.72088623,37.575317383],[77.69488525400001,37.555480957],[77.66589355500001,37.520324707],[77.659912109,37.485107422],[77.65667724600002,37.452880859],[77.63830566400001,37.419128418],[77.60351562500001,37.391723633],[77.55767822300001,37.373474121],[77.52288818400001,37.348876953],[77.50787353500002,37.314880371],[77.51312255900001,37.276916504],[77.52929687500001,37.238708496],[77.538085937,37.207519531],[77.54748535200001,37.158508301],[77.542724609,37.113708496],[77.54010009800001,37.06829834],[77.54907226600001,37.036499023],[77.570129395,37.007873535],[77.568908691,36.971496582],[77.545471191,36.93548584],[77.53088378900001,36.900695801],[77.53271484400001,36.873901367],[77.542724609,36.84588623],[77.550476074,36.819091797],[77.54791259800001,36.781677246],[77.56048584000001,36.743530273],[77.58349609400001,36.71887207],[77.62268066400001,36.704711914],[77.65631103500002,36.668518066],[77.64251709000001,36.639282227],[77.601318359,36.61730957],[77.54791259800001,36.591491699],[77.48449707,36.567687988],[77.44952392600001,36.553283691],[77.41467285200001,36.540283203],[77.40771484400001,36.51348877],[77.44488525400001,36.497497559],[77.49609375000001,36.492675781],[77.53051757800002,36.486877441],[77.57568359400001,36.457885742],[77.58551025400001,36.416687012],[77.60070800800001,36.390686035],[77.62951660200001,36.355529785],[77.66467285200001,36.327880859],[77.703125,36.30871582],[77.734130859,36.297485352],[77.775878906,36.296081543],[77.81390380900001,36.298278809],[77.85491943400001,36.27947998],[77.875915527,36.251525879],[77.88989257800002,36.216674805],[77.874694824,36.188476562],[77.84387207,36.157470703],[77.80932617200001,36.133728027],[77.77728271500001,36.120117187],[77.75427246100001,36.095275879],[77.75012207,36.067077637],[77.79632568400001,36.045898437],[77.83990478500002,36.02331543],[77.88049316400001,36.002685547],[77.885681152,35.964294434],[77.877929687,35.9296875],[77.87231445300002,35.897277832],[77.88812255900001,35.870117187],[77.908691406,35.834899902],[77.90728759800001,35.795471191],[77.88787841800001,35.767089844],[77.88067627,35.727478027],[77.87408447300001,35.678283691],[77.87030029300001,35.645507812],[77.85430908200001,35.621276855],[77.83508300800001,35.596313477],[77.81787109400001,35.560302734],[77.81488037100002,35.518920898],[77.819274902,35.51550293],[77.827514648,35.508300781],[77.834106445,35.502075195],[77.834899902,35.501281738],[77.84332275400001,35.497314453],[77.85430908200001,35.488525391],[77.86132812500001,35.496887207],[77.868103027,35.496520996],[77.87329101600001,35.491882324],[77.884521484,35.478881836],[77.89068603500002,35.473510742],[77.89648437500001,35.469116211],[77.90509033200001,35.465515137],[77.91290283200001,35.465881348],[77.916503906,35.475708008],[77.91528320300002,35.492126465],[77.918884277,35.494873047],[77.92449951200001,35.493713379],[77.95147705100001,35.508728027],[77.95629882800002,35.518493652],[77.950927734,35.543701172],[77.950927734,35.555480957],[77.95471191400001,35.562927246],[77.95611572300001,35.565673828],[77.96051025400001,35.570678711],[77.96789550800001,35.575927734],[77.98010253900001,35.581298828],[78.00030517600001,35.586303711],[78.02929687500001,35.585876465],[78.04650878900001,35.58190918],[78.059875488,35.576477051],[78.08471679700001,35.561889648],[78.09008789100001,35.559692383],[78.10607910200001,35.55267334],[78.12689209000001,35.55090332],[78.13671875000001,35.552490234],[78.14709472700001,35.560913086],[78.15411377,35.579101562],[78.15350341800001,35.582885742],[78.167724609,35.631286621],[78.16809082,35.63269043],[78.170471191,35.63848877],[78.18670654300001,35.660888672],[78.196289062,35.665710449],[78.21490478500002,35.667297363],[78.21887207,35.670288086],[78.245117187,35.680114746],[78.28967285200001,35.700073242],[78.309875488,35.709289551],[78.33807373,35.720275879],[78.377502441,35.741271973],[78.384094238,35.742675781],[78.41510009800001,35.758300781],[78.42272949200002,35.76348877],[78.424316406,35.764709473],[78.43048095700001,35.772277832],[78.43908691400001,35.777099609],[78.45971679700001,35.783874512],[78.480285645,35.784484863],[78.51550293000001,35.792114258],[78.54608154300001,35.805725098],[78.55810546900001,35.809692383],[78.561523437,35.811523437],[78.61328125000001,35.839904785],[78.64489746100001,35.861694336],[78.66333007800002,35.88092041],[78.67327880900001,35.896118164],[78.695129395,35.915527344],[78.704101562,35.919311523],[78.77807617200001,35.936706543],[78.79992675800001,35.944091797],[78.81170654300001,35.9453125],[78.82769775400001,35.946716309],[78.841918945,35.945922852],[78.85748291000002,35.94152832],[78.88128662100002,35.930114746],[78.88391113300001,35.926879883],[78.94592285200001,35.913879395],[78.95788574200002,35.914306641],[78.96368408200001,35.914489746],[79.01452636700002,35.923278809],[79.06408691400001,35.93548584],[79.07147216800001,35.93548584],[79.10852050800001,35.943115234],[79.11047363300001,35.943481445],[79.16607666000002,35.9453125],[79.184875488,35.943115234],[79.22308349600002,35.933288574],[79.23931884800001,35.931091309],[79.245117187,35.933105469],[79.25390625000001,35.938903809],[79.25671386700002,35.94152832],[79.270080566,35.953674316],[79.277893066,35.970275879],[79.28472900400001,35.978088379],[79.29571533200001,35.984680176],[79.32427978500002,35.985290527],[79.34692382800002,35.983520508],[79.36712646500001,35.979125977],[79.38250732400002,35.978881836],[79.39050293000001,35.97869873],[79.41467285200001,35.98449707],[79.424316406,35.981689453],[79.43029785200001,35.975891113],[79.43969726600001,35.944274902],[79.444702148,35.903930664],[79.442687988,35.895690918],[79.44329834000001,35.893920898],[79.44488525400001,35.887878418],[79.45452880900001,35.876708984],[79.46447753900001,35.872314453],[79.47491455100001,35.870483398],[79.487304687,35.871704102],[79.496276855,35.877502441],[79.51251220700001,35.883911133],[79.52148437500001,35.884277344],[79.52947998,35.88269043],[79.55871582,35.860900879],[79.56488037100002,35.854675293],[79.568115234,35.851074219],[79.613098145,35.814086914],[79.636474609,35.786499023],[79.64489746100001,35.770507812],[79.65112304700001,35.752502441],[79.65447998,35.743103027],[79.66247558600001,35.70489502],[79.66949462900001,35.689880371],[79.67608642600001,35.683288574],[79.68249511700002,35.672485352],[79.70892334000001,35.658874512],[79.727478027,35.65612793],[79.74432373,35.653686523],[79.783691406,35.651489258],[79.79132080100001,35.647521973],[79.80291748,35.638305664],[79.813476562,35.622680664],[79.817321777,35.608276367],[79.826721191,35.594116211],[79.835327148,35.587280273],[79.836486816,35.587097168],[79.853271484,35.580871582],[79.86828613300001,35.581726074],[79.91229248,35.594726562],[79.92028808600001,35.59588623],[79.92730712900001,35.594482422],[79.93627929700001,35.58770752],[79.94708252,35.571472168],[79.954101562,35.556518555],[79.95507812500001,35.553283691],[79.96472168000001,35.525512695],[79.96569824200002,35.516723633],[79.97271728500002,35.506713867],[79.98870849600002,35.468688965],[80.00012207,35.450927734],[80.009521484,35.436096191],[80.01629638700001,35.425476074],[80.02069091800001,35.420715332],[80.03588867200001,35.410705566],[80.04852294900002,35.410522461],[80.10552978500002,35.424499512],[80.12231445300002,35.432678223],[80.12652587900001,35.442687988],[80.12689209000001,35.449279785],[80.128295898,35.467102051],[80.13287353500002,35.477905273],[80.17388916000002,35.494689941],[80.17932128900001,35.49810791],[80.18151855500001,35.502929687],[80.18249511700002,35.530883789],[80.18469238300001,35.533874512],[80.18548584000001,35.542297363],[80.18707275400001,35.545898437],[80.19110107400002,35.549499512],[80.19873046900001,35.556274414],[80.22448730500001,35.54510498],[80.24169921900001,35.541320801],[80.26910400400001,35.530700684],[80.28271484400001,35.522277832],[80.31408691400001,35.496704102],[80.31671142600001,35.493896484],[80.332519531,35.47668457],[80.34008789100001,35.46472168],[80.343078613,35.454284668],[80.34332275400001,35.440307617],[80.336914062,35.423522949],[80.32849121100001,35.407287598],[80.307922363,35.381103516],[80.29650878900001,35.366699219],[80.28228759800001,35.341491699],[80.347473145,35.37487793],[80.421875,35.415283203],[80.46752929700001,35.435913086],[80.51251220700001,35.456481934],[80.56091308600001,35.419128418],[80.62890625000001,35.394714355],[80.72528076200001,35.348510742],[80.83587646500001,35.349121094],[80.91351318400001,35.299072266],[80.986877441,35.290710449],[81.043884277,35.315307617],[81.05090332,35.386291504],[81.226318359,35.354675293],[81.22070312500001,35.335876465],[81.36791992200001,35.351074219],[81.47448730500001,35.312316895],[81.486877441,35.304077148],[81.57531738300001,35.245300293],[81.65771484400001,35.245910645],[81.73712158200001,35.251525879],[81.859924316,35.281677246],[81.99090576200001,35.34552002],[81.99230957,35.346130371],[82.05847168000001,35.438476562],[82.151306152,35.493896484],[82.22528076200001,35.517883301],[82.26171875000001,35.542724609],[82.30352783200001,35.578918457],[82.29028320300002,35.650512695],[82.41632080100001,35.708312988],[82.562316895,35.679321289],[82.59887695300002,35.671691895],[82.72650146500001,35.630310059],[82.79949951200001,35.701477051],[82.84930419900002,35.699523926],[82.88751220700001,35.684082031],[82.90228271500001,35.678283691],[82.93627929700001,35.645324707],[82.93029785200001,35.576904297],[82.93988037100002,35.481506348],[83.02307128900001,35.429870605],[83.05688476600001,35.39050293],[83.24450683600001,35.392089844],[83.325927734,35.401489258],[83.38507080100001,35.37487793],[83.47052002,35.399719238],[83.50970459000001,35.356872559],[83.596679687,35.353515625],[83.68029785200001,35.356689453],[83.74029541000002,35.357727051],[83.885681152,35.377319336],[83.89630127,35.396484375],[83.98931884800001,35.412475586],[84.05548095700001,35.387878418],[84.10192871100001,35.360290527],[84.24487304700001,35.413879395],[84.35308837900001,35.450317383],[84.508728027,35.490905762],[84.48107910200001,35.539123535],[84.56750488300001,35.578918457],[84.74670410200001,35.591125488],[84.88128662100002,35.653076172],[84.96508789100001,35.667480469],[84.97467041000002,35.673278809]]]]}}
