{"type":"Feature","id":"bulk-99377448B4761107949113","bbox":[109.51849365200002,19.572509766,109.88592529300001,20.006530762],"properties":{"id":"bulk-99377448B4761107949113","name":"Lingao County","nameEn":"Lingao County","fullName":"Lingao County","level":"city","boundaryRole":"administrative-extent","boundaryQuality":"generalized-source-2020","boundaryYearRepresented":"2020","bounds":[[109.51849365200002,19.572509766],[109.88592529300001,20.006530762]],"center":[109.70220947250002,19.789520264],"centerMethod":"bounding-box midpoint; camera framing only","license":"CC-BY-3.0-IGO","attribution":"geoBoundaries / HDX, China administrative boundaries (2020)","source":{"provider":"geoBoundaries gbHumanitarian / HDX","url":"https://github.com/wmgeolab/geoBoundaries/raw/9469f09/releaseData/gbHumanitarian/CHN/ADM2/geoBoundaries-CHN-ADM2.geojson","metadataUrl":"https://www.geoboundaries.org/api/current/gbHumanitarian/CHN/ADM2/","shapeID":"99377448B4761107949113","shapeName":"Lingao County","boundaryID":"CHN-ADM2-99377448","commit":"9469f09"},"geometryCounts":{"coordinates":1412,"components":1,"holes":0},"boundaryNotice":"geoBoundaries / HDX 2020 年行政区数据，海岸和边界经过源数据概化，并非当前测绘成果。"},"geometry":{"type":"Polygon","coordinates":[[[109.84967041000002,19.937683105],[109.84967041000002,19.9375],[109.85070800800001,19.9375],[109.85070800800001,19.937072754],[109.85272216800001,19.937072754],[109.85272216800001,19.936889648],[109.85327148400002,19.936889648],[109.85327148400002,19.936523437],[109.85412597700001,19.936523437],[109.85412597700001,19.936279297],[109.85589599600002,19.936279297],[109.85632324200002,19.936279297],[109.85632324200002,19.936523437],[109.85650634800001,19.936523437],[109.85650634800001,19.936889648],[109.85791015600002,19.936889648],[109.85791015600002,19.936523437],[109.85931396500001,19.936523437],[109.85931396500001,19.936096191],[109.85968017600001,19.936096191],[109.85968017600001,19.934875488],[109.85992431600002,19.934875488],[109.85992431600002,19.934326172],[109.85913085900002,19.934326172],[109.85913085900002,19.934082031],[109.85827636700002,19.934082031],[109.85827636700002,19.933898926],[109.85748291000002,19.933898926],[109.85748291000002,19.93347168],[109.85711669900002,19.93347168],[109.85711669900002,19.932922363],[109.85687255900001,19.932922363],[109.85687255900001,19.932678223],[109.85650634800001,19.932678223],[109.85650634800001,19.932128906],[109.85632324200002,19.932128906],[109.85632324200002,19.931091309],[109.85571289100001,19.931091309],[109.85571289100001,19.930725098],[109.85491943400001,19.930725098],[109.85491943400001,19.931091309],[109.85131835900002,19.931091309],[109.85131835900002,19.930725098],[109.84991455100001,19.930725098],[109.84991455100001,19.930480957],[109.84570312500001,19.930480957],[109.84570312500001,19.930725098],[109.84552002,19.930725098],[109.84552002,19.930480957],[109.84289550800001,19.930480957],[109.84289550800001,19.930725098],[109.84210205100001,19.930725098],[109.84210205100001,19.931091309],[109.84167480500001,19.931091309],[109.84167480500001,19.931274414],[109.84088134800001,19.931274414],[109.84069824200002,19.931274414],[109.84069824200002,19.931518555],[109.84051513700001,19.931518555],[109.84051513700001,19.931884766],[109.84069824200002,19.931884766],[109.84069824200002,19.932495117],[109.84088134800001,19.932495117],[109.84088134800001,19.932922363],[109.84069824200002,19.932922363],[109.84069824200002,19.93347168],[109.84051513700001,19.93347168],[109.84051513700001,19.933288574],[109.84008789100001,19.933288574],[109.84008789100001,19.932922363],[109.83990478500002,19.932922363],[109.83990478500002,19.932678223],[109.83972168000001,19.932678223],[109.83972168000001,19.932495117],[109.83929443400001,19.932495117],[109.83929443400001,19.932128906],[109.83911132800002,19.932128906],[109.83911132800002,19.931884766],[109.83868408200001,19.931884766],[109.83868408200001,19.930725098],[109.83911132800002,19.930725098],[109.83911132800002,19.930480957],[109.83929443400001,19.930480957],[109.83929443400001,19.930114746],[109.83911132800002,19.930114746],[109.83911132800002,19.9296875],[109.83929443400001,19.9296875],[109.83929443400001,19.929504395],[109.83929443400001,19.929077148],[109.83972168000001,19.929077148],[109.83972168000001,19.928527832],[109.83990478500002,19.928527832],[109.83990478500002,19.928283691],[109.84008789100001,19.928283691],[109.84008789100001,19.92791748],[109.84051513700001,19.92791748],[109.84051513700001,19.927490234],[109.84069824200002,19.927490234],[109.84069824200002,19.927124023],[109.84069824200002,19.926513672],[109.84051513700001,19.926513672],[109.84051513700001,19.925720215],[109.84069824200002,19.925720215],[109.84069824200002,19.925476074],[109.84088134800001,19.925476074],[109.84088134800001,19.924682617],[109.84130859400001,19.924682617],[109.84130859400001,19.92388916],[109.84167480500001,19.92388916],[109.84167480500001,19.923278809],[109.84191894500002,19.923278809],[109.84191894500002,19.922729492],[109.84167480500001,19.922729492],[109.84167480500001,19.922119141],[109.84088134800001,19.922119141],[109.84088134800001,19.921875],[109.83868408200001,19.921875],[109.83868408200001,19.921508789],[109.83850097700001,19.921508789],[109.83850097700001,19.921325684],[109.83789062500001,19.921325684],[109.83789062500001,19.921081543],[109.83770752,19.921081543],[109.83770752,19.920715332],[109.83728027300002,19.920715332],[109.83728027300002,19.920471191],[109.83691406200002,19.920471191],[109.83691406200002,19.920288086],[109.83648681600002,19.920288086],[109.83648681600002,19.918518066],[109.83630371100001,19.918518066],[109.83630371100001,19.916870117],[109.83612060500002,19.916870117],[109.83612060500002,19.916320801],[109.83569335900002,19.916320801],[109.83569335900002,19.915710449],[109.83551025400001,19.915710449],[109.83551025400001,19.914672852],[109.83508300800001,19.914672852],[109.83508300800001,19.914306641],[109.83489990200002,19.914306641],[109.83489990200002,19.913879395],[109.83471679700001,19.913879395],[109.83471679700001,19.913330078],[109.83489990200002,19.913330078],[109.83489990200002,19.912902832],[109.83551025400001,19.912902832],[109.83551025400001,19.912719727],[109.83569335900002,19.912719727],[109.83569335900002,19.912109375],[109.83551025400001,19.912109375],[109.83551025400001,19.911315918],[109.83508300800001,19.911315918],[109.83508300800001,19.91027832],[109.83551025400001,19.91027832],[109.83551025400001,19.909912109],[109.83569335900002,19.909912109],[109.83569335900002,19.909301758],[109.83612060500002,19.909301758],[109.83612060500002,19.908874512],[109.83569335900002,19.908874512],[109.83569335900002,19.908325195],[109.83551025400001,19.908325195],[109.83551025400001,19.907714844],[109.83508300800001,19.907714844],[109.83508300800001,19.907287598],[109.83489990200002,19.907287598],[109.83489990200002,19.907104492],[109.83471679700001,19.907104492],[109.83471679700001,19.906677246],[109.83428955100001,19.906677246],[109.83428955100001,19.905883789],[109.83410644500002,19.905883789],[109.83410644500002,19.905700684],[109.83349609400001,19.905700684],[109.83349609400001,19.905517578],[109.83270263700001,19.905517578],[109.83227539100001,19.905517578],[109.83227539100001,19.905700684],[109.83190918000001,19.905700684],[109.83190918000001,19.905517578],[109.83148193400001,19.905517578],[109.83148193400001,19.905273437],[109.83129882800002,19.905273437],[109.83129882800002,19.904907227],[109.83111572300001,19.904907227],[109.83111572300001,19.904724121],[109.83068847700001,19.904724121],[109.83068847700001,19.904296875],[109.83050537100002,19.904296875],[109.83050537100002,19.903503418],[109.83068847700001,19.903503418],[109.83068847700001,19.902893066],[109.83111572300001,19.902893066],[109.83111572300001,19.902709961],[109.83129882800002,19.902709961],[109.83129882800002,19.902282715],[109.83190918000001,19.902282715],[109.83190918000001,19.902099609],[109.83209228500002,19.902099609],[109.83209228500002,19.901489258],[109.83227539100001,19.901489258],[109.83227539100001,19.900878906],[109.83068847700001,19.900878906],[109.83068847700001,19.901306152],[109.83007812500001,19.901306152],[109.83007812500001,19.901916504],[109.82989502,19.901916504],[109.82989502,19.904296875],[109.82971191400001,19.904296875],[109.82971191400001,19.904724121],[109.82928466800001,19.904724121],[109.82928466800001,19.905517578],[109.82971191400001,19.905517578],[109.82971191400001,19.905883789],[109.82989502,19.905883789],[109.82989502,19.906677246],[109.83007812500001,19.906677246],[109.83007812500001,19.907714844],[109.83050537100002,19.907714844],[109.83050537100002,19.907897949],[109.83050537100002,19.908874512],[109.83068847700001,19.908874512],[109.83068847700001,19.909301758],[109.83111572300001,19.909301758],[109.83111572300001,19.91027832],[109.83129882800002,19.91027832],[109.83129882800002,19.910522461],[109.83148193400001,19.910522461],[109.83148193400001,19.910705566],[109.83190918000001,19.910705566],[109.83190918000001,19.910888672],[109.83209228500002,19.910888672],[109.83209228500002,19.913879395],[109.83227539100001,19.913879395],[109.83227539100001,19.914123535],[109.83270263700001,19.914123535],[109.83270263700001,19.914306641],[109.83288574200002,19.914306641],[109.83288574200002,19.914672852],[109.83331298800002,19.914672852],[109.83331298800002,19.915283203],[109.83349609400001,19.915283203],[109.83349609400001,19.915527344],[109.83367919900002,19.915527344],[109.83367919900002,19.916320801],[109.83410644500002,19.916320801],[109.83410644500002,19.917114258],[109.83428955100001,19.917114258],[109.83428955100001,19.917907715],[109.83471679700001,19.917907715],[109.83471679700001,19.919128418],[109.83489990200002,19.919128418],[109.83489990200002,19.920288086],[109.83508300800001,19.920288086],[109.83508300800001,19.920715332],[109.83551025400001,19.920715332],[109.83551025400001,19.921081543],[109.83569335900002,19.921081543],[109.83569335900002,19.921325684],[109.83630371100001,19.921325684],[109.83630371100001,19.921508789],[109.83648681600002,19.921508789],[109.83648681600002,19.921875],[109.83691406200002,19.921875],[109.83691406200002,19.922119141],[109.83770752,19.922119141],[109.83770752,19.922912598],[109.83789062500001,19.922912598],[109.83789062500001,19.923278809],[109.83728027300002,19.923278809],[109.83728027300002,19.923522949],[109.83709716800001,19.923522949],[109.83709716800001,19.92388916],[109.83691406200002,19.92388916],[109.83691406200002,19.924316406],[109.83648681600002,19.924316406],[109.83648681600002,19.925292969],[109.83691406200002,19.925292969],[109.83691406200002,19.925476074],[109.83709716800001,19.925476074],[109.83709716800001,19.926330566],[109.83691406200002,19.926330566],[109.83691406200002,19.926513672],[109.83648681600002,19.926513672],[109.83648681600002,19.926330566],[109.83630371100001,19.926330566],[109.83630371100001,19.926513672],[109.83612060500002,19.926513672],[109.83612060500002,19.926879883],[109.83569335900002,19.926879883],[109.83569335900002,19.927124023],[109.83551025400001,19.927124023],[109.83551025400001,19.928283691],[109.83569335900002,19.928283691],[109.83569335900002,19.928527832],[109.83612060500002,19.928527832],[109.83612060500002,19.929321289],[109.83630371100001,19.929321289],[109.83630371100001,19.929870605],[109.83648681600002,19.929870605],[109.83648681600002,19.931091309],[109.83691406200002,19.931091309],[109.83691406200002,19.931884766],[109.83709716800001,19.931884766],[109.83709716800001,19.933898926],[109.83728027300002,19.933898926],[109.83728027300002,19.934082031],[109.83770752,19.934082031],[109.83770752,19.934326172],[109.83789062500001,19.934326172],[109.83789062500001,19.935119629],[109.83770752,19.935119629],[109.83770752,19.936523437],[109.83831787100002,19.936523437],[109.83831787100002,19.937072754],[109.83789062500001,19.937072754],[109.83789062500001,19.937927246],[109.83770752,19.937927246],[109.83770752,19.938293457],[109.83789062500001,19.938293457],[109.83789062500001,19.938903809],[109.83831787100002,19.938903809],[109.83831787100002,19.939086914],[109.83972168000001,19.939086914],[109.83972168000001,19.93927002],[109.84008789100001,19.93927002],[109.84008789100001,19.939697266],[109.84051513700001,19.939697266],[109.84051513700001,19.939880371],[109.84210205100001,19.939880371],[109.84210205100001,19.940124512],[109.84368896500001,19.940124512],[109.84368896500001,19.940490723],[109.84387207000002,19.940490723],[109.84588623000002,19.944091797],[109.84527587900001,19.946289062],[109.84472656200002,19.946289062],[109.84472656200002,19.946472168],[109.84429931600002,19.946472168],[109.84429931600002,19.946899414],[109.84411621100001,19.946899414],[109.84411621100001,19.94708252],[109.84289550800001,19.94708252],[109.84289550800001,19.947509766],[109.84191894500002,19.947509766],[109.84191894500002,19.947692871],[109.84167480500001,19.947692871],[109.84167480500001,19.948303223],[109.84130859400001,19.948303223],[109.84130859400001,19.948486328],[109.84088134800001,19.948486328],[109.84088134800001,19.948730469],[109.84069824200002,19.948730469],[109.84069824200002,19.94909668],[109.84051513700001,19.94909668],[109.84051513700001,19.949279785],[109.84008789100001,19.949279785],[109.84008789100001,19.949707031],[109.83990478500002,19.949707031],[109.83990478500002,19.949890137],[109.83728027300002,19.951477051],[109.83691406200002,19.960083008],[109.83392334000001,19.964111328],[109.83587646500001,19.972900391],[109.83471679700001,19.976318359],[109.83148193400001,19.979919434],[109.82611084000001,19.979675293],[109.82147216800001,19.983276367],[109.82110595700001,19.983276367],[109.82110595700001,19.983520508],[109.82049560500002,19.983520508],[109.82049560500002,19.983886719],[109.820129395,19.983886719],[109.820129395,19.98449707],[109.81628418000001,19.987487793],[109.81512451200001,19.987670898],[109.81512451200001,19.986877441],[109.81488037100002,19.986877441],[109.81488037100002,19.98651123],[109.81347656200002,19.98651123],[109.81347656200002,19.986083984],[109.81329345700001,19.986083984],[109.81329345700001,19.985473633],[109.8125,19.985473633],[109.8125,19.984924316],[109.81207275400001,19.984924316],[109.81207275400001,19.984680176],[109.81207275400001,19.984313965],[109.8125,19.984313965],[109.8125,19.984130859],[109.81268310500002,19.984130859],[109.81268310500002,19.983886719],[109.81292724600002,19.983886719],[109.81292724600002,19.983276367],[109.81329345700001,19.983276367],[109.81329345700001,19.982727051],[109.81347656200002,19.982727051],[109.81347656200002,19.98248291],[109.81390380900001,19.98248291],[109.81390380900001,19.982116699],[109.81408691400001,19.982116699],[109.81408691400001,19.981323242],[109.81427002,19.981323242],[109.81427002,19.980285645],[109.81469726600001,19.980285645],[109.81469726600001,19.979919434],[109.81488037100002,19.979919434],[109.81488037100002,19.979675293],[109.81512451200001,19.979675293],[109.81512451200001,19.979309082],[109.81549072300001,19.979309082],[109.81549072300001,19.977905273],[109.81567382800002,19.977905273],[109.81567382800002,19.977722168],[109.81610107400002,19.977722168],[109.81610107400002,19.977478027],[109.81652832000002,19.977478027],[109.81652832000002,19.977111816],[109.81671142600001,19.977111816],[109.81787109400001,19.977111816],[109.81787109400001,19.976928711],[109.81768798800002,19.976928711],[109.81768798800002,19.976318359],[109.81750488300001,19.976318359],[109.81750488300001,19.97467041],[109.81768798800002,19.97467041],[109.81768798800002,19.974304199],[109.81787109400001,19.974304199],[109.81787109400001,19.973327637],[109.81768798800002,19.973327637],[109.81768798800002,19.972717285],[109.81732177700002,19.967895508],[109.81750488300001,19.967712402],[109.81768798800002,19.967712402],[109.81768798800002,19.966918945],[109.81750488300001,19.966918945],[109.81732177700002,19.966674805],[109.81707763700001,19.962280273],[109.81707763700001,19.961486816],[109.81787109400001,19.961486816],[109.81787109400001,19.959899902],[109.81768798800002,19.959899902],[109.81768798800002,19.959716797],[109.81787109400001,19.959716797],[109.81787109400001,19.959289551],[109.81829834000001,19.959289551],[109.81829834000001,19.959106445],[109.81848144500002,19.959106445],[109.81848144500002,19.958496094],[109.81872558600001,19.958496094],[109.81872558600001,19.957885742],[109.81909179700001,19.957885742],[109.81909179700001,19.957275391],[109.81927490200002,19.957275391],[109.81927490200002,19.956115723],[109.81970214800002,19.956115723],[109.81970214800002,19.955688477],[109.81988525400001,19.955688477],[109.81988525400001,19.955505371],[109.820129395,19.955505371],[109.820129395,19.955078125],[109.82049560500002,19.955078125],[109.82049560500002,19.955505371],[109.82067871100001,19.955505371],[109.82067871100001,19.955688477],[109.82189941400001,19.955688477],[109.82189941400001,19.955078125],[109.82208252,19.955078125],[109.82208252,19.95489502],[109.82250976600001,19.95489502],[109.82250976600001,19.954284668],[109.82208252,19.954284668],[109.82208252,19.954101562],[109.82232666000002,19.954101562],[109.82250976600001,19.954101562],[109.82250976600001,19.953491211],[109.82250976600001,19.952697754],[109.82208252,19.952697754],[109.82208252,19.952270508],[109.82189941400001,19.952270508],[109.82189941400001,19.951293945],[109.82147216800001,19.951293945],[109.82147216800001,19.95111084],[109.82110595700001,19.95111084],[109.82110595700001,19.950073242],[109.82067871100001,19.950073242],[109.82067871100001,19.949707031],[109.82049560500002,19.949707031],[109.82049560500002,19.94909668],[109.81988525400001,19.94909668],[109.81988525400001,19.948730469],[109.81927490200002,19.948730469],[109.81927490200002,19.947692871],[109.81970214800002,19.947692871],[109.81970214800002,19.946472168],[109.81927490200002,19.946472168],[109.81927490200002,19.946105957],[109.81909179700001,19.946105957],[109.81909179700001,19.944091797],[109.81848144500002,19.944091797],[109.81848144500002,19.943725586],[109.81707763700001,19.943725586],[109.81707763700001,19.943481445],[109.81610107400002,19.943481445],[109.81610107400002,19.94329834],[109.81567382800002,19.94329834],[109.81567382800002,19.942871094],[109.81549072300001,19.942871094],[109.81549072300001,19.942687988],[109.81512451200001,19.942687988],[109.81512451200001,19.942504883],[109.81488037100002,19.942504883],[109.81488037100002,19.941894531],[109.81469726600001,19.941894531],[109.81469726600001,19.94152832],[109.81408691400001,19.94152832],[109.81408691400001,19.94128418],[109.81347656200002,19.94128418],[109.81347656200002,19.941101074],[109.81329345700001,19.941101074],[109.81329345700001,19.940673828],[109.81292724600002,19.940673828],[109.81292724600002,19.940490723],[109.81152343700002,19.940490723],[109.81152343700002,19.940124512],[109.81072998000002,19.940124512],[109.81072998000002,19.939880371],[109.80847168000001,19.939880371],[109.80847168000001,19.939697266],[109.80828857400002,19.939697266],[109.80828857400002,19.938476562],[109.80792236300002,19.938476562],[109.80792236300002,19.9375],[109.80792236300002,19.937072754],[109.80767822300001,19.937072754],[109.80767822300001,19.936279297],[109.80749511700002,19.936279297],[109.80749511700002,19.936096191],[109.80712890600002,19.936096191],[109.80712890600002,19.935119629],[109.80651855500001,19.935119629],[109.80651855500001,19.934875488],[109.80627441400001,19.934875488],[109.80627441400001,19.935119629],[109.80609130900001,19.935119629],[109.80609130900001,19.936096191],[109.80627441400001,19.936096191],[109.80627441400001,19.936279297],[109.80609130900001,19.936279297],[109.80609130900001,19.936889648],[109.80572509800001,19.936889648],[109.80572509800001,19.937072754],[109.80548095700001,19.937072754],[109.80548095700001,19.9375],[109.80487060500002,19.9375],[109.80487060500002,19.937683105],[109.80432128900001,19.937683105],[109.80432128900001,19.938293457],[109.80407714800002,19.938293457],[109.80407714800002,19.938903809],[109.80432128900001,19.938903809],[109.80432128900001,19.93927002],[109.80407714800002,19.93927002],[109.80407714800002,19.940124512],[109.80389404300001,19.940124512],[109.80389404300001,19.941101074],[109.80407714800002,19.941101074],[109.80407714800002,19.94152832],[109.80432128900001,19.94152832],[109.80432128900001,19.941894531],[109.80468750000001,19.941894531],[109.80468750000001,19.942504883],[109.80487060500002,19.942504883],[109.80487060500002,19.942871094],[109.80511474600002,19.942871094],[109.80511474600002,19.943481445],[109.80548095700001,19.943481445],[109.80548095700001,19.944274902],[109.80468750000001,19.944274902],[109.80468750000001,19.944702148],[109.80389404300001,19.944702148],[109.80389404300001,19.944885254],[109.80352783200001,19.944885254],[109.80352783200001,19.945129395],[109.80291748000002,19.945129395],[109.80291748000002,19.946105957],[109.80328369100002,19.946105957],[109.80328369100002,19.946472168],[109.80352783200001,19.946472168],[109.80352783200001,19.946716309],[109.80267334000001,19.94732666],[109.80090332000002,19.948913574],[109.796691895,19.955505371],[109.79748535200001,19.960510254],[109.80328369100002,19.962280273],[109.80352783200001,19.962280273],[109.80371093700002,19.962524414],[109.80328369100002,19.963684082],[109.80328369100002,19.964111328],[109.80267334000001,19.964111328],[109.80267334000001,19.96472168],[109.80072021500001,19.964904785],[109.80072021500001,19.96472168],[109.80047607400002,19.96472168],[109.80047607400002,19.964294434],[109.79992675800001,19.964294434],[109.79992675800001,19.964111328],[109.79931640600002,19.964111328],[109.79931640600002,19.964294434],[109.79431152300002,19.964294434],[109.79431152300002,19.96472168],[109.79412841800001,19.96472168],[109.79412841800001,19.964904785],[109.79327392600001,19.964904785],[109.78771972700001,19.965087891],[109.78771972700001,19.96472168],[109.78747558600001,19.96472168],[109.78747558600001,19.964294434],[109.78692627,19.964294434],[109.78692627,19.964111328],[109.78588867200001,19.964111328],[109.78588867200001,19.964904785],[109.78631591800001,19.964904785],[109.78631591800001,19.965087891],[109.78387451200001,19.965087891],[109.78387451200001,19.964904785],[109.78228759800001,19.964904785],[109.78228759800001,19.96472168],[109.78112793000001,19.96472168],[109.78112793000001,19.964904785],[109.77990722700001,19.964904785],[109.77990722700001,19.96472168],[109.77972412100002,19.96472168],[109.77972412100002,19.964294434],[109.77929687500001,19.964294434],[109.77929687500001,19.964111328],[109.77911377,19.964111328],[109.77911377,19.963928223],[109.77911377,19.963684082],[109.77868652300002,19.963684082],[109.77868652300002,19.963500977],[109.77709960900002,19.963500977],[109.77709960900002,19.963317871],[109.77630615200002,19.963317871],[109.77630615200002,19.962890625],[109.77490234400001,19.962890625],[109.77490234400001,19.963317871],[109.77331543000001,19.963317871],[109.77331543000001,19.962890625],[109.77227783200001,19.96307373],[109.77227783200001,19.96270752],[109.77148437500001,19.96270752],[109.77148437500001,19.963500977],[109.77130127,19.963500977],[109.77130127,19.962890625],[109.77069091800001,19.96307373],[109.77069091800001,19.962280273],[109.77008056600002,19.962280273],[109.77008056600002,19.96270752],[109.76928710900002,19.96270752],[109.76928710900002,19.963317871],[109.76867675800001,19.963317871],[109.76867675800001,19.963500977],[109.76831054700001,19.963500977],[109.76831054700001,19.963684082],[109.76727294900002,19.963684082],[109.76727294900002,19.963500977],[109.76550293000001,19.963500977],[109.76550293000001,19.963684082],[109.76489257800002,19.963684082],[109.76489257800002,19.964111328],[109.76428222700001,19.964111328],[109.76428222700001,19.964294434],[109.76367187500001,19.964294434],[109.76367187500001,19.964477539],[109.76367187500001,19.96472168],[109.76348877,19.96472168],[109.76348877,19.964904785],[109.76129150400001,19.964904785],[109.76129150400001,19.965087891],[109.75927734400001,19.965087891],[109.75927734400001,19.965515137],[109.75872802700002,19.965515137],[109.75872802700002,19.965698242],[109.75830078100002,19.965698242],[109.75830078100002,19.965881348],[109.75787353500002,19.965881348],[109.75787353500002,19.966674805],[109.75769043000001,19.966674805],[109.75769043000001,19.966918945],[109.75750732400002,19.966918945],[109.75750732400002,19.967285156],[109.75708007800002,19.967285156],[109.75708007800002,19.967712402],[109.75689697300001,19.967712402],[109.75689697300001,19.967895508],[109.75653076200001,19.967895508],[109.75653076200001,19.968322754],[109.75628662100002,19.968322754],[109.75628662100002,19.968505859],[109.75549316400001,19.968505859],[109.75549316400001,19.968688965],[109.75488281200002,19.968688965],[109.75488281200002,19.969116211],[109.75469970700001,19.969116211],[109.75469970700001,19.969299316],[109.75427246100001,19.969299316],[109.75427246100001,19.969726562],[109.75408935500002,19.969726562],[109.75408935500002,19.969909668],[109.75347900400001,19.969909668],[109.75347900400001,19.970275879],[109.75292968700002,19.970275879],[109.75292968700002,19.97052002],[109.75268554700001,19.97052002],[109.75268554700001,19.97088623],[109.75250244100002,19.97088623],[109.75250244100002,19.971313477],[109.75207519500002,19.971313477],[109.75207519500002,19.971679687],[109.75189209000001,19.971679687],[109.75189209000001,19.972106934],[109.75128173800002,19.972106934],[109.75128173800002,19.972473145],[109.75067138700001,19.972473145],[109.75067138700001,19.972717285],[109.75012207000002,19.972717285],[109.75012207000002,19.972900391],[109.74987793000001,19.972900391],[109.74987793000001,19.973327637],[109.74969482400002,19.973327637],[109.74969482400002,19.973510742],[109.74932861300002,19.973510742],[109.74932861300002,19.974121094],[109.74908447300001,19.974121094],[109.74908447300001,19.974304199],[109.74871826200001,19.974304199],[109.74871826200001,19.974487305],[109.74871826200001,19.97467041],[109.74829101600001,19.97467041],[109.74829101600001,19.974914551],[109.74768066400001,19.974914551],[109.74768066400001,19.975280762],[109.74707031200002,19.975280762],[109.74707031200002,19.975524902],[109.74652099600002,19.975524902],[109.74652099600002,19.975708008],[109.74627685500002,19.975708008],[109.74627685500002,19.976318359],[109.74609375000001,19.976318359],[109.74609375000001,19.976928711],[109.74572753900001,19.976928711],[109.74572753900001,19.977478027],[109.74468994100002,19.978515625],[109.74432373000002,19.978881836],[109.74407959000001,19.978881836],[109.74407959000001,19.979125977],[109.74389648400002,19.979125977],[109.74371337900001,19.979309082],[109.74328613300001,19.979309082],[109.74328613300001,19.979919434],[109.74310302700002,19.979919434],[109.74267578100002,19.979919434],[109.74267578100002,19.980285645],[109.74249267600001,19.980285645],[109.74188232400002,19.980285645],[109.74188232400002,19.981079102],[109.74151611300002,19.981079102],[109.74151611300002,19.981323242],[109.74127197300001,19.981323242],[109.74127197300001,19.981506348],[109.74108886700002,19.981506348],[109.74108886700002,19.981872559],[109.74047851600001,19.98248291],[109.74011230500001,19.98248291],[109.74011230500001,19.982727051],[109.73992919900002,19.982727051],[109.73992919900002,19.982910156],[109.73748779300001,19.985290527],[109.73748779300001,19.985107422],[109.73712158200001,19.985290527],[109.73712158200001,19.984924316],[109.73687744100002,19.984924316],[109.73687744100002,19.985473633],[109.73651123000002,19.985473633],[109.73651123000002,19.985717773],[109.73632812500001,19.985717773],[109.73632812500001,19.986083984],[109.73608398400002,19.986083984],[109.73608398400002,19.986328125],[109.73571777300002,19.986328125],[109.73571777300002,19.98651123],[109.73547363300001,19.98651123],[109.73547363300001,19.986877441],[109.73510742200001,19.986877441],[109.73510742200001,19.987121582],[109.73492431600002,19.987121582],[109.73492431600002,19.987487793],[109.73468017600001,19.987487793],[109.73468017600001,19.987670898],[109.73431396500001,19.987670898],[109.73229980500001,19.987304687],[109.73107910200001,19.982910156],[109.73608398400002,19.967102051],[109.73449707000002,19.965515137],[109.73150634800001,19.968688965],[109.72827148400002,19.979125977],[109.72552490200002,19.982727051],[109.72692871100001,19.989318848],[109.730285645,19.990722656],[109.73107910200001,19.992492676],[109.73107910200001,19.992675781],[109.73071289100001,19.992675781],[109.73071289100001,19.993103027],[109.73071289100001,19.993286133],[109.73052978500002,19.993286133],[109.73052978500002,19.993530273],[109.730285645,19.993896484],[109.730285645,19.99407959],[109.72991943400001,19.99432373],[109.72991943400001,19.994506836],[109.72912597700001,19.995727539],[109.72729492200001,19.998718262],[109.72528076200001,20.00012207],[109.72271728500002,20.002075195],[109.71411132800002,20.002685547],[109.70349121100001,20.006530762],[109.70349121100001,20.006286621],[109.70111084000001,20.006286621],[109.70111084000001,20.006103516],[109.69830322300001,20.006103516],[109.69830322300001,20.00567627],[109.69787597700001,20.00567627],[109.69787597700001,20.005493164],[109.69708252,20.005493164],[109.69708252,20.00567627],[109.69647216800001,20.00567627],[109.69647216800001,20.005493164],[109.69628906200002,20.005493164],[109.69628906200002,20.00567627],[109.69549560500002,20.00567627],[109.69549560500002,20.005493164],[109.69470214800002,20.005493164],[109.69470214800002,20.005126953],[109.69348144500002,20.005126953],[109.69348144500002,20.004882812],[109.69268798800002,20.004882812],[109.69268798800002,20.004699707],[109.68988037100002,20.004699707],[109.68707275400001,20.004699707],[109.68707275400001,20.004882812],[109.68652343700002,20.004882812],[109.68652343700002,20.004699707],[109.68511962900001,20.004699707],[109.68511962900001,20.004272461],[109.68487548800002,20.004272461],[109.68487548800002,20.004699707],[109.68389892600001,20.004699707],[109.68389892600001,20.004272461],[109.68328857400002,20.004272461],[109.68328857400002,20.004699707],[109.67968750000001,20.004699707],[109.67968750000001,20.004882812],[109.67852783200001,20.004882812],[109.67852783200001,20.005126953],[109.67828369100002,20.005126953],[109.67828369100002,20.004882812],[109.67712402300002,20.004882812],[109.67712402300002,20.004699707],[109.67687988300001,20.004699707],[109.67687988300001,20.004882812],[109.67651367200001,20.004882812],[109.67651367200001,20.005126953],[109.67572021500001,20.005126953],[109.67572021500001,20.004882812],[109.67547607400002,20.004882812],[109.67327880900001,20.004882812],[109.67327880900001,20.004699707],[109.67211914100001,20.004699707],[109.67211914100001,20.004272461],[109.67089843700002,20.004272461],[109.67071533200001,20.004272461],[109.67071533200001,20.004089355],[109.67028808600001,20.004089355],[109.66290283200001,20.00012207],[109.64752197300001,19.991882324],[109.63690185500002,19.991088867],[109.63012695300002,19.990478516],[109.62030029300001,19.992675781],[109.61627197300001,19.992126465],[109.60571289100001,19.986877441],[109.59472656200002,19.985717773],[109.59448242200001,19.985717773],[109.59271240200002,19.985473633],[109.59191894500002,19.985473633],[109.59191894500002,19.985290527],[109.59008789100001,19.985290527],[109.59008789100001,19.984924316],[109.58972168000001,19.984924316],[109.58972168000001,19.984680176],[109.58929443400001,19.984680176],[109.58929443400001,19.984313965],[109.58911132800002,19.984313965],[109.58911132800002,19.984130859],[109.58789062500001,19.984130859],[109.58789062500001,19.983886719],[109.58728027300002,19.983886719],[109.58728027300002,19.983520508],[109.58709716800001,19.983520508],[109.58709716800001,19.983276367],[109.58630371100001,19.983276367],[109.58630371100001,19.982910156],[109.58508300800001,19.982910156],[109.58508300800001,19.982727051],[109.58471679700001,19.982727051],[109.58471679700001,19.98248291],[109.58428955100001,19.98248291],[109.58428955100001,19.982116699],[109.58410644500002,19.982116699],[109.58410644500002,19.981872559],[109.58367919900002,19.981872559],[109.58367919900002,19.981323242],[109.58349609400001,19.981323242],[109.58349609400001,19.981506348],[109.58288574200002,19.981506348],[109.58288574200002,19.981323242],[109.58209228500002,19.981323242],[109.58209228500002,19.981079102],[109.58129882800002,19.981079102],[109.58129882800002,19.980712891],[109.58111572300001,19.980712891],[109.58111572300001,19.980529785],[109.58068847700001,19.980529785],[109.58068847700001,19.980285645],[109.58050537100002,19.980285645],[109.58050537100002,19.979919434],[109.58007812500001,19.979919434],[109.58007812500001,19.979675293],[109.57952880900001,19.979675293],[109.57928466800001,19.979675293],[109.57928466800001,19.979492187],[109.57928466800001,19.979309082],[109.57849121100001,19.979309082],[109.57849121100001,19.978881836],[109.57830810500002,19.978881836],[109.57830810500002,19.978515625],[109.57788085900002,19.978515625],[109.57788085900002,19.978271484],[109.57751464800002,19.978271484],[109.57751464800002,19.977905273],[109.57708740200002,19.977905273],[109.57708740200002,19.977722168],[109.57690429700001,19.977722168],[109.57690429700001,19.977111816],[109.57647705100001,19.977111816],[109.57647705100001,19.976501465],[109.57629394500002,19.976501465],[109.57629394500002,19.976318359],[109.57611084000001,19.976318359],[109.57611084000001,19.975708008],[109.57568359400001,19.975708008],[109.57568359400001,19.975280762],[109.57550048800002,19.975280762],[109.57550048800002,19.974914551],[109.57507324200002,19.974914551],[109.57507324200002,19.97467041],[109.57489013700001,19.97467041],[109.57489013700001,19.974304199],[109.57470703100002,19.974304199],[109.57470703100002,19.974121094],[109.57427978500002,19.974121094],[109.57427978500002,19.973510742],[109.57409668000001,19.973510742],[109.57409668000001,19.973327637],[109.57391357400002,19.973327637],[109.57373046900001,19.973083496],[109.57373046900001,19.972900391],[109.57330322300001,19.971923828],[109.57330322300001,19.971313477],[109.57287597700001,19.971313477],[109.57287597700001,19.97088623],[109.57208252,19.969482422],[109.57208252,19.969116211],[109.57189941400001,19.96887207],[109.57189941400001,19.968322754],[109.57147216800001,19.968322754],[109.57147216800001,19.967712402],[109.57128906200002,19.967712402],[109.57128906200002,19.967285156],[109.57147216800001,19.967285156],[109.57147216800001,19.966918945],[109.57250976600001,19.966918945],[109.57250976600001,19.966674805],[109.57269287100002,19.966674805],[109.57269287100002,19.966918945],[109.57287597700001,19.966918945],[109.57287597700001,19.966308594],[109.57269287100002,19.966308594],[109.57269287100002,19.965881348],[109.57250976600001,19.965881348],[109.57250976600001,19.965698242],[109.57208252,19.965698242],[109.57208252,19.965515137],[109.57189941400001,19.965515137],[109.57189941400001,19.965087891],[109.57147216800001,19.965087891],[109.57147216800001,19.964904785],[109.57128906200002,19.964904785],[109.57128906200002,19.96472168],[109.57110595700001,19.96472168],[109.57110595700001,19.964294434],[109.57049560500002,19.964294434],[109.57049560500002,19.964111328],[109.570129395,19.964111328],[109.570129395,19.963684082],[109.56872558600001,19.963684082],[109.56872558600001,19.963500977],[109.56848144500002,19.963500977],[109.56848144500002,19.963317871],[109.56829834000001,19.963317871],[109.56829834000001,19.962890625],[109.56787109400001,19.96307373],[109.56787109400001,19.96270752],[109.56732177700002,19.96270752],[109.56707763700001,19.962524414],[109.56549072300001,19.962280273],[109.56512451200001,19.962097168],[109.56512451200001,19.961486816],[109.56488037100002,19.961486816],[109.56488037100002,19.961120605],[109.56469726600001,19.961120605],[109.56469726600001,19.960693359],[109.56427002,19.960693359],[109.56427002,19.960510254],[109.56390380900001,19.960510254],[109.56390380900001,19.960083008],[109.56347656200002,19.960083008],[109.56347656200002,19.959899902],[109.56329345700001,19.959899902],[109.56329345700001,19.959716797],[109.562316895,19.959716797],[109.56188964800002,19.959716797],[109.56188964800002,19.959899902],[109.56127929700001,19.959899902],[109.56127929700001,19.960083008],[109.56109619100002,19.960083008],[109.56091308600001,19.960510254],[109.56030273400002,19.958496094],[109.56048584000001,19.958496094],[109.56048584000001,19.957702637],[109.55987548800002,19.957702637],[109.55847168000001,19.953491211],[109.55572509800001,19.950927734],[109.55212402300002,19.950683594],[109.55212402300002,19.950073242],[109.55151367200001,19.950073242],[109.55151367200001,19.949890137],[109.55133056600002,19.949890137],[109.55133056600002,19.949707031],[109.54968261700002,19.949707031],[109.54968261700002,19.949279785],[109.54931640600002,19.949279785],[109.54931640600002,19.94909668],[109.54907226600001,19.94909668],[109.54907226600001,19.948730469],[109.54852294900002,19.948730469],[109.54852294900002,19.948486328],[109.54650878900001,19.948486328],[109.54650878900001,19.948730469],[109.54412841800001,19.948730469],[109.54412841800001,19.948486328],[109.54211425800001,19.948486328],[109.54211425800001,19.948303223],[109.53991699200002,19.948303223],[109.53991699200002,19.947875977],[109.53912353500002,19.947875977],[109.53912353500002,19.947692871],[109.53833007800002,19.947692871],[109.53833007800002,19.947509766],[109.53710937500001,19.947509766],[109.53491210900002,19.944091797],[109.53350830100001,19.938110352],[109.53350830100001,19.9375],[109.53332519500002,19.9375],[109.53271484400001,19.934509277],[109.53271484400001,19.933288574],[109.53350830100001,19.933288574],[109.53350830100001,19.932678223],[109.53387451200001,19.932678223],[109.53387451200001,19.932128906],[109.53430175800001,19.932128906],[109.53430175800001,19.931518555],[109.53448486300002,19.931518555],[109.53448486300002,19.931274414],[109.53491210900002,19.931274414],[109.53491210900002,19.931091309],[109.53527832000002,19.931091309],[109.53527832000002,19.930114746],[109.53491210900002,19.930114746],[109.53491210900002,19.929077148],[109.53472900400001,19.929077148],[109.53472900400001,19.928527832],[109.53430175800001,19.928527832],[109.53430175800001,19.92791748],[109.53411865200002,19.92791748],[109.53411865200002,19.92767334],[109.53387451200001,19.92767334],[109.53387451200001,19.927490234],[109.53350830100001,19.927490234],[109.53350830100001,19.927124023],[109.53131103500002,19.927124023],[109.53131103500002,19.926879883],[109.53112793000001,19.926879883],[109.53112793000001,19.926330566],[109.53088378900001,19.926330566],[109.53070068400001,19.92590332],[109.53070068400001,19.925720215],[109.53051757800002,19.924926758],[109.53149414100001,19.922485352],[109.53491210900002,19.920715332],[109.54229736300002,19.920715332],[109.54809570300002,19.925476074],[109.55529785200001,19.927490234],[109.55609130900001,19.925720215],[109.55310058600001,19.921508789],[109.55371093700002,19.918884277],[109.55987548800002,19.919921875],[109.55828857400002,19.914672852],[109.55950927700002,19.911682129],[109.56628418000001,19.906494141],[109.56591796900001,19.904724121],[109.56127929700001,19.905090332],[109.54809570300002,19.913879395],[109.54187011700002,19.914306641],[109.54052734400001,19.914306641],[109.54052734400001,19.914123535],[109.53833007800002,19.914123535],[109.53833007800002,19.914306641],[109.53771972700001,19.914306641],[109.53771972700001,19.914672852],[109.53552246100001,19.914672852],[109.53411865200002,19.914489746],[109.53411865200002,19.914306641],[109.53332519500002,19.914306641],[109.53332519500002,19.914123535],[109.53051757800002,19.914123535],[109.53051757800002,19.914306641],[109.52368164100001,19.913879395],[109.52349853500002,19.913879395],[109.52349853500002,19.913513184],[109.52288818400001,19.913513184],[109.52288818400001,19.912902832],[109.52270507800002,19.912902832],[109.52270507800002,19.912719727],[109.52227783200001,19.912719727],[109.52227783200001,19.912475586],[109.52270507800002,19.912475586],[109.52270507800002,19.91192627],[109.52227783200001,19.91192627],[109.52227783200001,19.911315918],[109.52209472700001,19.911315918],[109.52209472700001,19.910888672],[109.52191162100002,19.910888672],[109.52191162100002,19.910522461],[109.52148437500001,19.910522461],[109.52148437500001,19.91027832],[109.52111816400001,19.91027832],[109.52111816400001,19.909912109],[109.52069091800001,19.909912109],[109.52069091800001,19.909729004],[109.52008056600002,19.909729004],[109.52008056600002,19.909301758],[109.51971435500002,19.909301758],[109.51971435500002,19.909118652],[109.51947021500001,19.909118652],[109.51892089800002,19.907714844],[109.51849365200002,19.907104492],[109.52111816400001,19.89630127],[109.52148437500001,19.89630127],[109.52148437500001,19.895080566],[109.52130127,19.895080566],[109.52191162100002,19.892272949],[109.52227783200001,19.892272949],[109.52227783200001,19.892089844],[109.52270507800002,19.892089844],[109.52270507800002,19.891906738],[109.52288818400001,19.891906738],[109.52288818400001,19.891479492],[109.52331543000001,19.891479492],[109.52331543000001,19.891296387],[109.52349853500002,19.891296387],[109.52349853500002,19.891113281],[109.52410888700001,19.891113281],[109.52410888700001,19.890686035],[109.52429199200002,19.890686035],[109.52429199200002,19.89050293],[109.52490234400001,19.89050293],[109.52490234400001,19.889709473],[109.52429199200002,19.889709473],[109.52429199200002,19.889282227],[109.52410888700001,19.889282227],[109.52410888700001,19.888671875],[109.52429199200002,19.888671875],[109.52429199200002,19.88848877],[109.52471923800002,19.88848877],[109.52471923800002,19.887084961],[109.52429199200002,19.887084961],[109.52429199200002,19.886901855],[109.52410888700001,19.886901855],[109.52410888700001,19.886474609],[109.52331543000001,19.886474609],[109.52331543000001,19.886291504],[109.52288818400001,19.886291504],[109.52288818400001,19.885681152],[109.52270507800002,19.885681152],[109.52270507800002,19.885498047],[109.52227783200001,19.885498047],[109.52227783200001,19.885070801],[109.52130127,19.885070801],[109.52130127,19.884887695],[109.52111816400001,19.884887695],[109.52111816400001,19.883728027],[109.52069091800001,19.883728027],[109.52069091800001,19.883483887],[109.52050781200002,19.883483887],[109.52050781200002,19.882873535],[109.52008056600002,19.882873535],[109.52008056600002,19.882507324],[109.51989746100001,19.882507324],[109.51989746100001,19.882080078],[109.51971435500002,19.882080078],[109.51971435500002,19.881530762],[109.51928710900002,19.881530762],[109.51928710900002,19.88067627],[109.51928710900002,19.879882812],[109.52349853500002,19.875671387],[109.52868652300002,19.87512207],[109.53967285200001,19.87689209],[109.54248046900001,19.875671387],[109.54632568400001,19.868896484],[109.55810546900001,19.866516113],[109.56347656200002,19.868713379],[109.56488037100002,19.867126465],[109.56591796900001,19.867126465],[109.56671142600001,19.865112305],[109.56909179700001,19.862487793],[109.57971191400001,19.859924316],[109.58148193400001,19.858093262],[109.57867431600002,19.855529785],[109.56890869100002,19.856689453],[109.56848144500002,19.856506348],[109.56707763700001,19.850891113],[109.56268310500002,19.851928711],[109.56469726600001,19.83770752],[109.56591796900001,19.834289551],[109.56628418000001,19.828308105],[109.56610107400002,19.817321777],[109.56549072300001,19.813903809],[109.56488037100002,19.806091309],[109.56530761700002,19.800109863],[109.56610107400002,19.795898437],[109.56768798800002,19.788696289],[109.56927490200002,19.781311035],[109.57208252,19.775512695],[109.57611084000001,19.771728516],[109.58087158200001,19.771118164],[109.58691406200002,19.770080566],[109.59191894500002,19.767089844],[109.59588623000002,19.756896973],[109.59552002,19.748474121],[109.59350585900002,19.743103027],[109.59051513700001,19.737121582],[109.58947753900001,19.730285645],[109.58868408200001,19.721679687],[109.58673095700001,19.719726562],[109.58190918000001,19.720275879],[109.57867431600002,19.719909668],[109.57727050800001,19.717285156],[109.57629394500002,19.714111328],[109.57708740200002,19.701293945],[109.57788085900002,19.690673828],[109.57910156200002,19.683105469],[109.58129882800002,19.676086426],[109.58508300800001,19.653930664],[109.58392334000001,19.651489258],[109.58288574200002,19.64831543],[109.58489990200002,19.645874023],[109.58911132800002,19.643676758],[109.59350585900002,19.640930176],[109.59869384800001,19.63848877],[109.60131835900002,19.636901855],[109.60791015600002,19.633483887],[109.61328125000001,19.63269043],[109.62011718700002,19.632080078],[109.62408447300001,19.632507324],[109.62927246100001,19.632324219],[109.63189697300001,19.631530762],[109.63110351600001,19.635314941],[109.63867187500001,19.63092041],[109.64410400400001,19.625488281],[109.65148925800001,19.616516113],[109.65710449200002,19.609313965],[109.66247558600001,19.604919434],[109.66711425800001,19.600280762],[109.67248535200001,19.596679687],[109.68151855500001,19.58807373],[109.68408203100002,19.585876465],[109.68847656200002,19.582275391],[109.69610595700001,19.578918457],[109.70129394500002,19.577514648],[109.70611572300001,19.577697754],[109.71051025400001,19.580322266],[109.71588134800001,19.583129883],[109.72192382800002,19.583679199],[109.72387695300002,19.582702637],[109.72888183600001,19.580322266],[109.73608398400002,19.577514648],[109.74090576200001,19.574279785],[109.74432373000002,19.572875977],[109.74829101600001,19.572692871],[109.75067138700001,19.572509766],[109.75512695300002,19.572692871],[109.75671386700002,19.576477051],[109.76092529300001,19.581481934],[109.76593017600001,19.58972168],[109.76971435500002,19.597900391],[109.77288818400001,19.604492187],[109.77569580100001,19.60748291],[109.78070068400001,19.610107422],[109.78649902300002,19.609680176],[109.78967285200001,19.605895996],[109.79510498000002,19.602294922],[109.80072021500001,19.601501465],[109.80627441400001,19.602111816],[109.81268310500002,19.600524902],[109.81512451200001,19.599304199],[109.82067871100001,19.600097656],[109.82788085900002,19.604675293],[109.82690429700001,19.609313965],[109.81671142600001,19.611694336],[109.8125,19.613098145],[109.80969238300001,19.61932373],[109.81109619100002,19.624328613],[109.81469726600001,19.627685547],[109.82110595700001,19.632080078],[109.82232666000002,19.634277344],[109.82373046900001,19.641723633],[109.82647705100001,19.645874023],[109.83331298800002,19.65032959],[109.83929443400001,19.651489258],[109.84271240200002,19.651672363],[109.84869384800001,19.65447998],[109.85052490200002,19.659301758],[109.85089111300002,19.664916992],[109.85247802700002,19.671081543],[109.85748291000002,19.680480957],[109.85748291000002,19.691101074],[109.85827636700002,19.698486328],[109.86132812500001,19.704284668],[109.86627197300001,19.710083008],[109.87030029300001,19.71472168],[109.87530517600001,19.72052002],[109.87908935500002,19.726074219],[109.88012695300002,19.737487793],[109.88311767600001,19.745117187],[109.88110351600001,19.75189209],[109.87890625000001,19.761291504],[109.87988281200002,19.768310547],[109.88012695300002,19.77130127],[109.88153076200001,19.781494141],[109.88092041000002,19.787902832],[109.87927246100001,19.790283203],[109.87847900400001,19.792297363],[109.87548828100002,19.794677734],[109.87109375000001,19.797302246],[109.86669921900001,19.801513672],[109.86590576200001,19.807128906],[109.86669921900001,19.809082031],[109.86932373000002,19.81427002],[109.87170410200001,19.823913574],[109.87048339800002,19.827697754],[109.86627197300001,19.833496094],[109.86468505900001,19.840881348],[109.86389160200001,19.842712402],[109.86071777300002,19.845275879],[109.85931396500001,19.853088379],[109.85791015600002,19.85748291],[109.85809326200001,19.859313965],[109.85729980500001,19.862915039],[109.85388183600001,19.867492676],[109.84991455100001,19.876525879],[109.85028076200001,19.883117676],[109.85351562500001,19.88470459],[109.85913085900002,19.885681152],[109.86810302700002,19.885681152],[109.87548828100002,19.887512207],[109.88128662100002,19.894470215],[109.88269043000001,19.899719238],[109.88470459000001,19.905273437],[109.88507080100001,19.913879395],[109.88470459000001,19.919494629],[109.88592529300001,19.925292969],[109.87951660200001,19.926330566],[109.87890625000001,19.929870605],[109.87512207000002,19.929077148],[109.87152099600002,19.932495117],[109.86932373000002,19.935913086],[109.86889648400002,19.936889648],[109.86450195300002,19.936889648],[109.85571289100001,19.937683105],[109.84967041000002,19.937683105]]]}}
