{"type":"Feature","id":"bulk-99377448B15749730913441","bbox":[104.22650146500001,36.558105469,106.61712646500001,37.855102539],"properties":{"id":"bulk-99377448B15749730913441","name":"Zhongwei","nameEn":"Zhongwei","fullName":"Zhongwei","level":"city","boundaryRole":"administrative-extent","boundaryQuality":"generalized-source-2020","boundaryYearRepresented":"2020","bounds":[[104.22650146500001,36.558105469],[106.61712646500001,37.855102539]],"center":[105.42181396500001,37.206604004],"centerMethod":"bounding-box midpoint; camera framing only","license":"CC-BY-3.0-IGO","attribution":"geoBoundaries / HDX, China administrative boundaries (2020)","source":{"provider":"geoBoundaries gbHumanitarian / HDX","url":"https://github.com/wmgeolab/geoBoundaries/raw/9469f09/releaseData/gbHumanitarian/CHN/ADM2/geoBoundaries-CHN-ADM2.geojson","metadataUrl":"https://www.geoboundaries.org/api/current/gbHumanitarian/CHN/ADM2/","shapeID":"99377448B15749730913441","shapeName":"Zhongwei","boundaryID":"CHN-ADM2-99377448","commit":"9469f09"},"geometryCounts":{"coordinates":98,"components":1,"holes":0},"boundaryNotice":"geoBoundaries / HDX 2020 年行政区数据，海岸和边界经过源数据概化，并非当前测绘成果。"},"geometry":{"type":"Polygon","coordinates":[[[104.22650146500001,37.418884277],[104.27990722700001,37.420715332],[104.36132812500001,37.42791748],[104.43127441400001,37.411315918],[104.52288818400001,37.423095703],[104.60009765600002,37.403076172],[104.66210937500001,37.399475098],[104.73150634800001,37.402282715],[104.79992675800001,37.417480469],[104.81610107400002,37.418273926],[104.82751464800002,37.406311035],[104.81329345700001,37.381103516],[104.76751709000001,37.346130371],[104.74688720700001,37.333129883],[104.70611572300001,37.30670166],[104.68292236300002,37.304077148],[104.64770507800002,37.300109863],[104.61767578100002,37.270080566],[104.64111328100002,37.242126465],[104.66912841800001,37.222717285],[104.74908447300001,37.226074219],[104.85607910200001,37.210510254],[104.89410400400001,37.122497559],[104.93072509800001,37.089477539],[104.95928955100001,37.056884766],[105.02032470700001,37.031677246],[105.11712646500001,37.003479004],[105.15368652300002,36.964904785],[105.21008300800001,36.983886719],[105.25329589800002,37.003112793],[105.29992675800001,37.012695312],[105.34112548800002,36.979675293],[105.35870361300002,36.956115723],[105.44171142600001,36.950927734],[105.49847412100002,36.940917969],[105.55847168000001,36.92767334],[105.60369873000002,36.928894043],[105.64129638700001,36.93548584],[105.67089843700002,36.951904297],[105.70129394500002,36.935119629],[105.74749755900001,36.899291992],[105.79992675800001,36.908691406],[105.82128906200002,36.934082031],[105.86352539100001,36.948486328],[105.90649414100001,36.935913086],[105.94329834000001,36.898681641],[105.96990966800001,36.859680176],[105.98968505900001,36.821472168],[106.02227783200001,36.806091309],[106.02368164100001,36.778930664],[106.05108642600001,36.756713867],[106.09088134800001,36.703308105],[106.09851074200002,36.672119141],[106.11352539100001,36.644714355],[106.14227294900002,36.609130859],[106.15148925800001,36.558105469],[106.21368408200001,36.568115234],[106.24768066400001,36.586120605],[106.31988525400001,36.600097656],[106.35913085900002,36.600097656],[106.42791748000002,36.572509766],[106.43908691400001,36.605285645],[106.46588134800001,36.688476562],[106.51068115200002,36.732910156],[106.57611084000001,36.725097656],[106.61712646500001,36.776489258],[106.59191894500002,36.828125],[106.60131835900002,36.899108887],[106.55468750000001,36.867675781],[106.50488281200002,36.881286621],[106.546875,36.941894531],[106.60272216800001,36.921081543],[106.61370849600002,36.980712891],[106.60491943400001,37.098876953],[106.61248779300001,37.108886719],[106.40887451200001,37.353271484],[106.24291992200001,37.649475098],[105.82171630900001,37.855102539],[105.80432128900001,37.831481934],[105.69812011700002,37.781494141],[105.61029052700002,37.776123047],[105.63067627,37.705688477],[105.61907959000001,37.703491211],[105.53869628900001,37.688293457],[105.44128418000001,37.715881348],[105.41632080100001,37.723083496],[105.29089355500001,37.694885254],[105.13110351600001,37.622680664],[105.07031250000001,37.594116211],[104.96368408200001,37.547302246],[104.89331054700001,37.524719238],[104.77612304700001,37.528503418],[104.62127685500002,37.556274414],[104.53332519500002,37.512329102],[104.44708252,37.507873535],[104.39007568400001,37.455688477],[104.28930664100001,37.483093262],[104.22650146500001,37.418884277]]]}}
