{"type":"Feature","id":"bulk-99377448B35694405897941","bbox":[118.33087158200001,31.224121094,119.22711181600002,32.598327637],"properties":{"id":"bulk-99377448B35694405897941","name":"Nanjing","nameEn":"Nanjing","fullName":"Nanjing","level":"city","boundaryRole":"administrative-extent","boundaryQuality":"generalized-source-2020","boundaryYearRepresented":"2020","bounds":[[118.33087158200001,31.224121094],[119.22711181600002,32.598327637]],"center":[118.77899169900002,31.911224365499997],"centerMethod":"bounding-box midpoint; camera framing only","license":"CC-BY-3.0-IGO","attribution":"geoBoundaries / HDX, China administrative boundaries (2020)","source":{"provider":"geoBoundaries gbHumanitarian / HDX","url":"https://github.com/wmgeolab/geoBoundaries/raw/9469f09/releaseData/gbHumanitarian/CHN/ADM2/geoBoundaries-CHN-ADM2.geojson","metadataUrl":"https://www.geoboundaries.org/api/current/gbHumanitarian/CHN/ADM2/","shapeID":"99377448B35694405897941","shapeName":"Nanjing","boundaryID":"CHN-ADM2-99377448","commit":"9469f09"},"geometryCounts":{"coordinates":133,"components":1,"holes":0},"boundaryNotice":"geoBoundaries / HDX 2020 年行政区数据，海岸和边界经过源数据概化，并非当前测绘成果。"},"geometry":{"type":"Polygon","coordinates":[[[119.18127441400001,31.648681641],[119.17352294900002,31.674682617],[119.16772460900002,31.706726074],[119.12988281200002,31.719299316],[119.10028076200001,31.747314453],[119.08648681600002,31.771484375],[119.04388427700002,31.788696289],[118.98168945300002,31.800109863],[118.95947265600002,31.821899414],[118.95507812500001,31.849487305],[118.99969482400002,31.853881836],[119.03552246100001,31.852111816],[119.078125,31.861328125],[119.10272216800001,31.892883301],[119.09527587900001,31.926879883],[119.07727050800001,31.966674805],[119.10247802700002,31.992126465],[119.10089111300002,32.020080566],[119.09869384800001,32.057678223],[119.08050537100002,32.091491699],[119.05291748000002,32.108703613],[119.01971435500002,32.135070801],[119.05212402300002,32.153076172],[119.08569335900002,32.172729492],[119.13049316400001,32.18170166],[119.16467285200001,32.181884766],[119.22711181600002,32.225280762],[119.18951416000002,32.237915039],[119.14447021500001,32.240905762],[119.10107421900001,32.235107422],[119.06292724600002,32.228088379],[119.03930664100001,32.256530762],[119.02850341800001,32.294494629],[119.02410888700001,32.32611084],[119.02087402300002,32.365112305],[119.01892089800002,32.393493652],[119.02587890600002,32.430725098],[119.05187988300001,32.448120117],[119.02911377,32.472473145],[119.00671386700002,32.497924805],[118.97192382800002,32.496704102],[118.94427490200002,32.526123047],[118.92749023400002,32.56451416],[118.89392089800002,32.575683594],[118.847473145,32.555725098],[118.77569580100001,32.597717285],[118.71069335900002,32.598327637],[118.68847656200002,32.591918945],[118.67272949200002,32.587524414],[118.63287353500002,32.589111328],[118.58770752,32.592895508],[118.54608154300001,32.578674316],[118.53088378900001,32.555725098],[118.54547119100002,32.525512695],[118.57269287100002,32.502502441],[118.59289550800001,32.486877441],[118.65667724600002,32.486328125],[118.67028808600001,32.436706543],[118.66210937500001,32.383911133],[118.65667724600002,32.33807373],[118.65472412100002,32.247070312],[118.65447998000002,32.233276367],[118.62628173800002,32.197875977],[118.61090087900001,32.198730469],[118.57727050800001,32.173522949],[118.48669433600001,32.18548584],[118.45770263700001,32.186279297],[118.45812988300001,32.177490234],[118.44311523400002,32.117919922],[118.42327880900001,32.077514648],[118.41351318400001,32.07989502],[118.39630127,32.071899414],[118.37249755900001,32.055297852],[118.36010742200001,32.042480469],[118.35327148400002,32.02331543],[118.35327148400002,32.020507812],[118.35211181600002,31.983276367],[118.34088134800001,31.953674316],[118.33087158200001,31.915283203],[118.34069824200002,31.915527344],[118.40307617200001,31.891113281],[118.44067382800002,31.86907959],[118.48168945300002,31.82208252],[118.46868896500001,31.79888916],[118.47271728500002,31.785705566],[118.47949218700002,31.76348877],[118.50512695300002,31.750488281],[118.54010009800001,31.745483398],[118.59271240200002,31.746520996],[118.62890625000001,31.742492676],[118.64849853500002,31.699279785],[118.62109375000001,31.673522949],[118.62011718700002,31.672729492],[118.61389160200001,31.650878906],[118.64990234400001,31.634277344],[118.67712402300002,31.638671875],[118.70092773400002,31.653320312],[118.72552490200002,31.686279297],[118.75549316400001,31.673706055],[118.75012207000002,31.628723145],[118.78491210900002,31.612121582],[118.82928466800001,31.639282227],[118.83288574200002,31.625305176],[118.84710693400001,31.567077637],[118.84527587900001,31.513671875],[118.84832763700001,31.476318359],[118.81768798800002,31.426696777],[118.78350830100001,31.405700684],[118.74530029300001,31.385070801],[118.69787597700001,31.347473145],[118.68310546900001,31.32611084],[118.69567871100001,31.307312012],[118.71307373000002,31.281494141],[118.76391601600001,31.230895996],[118.78088378900001,31.242126465],[118.83630371100001,31.22869873],[118.90411377,31.224121094],[118.953125,31.235107422],[119.00189209000001,31.231689453],[119.01647949200002,31.236877441],[119.05712890600002,31.251098633],[119.08551025400001,31.269470215],[119.13989257800002,31.289672852],[119.17608642600001,31.257873535],[119.19390869100002,31.344482422],[119.18847656200002,31.384277344],[119.15930175800001,31.40447998],[119.11968994100002,31.456115723],[119.14050293000001,31.506713867],[119.14910888700001,31.533691406],[119.16131591800001,31.570129395],[119.17932128900001,31.600280762],[119.18127441400001,31.648681641]]]}}
