{"type":"Feature","id":"bulk-99377448B70554741779441","bbox":[118.53149414100001,26.342712402,120.42468261700002,27.68371582],"properties":{"id":"bulk-99377448B70554741779441","name":"Ningde","nameEn":"Ningde","fullName":"Ningde","level":"city","boundaryRole":"administrative-extent","boundaryQuality":"generalized-source-2020","boundaryYearRepresented":"2020","bounds":[[118.53149414100001,26.342712402],[120.42468261700002,27.68371582]],"center":[119.47808837900001,27.013214111],"centerMethod":"bounding-box midpoint; camera framing only","license":"CC-BY-3.0-IGO","attribution":"geoBoundaries / HDX, China administrative boundaries (2020)","source":{"provider":"geoBoundaries gbHumanitarian / HDX","url":"https://github.com/wmgeolab/geoBoundaries/raw/9469f09/releaseData/gbHumanitarian/CHN/ADM2/geoBoundaries-CHN-ADM2.geojson","metadataUrl":"https://www.geoboundaries.org/api/current/gbHumanitarian/CHN/ADM2/","shapeID":"99377448B70554741779441","shapeName":"Ningde","boundaryID":"CHN-ADM2-99377448","commit":"9469f09"},"geometryCounts":{"coordinates":848,"components":6,"holes":0},"boundaryNotice":"geoBoundaries / HDX 2020 年行政区数据，海岸和边界经过源数据概化，并非当前测绘成果。"},"geometry":{"type":"MultiPolygon","coordinates":[[[[119.61932373000002,26.728271484],[119.62469482400002,26.731079102],[119.60650634800001,26.735717773],[119.60089111300002,26.740722656],[119.59930419900002,26.740905762],[119.59869384800001,26.742492676],[119.59613037100002,26.744873047],[119.59552002,26.745483398],[119.59191894500002,26.745910645],[119.57470703100002,26.741088867],[119.56890869100002,26.738098145],[119.56787109400001,26.735290527],[119.57751464800002,26.730102539],[119.57788085900002,26.728881836],[119.58850097700001,26.729919434],[119.60968017600001,26.726318359],[119.61932373000002,26.728271484]]],[[[119.59088134800001,26.749328613],[119.59167480500001,26.74987793],[119.58471679700001,26.757873535],[119.58148193400001,26.753479004],[119.58612060500002,26.750488281],[119.59088134800001,26.749328613]]],[[[120.27410888700001,27.04888916],[120.27429199200002,27.049072266],[120.27368164100001,27.049682617],[120.27392578100002,27.049316406],[120.27410888700001,27.04888916]]],[[[120.28088378900001,27.085083008],[120.28088378900001,27.085327148],[120.27770996100001,27.090087891],[120.27368164100001,27.092285156],[120.27331543000001,27.092102051],[120.27972412100002,27.085693359],[120.28088378900001,27.085083008]]],[[[120.38690185500002,27.165527344],[120.39569091800001,27.168518066],[120.38891601600001,27.169311523],[120.38708496100001,27.173278809],[120.38690185500002,27.165527344]]],[[[119.22113037100002,27.411315918],[119.23870849600002,27.372314453],[119.22729492200001,27.346679687],[119.18109130900001,27.29510498],[119.20568847700001,27.265075684],[119.15789794900002,27.203918457],[119.15869140600002,27.172302246],[119.18127441400001,27.145324707],[119.15008544900002,27.127075195],[119.12109375000001,27.105712891],[119.07788085900002,27.063720703],[119.05810546900001,27.074707031],[119.04351806600002,27.085083008],[119.01428222700001,27.105895996],[118.99511718700002,27.121276855],[118.98052978500002,27.131530762],[118.97912597700001,27.168701172],[118.96972656200002,27.178527832],[118.95050048800002,27.193908691],[118.91967773400002,27.204101562],[118.92669677700002,27.153503418],[118.91070556600002,27.12890625],[118.88128662100002,27.108703613],[118.86529541000002,27.070678711],[118.83349609400001,27.032104492],[118.80950927700002,27.010498047],[118.78668212900001,26.985290527],[118.75347900400001,26.95892334],[118.72070312500001,26.968322754],[118.68969726600001,26.97668457],[118.67547607400002,26.94708252],[118.69952392600001,26.901489258],[118.65008544900002,26.872070312],[118.62207031200002,26.849304199],[118.61267089800002,26.816101074],[118.60449218700002,26.781494141],[118.59008789100001,26.751281738],[118.57470703100002,26.725097656],[118.57348632800002,26.694885254],[118.57128906200002,26.665283203],[118.56890869100002,26.632324219],[118.58508300800001,26.598510742],[118.60272216800001,26.571105957],[118.59448242200001,26.541320801],[118.56030273400002,26.516113281],[118.53668212900001,26.481323242],[118.53149414100001,26.452880859],[118.54492187500001,26.420471191],[118.57409668000001,26.406921387],[118.61169433600001,26.390930176],[118.64093017600001,26.370910645],[118.65112304700001,26.343688965],[118.72607421900001,26.351928711],[118.76367187500001,26.342712402],[118.78771972700001,26.366516113],[118.78070068400001,26.393493652],[118.75250244100002,26.413085937],[118.72692871100001,26.443725586],[118.72070312500001,26.475708008],[118.71691894500002,26.503723145],[118.73767089800002,26.526916504],[118.76971435500002,26.521118164],[118.79132080100001,26.495117187],[118.80889892600001,26.467102051],[118.83532714800002,26.483093262],[118.87170410200001,26.50189209],[118.90930175800001,26.510925293],[118.90850830100001,26.547485352],[118.93890380900001,26.569091797],[118.98248291000002,26.582885742],[118.99792480500001,26.612121582],[119.03027343700002,26.619689941],[119.05651855500001,26.605895996],[119.07489013700001,26.569274902],[119.10888671900001,26.55291748],[119.13287353500002,26.573486328],[119.16308593700002,26.585327148],[119.20031738300001,26.577697754],[119.21447753900001,26.545898437],[119.25207519500002,26.567871094],[119.25610351600001,26.598327637],[119.27252197300001,26.62512207],[119.30389404300001,26.607116699],[119.34027099600002,26.612915039],[119.36187744100002,26.647705078],[119.40429687500001,26.65447998],[119.44830322300001,26.646484375],[119.48309326200001,26.627075195],[119.50769043000001,26.606689453],[119.52551269500002,26.571105957],[119.55987548800002,26.561706543],[119.58050537100002,26.559875488],[119.64569091800001,26.540283203],[119.71228027300002,26.534484863],[119.76049804700001,26.550720215],[119.76629638700001,26.549316406],[119.77349853500002,26.559326172],[119.77648925800001,26.561096191],[119.79272460900002,26.549682617],[119.79608154300001,26.549926758],[119.79748535200001,26.552307129],[119.79528808600001,26.556884766],[119.78552246100001,26.569519043],[119.78668212900001,26.571899414],[119.77832031200002,26.583129883],[119.77648925800001,26.582519531],[119.77252197300001,26.582702637],[119.76849365200002,26.586303711],[119.76611328100002,26.591308594],[119.75927734400001,26.592712402],[119.75549316400001,26.592285156],[119.75048828100002,26.586486816],[119.745910645,26.584106445],[119.74212646500001,26.584716797],[119.74072265600002,26.58807373],[119.74267578100002,26.592285156],[119.74871826200001,26.594299316],[119.74871826200001,26.594726562],[119.74829101600001,26.594726562],[119.72528076200001,26.601318359],[119.69891357400002,26.604309082],[119.66308593700002,26.606506348],[119.63751220700001,26.601318359],[119.63128662100002,26.594909668],[119.62567138700001,26.593078613],[119.61810302700002,26.587280273],[119.60913085900002,26.569702148],[119.60827636700002,26.569274902],[119.60052490200002,26.56427002],[119.60089111300002,26.581115723],[119.59887695300002,26.584472656],[119.59631347700001,26.586486816],[119.59167480500001,26.588317871],[119.59088134800001,26.591125488],[119.58209228500002,26.598510742],[119.58050537100002,26.601074219],[119.57568359400001,26.604125977],[119.57189941400001,26.604919434],[119.56872558600001,26.602478027],[119.56689453100002,26.602905273],[119.56567382800002,26.610717773],[119.55407714800002,26.617492676],[119.54632568400001,26.629089355],[119.54907226600001,26.632080078],[119.56152343700002,26.633117676],[119.56488037100002,26.637695312],[119.56811523400002,26.639099121],[119.56909179700001,26.639526367],[119.56848144500002,26.64630127],[119.54888916000002,26.665283203],[119.59008789100001,26.656494141],[119.59967041000002,26.66027832],[119.60510253900001,26.666687012],[119.60327148400002,26.671875],[119.60388183600001,26.675292969],[119.60607910200001,26.678527832],[119.605285645,26.682678223],[119.60430908200001,26.684509277],[119.60089111300002,26.68951416],[119.60107421900001,26.69128418],[119.59930419900002,26.695129395],[119.58770752,26.703308105],[119.57629394500002,26.710327148],[119.57427978500002,26.709289551],[119.56927490200002,26.70690918],[119.56152343700002,26.706115723],[119.55688476600001,26.710327148],[119.55487060500002,26.715881348],[119.54992675800001,26.722900391],[119.55212402300002,26.727905273],[119.55670166000002,26.732727051],[119.55627441400001,26.738525391],[119.56292724600002,26.74407959],[119.55688476600001,26.751098633],[119.554504395,26.756530762],[119.55529785200001,26.75970459],[119.56372070300002,26.758911133],[119.56988525400001,26.764892578],[119.55847168000001,26.769897461],[119.57269287100002,26.786071777],[119.57708740200002,26.78527832],[119.57232666000002,26.790710449],[119.57373046900001,26.793273926],[119.58111572300001,26.79107666],[119.58532714800002,26.789672852],[119.59027099600002,26.784301758],[119.597473145,26.784912109],[119.60827636700002,26.793884277],[119.62329101600001,26.797302246],[119.62567138700001,26.77532959],[119.62371826200001,26.767883301],[119.61730957000002,26.762878418],[119.61767578100002,26.756713867],[119.62908935500002,26.75769043],[119.65069580100001,26.756896973],[119.65472412100002,26.762695312],[119.65527343700002,26.76348877],[119.66088867200001,26.75390625],[119.65832519500002,26.74609375],[119.65869140600002,26.742919922],[119.66369628900001,26.73651123],[119.67327880900001,26.727294922],[119.67352294900002,26.727294922],[119.67828369100002,26.724487305],[119.68389892600001,26.719299316],[119.68988037100002,26.715087891],[119.71649169900002,26.713684082],[119.72869873000002,26.714294434],[119.72888183600001,26.716308594],[119.71051025400001,26.732727051],[119.70629882800002,26.731506348],[119.69873046900001,26.741882324],[119.69110107400002,26.74432373],[119.68170166000002,26.75390625],[119.67907714800002,26.758300781],[119.67907714800002,26.758483887],[119.67712402300002,26.760070801],[119.68011474600002,26.770080566],[119.67968750000001,26.772521973],[119.68231201200001,26.777526855],[119.68572998000002,26.788696289],[119.68548584000001,26.789916992],[119.68627929700001,26.792907715],[119.687316895,26.793518066],[119.68792724600002,26.795715332],[119.68707275400001,26.816101074],[119.67669677700002,26.846130371],[119.66149902300002,26.868530273],[119.65008544900002,26.897888184],[119.671875,26.887695312],[119.68591308600001,26.865478516],[119.69207763700001,26.844909668],[119.70068359400001,26.818481445],[119.70550537100002,26.807312012],[119.70849609400001,26.806274414],[119.71209716800001,26.808288574],[119.72448730500001,26.794494629],[119.72808837900001,26.792480469],[119.72888183600001,26.790283203],[119.72790527300002,26.789306641],[119.73632812500001,26.776123047],[119.73730468700002,26.768127441],[119.73968505900001,26.762512207],[119.74029541000002,26.750488281],[119.73730468700002,26.74609375],[119.73712158200001,26.74407959],[119.74627685500002,26.735290527],[119.75671386700002,26.737487793],[119.75750732400002,26.73828125],[119.75891113300001,26.744873047],[119.76110839800002,26.766723633],[119.76147460900002,26.781494141],[119.76049804700001,26.783508301],[119.75830078100002,26.788513184],[119.75927734400001,26.799499512],[119.76232910200001,26.803527832],[119.76312255900001,26.809509277],[119.76647949200002,26.809509277],[119.76690673800002,26.811279297],[119.77728271500001,26.827514648],[119.77429199200002,26.830871582],[119.77587890600002,26.834899902],[119.78167724600002,26.836486816],[119.78588867200001,26.835693359],[119.79150390600002,26.840270996],[119.79467773400002,26.840698242],[119.79467773400002,26.840881348],[119.79791259800001,26.84588623],[119.79748535200001,26.850280762],[119.79949951200001,26.85369873],[119.80267334000001,26.852722168],[119.80352783200001,26.849487305],[119.80133056600002,26.846496582],[119.80249023400002,26.841491699],[119.82287597700001,26.844116211],[119.82611084000001,26.844116211],[119.82891845700001,26.846313477],[119.83569335900002,26.846130371],[119.84130859400001,26.848083496],[119.84307861300002,26.849487305],[119.83972168000001,26.857299805],[119.84130859400001,26.860107422],[119.84490966800001,26.859924316],[119.84667968700002,26.859924316],[119.85168457000002,26.855529785],[119.85467529300001,26.85168457],[119.855285645,26.847106934],[119.84350585900002,26.842529297],[119.83148193400001,26.832702637],[119.81451416000002,26.824279785],[119.80389404300001,26.823913574],[119.80310058600001,26.823486328],[119.79229736300002,26.816101074],[119.79132080100001,26.807678223],[119.79071044900002,26.807128906],[119.79089355500001,26.8046875],[119.80627441400001,26.79510498],[119.81109619100002,26.793884277],[119.81988525400001,26.794494629],[119.83489990200002,26.801086426],[119.84112548800002,26.81072998],[119.84411621100001,26.813293457],[119.84771728500002,26.813293457],[119.85107421900001,26.812316895],[119.85229492200001,26.80871582],[119.85052490200002,26.799926758],[119.84613037100002,26.793518066],[119.85467529300001,26.782287598],[119.85192871100001,26.777282715],[119.84332275400001,26.774902344],[119.84228515600002,26.774902344],[119.84228515600002,26.774475098],[119.82592773400002,26.774108887],[119.81152343700002,26.766296387],[119.80468750000001,26.761901855],[119.79327392600001,26.749084473],[119.80230712900001,26.742675781],[119.80432128900001,26.734680176],[119.80847168000001,26.729125977],[119.80871582000002,26.724487305],[119.80688476600001,26.721130371],[119.80169677700002,26.718322754],[119.80133056600002,26.713928223],[119.79168701200001,26.714111328],[119.79211425800001,26.705505371],[119.79589843700002,26.705078125],[119.79711914100001,26.703491211],[119.79467773400002,26.698303223],[119.80328369100002,26.690673828],[119.80712890600002,26.692687988],[119.80731201200001,26.693115234],[119.81469726600001,26.698730469],[119.81811523400002,26.698120117],[119.82031250000001,26.699279785],[119.82373046900001,26.708312988],[119.82727050800001,26.71270752],[119.83227539100001,26.713500977],[119.84051513700001,26.720092773],[119.84429931600002,26.720275879],[119.84552002,26.717102051],[119.84252929700001,26.710693359],[119.84228515600002,26.700073242],[119.84167480500001,26.698913574],[119.84527587900001,26.69329834],[119.84588623000002,26.69329834],[119.85150146500001,26.690917969],[119.86853027300002,26.675109863],[119.87072753900001,26.671081543],[119.86907959000001,26.667297363],[119.86230468700002,26.66607666],[119.86151123000002,26.664916992],[119.86529541000002,26.659118652],[119.86328125000001,26.654296875],[119.86450195300002,26.649902344],[119.87310791000002,26.652282715],[119.88250732400002,26.652282715],[119.88812255900001,26.658508301],[119.90112304700001,26.66607666],[119.90112304700001,26.666503906],[119.89727783200001,26.667907715],[119.89471435500002,26.671691895],[119.88891601600001,26.671325684],[119.88830566400001,26.67388916],[119.88928222700001,26.677490234],[119.89208984400001,26.678283691],[119.89788818400001,26.67590332],[119.89868164100001,26.680908203],[119.89410400400001,26.694274902],[119.89428710900002,26.698730469],[119.90447998000002,26.715087891],[119.90991210900002,26.723693848],[119.91430664100001,26.727294922],[119.92291259800001,26.730285645],[119.92529296900001,26.736877441],[119.93029785200001,26.740722656],[119.91949462900001,26.764282227],[119.91967773400002,26.770690918],[119.91870117200001,26.773681641],[119.92010498000002,26.775695801],[119.92028808600001,26.780883789],[119.92388916000002,26.781494141],[119.93328857400002,26.791870117],[119.94091796900001,26.794311523],[119.95532226600001,26.79309082],[119.96649169900002,26.795288086],[119.96752929700001,26.794921875],[119.97808837900001,26.790893555],[119.97729492200001,26.786499023],[119.97088623000002,26.781677246],[119.97167968700002,26.780883789],[119.97387695300002,26.780273437],[119.99249267600001,26.787902832],[120.00012207000002,26.789489746],[120.00109863300001,26.789672852],[120.02252197300001,26.789916992],[120.03411865200002,26.791687012],[120.05108642600001,26.79107666],[120.05749511700002,26.797912598],[120.06732177700002,26.79888916],[120.07373046900001,26.803527832],[120.07727050800001,26.8046875],[120.08111572300001,26.801086426],[120.08489990200002,26.784301758],[120.08367919900002,26.781311035],[120.07067871100001,26.768310547],[120.06787109400001,26.766906738],[120.06848144500002,26.759887695],[120.05010986300002,26.745483398],[120.04968261700002,26.74432373],[120.04132080100001,26.737304687],[120.03948974600002,26.737121582],[120.03692627,26.735107422],[120.03131103500002,26.729919434],[120.03369140600002,26.730285645],[120.03747558600001,26.726074219],[120.03649902300002,26.722106934],[120.03369140600002,26.710510254],[120.03167724600002,26.710693359],[120.02807617200001,26.714111328],[120.02410888700001,26.714904785],[120.00708007800002,26.708679199],[120.00207519500002,26.702880859],[120.00012207000002,26.703308105],[119.995910645,26.704284668],[119.98107910200001,26.696716309],[119.98071289100001,26.693725586],[119.97851562500001,26.690673828],[119.97912597700001,26.682678223],[119.98150634800001,26.681274414],[119.99090576200001,26.679321289],[119.99310302700002,26.675476074],[119.98992919900002,26.670898437],[119.98052978500002,26.667480469],[119.98211669900002,26.650085449],[119.98510742200001,26.647521973],[119.98870849600002,26.642272949],[119.97448730500001,26.641906738],[119.96130371100001,26.63067627],[119.95892334000001,26.623291016],[119.95227050800001,26.621276855],[119.95147705100001,26.619689941],[119.95288085900002,26.614074707],[119.94488525400001,26.609130859],[119.93188476600001,26.610107422],[119.92669677700002,26.617126465],[119.92132568400001,26.61907959],[119.91052246100001,26.615722656],[119.90869140600002,26.616699219],[119.90588378900001,26.618286133],[119.89111328100002,26.611328125],[119.88891601600001,26.606689453],[119.88549804700001,26.608703613],[119.88012695300002,26.606079102],[119.87591552700002,26.600708008],[119.855285645,26.592529297],[119.84948730500001,26.58807373],[119.84832763700001,26.584472656],[119.85607910200001,26.57989502],[119.85748291000002,26.575317383],[119.85089111300002,26.57611084],[119.85150146500001,26.569885254],[119.86212158200001,26.556518555],[119.85607910200001,26.55670166],[119.85388183600001,26.558288574],[119.84527587900001,26.565307617],[119.83868408200001,26.563110352],[119.83648681600002,26.559875488],[119.83709716800001,26.55670166],[119.84088134800001,26.555297852],[119.84210205100001,26.55291748],[119.84112548800002,26.549682617],[119.83007812500001,26.544311523],[119.83929443400001,26.538330078],[119.83068847700001,26.532714844],[119.83209228500002,26.530273437],[119.83868408200001,26.529296875],[119.83947753900001,26.527526855],[119.83587646500001,26.522094727],[119.83728027300002,26.520507812],[119.84368896500001,26.520690918],[119.84808349600002,26.518127441],[119.85888671900001,26.518310547],[119.86407470700001,26.513671875],[119.87530517600001,26.514526367],[119.89031982400002,26.523681641],[119.89093017600001,26.526123047],[119.89672851600001,26.530517578],[119.89550781200002,26.533874512],[119.89709472700001,26.537719727],[119.90228271500001,26.538513184],[119.91351318400001,26.548278809],[119.92907714800002,26.551879883],[119.92889404300001,26.55847168],[119.937316895,26.561889648],[119.93768310500002,26.563110352],[119.93328857400002,26.571899414],[119.92871093700002,26.573486328],[119.92572021500001,26.576904297],[119.93011474600002,26.578918457],[119.93408203100002,26.584472656],[119.93969726600001,26.587097168],[119.93951416000002,26.590515137],[119.94268798800002,26.596679687],[119.94427490200002,26.596679687],[119.94769287100002,26.597290039],[119.95092773400002,26.60168457],[119.95587158200001,26.604309082],[119.96069335900002,26.602905273],[119.96948242200001,26.604309082],[119.97570800800001,26.601501465],[119.98187255900001,26.601928711],[119.98791503900001,26.598876953],[119.99731445300002,26.603271484],[120.00012207000002,26.602294922],[120.00329589800002,26.601074219],[120.01611328100002,26.606689453],[120.01892089800002,26.611083984],[120.05291748000002,26.62890625],[120.05828857400002,26.629882812],[120.06530761700002,26.63470459],[120.06628418000001,26.637878418],[120.06909179700001,26.640930176],[120.07647705100001,26.642700195],[120.07910156200002,26.649108887],[120.09130859400001,26.65032959],[120.08947753900001,26.631286621],[120.08111572300001,26.624084473],[120.08349609400001,26.621276855],[120.09667968700002,26.618286133],[120.09948730500001,26.623291016],[120.11492919900002,26.63067627],[120.13208007800002,26.646118164],[120.13128662100002,26.648071289],[120.12847900400001,26.647888184],[120.12768554700001,26.647277832],[120.11547851600001,26.640075684],[120.11071777300002,26.638916016],[120.10687255900001,26.641479492],[120.10632324200002,26.64831543],[120.11651611300002,26.650512695],[120.11749267600001,26.658081055],[120.11651611300002,26.660888672],[120.11230468700002,26.662109375],[120.11132812500001,26.669677734],[120.10668945300002,26.671081543],[120.10913085900002,26.675292969],[120.10888671900001,26.687072754],[120.10131835900002,26.691894531],[120.10229492200001,26.694519043],[120.10772705100001,26.694885254],[120.11590576200001,26.705078125],[120.12268066400001,26.70690918],[120.13092041000002,26.71270752],[120.13171386700002,26.713317871],[120.13629150400001,26.712280273],[120.15167236300002,26.72052002],[120.13690185500002,26.728271484],[120.13452148400002,26.72869873],[120.13409423800002,26.729919434],[120.12652587900001,26.733886719],[120.12469482400002,26.732727051],[120.12231445300002,26.734680176],[120.11328125000001,26.734680176],[120.10791015600002,26.743713379],[120.10388183600001,26.745727539],[120.10089111300002,26.746887207],[120.09930419900002,26.748901367],[120.09851074200002,26.752929687],[120.09948730500001,26.757507324],[120.09967041000002,26.758300781],[120.10552978500002,26.761901855],[120.10968017600001,26.769470215],[120.11468505900001,26.773071289],[120.11688232400002,26.778076172],[120.12170410200001,26.783325195],[120.12548828100002,26.785095215],[120.13092041000002,26.794677734],[120.12847900400001,26.79510498],[120.12408447300001,26.79309082],[120.11730957000002,26.791870117],[120.11932373000002,26.796325684],[120.11547851600001,26.796691895],[120.09710693400001,26.792480469],[120.08807373000002,26.809509277],[120.08947753900001,26.817687988],[120.08251953100002,26.823120117],[120.07751464800002,26.821289062],[120.07092285200001,26.821472168],[120.05767822300001,26.817321777],[120.05169677700002,26.819702148],[120.038879395,26.818908691],[120.03588867200001,26.823120117],[120.03387451200001,26.832885742],[120.02770996100001,26.844482422],[120.02252197300001,26.848876953],[120.02508544900002,26.857116699],[120.02490234400001,26.85949707],[120.02728271500001,26.867492676],[120.02893066400001,26.869689941],[120.03027343700002,26.873901367],[120.04107666000002,26.887695312],[120.04449462900001,26.887695312],[120.04467773400002,26.894470215],[120.05487060500002,26.894104004],[120.06048584000001,26.888671875],[120.06530761700002,26.890686035],[120.07611084000001,26.890319824],[120.07830810500002,26.893493652],[120.08209228500002,26.891296387],[120.08331298800002,26.88848877],[120.08129882800002,26.886108398],[120.09527587900001,26.883911133],[120.10870361300002,26.909301758],[120.10827636700002,26.909729004],[120.10772705100001,26.913085937],[120.11132812500001,26.91607666],[120.11767578100002,26.928283691],[120.11871337900001,26.928710937],[120.12152099600002,26.933898926],[120.17590332000002,26.930908203],[120.19128418000001,26.930480957],[120.21588134800001,26.920715332],[120.21948242200001,26.922119141],[120.22131347700001,26.918701172],[120.22692871100001,26.916503906],[120.23748779300001,26.95111084],[120.21508789100001,26.957092285],[120.21368408200001,26.957702637],[120.20947265600002,26.955871582],[120.19268798800002,26.955078125],[120.19049072300001,26.957092285],[120.195129395,26.960876465],[120.19012451200001,26.96270752],[120.18450927700002,26.962524414],[120.17712402300002,26.968078613],[120.15972900400001,26.973083496],[120.16491699200002,26.975708008],[120.17431640600002,26.975524902],[120.17932128900001,26.978088379],[120.18548584000001,26.977905273],[120.19171142600001,26.980529785],[120.19592285200001,26.97869873],[120.20251464800002,26.980285645],[120.20349121100001,26.983093262],[120.20532226600001,26.981323242],[120.20892334000001,26.982299805],[120.25512695300002,26.986083984],[120.25531005900001,26.986083984],[120.25708007800002,27.002319336],[120.25128173800002,27.011291504],[120.24548339800002,27.020080566],[120.24047851600001,27.026916504],[120.23651123000002,27.026306152],[120.23327636700002,27.027099609],[120.23089599600002,27.031494141],[120.23187255900001,27.033874512],[120.23889160200001,27.03527832],[120.24072265600002,27.040710449],[120.25067138700001,27.040100098],[120.25250244100002,27.042297363],[120.26147460900002,27.042480469],[120.25189209000001,27.051696777],[120.24212646500001,27.051879883],[120.23767089800002,27.0546875],[120.24169921900001,27.05871582],[120.24371337900001,27.060913086],[120.24267578100002,27.063720703],[120.24768066400001,27.065673828],[120.25347900400001,27.066711426],[120.26251220700001,27.061096191],[120.26470947300001,27.06072998],[120.24987793000001,27.078308105],[120.23931884800001,27.09387207],[120.24108886700002,27.110290527],[120.25109863300001,27.10748291],[120.24670410200001,27.11328125],[120.24530029300001,27.117675781],[120.24768066400001,27.122924805],[120.25311279300001,27.127075195],[120.25708007800002,27.122497559],[120.26068115200002,27.12109375],[120.26391601600001,27.112670898],[120.27148437500001,27.108276367],[120.27551269500002,27.098693848],[120.28912353500002,27.099304199],[120.296691895,27.094482422],[120.30291748000002,27.094299316],[120.31890869100002,27.100524902],[120.32189941400001,27.095275879],[120.32330322300001,27.092712402],[120.32849121100001,27.090087891],[120.34649658200001,27.090881348],[120.35687255900001,27.087280273],[120.36529541000002,27.086486816],[120.36291503900001,27.098510742],[120.37908935500002,27.108520508],[120.37451171900001,27.109313965],[120.37329101600001,27.112487793],[120.37371826200001,27.113891602],[120.37469482400002,27.116516113],[120.38287353500002,27.118286133],[120.39709472700001,27.117492676],[120.40270996100001,27.11907959],[120.41412353500002,27.119506836],[120.39447021500001,27.131896973],[120.38409423800002,27.134521484],[120.38409423800002,27.135681152],[120.40148925800001,27.135681152],[120.41351318400001,27.139282227],[120.41851806600002,27.139282227],[120.42468261700002,27.133911133],[120.42047119100002,27.14630127],[120.41589355500001,27.147094727],[120.40972900400001,27.146484375],[120.38171386700002,27.145324707],[120.36090087900001,27.144470215],[120.34588623000002,27.149475098],[120.36047363300001,27.160095215],[120.36907959000001,27.172119141],[120.378723145,27.183288574],[120.37792968700002,27.186889648],[120.37530517600001,27.190673828],[120.37628173800002,27.194091797],[120.36889648400002,27.206115723],[120.35247802700002,27.216674805],[120.33050537100002,27.214904785],[120.30908203100002,27.209472656],[120.29168701200001,27.201904297],[120.28112793000001,27.209289551],[120.25469970700001,27.23248291],[120.24169921900001,27.235473633],[120.22308349600002,27.227111816],[120.20672607400002,27.219482422],[120.19287109400001,27.198486328],[120.179504395,27.189697266],[120.17352294900002,27.218688965],[120.20208740200002,27.261901855],[120.23370361300002,27.247314453],[120.24407959000001,27.276489258],[120.30151367200001,27.279724121],[120.29248046900001,27.245727539],[120.29248046900001,27.235717773],[120.29772949200002,27.218688965],[120.31591796900001,27.232727051],[120.34112548800002,27.235900879],[120.36828613300001,27.229919434],[120.38787841800001,27.210693359],[120.38787841800001,27.201904297],[120.39147949200002,27.196899414],[120.40032959000001,27.19128418],[120.40112304700001,27.189880371],[120.39550781200002,27.210693359],[120.39587402300002,27.233886719],[120.39929199200002,27.275085449],[120.37750244100002,27.289489746],[120.328125,27.34387207],[120.33270263700001,27.366882324],[120.32751464800002,27.394287109],[120.31311035200001,27.403686523],[120.27789306600002,27.398498535],[120.24688720700001,27.395690918],[120.20550537100002,27.409118652],[120.15850830100001,27.428283691],[120.11907959000001,27.423522949],[120.10052490200002,27.410522461],[120.07427978500002,27.384887695],[120.06170654300001,27.362487793],[120.02947998000002,27.348083496],[120.00689697300001,27.34552002],[119.98468017600001,27.357116699],[119.96789550800001,27.371887207],[119.93487548800002,27.360290527],[119.92431640600002,27.347473145],[119.91052246100001,27.330688477],[119.89849853500002,27.312927246],[119.85913085900002,27.307128906],[119.83447265600002,27.31628418],[119.79168701200001,27.306274414],[119.78808593700002,27.299316406],[119.77447509800001,27.298278809],[119.75109863300001,27.296875],[119.73889160200001,27.338317871],[119.72747802700002,27.362487793],[119.71630859400001,27.38671875],[119.70648193400001,27.421691895],[119.69812011700002,27.460083008],[119.68469238300001,27.490722656],[119.66931152300002,27.519714355],[119.63348388700001,27.571899414],[119.63049316400001,27.611694336],[119.61669921900001,27.638671875],[119.61712646500001,27.663879395],[119.60852050800001,27.666687012],[119.55767822300001,27.68371582],[119.49169921900001,27.648925781],[119.47448730500001,27.618286133],[119.47088623000002,27.57989502],[119.45391845700001,27.532714844],[119.42767334000001,27.515930176],[119.41412353500002,27.511474609],[119.39227294900002,27.519470215],[119.35107421900001,27.514526367],[119.31768798800002,27.477478027],[119.30151367200001,27.456298828],[119.27130127,27.439697266],[119.25091552700002,27.4296875],[119.23968505900001,27.417907715],[119.22113037100002,27.411315918]]]]}}
