{"type":"Feature","id":"bulk-99377448B63232476443264","bbox":[89.65850830100001,32.706115723,99.68450927700002,39.339477539],"properties":{"id":"bulk-99377448B63232476443264","name":"Haixi Mongolian Autonomous Prefecture","nameEn":"Haixi Mongolian Autonomous Prefecture","fullName":"Haixi Mongolian Autonomous Prefecture","level":"city","boundaryRole":"administrative-extent","boundaryQuality":"generalized-source-2020","boundaryYearRepresented":"2020","bounds":[[89.65850830100001,32.706115723],[99.68450927700002,39.339477539]],"center":[94.67150878900001,36.022796631000006],"centerMethod":"bounding-box midpoint; camera framing only","license":"CC-BY-3.0-IGO","attribution":"geoBoundaries / HDX, China administrative boundaries (2020)","source":{"provider":"geoBoundaries gbHumanitarian / HDX","url":"https://github.com/wmgeolab/geoBoundaries/raw/9469f09/releaseData/gbHumanitarian/CHN/ADM2/geoBoundaries-CHN-ADM2.geojson","metadataUrl":"https://www.geoboundaries.org/api/current/gbHumanitarian/CHN/ADM2/","shapeID":"99377448B63232476443264","shapeName":"Haixi Mongolian Autonomous Prefecture","boundaryID":"CHN-ADM2-99377448","commit":"9469f09"},"geometryCounts":{"coordinates":745,"components":2,"holes":0},"boundaryNotice":"geoBoundaries / HDX 2020 年行政区数据，海岸和边界经过源数据概化，并非当前测绘成果。"},"geometry":{"type":"MultiPolygon","coordinates":[[[[92.61029052700002,32.725280762],[92.60552978500002,32.786499023],[92.61132812500001,32.817077637],[92.61352539100001,32.845092773],[92.61932373,32.872680664],[92.63751220700001,32.900512695],[92.65728759800001,32.929077148],[92.68090820300002,32.960693359],[92.69592285200001,32.991882324],[92.719726562,33.033325195],[92.73907470700001,33.080688477],[92.74188232400002,33.119506836],[92.73529052700002,33.148681641],[92.72589111300002,33.188903809],[92.73168945300002,33.219299316],[92.72113037100002,33.24987793],[92.685302734,33.282287598],[92.65747070300002,33.302307129],[92.63909912100002,33.332702637],[92.63488769500002,33.36328125],[92.66271972700001,33.401916504],[92.69171142600001,33.429077148],[92.71948242200001,33.452880859],[92.76470947300001,33.473876953],[92.79052734400001,33.493286133],[92.81207275400001,33.514892578],[92.83209228500002,33.550720215],[92.83270263700001,33.586914062],[92.82690429700001,33.615722656],[92.821289062,33.643920898],[92.80548095700001,33.678894043],[92.77990722700001,33.70892334],[92.76788330100001,33.733886719],[92.77032470700001,33.768493652],[92.76708984400001,33.807495117],[92.75848388700001,33.841674805],[92.76287841800001,33.885925293],[92.75469970700001,33.914306641],[92.73187255900001,33.939880371],[92.73211669900002,33.97088623],[92.751708984,33.996276855],[92.78631591800001,34.020690918],[92.82708740200002,34.03692627],[92.85870361300002,34.048095703],[92.90747070300002,34.066101074],[92.93811035200001,34.084472656],[92.92492675800001,34.109924316],[92.88171386700002,34.097717285],[92.83270263700001,34.087890625],[92.79492187500001,34.091308594],[92.74987793000001,34.073486328],[92.70989990200002,34.087280273],[92.68090820300002,34.113525391],[92.66888427700002,34.144104004],[92.66650390600002,34.178527832],[92.663879395,34.205871582],[92.66027832000002,34.235473633],[92.64190673800002,34.279296875],[92.60748291000002,34.30670166],[92.58447265600002,34.325927734],[92.56909179700001,34.353271484],[92.52947998,34.370910645],[92.493530273,34.375915527],[92.45989990200002,34.374084473],[92.40887451200001,34.375488281],[92.35729980500001,34.384277344],[92.294677734,34.398681641],[92.25787353500002,34.402099609],[92.19750976600001,34.402282715],[92.15771484400001,34.409484863],[92.11712646500001,34.426330566],[92.08551025400001,34.441894531],[92.03228759800001,34.470703125],[91.98052978500002,34.479309082],[91.95849609400001,34.504516602],[91.95208740200002,34.537109375],[91.93988037100002,34.563903809],[91.91467285200001,34.583312988],[91.87310791000002,34.601318359],[91.83367919900002,34.616271973],[91.80169677700002,34.629882812],[91.76727294900002,34.648071289],[91.737304687,34.670715332],[91.69250488300001,34.69708252],[91.66510009800001,34.713317871],[91.618530273,34.743286133],[91.58508300800001,34.765319824],[91.55432128900001,34.780700684],[91.52929687500001,34.801879883],[91.49969482400002,34.817504883],[91.451721191,34.82208252],[91.41027832000002,34.824279785],[91.37451171900001,34.826721191],[91.33489990200002,34.831726074],[91.29107666000002,34.832275391],[91.24908447300001,34.840698242],[91.20031738300001,34.823913574],[91.18170166000002,34.794494629],[91.14648437500001,34.777282715],[91.11389160200001,34.787902832],[91.07971191400001,34.787109375],[91.053283691,34.761291504],[91.03210449200002,34.735473633],[90.994689941,34.740478516],[90.96691894500002,34.779724121],[90.95068359400001,34.817504883],[90.92407226600001,34.846679687],[90.88928222700001,34.868530273],[90.85107421900001,34.874694824],[90.812683105,34.872314453],[90.77893066400001,34.877929687],[90.718505859,34.888671875],[90.68371582000002,34.900695801],[90.61248779300001,34.917114258],[90.56927490200002,34.916870117],[90.51391601600001,34.920288086],[90.479492187,34.92388916],[90.43591308600001,34.921875],[90.37731933600001,34.928100586],[90.31951904300001,34.935302734],[90.277893066,34.931884766],[90.23968505900001,34.916870117],[90.21649169900002,34.896484375],[90.18908691400001,34.871276855],[90.14288330100001,34.871520996],[90.10571289100001,34.894470215],[90.07409668000001,34.910095215],[90.03192138700001,34.90612793],[89.98748779300001,34.890686035],[89.920471191,34.875671387],[89.89111328100002,34.897521973],[89.85888671900001,34.912902832],[89.77587890600002,34.894287109],[89.82067871100001,34.877502441],[89.829101562,34.853515625],[89.85229492200001,34.816711426],[89.86932373,34.804077148],[89.80889892600001,34.752685547],[89.77691650400001,34.740112305],[89.73950195300002,34.727722168],[89.71008300800001,34.662109375],[89.746276855,34.670898437],[89.81048584000001,34.623474121],[89.78991699200002,34.564086914],[89.81311035200001,34.552490234],[89.81671142600001,34.49987793],[89.83410644500002,34.458312988],[89.83227539100001,34.417297363],[89.836486816,34.405273437],[89.85229492200001,34.361877441],[89.88427734400001,34.329101562],[89.877502441,34.290100098],[89.842712402,34.241699219],[89.83190918000001,34.182922363],[89.81207275400001,34.158874512],[89.78790283200001,34.130493164],[89.70971679700001,34.141906738],[89.65850830100001,34.070129395],[89.68627929700001,34.058288574],[89.69647216800001,33.988708496],[89.74847412100002,33.948486328],[89.780273437,33.903076172],[89.82330322300001,33.857727051],[89.85870361300002,33.850891113],[89.89727783200001,33.835510254],[89.945129395,33.819091797],[89.95629882800002,33.792907715],[89.92590332000002,33.74987793],[89.984924316,33.719726562],[90.00891113300001,33.67388916],[89.987670898,33.62512207],[90.00732421900001,33.613891602],[90.19732666000002,33.532897949],[90.24572753900001,33.477478027],[90.27612304700001,33.440917969],[90.28448486300002,33.388916016],[90.31408691400001,33.355712891],[90.38629150400001,33.305908203],[90.41589355500001,33.262878418],[90.480285645,33.258728027],[90.49890136700002,33.250915527],[90.579101562,33.222290039],[90.58209228500002,33.22052002],[90.68371582000002,33.157714844],[90.76849365200002,33.105285645],[90.88488769500002,33.122924805],[90.96630859400001,33.190917969],[90.99969482400002,33.241271973],[91.038879395,33.225708008],[91.13208007800002,33.202270508],[91.212280273,33.270874023],[91.234924316,33.302307129],[91.30950927700002,33.3203125],[91.420471191,33.277709961],[91.38153076200001,33.244689941],[91.38909912100002,33.207885742],[91.43487548800002,33.196899414],[91.46948242200001,33.176879883],[91.61608886700002,33.021484375],[91.69750976600001,32.969909668],[91.753295898,32.948486328],[91.859924316,32.970092773],[91.92028808600001,32.92767334],[91.96508789100001,32.860473633],[92.00311279300001,32.824707031],[92.153686523,32.860717773],[92.254882812,32.835876465],[92.25628662100002,32.795471191],[92.28369140600002,32.714904785],[92.28448486300002,32.71307373],[92.33111572300001,32.760498047],[92.36431884800001,32.744689941],[92.39532470700001,32.778930664],[92.52569580100001,32.706115723],[92.59790039100001,32.727294922],[92.61029052700002,32.725280762]]],[[[92.92431640600002,39.172912598],[92.92767334000001,39.166687012],[92.863098145,39.146728516],[92.747070312,39.132324219],[92.64111328100002,39.126281738],[92.54711914100001,39.124694824],[92.47412109400001,39.065490723],[92.429504395,39.052307129],[92.39031982400002,38.976928711],[92.25048828100002,38.998474121],[92.20611572300001,38.960083008],[92.02551269500002,38.942504883],[91.969726562,38.917724609],[91.89807128900001,38.86907959],[91.80670166000002,38.839111328],[91.737304687,38.840270996],[91.65411377,38.834899902],[91.57849121100001,38.813476562],[91.47210693400001,38.762329102],[91.40148925800001,38.763916016],[91.32891845700001,38.716674805],[91.29528808600001,38.713500977],[91.20007324200002,38.708679199],[91.13568115200002,38.676086426],[91.01751709000001,38.668701172],[90.91510009800001,38.655517578],[90.82348632800002,38.641113281],[90.74188232400002,38.648925781],[90.69592285200001,38.655700684],[90.594299316,38.639526367],[90.52508544900002,38.576904297],[90.48431396500001,38.573486328],[90.46508789100001,38.56048584],[90.34912109400001,38.460083008],[90.27307128900001,38.433105469],[90.19891357400002,38.426330566],[90.178710937,38.332885742],[90.28332519500002,38.211730957],[90.32952880900001,38.175476074],[90.48211669900002,38.027282715],[90.460327148,37.961730957],[90.41607666000002,37.905273437],[90.45489502,37.85168457],[90.40911865200002,37.787902832],[90.48071289100001,37.76171875],[90.62347412100002,37.705871582],[90.73071289100001,37.663513184],[90.78588867200001,37.641113281],[90.83227539100001,37.638122559],[90.88110351600001,37.575927734],[90.84832763700001,37.525085449],[90.91210937500001,37.504882812],[90.96472168000001,37.482116699],[91.120117187,37.448913574],[91.144287109,37.401489258],[91.17028808600001,37.297302246],[91.22912597700001,37.239318848],[91.27911377,37.18347168],[91.33929443400001,37.129272461],[91.30712890600002,37.061523437],[91.303283691,37.015075684],[91.26489257800002,37.011291504],[91.17889404300001,37.025085449],[91.11688232400002,36.951477051],[91.06329345700001,36.960693359],[91.05889892600001,36.936523437],[91.035705566,36.936706543],[90.97088623,36.91607666],[90.85308837900001,36.894897461],[90.80230712900001,36.829528809],[90.75592041000002,36.81072998],[90.72369384800001,36.777893066],[90.77209472700001,36.719482422],[90.738098145,36.697875977],[90.75909423800002,36.647094727],[90.76947021500001,36.62890625],[90.77392578100002,36.569885254],[90.87030029300001,36.560302734],[90.97967529300001,36.529907227],[91.05767822300001,36.509277344],[91.05987548800002,36.453674316],[91.07928466800001,36.408874512],[91.077514648,36.336486816],[91.11669921900001,36.332519531],[91.09832763700001,36.275695801],[91.12628173800002,36.251098633],[91.13751220700001,36.205688477],[91.14031982400002,36.157470703],[91.143920898,36.11932373],[91.143127441,36.117126465],[91.170898437,36.098693848],[91.21527099600002,36.109313965],[91.25207519500002,36.114929199],[91.30029296900001,36.091308594],[91.33050537100002,36.075317383],[91.36169433600001,36.062683105],[91.41412353500002,36.064086914],[91.45611572300001,36.071105957],[91.49047851600001,36.067687988],[91.535705566,36.063903809],[91.58831787100002,36.049499512],[91.63128662100002,36.031677246],[91.67529296900001,36.015319824],[91.70971679700001,36.00769043],[91.74768066400001,36.008117676],[91.78552246100001,36.010498047],[91.82409668000001,36.018920898],[91.86749267600001,36.021911621],[91.90307617200001,36.017272949],[91.93811035200001,36.005126953],[91.96911621100001,35.990478516],[91.99688720700001,35.974121094],[92.03552246100001,35.957519531],[92.08209228500002,35.940917969],[92.12030029300001,35.930725098],[92.16949462900001,35.919311523],[92.220092773,35.909118652],[92.25512695300002,35.906921387],[92.295471191,35.902893066],[92.34271240200002,35.897277832],[92.38592529300001,35.893493652],[92.43011474600002,35.890686035],[92.46990966800001,35.888122559],[92.52209472700001,35.88470459],[92.58551025400001,35.87890625],[92.63232421900001,35.874694824],[92.67230224600002,35.870483398],[92.70947265600002,35.868286133],[92.75689697300001,35.863098145],[92.79791259800001,35.858886719],[92.83367919900002,35.855285645],[92.86767578100002,35.852722168],[92.92687988300001,35.845275879],[92.96990966800001,35.834899902],[93.01129150400001,35.8203125],[93.05432128900001,35.806518555],[93.10852050800001,35.793518066],[93.14892578100002,35.788879395],[93.21008300800001,35.779296875],[93.25128173800002,35.77331543],[93.30987548800002,35.772094727],[93.36352539100001,35.765930176],[93.42767334000001,35.758300781],[93.47229003900001,35.755310059],[93.50689697300001,35.751708984],[93.56048584000001,35.745910645],[93.59729003900001,35.741699219],[93.63110351600001,35.738891602],[93.66912841800001,35.734680176],[93.70989990200002,35.727478027],[93.77227783200001,35.718688965],[93.844299316,35.707519531],[93.90490722700001,35.695678711],[93.94250488300001,35.689086914],[93.99328613300001,35.679077148],[94.04248046900001,35.651672363],[94.11132812500001,35.652709961],[94.15850830100001,35.646484375],[94.23449707000002,35.632873535],[94.27667236300002,35.630126953],[94.31732177700002,35.627502441],[94.36029052700002,35.623474121],[94.40570068400001,35.618286133],[94.44030761700002,35.613708496],[94.488098145,35.602294922],[94.52392578100002,35.601318359],[94.56011962900001,35.592102051],[94.55889892600001,35.555114746],[94.54748535200001,35.529296875],[94.545898437,35.495483398],[94.55389404300001,35.460876465],[94.585327148,35.449279785],[94.61889648400002,35.451293945],[94.653686523,35.460510254],[94.687683105,35.450500488],[94.73828125000001,35.444274902],[94.78527832000002,35.451293945],[94.82507324200002,35.456115723],[94.85809326200001,35.437316895],[94.905273437,35.434082031],[94.94592285200001,35.437927246],[94.98327636700002,35.432495117],[95.02227783200001,35.413085937],[95.05932617200001,35.39251709],[95.09289550800001,35.385070801],[95.15588378900001,35.366516113],[95.18548584000001,35.353881836],[95.23510742200001,35.340087891],[95.277893066,35.325073242],[95.304504395,35.309082031],[95.32568359400001,35.287719727],[95.34631347700001,35.259521484],[95.370910645,35.241271973],[95.403320312,35.223693848],[95.43432617200001,35.204284668],[95.48413085900002,35.205078125],[95.52429199200002,35.211486816],[95.56408691400001,35.196289062],[95.60668945300002,35.193908691],[95.62469482400002,35.164916992],[95.636901855,35.128112793],[95.65289306600002,35.093688965],[95.68371582000002,35.075317383],[95.738098145,35.089904785],[95.77227783200001,35.100524902],[95.82928466800001,35.095275879],[95.86547851600001,35.087280273],[95.90069580100001,35.085876465],[95.96588134800001,35.104675293],[95.99810791000002,35.122924805],[96.02893066400001,35.138671875],[96.06787109400001,35.151672363],[96.11889648400002,35.158081055],[96.14208984400001,35.183288574],[96.13592529300001,35.217285156],[96.13287353500002,35.245117187],[96.15112304700001,35.272705078],[96.18029785200001,35.294128418],[96.20111084000001,35.320129395],[96.22430419900002,35.348510742],[96.25653076200001,35.357910156],[96.32373046900001,35.355102539],[96.35729980500001,35.352478027],[96.40771484400001,35.348510742],[96.44970703100002,35.340698242],[96.46752929700001,35.311706543],[96.48107910200001,35.277709961],[96.528686523,35.254516602],[96.57507324200002,35.234924316],[96.60870361300002,35.224121094],[96.64288330100001,35.215087891],[96.67468261700002,35.225708008],[96.69012451200001,35.251098633],[96.69372558600001,35.286682129],[96.71850585900002,35.306884766],[96.75909423800002,35.321716309],[96.79089355500001,35.345703125],[96.813476562,35.37109375],[96.871276855,35.409729004],[96.91870117200001,35.431274414],[96.95611572300001,35.44329834],[96.99609375000001,35.465270996],[97.044311523,35.455322266],[97.06408691400001,35.424926758],[97.07952880900001,35.381896973],[97.10772705100001,35.352111816],[97.13848877,35.340881348],[97.171691895,35.335510254],[97.20532226600001,35.317871094],[97.24609375000001,35.318481445],[97.28192138700001,35.31427002],[97.31170654300001,35.297119141],[97.35992431600002,35.292480469],[97.41290283200001,35.301513672],[97.452514648,35.299682617],[97.49267578100002,35.279296875],[97.52587890600002,35.256713867],[97.552124023,35.234924316],[97.58807373,35.248291016],[97.59527587900001,35.290893555],[97.60272216800001,35.33190918],[97.61169433600001,35.362670898],[97.63208007800002,35.39251709],[97.66552734400001,35.384887695],[97.70507812500001,35.352478027],[97.73547363300001,35.338684082],[97.79071044900002,35.325683594],[97.84289550800001,35.309509277],[97.88311767600001,35.3046875],[97.93267822300001,35.297485352],[97.99688720700001,35.287902832],[98.04168701200001,35.296508789],[98.07373046900001,35.314697266],[98.09252929700001,35.336730957],[98.11151123,35.36328125],[98.17468261700002,35.383483887],[98.21911621100001,35.408325195],[98.25347900400001,35.431518555],[98.28790283200001,35.450683594],[98.32531738300001,35.465515137],[98.36529541000002,35.47088623],[98.40148925800001,35.469299316],[98.47528076200001,35.472106934],[98.53009033200001,35.460876465],[98.58148193400001,35.459106445],[98.63171386700002,35.472900391],[98.66210937500001,35.505310059],[98.695129395,35.517883301],[98.74072265600002,35.529907227],[98.77972412100002,35.556274414],[98.79010009800001,35.581726074],[98.81408691400001,35.604919434],[98.84527587900001,35.58190918],[98.88208007800002,35.551513672],[98.92431640600002,35.544921875],[98.96569824200002,35.547912598],[98.99768066400001,35.571472168],[99.03167724600002,35.591918945],[99.08111572300001,35.611877441],[99.120117187,35.616088867],[99.17291259800001,35.616882324],[99.21728515600002,35.617675781],[99.25268554700001,35.655090332],[99.25811767600001,35.687683105],[99.27667236300002,35.717712402],[99.23413085900002,35.725280762],[99.20349121100001,35.75189209],[99.18969726600001,35.782897949],[99.14508056600002,35.813720703],[99.12628173800002,35.856689453],[99.12487793000001,35.894287109],[99.11828613300001,35.920471191],[99.09527587900001,35.954101562],[99.08227539100001,35.988708496],[99.06927490200002,36.017700195],[99.05010986300002,36.04510498],[99.02868652300002,36.068115234],[99.00927734400001,36.097473145],[99.00689697300001,36.150512695],[99.03088378900001,36.182312012],[99.05889892600001,36.228515625],[99.07647705100001,36.262084961],[99.08428955100001,36.293273926],[99.07672119100002,36.32409668],[99.046691895,36.352722168],[99.01812744100002,36.397277832],[99.07330322300001,36.42767334],[99.12310791000002,36.442687988],[99.16687011700002,36.45489502],[99.21289062500001,36.474487305],[99.24127197300001,36.491699219],[99.26708984400001,36.520324707],[99.27032470700001,36.558288574],[99.25427246100001,36.594482422],[99.26068115200002,36.634887695],[99.28588867200001,36.668884277],[99.30688476600001,36.699890137],[99.32550048800002,36.732727051],[99.33190918000001,36.762878418],[99.31768798800002,36.796081543],[99.296875,36.830078125],[99.27972412100002,36.864501953],[99.26727294900002,36.909729004],[99.26593017600001,36.960083008],[99.26470947300001,36.99230957],[99.25872802700002,37.024108887],[99.26007080100001,37.051330566],[99.27789306600002,37.081726074],[99.32110595700001,37.090881348],[99.354492187,37.072692871],[99.39770507800002,37.05847168],[99.43188476600001,37.041320801],[99.47308349600002,37.044494629],[99.48931884800001,37.079284668],[99.45031738300001,37.13848877],[99.43969726600001,37.16607666],[99.42510986300002,37.192687988],[99.41632080100001,37.225891113],[99.41247558600001,37.258728027],[99.41491699200002,37.294677734],[99.42651367200001,37.323730469],[99.44091796900001,37.354919434],[99.45727539100001,37.399475098],[99.46911621100001,37.440490723],[99.48132324200002,37.48828125],[99.49389648400002,37.519897461],[99.52111816400001,37.549316406],[99.55627441400001,37.588928223],[99.62329101600001,37.618286133],[99.66369628900001,37.637512207],[99.68450927700002,37.664306641],[99.67132568400001,37.699279785],[99.66149902300002,37.736877441],[99.65148925800001,37.771728516],[99.63507080100001,37.809875488],[99.59710693400001,37.832275391],[99.55749511700002,37.841491699],[99.51287841800001,37.84588623],[99.46649169900002,37.847106934],[99.42449951200001,37.862121582],[99.37072753900001,37.878112793],[99.33410644500002,37.896728516],[99.304504395,37.928100586],[99.28851318400001,37.954711914],[99.28131103500002,37.981323242],[99.26367187500001,38.018127441],[99.22869873,38.038085937],[99.18170166000002,38.065673828],[99.14251709000001,38.096923828],[99.13189697300001,38.134094238],[99.10491943400001,38.15411377],[99.04852294900002,38.153503418],[99.00970459000001,38.151672363],[98.97149658200001,38.159729004],[98.92633056600002,38.19128418],[98.90411377,38.226318359],[98.894714355,38.261291504],[98.89349365200002,38.289672852],[98.91888427700002,38.31451416],[98.92572021500001,38.346130371],[98.95672607400002,38.36730957],[98.98327636700002,38.388122559],[98.97192382800002,38.419677734],[98.94329834000001,38.440917969],[98.89410400400001,38.460510254],[98.84887695300002,38.467895508],[98.80230712900001,38.477111816],[98.73968505900001,38.492675781],[98.69030761700002,38.506713867],[98.65747070300002,38.51751709],[98.60589599600002,38.52947998],[98.54608154300001,38.552490234],[98.519714355,38.574279785],[98.48571777300002,38.591125488],[98.44592285200001,38.59588623],[98.40191650400001,38.596923828],[98.36108398400002,38.610473633],[98.335327148,38.631286621],[98.30590820300002,38.653320312],[98.26312255900001,38.653686523],[98.22412109400001,38.650512695],[98.19049072300001,38.663513184],[98.16607666000002,38.690917969],[98.15270996100001,38.716125488],[98.12432861300002,38.760314941],[98.11370849600002,38.808105469],[98.09368896500001,38.783874512],[98.01367187500001,38.782897949],[98.00427246100001,38.840881348],[97.92211914100001,38.87512207],[97.70788574200002,38.927490234],[97.677124023,38.957702637],[97.64172363300001,38.99987793],[97.54010009800001,39.04107666],[97.44787597700001,39.110900879],[97.38067627,39.154724121],[97.345092773,39.17767334],[97.18231201200001,39.221130371],[97.14630127,39.230712891],[96.987304687,39.18927002],[96.96392822300001,39.127075195],[96.929870605,39.084472656],[97.00891113300001,39.012878418],[96.99908447300001,38.967285156],[97.00567627,38.916870117],[96.995483398,38.87310791],[96.97070312500001,38.779724121],[97.00012207000002,38.712097168],[96.95147705100001,38.673278809],[96.96411132800002,38.629089355],[97.00128173800002,38.5703125],[96.98748779300001,38.508117676],[96.98712158200001,38.434326172],[96.99389648400002,38.394714355],[96.99108886700002,38.363525391],[96.97631835900002,38.355712891],[96.90112304700001,38.342102051],[96.81988525400001,38.340087891],[96.76171875000001,38.346496582],[96.712280273,38.372497559],[96.67468261700002,38.399475098],[96.63549804700001,38.414123535],[96.58508300800001,38.421508789],[96.53729248,38.459899902],[96.52490234400001,38.483276367],[96.52288818400001,38.517272949],[96.52893066400001,38.533874512],[96.36950683600001,38.581726074],[96.30511474600002,38.617919922],[96.261901855,38.616699219],[96.24652099600002,38.616088867],[96.16271972700001,38.628479004],[96.04327392600001,38.707275391],[95.99291992200001,38.754516602],[95.90667724600002,38.779296875],[95.87268066400001,38.809509277],[95.77227783200001,38.851501465],[95.72991943400001,38.845092773],[95.69671630900001,38.881713867],[95.67651367200001,38.925109863],[95.61468505900001,38.999694824],[95.54992675800001,39.015930176],[95.49871826200001,39.028076172],[95.48632812500001,39.049072266],[95.41247558600001,39.080322266],[95.34692382800002,39.130310059],[95.27111816400001,39.218505859],[95.26147460900002,39.218322754],[95.21789550800001,39.204284668],[95.11090087900001,39.180725098],[95.04827880900001,39.201293945],[95.02569580100001,39.213928223],[95.00311279300001,39.219482422],[94.89752197300001,39.252075195],[94.86090087900001,39.239929199],[94.81768798800002,39.234924316],[94.76947021500001,39.23828125],[94.69232177700002,39.24810791],[94.65509033200001,39.260681152],[94.63092041000002,39.285705566],[94.60772705100001,39.297119141],[94.59112548800002,39.305297852],[94.52490234400001,39.308288574],[94.44128418000001,39.30291748],[94.40270996100001,39.304504395],[94.304077148,39.319702148],[94.20672607400002,39.339477539],[94.13012695300002,39.307678223],[94.12371826200001,39.276489258],[94.08569335900002,39.280883789],[94.05767822300001,39.272094727],[93.99847412100002,39.271118164],[93.85430908200001,39.269714355],[93.80511474600002,39.276306152],[93.69171142600001,39.271118164],[93.62432861300002,39.273498535],[93.46392822300001,39.29107666],[93.453674316,39.272888184],[93.44207763700001,39.229125977],[93.36108398400002,39.196472168],[93.32788085900002,39.211120605],[93.29187011700002,39.185913086],[93.203125,39.178100586],[93.15710449200002,39.181091309],[93.11328125000001,39.158508301],[93.06750488300001,39.181274414],[93.043518066,39.166503906],[93.01287841800001,39.128479004],[92.92431640600002,39.172912598]]]]}}
