{"type":"Feature","id":"bulk-99377448B27121273796523","bbox":[118.370910645,33.982116699,119.77331543000001,35.105285645],"properties":{"id":"bulk-99377448B27121273796523","name":"Lianyungang","nameEn":"Lianyungang","fullName":"Lianyungang","level":"city","boundaryRole":"administrative-extent","boundaryQuality":"generalized-source-2020","boundaryYearRepresented":"2020","bounds":[[118.370910645,33.982116699],[119.77331543000001,35.105285645]],"center":[119.0721130375,34.543701172],"centerMethod":"bounding-box midpoint; camera framing only","license":"CC-BY-3.0-IGO","attribution":"geoBoundaries / HDX, China administrative boundaries (2020)","source":{"provider":"geoBoundaries gbHumanitarian / HDX","url":"https://github.com/wmgeolab/geoBoundaries/raw/9469f09/releaseData/gbHumanitarian/CHN/ADM2/geoBoundaries-CHN-ADM2.geojson","metadataUrl":"https://www.geoboundaries.org/api/current/gbHumanitarian/CHN/ADM2/","shapeID":"99377448B27121273796523","shapeName":"Lianyungang","boundaryID":"CHN-ADM2-99377448","commit":"9469f09"},"geometryCounts":{"coordinates":184,"components":1,"holes":0},"boundaryNotice":"geoBoundaries / HDX 2020 年行政区数据，海岸和边界经过源数据概化，并非当前测绘成果。"},"geometry":{"type":"Polygon","coordinates":[[[119.54370117200001,34.030273437],[119.55609130900001,34.0625],[119.53552246100001,34.093322754],[119.50531005900001,34.112487793],[119.50408935500002,34.142089844],[119.48150634800001,34.162109375],[119.49108886700002,34.194274902],[119.51910400400001,34.209899902],[119.55267334000001,34.212524414],[119.58630371100001,34.220092773],[119.61547851600001,34.235473633],[119.64971923800002,34.251281738],[119.69128418000001,34.269104004],[119.71209716800001,34.29309082],[119.71868896500001,34.327087402],[119.74908447300001,34.356506348],[119.77331543000001,34.384277344],[119.74572753900001,34.440917969],[119.76849365200002,34.492492676],[119.76171875000001,34.504089355],[119.74047851600001,34.515686035],[119.72113037100002,34.524291992],[119.69592285200001,34.530700684],[119.69451904300001,34.530883789],[119.68707275400001,34.525085449],[119.68011474600002,34.526916504],[119.67248535200001,34.524902344],[119.66809082000002,34.52532959],[119.66192627,34.530517578],[119.64569091800001,34.516479492],[119.61853027300002,34.496704102],[119.60131835900002,34.475280762],[119.58691406200002,34.468322754],[119.57092285200001,34.466918945],[119.54772949200002,34.470275879],[119.53009033200001,34.485900879],[119.50610351600001,34.49230957],[119.51849365200002,34.49230957],[119.53210449200002,34.49230957],[119.55047607400002,34.494506836],[119.56591796900001,34.500488281],[119.58190918000001,34.512084961],[119.60449218700002,34.523071289],[119.62451171900001,34.538696289],[119.62908935500002,34.549316406],[119.63189697300001,34.56427002],[119.62268066400001,34.570129395],[119.60687255900001,34.575317383],[119.60028076200001,34.577697754],[119.59387207000002,34.582519531],[119.57592773400002,34.588317871],[119.53692627,34.602905273],[119.50091552700002,34.615478516],[119.47387695300002,34.625671387],[119.46173095700001,34.639099121],[119.44873046900001,34.65447998],[119.44812011700002,34.678100586],[119.45111084000001,34.682312012],[119.45092773400002,34.684875488],[119.45391845700001,34.686096191],[119.46051025400001,34.695129395],[119.46209716800001,34.69909668],[119.46527099600002,34.701721191],[119.46691894500002,34.703674316],[119.47229003900001,34.715270996],[119.46990966800001,34.718688965],[119.47088623000002,34.72088623],[119.45812988300001,34.726928711],[119.42291259800001,34.725097656],[119.39270019500002,34.739929199],[119.38769531200002,34.742675781],[119.38708496100001,34.742675781],[119.37707519500002,34.74609375],[119.37072753900001,34.74987793],[119.36669921900001,34.754516602],[119.36651611300002,34.754699707],[119.36187744100002,34.757324219],[119.32690429700001,34.759887695],[119.32891845700001,34.755310059],[119.32989502,34.751708984],[119.32769775400001,34.745727539],[119.31427002,34.738525391],[119.30352783200001,34.737487793],[119.30151367200001,34.737670898],[119.30072021500001,34.73651123],[119.296875,34.737915039],[119.28051757800002,34.739318848],[119.26348877,34.746887207],[119.26007080100001,34.752075195],[119.24627685500002,34.757507324],[119.21868896500001,34.767089844],[119.21508789100001,34.758300781],[119.20629882800002,34.75567627],[119.20727539100001,34.769714355],[119.20727539100001,34.771118164],[119.19592285200001,34.775512695],[119.18212890600002,34.791870117],[119.17987060500002,34.812683105],[119.14672851600001,34.831298828],[119.16668701200001,34.899475098],[119.16827392600001,34.912902832],[119.18109130900001,34.967895508],[119.19390869100002,35.011291504],[119.19689941400001,35.04888916],[119.222473145,35.07409668],[119.19049072300001,35.104125977],[119.18890380900001,35.104309082],[119.17388916000002,35.105285645],[119.12487793000001,35.097106934],[119.08312988300001,35.073120117],[119.03869628900001,35.053100586],[118.97692871100001,35.05090332],[118.93988037100002,35.050720215],[118.89410400400001,35.039489746],[118.83752441400001,35.043884277],[118.80468750000001,35.019470215],[118.80249023400002,35.017883301],[118.812316895,34.993286133],[118.82208252,34.957092285],[118.81927490200002,34.929870605],[118.78912353500002,34.906921387],[118.75750732400002,34.879699707],[118.75048828100002,34.866088867],[118.71569824200002,34.840698242],[118.71850585900002,34.823730469],[118.71728515600002,34.812316895],[118.70129394500002,34.796508789],[118.69769287100002,34.78692627],[118.69671630900001,34.784301758],[118.69732666000002,34.76751709],[118.71789550800001,34.751098633],[118.73132324200002,34.738708496],[118.72308349600002,34.713500977],[118.68969726600001,34.701477051],[118.65069580100001,34.688903809],[118.59289550800001,34.702087402],[118.54327392600001,34.695495605],[118.50610351600001,34.701293945],[118.49908447300001,34.701477051],[118.45471191400001,34.703674316],[118.44067382800002,34.68951416],[118.43267822300001,34.674926758],[118.43109130900001,34.629699707],[118.40551757800002,34.565917969],[118.40130615200002,34.525878906],[118.40429687500001,34.495483398],[118.39428710900002,34.460876465],[118.370910645,34.433288574],[118.41632080100001,34.407104492],[118.46447753900001,34.410705566],[118.50769043000001,34.419128418],[118.54650878900001,34.42388916],[118.59387207000002,34.425109863],[118.63067627,34.406921387],[118.63269043000001,34.370910645],[118.63031005900001,34.341125488],[118.66192627,34.320678711],[118.70532226600001,34.317077637],[118.73651123000002,34.304077148],[118.77069091800001,34.317321777],[118.80047607400002,34.344299316],[118.84448242200001,34.350891113],[118.90393066400001,34.346313477],[118.953125,34.358276367],[119.01367187500001,34.383300781],[119.04467773400002,34.329528809],[119.06268310500002,34.299926758],[119.06890869100002,34.263122559],[119.06811523400002,34.22869873],[119.07647705100001,34.198486328],[119.11071777300002,34.182678223],[119.11352539100001,34.132080078],[119.14709472700001,34.103515625],[119.15728759800001,34.066894531],[119.19909668000001,34.043273926],[119.23229980500001,34.02947998],[119.26690673800002,34.027893066],[119.31909179700001,34.025695801],[119.35308837900001,34.028320312],[119.39312744100002,34.002685547],[119.42272949200002,33.982116699],[119.47167968700002,33.998901367],[119.49688720700001,34.026672363],[119.54370117200001,34.030273437]]]}}
