{"type":"Feature","id":"bulk-99377448B73886307302798","bbox":[104.50488281200002,22.858703613,107.86010742200001,25.116516113],"properties":{"id":"bulk-99377448B73886307302798","name":"Baise","nameEn":"Baise","fullName":"Baise","level":"city","boundaryRole":"administrative-extent","boundaryQuality":"generalized-source-2020","boundaryYearRepresented":"2020","bounds":[[104.50488281200002,22.858703613],[107.86010742200001,25.116516113]],"center":[106.18249511700002,23.987609863],"centerMethod":"bounding-box midpoint; camera framing only","license":"CC-BY-3.0-IGO","attribution":"geoBoundaries / HDX, China administrative boundaries (2020)","source":{"provider":"geoBoundaries gbHumanitarian / HDX","url":"https://github.com/wmgeolab/geoBoundaries/raw/9469f09/releaseData/gbHumanitarian/CHN/ADM2/geoBoundaries-CHN-ADM2.geojson","metadataUrl":"https://www.geoboundaries.org/api/current/gbHumanitarian/CHN/ADM2/","shapeID":"99377448B73886307302798","shapeName":"Baise","boundaryID":"CHN-ADM2-99377448","commit":"9469f09"},"geometryCounts":{"coordinates":474,"components":1,"holes":0},"boundaryNotice":"geoBoundaries / HDX 2020 年行政区数据，海岸和边界经过源数据概化，并非当前测绘成果。"},"geometry":{"type":"Polygon","coordinates":[[[107.81408691400001,23.396484375],[107.83367919900002,23.429870605],[107.86010742200001,23.448120117],[107.85827636700002,23.487487793],[107.80950927700002,23.457092285],[107.76708984400001,23.448303223],[107.73651123000002,23.470703125],[107.72308349600002,23.515075684],[107.70349121100001,23.551513672],[107.68829345700001,23.577087402],[107.68151855500001,23.605895996],[107.68487548800002,23.637329102],[107.71771240200002,23.666687012],[107.75567627,23.678527832],[107.78808593700002,23.688293457],[107.80871582000002,23.734313965],[107.78088378900001,23.751098633],[107.75347900400001,23.770874023],[107.71392822300001,23.784729004],[107.68347168000001,23.796691895],[107.64648437500001,23.803100586],[107.60748291000002,23.784301758],[107.56872558600001,23.799072266],[107.54949951200001,23.832702637],[107.53271484400001,23.876525879],[107.51812744100002,23.922485352],[107.48248291000002,23.905700684],[107.44207763700001,23.878723145],[107.41088867200001,23.886474609],[107.39227294900002,23.910095215],[107.36853027300002,23.935913086],[107.34527587900001,23.959899902],[107.30169677700002,23.960693359],[107.28607177700002,23.99810791],[107.26269531200002,24.024719238],[107.21972656200002,24.014282227],[107.18670654300001,24.008728027],[107.15087890600002,24.020324707],[107.12432861300002,24.038696289],[107.10632324200002,24.07409668],[107.07611084000001,24.100280762],[107.04510498000002,24.083129883],[107.01312255900001,24.06628418],[106.98272705100001,24.084472656],[106.95251464800002,24.120727539],[106.88128662100002,24.148681641],[106.85968017600001,24.182128906],[106.86853027300002,24.247070312],[106.90087890600002,24.255493164],[106.88848877,24.287475586],[106.87371826200001,24.311279297],[106.85192871100001,24.331481934],[106.84088134800001,24.370727539],[106.86071777300002,24.405700684],[106.87268066400001,24.438293457],[106.85412597700001,24.46270752],[106.81152343700002,24.468505859],[106.78588867200001,24.495300293],[106.77648925800001,24.530517578],[106.76867675800001,24.561523437],[106.75250244100002,24.586914062],[106.73669433600001,24.631286621],[106.71331787100002,24.657897949],[106.77307128900001,24.68371582],[106.79888916000002,24.708312988],[106.76007080100001,24.730102539],[106.70892334000001,24.754699707],[106.67108154300001,24.777893066],[106.64691162100002,24.80291748],[106.68908691400001,24.840515137],[106.73687744100002,24.833312988],[106.77587890600002,24.827880859],[106.78747558600001,24.856506348],[106.82910156200002,24.873291016],[106.86212158200001,24.901916504],[106.83148193400001,24.934875488],[106.78350830100001,24.946472168],[106.75109863300001,24.976318359],[106.71307373000002,25.017272949],[106.73968505900001,25.062927246],[106.74267578100002,25.090515137],[106.71087646500001,25.116516113],[106.67968750000001,25.105102539],[106.64910888700001,25.09552002],[106.61132812500001,25.08972168],[106.59387207000002,25.100891113],[106.53210449200002,25.088684082],[106.49371337900001,25.05871582],[106.44787597700001,25.013916016],[106.40112304700001,24.997924805],[106.37829589800002,24.975524902],[106.32312011700002,24.973693848],[106.28308105500001,24.986877441],[106.23651123000002,24.963500977],[106.20532226600001,24.955322266],[106.16851806600002,24.942321777],[106.20007324200002,24.890075684],[106.23327636700002,24.855285645],[106.21868896500001,24.825927734],[106.21173095700001,24.804077148],[106.20428466800001,24.789306641],[106.19049072300001,24.745483398],[106.13708496100001,24.700317383],[106.10607910200001,24.692077637],[106.07568359400001,24.662109375],[106.03051757800002,24.617126465],[105.99047851600001,24.630126953],[105.96490478500002,24.672485352],[105.93908691400001,24.721923828],[105.89971923800002,24.72052002],[105.86071777300002,24.711914062],[105.83728027300002,24.703674316],[105.79052734400001,24.694702148],[105.74847412100002,24.750915527],[105.73187255900001,24.764709473],[105.70050048800002,24.763305664],[105.68469238300001,24.762695312],[105.66827392600001,24.776489258],[105.66027832000002,24.776306152],[105.64428710900002,24.782897949],[105.62030029300001,24.789123535],[105.57287597700001,24.787109375],[105.53247070300002,24.807128906],[105.50811767600001,24.820678711],[105.49047851600001,24.855895996],[105.47332763700001,24.884094238],[105.45611572300001,24.91229248],[105.45452880900001,24.929504395],[105.42352294900002,24.932495117],[105.37609863300001,24.930480957],[105.35290527300002,24.922302246],[105.32128906200002,24.921081543],[105.28967285200001,24.919677734],[105.26568603500002,24.92590332],[105.25592041000002,24.961486816],[105.24609375000001,24.997070312],[105.22912597700001,25.018127441],[105.20550537100002,25.017089844],[105.19830322300001,25.002319336],[105.18328857400002,24.987121582],[105.16027832000002,24.971679687],[105.14569091800001,24.949523926],[105.12292480500001,24.934082031],[105.09948730500001,24.925720215],[105.08648681600002,24.92388916],[105.046691895,24.858520508],[105.02392578100002,24.823120117],[104.99212646500001,24.808105469],[104.91192627,24.741882324],[104.89569091800001,24.6796875],[104.81591796900001,24.658508301],[104.78289794900002,24.649902344],[104.75250244100002,24.614929199],[104.70672607400002,24.605529785],[104.70452880900001,24.640686035],[104.69067382800002,24.642700195],[104.66729736300002,24.653320312],[104.62048339800002,24.678100586],[104.60430908200001,24.700073242],[104.56292724600002,24.742492676],[104.55908203100002,24.730285645],[104.53387451200001,24.720092773],[104.50769043000001,24.683288574],[104.50549316400001,24.570678711],[104.50488281200002,24.548278809],[104.54272460900002,24.49407959],[104.54052734400001,24.445678711],[104.57727050800001,24.410705566],[104.61492919900002,24.374511719],[104.67291259800001,24.324890137],[104.72332763700001,24.387878418],[104.73608398400002,24.43927002],[104.77807617200001,24.462280273],[104.79650878900001,24.431274414],[104.83190918000001,24.452087402],[104.91131591800001,24.422302246],[104.94610595700001,24.414916992],[105.02191162100002,24.432922363],[105.07672119100002,24.437072754],[105.12152099600002,24.391296387],[105.19232177700002,24.374511719],[105.20068359400001,24.31048584],[105.23889160200001,24.201721191],[105.19812011700002,24.172729492],[105.18450927700002,24.134094238],[105.26007080100001,24.075683594],[105.355285645,24.091674805],[105.40930175800001,24.051330566],[105.47149658200001,24.022277832],[105.49627685500002,24.040710449],[105.54248046900001,24.075073242],[105.57110595700001,24.091674805],[105.60632324200002,24.112121582],[105.64990234400001,24.061279297],[105.65087890600002,24.039489746],[105.73309326200001,24.086303711],[105.86529541000002,24.045288086],[105.87310791000002,24.087280273],[105.96173095700001,24.123291016],[106.02709960900002,24.083129883],[106.02410888700001,24.062072754],[106.07427978500002,24.033874512],[106.11291503900001,24.004516602],[106.10107421900001,23.979125977],[106.08428955100001,23.942687988],[106.15911865200002,23.908325195],[106.19189453100002,23.869506836],[106.17572021500001,23.835510254],[106.15472412100002,23.80291748],[106.13769531200002,23.766906738],[106.15252685500002,23.713928223],[106.11968994100002,23.640075684],[106.12609863300001,23.616088867],[106.13470459000001,23.584472656],[106.12988281200002,23.577697754],[106.09613037100002,23.528686523],[106.07330322300001,23.509521484],[106.05767822300001,23.496276855],[106.03808593700002,23.47467041],[106.02008056600002,23.46307373],[106.00769043000001,23.457275391],[105.99072265600002,23.48828125],[105.93011474600002,23.49609375],[105.88012695300002,23.522277832],[105.84167480500001,23.51348877],[105.78668212900001,23.456115723],[105.74267578100002,23.419677734],[105.68127441400001,23.400085449],[105.65570068400001,23.386291504],[105.69268798800002,23.346923828],[105.63171386700002,23.320922852],[105.59332275400001,23.310119629],[105.56268310500002,23.279907227],[105.54608154300001,23.241882324],[105.51208496100001,23.208679199],[105.51727294900002,23.202514648],[105.50628662100002,23.199707031],[105.51391601600001,23.196472168],[105.51550293000001,23.198120117],[105.52191162100002,23.192077637],[105.52929687500001,23.187683105],[105.53131103500002,23.191101074],[105.53070068400001,23.1953125],[105.53387451200001,23.198913574],[105.54388427700002,23.19329834],[105.55670166000002,23.180725098],[105.55871582000002,23.170898437],[105.57568359400001,23.162719727],[105.58190918000001,23.136291504],[105.58532714800002,23.073730469],[105.58288574200002,23.064880371],[105.58850097700001,23.063903809],[105.59271240200002,23.075927734],[105.59729003900001,23.077697754],[105.60772705100001,23.076293945],[105.60968017600001,23.07232666],[105.61767578100002,23.069274902],[105.62292480500001,23.070129395],[105.62707519500002,23.07208252],[105.63049316400001,23.07989502],[105.63690185500002,23.081726074],[105.64367675800001,23.082092285],[105.65350341800001,23.075073242],[105.66131591800001,23.074707031],[105.66870117200001,23.071716309],[105.67687988300001,23.064086914],[105.69207763700001,23.062683105],[105.71008300800001,23.064086914],[105.71569824200002,23.06652832],[105.72729492200001,23.066101074],[105.73828125000001,23.06048584],[105.73529052700002,23.057495117],[105.73211669900002,23.047302246],[105.73651123000002,23.044494629],[105.75750732400002,23.029724121],[105.77947998000002,23.023925781],[105.78491210900002,23.018493652],[105.79412841800001,23.00189209],[105.80371093700002,22.994689941],[105.83111572300001,22.984313965],[105.83410644500002,22.97668457],[105.86853027300002,22.948486328],[105.88409423800002,22.920471191],[105.88452148400002,22.920715332],[105.88311767600001,22.925720215],[105.89093017600001,22.938720703],[105.90667724600002,22.943115234],[105.91107177700002,22.946105957],[105.92230224600002,22.943481445],[105.93170166000002,22.937683105],[105.95507812500001,22.940673828],[105.95611572300001,22.950683594],[105.96087646500001,22.95111084],[105.98229980500001,22.94708252],[105.98889160200001,22.941894531],[105.99389648400002,22.942077637],[105.99652099600002,22.943725586],[106.00012207000002,22.950500488],[106.00091552700002,22.95690918],[106.00592041000002,22.961486816],[106.00567627,22.968078613],[105.99530029300001,22.976928711],[106.00170898400002,22.981506348],[106.00207519500002,22.988098145],[106.00091552700002,22.991882324],[106.00231933600001,22.992919922],[106.01068115200002,22.991882324],[106.01849365200002,22.991088867],[106.02868652300002,22.99407959],[106.03588867200001,22.993713379],[106.04730224600002,22.994873047],[106.05249023400002,22.994506836],[106.05749511700002,22.988708496],[106.06811523400002,22.99432373],[106.07971191400001,22.991088867],[106.08990478500002,22.992919922],[106.10168457000002,22.992675781],[106.12390136700002,22.981872559],[106.12530517600001,22.986083984],[106.12231445300002,22.986328125],[106.12152099600002,22.988708496],[106.12249755900001,22.992492676],[106.12670898400002,22.997070312],[106.13250732400002,22.992919922],[106.14190673800002,22.989685059],[106.14752197300001,22.98828125],[106.15112304700001,22.989074707],[106.16149902300002,22.983276367],[106.16351318400001,22.980285645],[106.18127441400001,22.979919434],[106.18609619100002,22.981872559],[106.20068359400001,22.978271484],[106.20831298800002,22.970703125],[106.21649169900002,22.97052002],[106.21868896500001,22.970703125],[106.21868896500001,22.97052002],[106.22070312500001,22.970275879],[106.23010253900001,22.960693359],[106.23413085900002,22.955078125],[106.23730468700002,22.953125],[106.23687744100002,22.951477051],[106.24468994100002,22.940917969],[106.25909423800002,22.92767334],[106.27630615200002,22.896911621],[106.27728271500001,22.87310791],[106.28692627,22.868896484],[106.28991699200002,22.868530273],[106.29052734400001,22.873718262],[106.29412841800001,22.87689209],[106.30352783200001,22.871704102],[106.30932617200001,22.865112305],[106.31829834000001,22.867126465],[106.32031250000001,22.870117187],[106.32507324200002,22.871887207],[106.33691406200002,22.864074707],[106.34429931600002,22.859680176],[106.34790039100001,22.858703613],[106.355285645,22.860473633],[106.36212158200001,22.865905762],[106.36352539100001,22.867919922],[106.36608886700002,22.875915527],[106.36450195300002,22.879882812],[106.36767578100002,22.881286621],[106.37390136700002,22.87689209],[106.38970947300001,22.876708984],[106.39288330100001,22.878112793],[106.39367675800001,22.88067627],[106.40148925800001,22.882080078],[106.40649414100001,22.875488281],[106.40850830100001,22.87689209],[106.40972900400001,22.881530762],[106.40887451200001,22.887084961],[106.421875,22.893310547],[106.42248535200001,22.889282227],[106.42510986300002,22.885314941],[106.43188476600001,22.890075684],[106.44067382800002,22.890686035],[106.44372558600001,22.893310547],[106.44470214800002,22.895507812],[106.44348144500002,22.899108887],[106.44689941400001,22.902709961],[106.45172119100002,22.89831543],[106.45568847700001,22.891296387],[106.46173095700001,22.893676758],[106.46472168000001,22.897888184],[106.46588134800001,22.905883789],[106.47509765600002,22.910705566],[106.47808837900001,22.909729004],[106.48229980500001,22.904724121],[106.49029541000002,22.903686523],[106.49688720700001,22.906311035],[106.50170898400002,22.912719727],[106.50292968700002,22.916503906],[106.49890136700002,22.919677734],[106.49768066400001,22.924499512],[106.49987793000001,22.932495117],[106.50128173800002,22.93548584],[106.51007080100001,22.942871094],[106.52227783200001,22.950683594],[106.52947998000002,22.942687988],[106.54107666000002,22.943115234],[106.54351806600002,22.930480957],[106.55169677700002,22.924682617],[106.55908203100002,22.925109863],[106.56909179700001,22.922302246],[106.57208252,22.925109863],[106.58428955100001,22.931091309],[106.58770752,22.931884766],[106.59350585900002,22.932128906],[106.605285645,22.926696777],[106.605285645,22.921325684],[106.60711669900002,22.916320801],[106.61010742200001,22.916687012],[106.61267089800002,22.908508301],[106.61889648400002,22.899108887],[106.62847900400001,22.89251709],[106.62792968700002,22.886901855],[106.63549804700001,22.879882812],[106.64508056600002,22.876098633],[106.64709472700001,22.872070312],[106.65032959000001,22.867919922],[106.65228271500001,22.866088867],[106.65869140600002,22.871887207],[106.66290283200001,22.875305176],[106.66912841800001,22.87487793],[106.66967773400002,22.876708984],[106.66571044900002,22.881530762],[106.66772460900002,22.891479492],[106.66967773400002,22.893920898],[106.67669677700002,22.892700195],[106.67810058600001,22.888122559],[106.68011474600002,22.887084961],[106.67791748000002,22.942871094],[106.70147705100001,22.974121094],[106.730285645,23.002685547],[106.76428222700001,23.035705566],[106.79528808600001,23.070922852],[106.80029296900001,23.110290527],[106.75891113300001,23.150512695],[106.76208496100001,23.182922363],[106.78527832000002,23.207519531],[106.82287597700001,23.232116699],[106.84991455100001,23.245117187],[106.90148925800001,23.259277344],[106.91448974600002,23.288085937],[106.93627929700001,23.317687988],[106.98828125000001,23.343688965],[107.01129150400001,23.317321777],[107.05871582000002,23.289489746],[107.08190918000001,23.290283203],[107.12890625000001,23.276916504],[107.17510986300002,23.292724609],[107.19787597700001,23.307678223],[107.22027587900001,23.337280273],[107.24267578100002,23.366882324],[107.26507568400001,23.396484375],[107.32727050800001,23.402709961],[107.33929443400001,23.363891602],[107.32989502,23.328125],[107.33947753900001,23.300476074],[107.36688232400002,23.290283203],[107.40771484400001,23.276916504],[107.4375,23.271484375],[107.49371337900001,23.256530762],[107.53051757800002,23.236694336],[107.56347656200002,23.246520996],[107.56488037100002,23.277099609],[107.57611084000001,23.319702148],[107.60888671900001,23.312316895],[107.65051269500002,23.306274414],[107.69689941400001,23.324279785],[107.73547363300001,23.350280762],[107.78051757800002,23.367492676],[107.81408691400001,23.396484375]]]}}
