{"type":"Feature","id":"bulk-99377448B36786790153444","bbox":[90.08929443400001,27.72088623,93.49450683600001,29.789306641],"properties":{"id":"bulk-99377448B36786790153444","name":"Lhoka","nameEn":"Lhoka","fullName":"Lhoka","level":"city","boundaryRole":"administrative-extent","boundaryQuality":"generalized-source-2020","boundaryYearRepresented":"2020","bounds":[[90.08929443400001,27.72088623],[93.49450683600001,29.789306641]],"center":[91.79190063500002,28.7550964355],"centerMethod":"bounding-box midpoint; camera framing only","license":"CC-BY-3.0-IGO","attribution":"geoBoundaries / HDX, China administrative boundaries (2020)","source":{"provider":"geoBoundaries gbHumanitarian / HDX","url":"https://github.com/wmgeolab/geoBoundaries/raw/9469f09/releaseData/gbHumanitarian/CHN/ADM2/geoBoundaries-CHN-ADM2.geojson","metadataUrl":"https://www.geoboundaries.org/api/current/gbHumanitarian/CHN/ADM2/","shapeID":"99377448B36786790153444","shapeName":"Lhoka","boundaryID":"CHN-ADM2-99377448","commit":"9469f09"},"geometryCounts":{"coordinates":534,"components":2,"holes":0},"boundaryNotice":"geoBoundaries / HDX 2020 年行政区数据，海岸和边界经过源数据概化，并非当前测绘成果。"},"geometry":{"type":"MultiPolygon","coordinates":[[[[90.119689941,28.170288086],[90.120483398,28.172302246],[90.12170410200001,28.176696777],[90.12170410200001,28.183288574],[90.119689941,28.170288086]]],[[[90.37268066400001,29.291870117],[90.33349609400001,29.250671387],[90.31848144500002,29.200500488],[90.29449462900001,29.168884277],[90.26629638700001,29.153320312],[90.24810791000002,29.118530273],[90.24871826200001,29.087280273],[90.25030517600001,29.048278809],[90.22271728500002,29.019287109],[90.20867919900002,28.993530273],[90.201721191,28.965087891],[90.18829345700001,28.936096191],[90.18872070300002,28.906677246],[90.19451904300001,28.876525879],[90.17230224600002,28.856323242],[90.15948486300002,28.827880859],[90.16668701200001,28.801330566],[90.18890380900001,28.763122559],[90.195129395,28.730712891],[90.17730712900001,28.694091797],[90.112304687,28.668884277],[90.08929443400001,28.629699707],[90.09631347700001,28.603515625],[90.120910645,28.585327148],[90.14288330100001,28.54888916],[90.14947509800001,28.512878418],[90.12530517600001,28.484313965],[90.10272216800001,28.461486816],[90.094726562,28.423095703],[90.10308837900001,28.383483887],[90.12408447300001,28.361877441],[90.14447021500001,28.339477539],[90.14208984400001,28.308288574],[90.12347412100002,28.194274902],[90.14251709000001,28.193908691],[90.15490722700001,28.193115234],[90.163879395,28.19128418],[90.16528320300002,28.199707031],[90.16748046900001,28.21307373],[90.18707275400001,28.215698242],[90.21527099600002,28.191101074],[90.24108886700002,28.171691895],[90.29211425800001,28.172485352],[90.33288574200002,28.160888672],[90.34448242200001,28.157714844],[90.38110351600001,28.133483887],[90.42370605500001,28.110473633],[90.46728515600002,28.106323242],[90.49249267600001,28.094116211],[90.53851318400001,28.074279785],[90.59307861300002,28.06829834],[90.61907959000001,28.070129395],[90.65307617200001,28.065917969],[90.67730712900001,28.080322266],[90.71209716800001,28.094726562],[90.75592041000002,28.094116211],[90.80468750000001,28.061889648],[90.836486816,28.02947998],[90.86328125000001,28.009887695],[90.91271972700001,27.988891602],[90.96771240200002,27.962280273],[91.02392578100002,27.94329834],[91.14910888700001,27.905273437],[91.14849853500002,27.909484863],[91.14331054700001,27.927124023],[91.15087890600002,27.933898926],[91.15789794900002,27.940673828],[91.16247558600001,27.94732666],[91.16333007800002,27.957702637],[91.16210937500001,27.967895508],[91.16192627,27.97088623],[91.17309570300002,27.973510742],[91.18432617200001,27.979919434],[91.18829345700001,27.985473633],[91.19671630900001,27.989501953],[91.20452880900001,27.991088867],[91.21051025400001,27.99230957],[91.21490478500002,27.992675781],[91.21990966800001,27.989685059],[91.228271484,27.984313965],[91.23510742200001,27.979125977],[91.25549316400001,27.977294922],[91.25927734400001,27.979919434],[91.26550293000001,27.987121582],[91.270874023,27.992675781],[91.27307128900001,27.998291016],[91.27410888700001,28.00012207],[91.27447509800001,28.00390625],[91.277526855,28.01171875],[91.28308105500001,28.018310547],[91.28607177700002,28.022277832],[91.28833007800002,28.025878906],[91.29388427700002,28.02947998],[91.301330566,28.029296875],[91.30609130900001,28.033874512],[91.31127929700001,28.040710449],[91.311889648,28.045715332],[91.30871582000002,28.050292969],[91.30792236300002,28.056091309],[91.30847168000001,28.061279297],[91.31127929700001,28.063720703],[91.32269287100002,28.063293457],[91.33489990200002,28.064697266],[91.33929443400001,28.061523437],[91.34368896500001,28.058288574],[91.347473145,28.052124023],[91.34948730500001,28.04888916],[91.35070800800001,28.04888916],[91.36328125000001,28.04888916],[91.36407470700001,28.048278809],[91.38391113300001,28.053100586],[91.42431640600002,28.033874512],[91.43231201200001,28.026306152],[91.44989013700001,28.00970459],[91.45550537100002,28.009277344],[91.46368408200001,28.006286621],[91.46667480500001,28.00012207],[91.46710205100001,27.991088867],[91.46728515600002,27.988891602],[91.47412109400001,27.980285645],[91.47509765600002,27.979309082],[91.48870849600002,27.975097656],[91.48870849600002,27.973510742],[91.48590087900001,27.965698242],[91.49047851600001,27.959899902],[91.51947021500001,27.9296875],[91.553283691,27.919677734],[91.57550048800002,27.902282715],[91.57690429700001,27.903320312],[91.58807373,27.904296875],[91.59692382800002,27.902282715],[91.61047363300001,27.895324707],[91.61389160200001,27.890686035],[91.65551757800002,27.883911133],[91.65930175800001,27.871704102],[91.64447021500001,27.856323242],[91.58673095700001,27.82611084],[91.60510253900001,27.822509766],[91.609130859,27.822875977],[91.61547851600001,27.820678711],[91.61572265600002,27.820495605],[91.64971923800002,27.813476562],[91.66131591800001,27.780273437],[91.66027832000002,27.761291504],[91.67651367200001,27.763916016],[91.74230957000002,27.762878418],[91.77368164100001,27.75592041],[91.78588867200001,27.75592041],[91.79711914100001,27.759887695],[91.81652832000002,27.766723633],[91.82550048800002,27.767272949],[91.84948730500001,27.75592041],[91.894714355,27.72088623],[91.89831543000001,27.722106934],[91.91052246100001,27.735290527],[91.91229248,27.735717773],[91.920471191,27.73828125],[91.93548584000001,27.735717773],[91.96911621100001,27.725097656],[91.98309326200001,27.723876953],[91.99908447300001,27.726501465],[92.00689697300001,27.731079102],[92.01770019500002,27.732910156],[92.02850341800001,27.736877441],[92.03948974600002,27.742919922],[92.044677734,27.747314453],[92.06072998,27.761108398],[92.06591796900001,27.769897461],[92.086486816,27.790283203],[92.10748291000002,27.802490234],[92.12652587900001,27.809875488],[92.14630127,27.81451416],[92.18811035200001,27.829711914],[92.20050048800002,27.837890625],[92.20452880900001,27.84387207],[92.210693359,27.847473145],[92.23547363300001,27.862304687],[92.26092529300001,27.87310791],[92.27307128900001,27.874694824],[92.27947998,27.874084473],[92.28131103500002,27.872314453],[92.29028320300002,27.85748291],[92.30767822300001,27.809326172],[92.312683105,27.802307129],[92.32147216800001,27.797485352],[92.33068847700001,27.797912598],[92.34570312500001,27.805908203],[92.35168457000002,27.813720703],[92.35272216800001,27.815124512],[92.36370849600002,27.844726562],[92.36871337900001,27.847717285],[92.37628173800002,27.844909668],[92.38031005900001,27.838317871],[92.38671875000001,27.808898926],[92.39288330100001,27.803894043],[92.39611816400001,27.804077148],[92.40008544900002,27.805480957],[92.40570068400001,27.814086914],[92.40869140600002,27.832519531],[92.41571044900002,27.847900391],[92.42211914100001,27.852905273],[92.426330566,27.854125977],[92.43890380900001,27.851074219],[92.44989013700001,27.828674316],[92.45208740200002,27.826477051],[92.46252441400001,27.827087402],[92.47729492200001,27.833679199],[92.49810791000002,27.850708008],[92.50268554700001,27.852478027],[92.509521484,27.852294922],[92.53088378900001,27.852294922],[92.54510498,27.856079102],[92.55609130900001,27.861877441],[92.57489013700001,27.877075195],[92.57647705100001,27.884277344],[92.59112548800002,27.905700684],[92.596679687,27.907897949],[92.62152099600002,27.905700684],[92.62591552700002,27.905273437],[92.63732910200001,27.909912109],[92.64788818400001,27.92010498],[92.65570068400001,27.922485352],[92.676330566,27.9375],[92.69030761700002,27.943725586],[92.702880859,27.946899414],[92.71173095700001,27.952697754],[92.71868896500001,27.959899902],[92.72467041000002,27.975708008],[92.72430419900002,27.980712891],[92.72351074200002,27.991271973],[92.719299316,28.001098633],[92.72351074200002,28.020874023],[92.71948242200001,28.02911377],[92.71948242200001,28.032287598],[92.71051025400001,28.038513184],[92.68048095700001,28.047302246],[92.67352294900002,28.05267334],[92.669677734,28.063720703],[92.66888427700002,28.070922852],[92.67132568400001,28.078308105],[92.68267822300001,28.112304687],[92.68988037100002,28.121704102],[92.72772216800001,28.137878418],[92.73651123,28.14630127],[92.747070312,28.161071777],[92.75787353500002,28.167297363],[92.75988769500002,28.167907715],[92.769287109,28.171081543],[92.78552246100001,28.172485352],[92.80810546900001,28.169677734],[92.81787109400001,28.169921875],[92.85571289100001,28.179504395],[92.86669921900001,28.184692383],[92.89129638700001,28.199707031],[92.89270019500002,28.200683594],[92.90692138700001,28.21270752],[92.92468261700002,28.238525391],[92.945129395,28.25567627],[92.95568847700001,28.261901855],[92.96807861300002,28.264099121],[92.98651123,28.263305664],[92.99951171900001,28.260070801],[93.002929687,28.260070801],[93.00988769500002,28.260070801],[93.01629638700001,28.262695312],[93.020080566,28.266906738],[93.02270507800002,28.276489258],[93.02471923800002,28.301879883],[93.030273437,28.324279785],[93.03527832000002,28.330078125],[93.04272460900002,28.328918457],[93.05548095700001,28.314880371],[93.06390380900001,28.312072754],[93.07269287100002,28.313476562],[93.07470703100002,28.315307617],[93.079101562,28.319519043],[93.09069824200002,28.346313477],[93.10650634800001,28.357299805],[93.11907959000001,28.357910156],[93.15087890600002,28.353881836],[93.15509033200001,28.35168457],[93.17248535200001,28.349487305],[93.18872070300002,28.34967041],[93.19232177700002,28.348083496],[93.20727539100001,28.349121094],[93.21569824200002,28.351928711],[93.22369384800001,28.358093262],[93.23150634800001,28.36730957],[93.23388671900001,28.381286621],[93.23547363300001,28.412475586],[93.24450683600001,28.446716309],[93.24487304700001,28.448303223],[93.24108886700002,28.472900391],[93.22888183600001,28.49987793],[93.22052002,28.530273437],[93.22113037100002,28.538879395],[93.22570800800001,28.552490234],[93.23248291000002,28.5625],[93.27447509800001,28.610290527],[93.28552246100001,28.622680664],[93.29388427700002,28.631286621],[93.32147216800001,28.650878906],[93.34710693400001,28.661071777],[93.35772705100001,28.660888672],[93.36468505900001,28.658325195],[93.36767578100002,28.653686523],[93.37347412100002,28.65032959],[93.385314941,28.650085449],[93.40307617200001,28.658325195],[93.40728759800001,28.662475586],[93.41351318400001,28.665527344],[93.48590087900001,28.676696777],[93.49450683600001,28.676513672],[93.46612548800002,28.687927246],[93.44488525400001,28.703918457],[93.41009521500001,28.718322754],[93.386901855,28.722106934],[93.37847900400001,28.725524902],[93.36987304700001,28.743530273],[93.36370849600002,28.752685547],[93.35308837900001,28.759887695],[93.30810546900001,28.753723145],[93.25787353500002,28.74407959],[93.20288085900002,28.739929199],[93.15631103500002,28.745727539],[93.12188720700001,28.741882324],[93.06610107400002,28.737670898],[93.02368164100001,28.743713379],[93.003295898,28.74609375],[92.99047851600001,28.743286133],[92.96752929700001,28.727478027],[92.93792724600002,28.711303711],[92.90032959000001,28.699890137],[92.87591552700002,28.692687988],[92.83190918000001,28.692687988],[92.80548095700001,28.700317383],[92.78430175800001,28.716125488],[92.76129150400001,28.736877441],[92.73468017600001,28.751525879],[92.710693359,28.767700195],[92.69012451200001,28.77947998],[92.68627929700001,28.782897949],[92.66552734400001,28.800720215],[92.68292236300002,28.841491699],[92.701721191,28.869689941],[92.72808837900001,28.889892578],[92.75787353500002,28.901306152],[92.77667236300002,28.925720215],[92.79327392600001,28.968078613],[92.804504395,29.002929687],[92.81372070300002,29.02911377],[92.83807373,29.06072998],[92.86608886700002,29.079711914],[92.90631103500002,29.091674805],[92.93792724600002,29.105529785],[92.96252441400001,29.12310791],[92.98712158200001,29.160705566],[93.00952148400002,29.191711426],[93.03692627,29.234680176],[93.061523437,29.269104004],[93.08190918000001,29.291687012],[93.12072753900001,29.314086914],[93.13110351600001,29.34552002],[93.11010742200001,29.379882812],[93.10089111300002,29.408691406],[93.11108398400002,29.448486328],[93.10827636700002,29.495117187],[93.08807373,29.525878906],[93.06207275400001,29.5546875],[93.027526855,29.586730957],[93.01330566400001,29.620117187],[93.00567627,29.663879395],[92.96868896500001,29.68347168],[92.936096191,29.705505371],[92.905273437,29.696105957],[92.85888671900001,29.673278809],[92.82568359400001,29.659301758],[92.79248046900001,29.652282715],[92.75567627,29.640319824],[92.72290039100001,29.65612793],[92.70727539100001,29.68371582],[92.670898437,29.677307129],[92.63488769500002,29.65612793],[92.60229492200001,29.653320312],[92.57312011700002,29.625305176],[92.55828857400002,29.597106934],[92.54010009800001,29.559692383],[92.50567627,29.546325684],[92.50030517600001,29.580078125],[92.49328613300001,29.616088867],[92.49969482400002,29.644897461],[92.51849365200002,29.675292969],[92.53833007800002,29.708312988],[92.52508544900002,29.74029541],[92.49987793000001,29.769470215],[92.46789550800001,29.775085449],[92.43170166000002,29.77331543],[92.39270019500002,29.783325195],[92.37548828100002,29.789306641],[92.370483398,29.783874512],[92.36169433600001,29.771911621],[92.36370849600002,29.758728027],[92.36651611300002,29.74987793],[92.37768554700001,29.727478027],[92.38049316400001,29.701293945],[92.37847900400001,29.69128418],[92.37548828100002,29.664123535],[92.37628173800002,29.659484863],[92.38311767600001,29.653320312],[92.384521484,29.644714355],[92.37188720700001,29.619689941],[92.35687255900001,29.589294434],[92.34991455100001,29.582519531],[92.33447265600002,29.57611084],[92.33032226600001,29.575683594],[92.31848144500002,29.577087402],[92.310302734,29.585083008],[92.301330566,29.591125488],[92.29412841800001,29.592285156],[92.29107666000002,29.590881348],[92.29132080100001,29.582092285],[92.288879395,29.572875977],[92.28509521500001,29.569702148],[92.27331543000001,29.571289062],[92.26312255900001,29.578125],[92.259521484,29.577697754],[92.25750732400002,29.576477051],[92.24908447300001,29.563476562],[92.23992919900002,29.555908203],[92.22369384800001,29.556091309],[92.19329834000001,29.55871582],[92.18908691400001,29.562927246],[92.178283691,29.565917969],[92.16168212900001,29.567687988],[92.14569091800001,29.577087402],[92.12390136700002,29.574523926],[92.11291503900001,29.571105957],[92.10308837900001,29.567321777],[92.094299316,29.558288574],[92.08068847700001,29.54107666],[92.0625,29.532104492],[92.05792236300002,29.533508301],[92.05090332000002,29.539672852],[92.043518066,29.549926758],[92.02569580100001,29.553527832],[92.01208496100001,29.55291748],[92.004882812,29.553283691],[91.99572753900001,29.561096191],[91.98968505900001,29.571289062],[91.98388671900001,29.577514648],[91.97607421900001,29.575683594],[91.97308349600002,29.573486328],[91.95928955100001,29.574707031],[91.95428466800001,29.57611084],[91.937683105,29.577270508],[91.93292236300002,29.580505371],[91.92492675800001,29.579711914],[91.919311523,29.577087402],[91.91271972700001,29.56628418],[91.90228271500001,29.5703125],[91.89050293000001,29.575073242],[91.87811279300001,29.580505371],[91.83972168000001,29.580871582],[91.821289062,29.577087402],[91.80950927700002,29.567504883],[91.80810546900001,29.55267334],[91.79229736300002,29.556091309],[91.78607177700002,29.560119629],[91.78112793000001,29.553283691],[91.76690673800002,29.546508789],[91.75988769500002,29.544128418],[91.74249267600001,29.546875],[91.73449707000002,29.547912598],[91.72772216800001,29.543518066],[91.72607421900001,29.527282715],[91.68908691400001,29.52130127],[91.68908691400001,29.534484863],[91.67730712900001,29.54107666],[91.66992187500001,29.535522461],[91.64849853500002,29.528503418],[91.62408447300001,29.539672852],[91.63848877,29.558288574],[91.635314941,29.577087402],[91.628295898,29.581726074],[91.60467529300001,29.571289062],[91.57708740200002,29.568115234],[91.55908203100002,29.573730469],[91.53912353500002,29.573730469],[91.52807617200001,29.557678223],[91.50628662100002,29.55291748],[91.49108886700002,29.545715332],[91.470092773,29.536315918],[91.45471191400001,29.525085449],[91.43072509800001,29.516906738],[91.40930175800001,29.492675781],[91.39849853500002,29.486877441],[91.37170410200001,29.49609375],[91.35650634800001,29.501281738],[91.33190918000001,29.513122559],[91.32312011700002,29.516723633],[91.31671142600001,29.522888184],[91.28448486300002,29.526672363],[91.27648925800001,29.525878906],[91.24530029300001,29.52911377],[91.22308349600002,29.526489258],[91.20391845700001,29.521728516],[91.18487548800002,29.517089844],[91.15850830100001,29.490112305],[91.14892578100002,29.476501465],[91.111083984,29.465087891],[91.10052490200002,29.463684082],[91.094299316,29.445922852],[91.07611084000001,29.44128418],[91.061523437,29.442077637],[91.05712890600002,29.436096191],[91.06207275400001,29.422729492],[90.98889160200001,29.384277344],[90.902099609,29.347473145],[90.84527587900001,29.335876465],[90.76007080100001,29.336914062],[90.72332763700001,29.35168457],[90.70129394500002,29.349121094],[90.669677734,29.306274414],[90.65350341800001,29.284912109],[90.57989502,29.266479492],[90.502502441,29.24432373],[90.437683105,29.243103027],[90.41271972700001,29.257080078],[90.37268066400001,29.291870117]]]]}}
