{"type":"Feature","id":"bulk-99377448B12015946281154","bbox":[104.32067871100001,25.369873047,105.67608642600001,26.934082031],"properties":{"id":"bulk-99377448B12015946281154","name":"Liupanshui","nameEn":"Liupanshui","fullName":"Liupanshui","level":"city","boundaryRole":"administrative-extent","boundaryQuality":"generalized-source-2020","boundaryYearRepresented":"2020","bounds":[[104.32067871100001,25.369873047],[105.67608642600001,26.934082031]],"center":[104.9983825685,26.151977539],"centerMethod":"bounding-box midpoint; camera framing only","license":"CC-BY-3.0-IGO","attribution":"geoBoundaries / HDX, China administrative boundaries (2020)","source":{"provider":"geoBoundaries gbHumanitarian / HDX","url":"https://github.com/wmgeolab/geoBoundaries/raw/9469f09/releaseData/gbHumanitarian/CHN/ADM2/geoBoundaries-CHN-ADM2.geojson","metadataUrl":"https://www.geoboundaries.org/api/current/gbHumanitarian/CHN/ADM2/","shapeID":"99377448B12015946281154","shapeName":"Liupanshui","boundaryID":"CHN-ADM2-99377448","commit":"9469f09"},"geometryCounts":{"coordinates":131,"components":1,"holes":0},"boundaryNotice":"geoBoundaries / HDX 2020 年行政区数据，海岸和边界经过源数据概化，并非当前测绘成果。"},"geometry":{"type":"Polygon","coordinates":[[[105.53308105500001,26.38671875],[105.50427246100001,26.437927246],[105.49871826200001,26.473083496],[105.47192382800002,26.488708496],[105.44128418000001,26.488708496],[105.39868164100001,26.492126465],[105.35870361300002,26.501098633],[105.36547851600001,26.531921387],[105.31951904300001,26.546325684],[105.27807617200001,26.540893555],[105.23327636700002,26.534912109],[105.20709228500002,26.554077148],[105.19451904300001,26.588928223],[105.17370605500001,26.608703613],[105.14147949200002,26.615478516],[105.10772705100001,26.615478516],[105.08007812500001,26.632324219],[105.08288574200002,26.662719727],[105.08508300800001,26.698303223],[105.08050537100002,26.730895996],[105.07287597700001,26.764099121],[105.05291748000002,26.805725098],[105.02990722700001,26.829284668],[104.99951171900001,26.829284668],[104.97589111300002,26.848083496],[105.00549316400001,26.86932373],[105.03448486300002,26.898925781],[105.01831054700001,26.934082031],[104.97412109400001,26.920288086],[104.94451904300001,26.886291504],[104.92089843700002,26.858703613],[104.88531494100002,26.859680176],[104.86047363300001,26.878295898],[104.82690429700001,26.895080566],[104.79229736300002,26.852478027],[104.77307128900001,26.826477051],[104.75592041000002,26.801696777],[104.75109863300001,26.762084961],[104.75292968700002,26.727294922],[104.75567627,26.68548584],[104.74267578100002,26.652893066],[104.71112060500002,26.632873535],[104.69171142600001,26.60369873],[104.703125,26.577087402],[104.65887451200001,26.567077637],[104.56372070300002,26.585693359],[104.58068847700001,26.57208252],[104.62432861300002,26.516723633],[104.64068603500002,26.510314941],[104.64868164100001,26.510681152],[104.65771484400001,26.496887207],[104.65991210900002,26.460876465],[104.67767334000001,26.433105469],[104.68267822300001,26.410888672],[104.61212158200001,26.314697266],[104.58892822300001,26.282897949],[104.53027343700002,26.174682617],[104.47113037100002,26.029296875],[104.46911621100001,25.998474121],[104.46667480500001,25.983886719],[104.45471191400001,25.907714844],[104.43670654300001,25.859924316],[104.42211914100001,25.758117676],[104.35247802700002,25.739318848],[104.32067871100001,25.674499512],[104.36828613300001,25.598327637],[104.43951416000002,25.576721191],[104.43048095700001,25.497680664],[104.44390869100002,25.475708008],[104.52929687500001,25.528686523],[104.56109619100002,25.44732666],[104.54589843700002,25.401489258],[104.54852294900002,25.399475098],[104.70068359400001,25.397888184],[104.73468017600001,25.373901367],[104.76428222700001,25.369873047],[104.79528808600001,25.374694824],[104.86108398400002,25.410888672],[104.85491943400001,25.451477051],[104.87451171900001,25.488098145],[104.89410400400001,25.510925293],[104.91491699200002,25.531677246],[104.91912841800001,25.561706543],[104.88610839800002,25.582092285],[104.86871337900001,25.617675781],[104.88208007800002,25.658691406],[104.90191650400001,25.690917969],[104.91027832000002,25.718078613],[104.89831543000001,25.757080078],[104.89093017600001,25.785888672],[104.88171386700002,25.821899414],[104.89270019500002,25.858886719],[104.93249511700002,25.882324219],[104.95367431600002,25.917907715],[104.94708252,25.950683594],[104.94152832000002,25.983703613],[104.94787597700001,26.018920898],[104.96228027300002,26.057678223],[104.96807861300002,26.091674805],[104.97491455100001,26.120483398],[105.00347900400001,26.153320312],[105.02911377,26.172912598],[105.05609130900001,26.188110352],[105.08569335900002,26.193908691],[105.13208007800002,26.180114746],[105.15270996100001,26.204284668],[105.19348144500002,26.136901855],[105.20727539100001,26.092712402],[105.22827148400002,26.069885254],[105.28527832000002,26.02947998],[105.32287597700001,26.030273437],[105.36651611300002,26.03692627],[105.413879395,26.039123535],[105.45971679700001,26.03692627],[105.52148437500001,26.063293457],[105.54107666000002,26.088317871],[105.57629394500002,26.102111816],[105.59130859400001,26.131286621],[105.59851074200002,26.163085937],[105.62591552700002,26.181884766],[105.66772460900002,26.184509277],[105.67608642600001,26.217529297],[105.64532470700001,26.240478516],[105.60870361300002,26.245727539],[105.56707763700001,26.246520996],[105.52612304700001,26.255493164],[105.49829101600001,26.266479492],[105.47692871100001,26.290893555],[105.48449707000002,26.32409668],[105.50469970700001,26.350891113],[105.53308105500001,26.38671875]]]}}
