{"type":"Feature","id":"bulk-99377448B1065087970257","bbox":[114.50048828100002,30.033325195,115.07470703100002,30.618103027],"properties":{"id":"bulk-99377448B1065087970257","name":"Ezhou","nameEn":"Ezhou","fullName":"Ezhou","level":"city","boundaryRole":"administrative-extent","boundaryQuality":"generalized-source-2020","boundaryYearRepresented":"2020","bounds":[[114.50048828100002,30.033325195],[115.07470703100002,30.618103027]],"center":[114.78759765600002,30.325714111],"centerMethod":"bounding-box midpoint; camera framing only","license":"CC-BY-3.0-IGO","attribution":"geoBoundaries / HDX, China administrative boundaries (2020)","source":{"provider":"geoBoundaries gbHumanitarian / HDX","url":"https://github.com/wmgeolab/geoBoundaries/raw/9469f09/releaseData/gbHumanitarian/CHN/ADM2/geoBoundaries-CHN-ADM2.geojson","metadataUrl":"https://www.geoboundaries.org/api/current/gbHumanitarian/CHN/ADM2/","shapeID":"99377448B1065087970257","shapeName":"Ezhou","boundaryID":"CHN-ADM2-99377448","commit":"9469f09"},"geometryCounts":{"coordinates":67,"components":1,"holes":0},"boundaryNotice":"geoBoundaries / HDX 2020 年行政区数据，海岸和边界经过源数据概化，并非当前测绘成果。"},"geometry":{"type":"Polygon","coordinates":[[[114.53167724600002,30.035095215],[114.58691406200002,30.047912598],[114.62109375000001,30.038330078],[114.65911865200002,30.033325195],[114.68029785200001,30.055114746],[114.71228027300002,30.062683105],[114.72387695300002,30.089904785],[114.71612548800002,30.116088867],[114.70507812500001,30.143920898],[114.70330810500002,30.181274414],[114.68328857400002,30.208129883],[114.65570068400001,30.228515625],[114.64971923800002,30.269897461],[114.67791748000002,30.291870117],[114.70428466800001,30.31048584],[114.72711181600002,30.329101562],[114.76690673800002,30.324707031],[114.796875,30.333679199],[114.82952880900001,30.333312988],[114.85327148400002,30.301696777],[114.86688232400002,30.266296387],[114.88372802700002,30.241088867],[114.92010498000002,30.217285156],[114.95227050800001,30.211486816],[114.98632812500001,30.224487305],[115.00970459000001,30.252685547],[115.07470703100002,30.24407959],[115.05548095700001,30.285888672],[115.05651855500001,30.299682617],[115.05731201200001,30.313293457],[115.05889892600001,30.340515137],[115.03808593700002,30.355102539],[114.995910645,30.370727539],[114.96649169900002,30.386474609],[114.93212890600002,30.387084961],[114.88909912100002,30.388916016],[114.86749267600001,30.389709473],[114.84588623000002,30.390686035],[114.82507324200002,30.405273437],[114.82592773400002,30.418884277],[114.82751464800002,30.446289062],[114.81048584000001,30.52911377],[114.81207275400001,30.556274414],[114.81372070300002,30.583679199],[114.80847168000001,30.618103027],[114.77130127,30.599121094],[114.74890136700002,30.586303711],[114.70507812500001,30.574279785],[114.66107177700002,30.5625],[114.61712646500001,30.550476074],[114.56628418000001,30.546081543],[114.57427978500002,30.515319824],[114.58587646500001,30.480102539],[114.58612060500002,30.448303223],[114.58392334000001,30.411071777],[114.57830810500002,30.37689209],[114.57647705100001,30.347473145],[114.57910156200002,30.320129395],[114.60229492200001,30.293884277],[114.57391357400002,30.278686523],[114.53991699200002,30.272705078],[114.51251220700001,30.256103516],[114.50048828100002,30.219299316],[114.50592041000002,30.178894043],[114.51031494100002,30.12890625],[114.51611328100002,30.094482422],[114.53167724600002,30.035095215]]]}}
