{"type":"Feature","id":"bulk-99377448B79624241041293","bbox":[110.90307617200001,38.135681152,113.94592285200001,39.644104004],"properties":{"id":"bulk-99377448B79624241041293","name":"Xinzhou","nameEn":"Xinzhou","fullName":"Xinzhou","level":"city","boundaryRole":"administrative-extent","boundaryQuality":"generalized-source-2020","boundaryYearRepresented":"2020","bounds":[[110.90307617200001,38.135681152],[113.94592285200001,39.644104004]],"center":[112.42449951200001,38.889892578],"centerMethod":"bounding-box midpoint; camera framing only","license":"CC-BY-3.0-IGO","attribution":"geoBoundaries / HDX, China administrative boundaries (2020)","source":{"provider":"geoBoundaries gbHumanitarian / HDX","url":"https://github.com/wmgeolab/geoBoundaries/raw/9469f09/releaseData/gbHumanitarian/CHN/ADM2/geoBoundaries-CHN-ADM2.geojson","metadataUrl":"https://www.geoboundaries.org/api/current/gbHumanitarian/CHN/ADM2/","shapeID":"99377448B79624241041293","shapeName":"Xinzhou","boundaryID":"CHN-ADM2-99377448","commit":"9469f09"},"geometryCounts":{"coordinates":198,"components":1,"holes":0},"boundaryNotice":"geoBoundaries / HDX 2020 年行政区数据，海岸和边界经过源数据概化，并非当前测绘成果。"},"geometry":{"type":"Polygon","coordinates":[[[113.94592285200001,39.097717285],[113.92572021500001,39.127502441],[113.90631103500002,39.150512695],[113.89508056600002,39.197875977],[113.89648437500001,39.225097656],[113.91668701200001,39.275512695],[113.89971923800002,39.310913086],[113.855285645,39.364929199],[113.81170654300001,39.364929199],[113.76171875000001,39.37310791],[113.72052002,39.403686523],[113.67248535200001,39.428894043],[113.61407470700001,39.42791748],[113.57507324200002,39.428527832],[113.53448486300002,39.435302734],[113.50988769500002,39.411315918],[113.49011230500001,39.379272461],[113.45092773400002,39.342285156],[113.42028808600001,39.325073242],[113.37847900400001,39.306518555],[113.320129395,39.30670166],[113.25872802700002,39.309875488],[113.20452880900001,39.292724609],[113.15069580100001,39.292724609],[113.10229492200001,39.302490234],[113.01550293000001,39.31628418],[112.96990966800001,39.299316406],[112.92767334000001,39.292480469],[112.89172363300001,39.264892578],[112.87567138700001,39.236694336],[112.84869384800001,39.203491211],[112.80267334000001,39.183288574],[112.73950195300002,39.163696289],[112.69647216800001,39.14831543],[112.66247558600001,39.105712891],[112.60388183600001,39.065673828],[112.55352783200001,39.103271484],[112.50769043000001,39.111877441],[112.46368408200001,39.112304687],[112.41088867200001,39.109130859],[112.35668945300002,39.102478027],[112.31311035200001,39.104309082],[112.26611328100002,39.104919434],[112.23492431600002,39.120483398],[112.20770263700001,39.146911621],[112.19049072300001,39.182495117],[112.16809082000002,39.21307373],[112.12927246100001,39.256103516],[112.09112548800002,39.259094238],[112.04772949200002,39.264099121],[112.01867675800001,39.296508789],[112.00628662100002,39.331726074],[112.00329589800002,39.364074707],[111.98907470700001,39.38848877],[111.96472168000001,39.417480469],[111.92028808600001,39.438110352],[111.87792968700002,39.45489502],[111.85589599600002,39.486877441],[111.88391113300001,39.506530762],[111.92230224600002,39.504089355],[111.95611572300001,39.52331543],[111.93652343700002,39.554504395],[111.86572265600002,39.635681152],[111.79992675800001,39.630493164],[111.68109130900001,39.635070801],[111.57031250000001,39.639526367],[111.43487548800002,39.644104004],[111.37707519500002,39.623291016],[111.39727783200001,39.60168457],[111.43371582000002,39.579711914],[111.43328857400002,39.549072266],[111.39929199200002,39.485107422],[111.36212158200001,39.473083496],[111.34552002,39.451904297],[111.33673095700001,39.427490234],[111.328125,39.399902344],[111.22967529300001,39.382507324],[111.18890380900001,39.385925293],[111.13592529300001,39.401672363],[111.08612060500002,39.349914551],[111.09808349600002,39.331481934],[111.11431884800001,39.328308105],[111.20452880900001,39.34588623],[111.17510986300002,39.287902832],[111.24029541000002,39.284301758],[111.25231933600001,39.262695312],[111.17431640600002,39.235717773],[111.16168212900001,39.208312988],[111.13610839800002,39.131896973],[111.12750244100002,39.104309082],[111.11047363300001,39.055297852],[111.06909179700001,39.003479004],[110.97088623000002,38.970703125],[110.95849609400001,38.946105957],[110.97009277300002,38.897094727],[110.98608398400002,38.878479004],[110.97772216800001,38.851074219],[110.95269775400001,38.808288574],[110.93988037100002,38.759277344],[110.91131591800001,38.725708008],[110.90307617200001,38.713500977],[110.95227050800001,38.67010498],[110.99151611300002,38.640075684],[111.03607177700002,38.644897461],[111.097473145,38.673095703],[111.14672851600001,38.695678711],[111.20410156200002,38.710083008],[111.21392822300001,38.667297363],[111.22668457000002,38.627929687],[111.23571777300002,38.591308594],[111.27728271500001,38.585327148],[111.32092285200001,38.582275391],[111.36932373000002,38.564086914],[111.41027832000002,38.556274414],[111.43048095700001,38.518493652],[111.44927978500002,38.492126465],[111.48107910200001,38.507873535],[111.53228759800001,38.505493164],[111.56390380900001,38.518920898],[111.60650634800001,38.538513184],[111.64849853500002,38.558898926],[111.68048095700001,38.575073242],[111.73950195300002,38.562927246],[111.70812988300001,38.507873535],[111.72113037100002,38.463500977],[111.73907470700001,38.434875488],[111.74188232400002,38.397521973],[111.77532959000001,38.365112305],[111.80511474600002,38.340515137],[111.78247070300002,38.31072998],[111.75067138700001,38.289489746],[111.73632812500001,38.25970459],[111.75189209000001,38.22467041],[111.77832031200002,38.205322266],[111.82049560500002,38.18170166],[111.855285645,38.172485352],[111.91052246100001,38.170715332],[111.96148681600002,38.170471191],[112.01611328100002,38.16229248],[112.08569335900002,38.141479492],[112.12652587900001,38.135681152],[112.17352294900002,38.145080566],[112.22570800800001,38.149719238],[112.21948242200001,38.18347168],[112.20428466800001,38.211303711],[112.19348144500002,38.239685059],[112.22149658200001,38.27331543],[112.25787353500002,38.309326172],[112.30029296900001,38.305725098],[112.31372070300002,38.267883301],[112.35552978500002,38.25567627],[112.40447998000002,38.25567627],[112.43530273400002,38.238708496],[112.48248291000002,38.244873047],[112.53387451200001,38.22467041],[112.56890869100002,38.204711914],[112.60589599600002,38.216308594],[112.65930175800001,38.243286133],[112.72149658200001,38.249084473],[112.77667236300002,38.263916016],[112.82452392600001,38.293701172],[112.85131835900002,38.310913086],[112.89093017600001,38.325073242],[112.91827392600001,38.347106934],[112.96112060500002,38.343078613],[113.00671386700002,38.363891602],[113.03009033200001,38.391296387],[113.05731201200001,38.411499023],[113.11212158200001,38.410522461],[113.16491699200002,38.407104492],[113.21209716800001,38.417114258],[113.24487304700001,38.448486328],[113.27807617200001,38.477905273],[113.33148193400001,38.504089355],[113.38531494100002,38.517700195],[113.42230224600002,38.519104004],[113.47607421900001,38.51550293],[113.52209472700001,38.520080566],[113.52111816400001,38.523925781],[113.53112793000001,38.574890137],[113.57470703100002,38.621704102],[113.60327148400002,38.637878418],[113.66571044900002,38.649902344],[113.67352294900002,38.669921875],[113.68988037100002,38.673095703],[113.75848388700001,38.72467041],[113.80310058600001,38.76171875],[113.812316895,38.818908691],[113.75408935500002,38.859924316],[113.72070312500001,38.9375],[113.74169921900001,38.967895508],[113.74749755900001,38.987670898],[113.75109863300001,39.000488281],[113.77429199200002,39.021118164],[113.85308837900001,39.053710937],[113.89471435500002,39.066101074],[113.93469238300001,39.095275879],[113.94592285200001,39.097717285]]]}}
