{"type":"Feature","id":"bulk-99377448B45159923384501","bbox":[78.43811035200001,29.683105469,86.18890380900001,35.708312988],"properties":{"id":"bulk-99377448B45159923384501","name":"Ngari Prefecture","nameEn":"Ngari Prefecture","fullName":"Ngari Prefecture","level":"city","boundaryRole":"administrative-extent","boundaryQuality":"generalized-source-2020","boundaryYearRepresented":"2020","bounds":[[78.43811035200001,29.683105469],[86.18890380900001,35.708312988]],"center":[82.31350708050002,32.6957092285],"centerMethod":"bounding-box midpoint; camera framing only","license":"CC-BY-3.0-IGO","attribution":"geoBoundaries / HDX, China administrative boundaries (2020)","source":{"provider":"geoBoundaries gbHumanitarian / HDX","url":"https://github.com/wmgeolab/geoBoundaries/raw/9469f09/releaseData/gbHumanitarian/CHN/ADM2/geoBoundaries-CHN-ADM2.geojson","metadataUrl":"https://www.geoboundaries.org/api/current/gbHumanitarian/CHN/ADM2/","shapeID":"99377448B45159923384501","shapeName":"Ngari Prefecture","boundaryID":"CHN-ADM2-99377448","commit":"9469f09"},"geometryCounts":{"coordinates":1369,"components":1,"holes":0},"boundaryNotice":"geoBoundaries / HDX 2020 年行政区数据，海岸和边界经过源数据概化，并非当前测绘成果。"},"geometry":{"type":"Polygon","coordinates":[[[83.885681152,35.377319336],[83.74029541000002,35.357727051],[83.68029785200001,35.356689453],[83.596679687,35.353515625],[83.50970459000001,35.356872559],[83.47052002,35.399719238],[83.38507080100001,35.37487793],[83.325927734,35.401489258],[83.24450683600001,35.392089844],[83.05688476600001,35.39050293],[83.02307128900001,35.429870605],[82.93988037100002,35.481506348],[82.93029785200001,35.576904297],[82.93627929700001,35.645324707],[82.90228271500001,35.678283691],[82.88751220700001,35.684082031],[82.84930419900002,35.699523926],[82.79949951200001,35.701477051],[82.72650146500001,35.630310059],[82.59887695300002,35.671691895],[82.562316895,35.679321289],[82.41632080100001,35.708312988],[82.29028320300002,35.650512695],[82.30352783200001,35.578918457],[82.26171875000001,35.542724609],[82.22528076200001,35.517883301],[82.151306152,35.493896484],[82.05847168000001,35.438476562],[81.99230957,35.346130371],[81.99090576200001,35.34552002],[81.859924316,35.281677246],[81.73712158200001,35.251525879],[81.65771484400001,35.245910645],[81.57531738300001,35.245300293],[81.486877441,35.304077148],[81.47448730500001,35.312316895],[81.36791992200001,35.351074219],[81.22070312500001,35.335876465],[81.226318359,35.354675293],[81.05090332,35.386291504],[81.043884277,35.315307617],[80.986877441,35.290710449],[80.91351318400001,35.299072266],[80.83587646500001,35.349121094],[80.72528076200001,35.348510742],[80.62890625000001,35.394714355],[80.56091308600001,35.419128418],[80.51251220700001,35.456481934],[80.46752929700001,35.435913086],[80.421875,35.415283203],[80.347473145,35.37487793],[80.28228759800001,35.341491699],[80.28112793000001,35.339477539],[80.27569580100001,35.322509766],[80.27252197300001,35.287902832],[80.27288818400001,35.269714355],[80.273925781,35.261108398],[80.276306152,35.239929199],[80.27447509800001,35.217529297],[80.27648925800001,35.212097168],[80.26867675800001,35.201721191],[80.26428222700001,35.19152832],[80.23248291000002,35.143127441],[80.20709228500002,35.104125977],[80.19128418000001,35.064086914],[80.192687988,35.061096191],[80.19110107400002,35.049072266],[80.18872070300002,35.046875],[80.186096191,35.025512695],[80.184082031,35.009887695],[80.18432617200001,35.00012207],[80.186523437,34.947692871],[80.186096191,34.899475098],[80.186096191,34.891723633],[80.18249511700002,34.873474121],[80.17248535200001,34.850280762],[80.150512695,34.828308105],[80.13470459000001,34.817077637],[80.133300781,34.812927246],[80.118530273,34.801513672],[80.112304687,34.794677734],[80.09167480500001,34.772094727],[80.08789062500001,34.762695312],[80.08312988300001,34.758117676],[80.05932617200001,34.711730957],[80.05609130900001,34.701477051],[80.06207275400001,34.682678223],[80.061523437,34.681274414],[80.05932617200001,34.674499512],[80.05072021500001,34.667907715],[80.04852294900002,34.664123535],[80.04327392600001,34.66192627],[80.03692627,34.66229248],[80.00012207,34.658691406],[79.985290527,34.657287598],[79.98071289100001,34.655090332],[79.92309570300002,34.650512695],[79.902526855,34.648681641],[79.89208984400001,34.646911621],[79.88171386700002,34.642272949],[79.87487793000001,34.634277344],[79.868530273,34.614318848],[79.86932373,34.610473633],[79.85931396500001,34.593078613],[79.85107421900001,34.582885742],[79.83831787100002,34.572875977],[79.82891845700001,34.567687988],[79.828308105,34.567321777],[79.776672363,34.55090332],[79.75628662100002,34.546875],[79.74487304700001,34.539672852],[79.743103027,34.536071777],[79.74987793000001,34.522888184],[79.75451660200001,34.505126953],[79.75109863300001,34.498474121],[79.743103027,34.494873047],[79.73907470700001,34.493103027],[79.73132324200002,34.487304687],[79.727111816,34.481079102],[79.72888183600001,34.471313477],[79.74127197300001,34.454101562],[79.74230957,34.446289062],[79.736877441,34.440673828],[79.72467041000002,34.433105469],[79.69409179700001,34.424499512],[79.67449951200001,34.422485352],[79.66748046900001,34.422912598],[79.64093017600001,34.424682617],[79.59869384800001,34.440673828],[79.56127929700001,34.458129883],[79.53869628900001,34.466308594],[79.527099609,34.466491699],[79.52447509800001,34.466491699],[79.51910400400001,34.462890625],[79.51647949200002,34.461120605],[79.51391601600001,34.452697754],[79.51672363300001,34.442321777],[79.52111816400001,34.434692383],[79.53790283200001,34.414123535],[79.55072021500001,34.393676758],[79.559875488,34.364685059],[79.56451416000002,34.355529785],[79.577880859,34.328125],[79.58129882800002,34.314697266],[79.57690429700001,34.293518066],[79.56372070300002,34.257080078],[79.553710937,34.241516113],[79.54870605500001,34.237670898],[79.53167724600002,34.22467041],[79.53009033200001,34.221313477],[79.51171875000001,34.168701172],[79.50927734400001,34.13848877],[79.504089355,34.133300781],[79.49407959000001,34.125488281],[79.45269775400001,34.094116211],[79.450500488,34.087524414],[79.4375,34.064697266],[79.425109863,34.025512695],[79.42108154300001,34.019714355],[79.420471191,34.018676758],[79.408325195,34.008117676],[79.39727783200001,34.002502441],[79.378295898,34.002319336],[79.278686523,34.014282227],[79.25787353500002,34.016906738],[79.23651123,34.012084961],[79.21490478500002,34.015686035],[79.194274902,34.015686035],[79.17388916000002,34.012084961],[79.13348388700001,33.99609375],[79.12152099600002,33.991271973],[79.10552978500002,33.990905762],[79.08508300800001,33.993530273],[79.054077148,34.000488281],[79.002075195,34.026672363],[78.993896484,34.028686523],[78.98468017600001,34.03112793],[78.97192382800002,34.031494141],[78.94250488300001,34.017883301],[78.921691895,34.01348877],[78.91369628900001,34.008483887],[78.90411377,33.996704102],[78.89831543000001,33.973693848],[78.89990234400001,33.962280273],[78.901672363,33.958496094],[78.90570068400001,33.950500488],[78.96508789100001,33.860290527],[78.96948242200001,33.855895996],[78.97290039100001,33.847473145],[78.97351074200002,33.846130371],[78.98968505900001,33.818115234],[78.991516113,33.812072754],[78.999694824,33.799682617],[79.00592041000002,33.778320312],[79.01007080100001,33.770324707],[79.01391601600001,33.756286621],[79.02447509800001,33.729675293],[79.03009033200001,33.715270996],[79.04571533200001,33.692504883],[79.076293945,33.664123535],[79.084899902,33.649291992],[79.087280273,33.637512207],[79.082519531,33.625915527],[79.077514648,33.622070312],[79.07330322300001,33.61907959],[79.05749511700002,33.615478516],[79.02349853500002,33.616516113],[78.966918945,33.602111816],[78.93151855500001,33.603881836],[78.92529296900001,33.604309082],[78.909484863,33.600524902],[78.898925781,33.592285156],[78.89611816400001,33.583679199],[78.89727783200001,33.577514648],[78.91711425800001,33.56451416],[78.924316406,33.556091309],[78.929870605,33.53527832],[78.94689941400001,33.513916016],[78.94689941400001,33.512512207],[78.94750976600001,33.504516602],[78.93591308600001,33.488891602],[78.93310546900001,33.480102539],[78.93591308600001,33.422485352],[78.941894531,33.394287109],[78.944702148,33.387084961],[78.954101562,33.381896973],[78.987670898,33.325927734],[79.009094238,33.328125],[79.01470947300001,33.326293945],[79.016113281,33.326293945],[79.02032470700001,33.325683594],[79.02447509800001,33.321899414],[79.03112793000001,33.315917969],[79.03527832,33.311279297],[79.03588867200001,33.309082031],[79.04449462900001,33.30267334],[79.06372070300002,33.271911621],[79.06427002,33.271118164],[79.07891845700001,33.250488281],[79.08032226600001,33.250305176],[79.08172607400002,33.247680664],[79.08129882800002,33.247314453],[79.08288574200002,33.244873047],[79.09808349600002,33.209899902],[79.12390136700002,33.198120117],[79.13153076200001,33.198486328],[79.145507812,33.189697266],[79.14672851600001,33.188293457],[79.20629882800002,33.194091797],[79.212280273,33.194885254],[79.31530761700002,33.188903809],[79.35589599600002,33.18951416],[79.37731933600001,33.189880371],[79.39367675800001,33.188903809],[79.39910888700001,33.187072754],[79.409912109,33.178894043],[79.41687011700002,33.166687012],[79.41748046900001,33.155273437],[79.41552734400001,33.147705078],[79.41088867200001,33.135681152],[79.39868164100001,33.114685059],[79.39727783200001,33.10949707],[79.395080566,33.107299805],[79.39068603500002,33.102722168],[79.37371826200001,33.073486328],[79.37231445300002,33.067504883],[79.36608886700002,33.059875488],[79.35491943400001,33.030700684],[79.35192871100001,33.017883301],[79.350097656,32.996276855],[79.35107421900001,32.989501953],[79.352478027,32.979125977],[79.36511230500001,32.95690918],[79.38708496100001,32.933105469],[79.41870117200001,32.911499023],[79.432128906,32.905090332],[79.434875488,32.90032959],[79.441894531,32.894714355],[79.44873046900001,32.889282227],[79.45452880900001,32.880493164],[79.45709228500002,32.871520996],[79.46447753900001,32.816711426],[79.47131347700001,32.80291748],[79.48449707,32.789672852],[79.496276855,32.784118652],[79.51531982400002,32.77532959],[79.526672363,32.767700195],[79.533325195,32.759887695],[79.54052734400001,32.748718262],[79.55548095700001,32.709716797],[79.562683105,32.678283691],[79.56427002,32.670898437],[79.557922363,32.63067627],[79.553710937,32.620300293],[79.54528808600001,32.60748291],[79.52209472700001,32.594909668],[79.50891113300001,32.591491699],[79.48852539100001,32.592895508],[79.48510742200001,32.593078613],[79.48468017600001,32.593078613],[79.46429443400001,32.592712402],[79.44812011700002,32.586120605],[79.43029785200001,32.576721191],[79.40393066400001,32.557678223],[79.362304687,32.537475586],[79.36010742200001,32.535888672],[79.34710693400001,32.526672363],[79.32031250000001,32.491271973],[79.312316895,32.487121582],[79.304870605,32.486694336],[79.29748535200001,32.488525391],[79.270080566,32.517883301],[79.267700195,32.518676758],[79.24188232400002,32.508300781],[79.21630859400001,32.49407959],[79.19287109400001,32.477294922],[79.16168212900001,32.477478027],[79.14288330100001,32.463928223],[79.135681152,32.426879883],[79.13867187500001,32.364318848],[79.11352539100001,32.369873047],[79.10229492200001,32.375488281],[79.100524902,32.372497559],[79.08990478500002,32.372680664],[79.08288574200002,32.375488281],[79.07928466800001,32.377929687],[79.076293945,32.379272461],[79.062316895,32.37689209],[79.038879395,32.371704102],[79.018127441,32.35748291],[78.98547363300001,32.362670898],[78.98327636700002,32.359680176],[78.975524902,32.347106934],[78.97308349600002,32.342285156],[78.97229003900001,32.335327148],[78.968505859,32.334899902],[78.959899902,32.340515137],[78.958312988,32.341674805],[78.94592285200001,32.351318359],[78.93011474600002,32.359680176],[78.92810058600001,32.361083984],[78.91510009800001,32.36730957],[78.90710449200002,32.371887207],[78.90228271500001,32.377929687],[78.90228271500001,32.382080078],[78.90148925800001,32.389282227],[78.89868164100001,32.391723633],[78.893127441,32.393920898],[78.88751220700001,32.395080566],[78.88153076200001,32.398681641],[78.876281738,32.401672363],[78.875488281,32.402709961],[78.862304687,32.411071777],[78.861877441,32.411071777],[78.855285645,32.411071777],[78.84411621100001,32.41229248],[78.83868408200001,32.417114258],[78.834106445,32.422302246],[78.827880859,32.427490234],[78.819274902,32.4296875],[78.81427002,32.432922363],[78.80847168000001,32.43927002],[78.804504395,32.448120117],[78.80187988300001,32.454101562],[78.79968261700002,32.458312988],[78.793518066,32.469909668],[78.78747558600001,32.476928711],[78.78051757800002,32.483276367],[78.77850341800001,32.49810791],[78.77929687500001,32.505493164],[78.76831054700001,32.537719727],[78.76312255900001,32.546875],[78.75848388700001,32.56652832],[78.761474609,32.574279785],[78.76629638700001,32.580505371],[78.77172851600001,32.587097168],[78.775878906,32.591674805],[78.77929687500001,32.598693848],[78.77947998,32.610717773],[78.77429199200002,32.617675781],[78.76910400400001,32.62487793],[78.75628662100002,32.63848877],[78.74688720700001,32.647094727],[78.74328613300001,32.653503418],[78.74047851600001,32.657714844],[78.74169921900001,32.663330078],[78.742675781,32.667907715],[78.74450683600001,32.67388916],[78.74572753900001,32.680297852],[78.74572753900001,32.687316895],[78.743896484,32.69128418],[78.743103027,32.693481445],[78.71508789100001,32.69128418],[78.67327880900001,32.651489258],[78.64147949200002,32.646484375],[78.637695312,32.64251709],[78.63208007800002,32.63848877],[78.62609863300001,32.632873535],[78.621276855,32.632324219],[78.616882324,32.616088867],[78.57568359400001,32.606689453],[78.534484863,32.593688965],[78.50689697300001,32.579528809],[78.47869873,32.557678223],[78.43811035200001,32.517883301],[78.45227050800001,32.480102539],[78.47491455100001,32.455871582],[78.490722656,32.42590332],[78.504882812,32.402282715],[78.50927734400001,32.371276855],[78.51672363300001,32.336303711],[78.50592041000002,32.314880371],[78.50891113300001,32.31072998],[78.50787353500002,32.305908203],[78.54309082,32.276916504],[78.51007080100001,32.246887207],[78.48907470700001,32.226318359],[78.52111816400001,32.218322754],[78.54608154300001,32.208679199],[78.55847168000001,32.199707031],[78.57452392600001,32.181518555],[78.58551025400001,32.157897949],[78.59088134800001,32.149475098],[78.591918945,32.147888184],[78.59692382800002,32.142272949],[78.60888671900001,32.134521484],[78.61529541000002,32.133911133],[78.63592529300001,32.137695312],[78.65228271500001,32.13470459],[78.65850830100001,32.131896973],[78.67150878900001,32.120300293],[78.68029785200001,32.108520508],[78.68829345700001,32.094116211],[78.68988037100002,32.091125488],[78.69067382800002,32.08972168],[78.691101074,32.085693359],[78.691894531,32.07989502],[78.691894531,32.079101562],[78.68969726600001,32.050109863],[78.693115234,32.035522461],[78.70227050800001,32.024475098],[78.73248291000002,32.010681152],[78.737304687,32.00012207],[78.76409912100002,31.995483398],[78.775085449,31.986328125],[78.77893066400001,31.974914551],[78.77728271500001,31.959472656],[78.77612304700001,31.956481934],[78.81372070300002,31.944274902],[78.82208252,31.932312012],[78.77429199200002,31.885070801],[78.73510742200001,31.858886719],[78.73248291000002,31.854492187],[78.72991943400001,31.847106934],[78.72888183600001,31.840515137],[78.72772216800001,31.832275391],[78.725891113,31.828308105],[78.72332763700001,31.823120117],[78.72027587900001,31.802124023],[78.767272949,31.741699219],[78.78350830100001,31.704284668],[78.82208252,31.664672852],[78.85968017600001,31.671081543],[78.86169433600001,31.645874023],[78.88269043000001,31.598510742],[78.84411621100001,31.568908691],[78.81488037100002,31.547729492],[78.770080566,31.487915039],[78.83349609400001,31.460693359],[78.82110595700001,31.428710937],[78.808288574,31.377685547],[78.80651855500001,31.333496094],[78.82928466800001,31.304504395],[78.84948730500001,31.319519043],[78.85748291000002,31.30090332],[78.86169433600001,31.312683105],[78.86328125000001,31.315673828],[78.86669921900001,31.315490723],[78.871276855,31.309875488],[78.87890625000001,31.301696777],[78.879882812,31.295715332],[78.90649414100001,31.31048584],[78.91430664100001,31.325927734],[78.93048095700001,31.351501465],[78.936523437,31.35748291],[78.93707275400001,31.358093262],[78.94030761700002,31.358276367],[78.954101562,31.35168457],[78.96307373,31.352478027],[78.96990966800001,31.349121094],[78.97888183600001,31.33392334],[78.98272705100001,31.331726074],[78.993530273,31.330078125],[79.002075195,31.33190918],[79.00848388700001,31.339477539],[79.01171875000001,31.351318359],[79.00653076200001,31.381896973],[79.00689697300001,31.385681152],[79.008300781,31.398681641],[79.016113281,31.414123535],[79.023925781,31.423095703],[79.04791259800001,31.437316895],[79.061523437,31.452880859],[79.07208252,31.454711914],[79.086486816,31.443481445],[79.102478027,31.437683105],[79.13171386700002,31.414306641],[79.13708496100001,31.412475586],[79.144714355,31.403503418],[79.14648437500001,31.403320312],[79.15570068400001,31.402709961],[79.15887451200001,31.401306152],[79.16448974600002,31.393310547],[79.16589355500001,31.368896484],[79.17272949200002,31.360107422],[79.1875,31.349914551],[79.18988037100002,31.349304199],[79.20147705100001,31.346313477],[79.21252441400001,31.341674805],[79.221679687,31.336486816],[79.227111816,31.330505371],[79.21887207,31.319702148],[79.21832275400001,31.311889648],[79.22930908200001,31.291687012],[79.23248291000002,31.286071777],[79.23132324200002,31.271911621],[79.235717773,31.260681152],[79.243103027,31.249511719],[79.24652099600002,31.244506836],[79.25927734400001,31.233703613],[79.28051757800002,31.231689453],[79.28588867200001,31.229492187],[79.29187011700002,31.222717285],[79.292297363,31.222290039],[79.29650878900001,31.21472168],[79.30047607400002,31.195922852],[79.309509277,31.151672363],[79.31170654300001,31.141113281],[79.31750488300001,31.129089355],[79.32391357400002,31.125915527],[79.34051513700001,31.123474121],[79.34771728500002,31.123474121],[79.35809326200001,31.126708984],[79.36828613300001,31.120727539],[79.38031005900001,31.120483398],[79.391113281,31.114685059],[79.39929199200002,31.108093262],[79.40307617200001,31.104919434],[79.40850830100001,31.095092773],[79.40789794900002,31.086486816],[79.42071533200001,31.075927734],[79.42248535200001,31.064086914],[79.42272949200002,31.061096191],[79.45812988300001,31.061706543],[79.46087646500001,31.030273437],[79.47290039100001,31.031311035],[79.479492187,31.032470703],[79.49847412100002,31.033874512],[79.50067138700001,31.032287598],[79.52508544900002,31.035095215],[79.53991699200002,31.020080566],[79.58367919900002,30.968322754],[79.617675781,30.952880859],[79.65808105500001,30.968505859],[79.66467285200001,30.971679687],[79.66467285200001,30.975708008],[79.666503906,30.983093262],[79.66949462900001,30.983276367],[79.67852783200001,30.978881836],[79.67889404300001,30.97869873],[79.687683105,30.983093262],[79.72888183600001,30.987487793],[79.73968505900001,30.980285645],[79.74768066400001,30.98449707],[79.760681152,30.997924805],[79.768493652,30.998901367],[79.77191162100002,30.998901367],[79.78228759800001,30.986328125],[79.79571533200001,30.986083984],[79.812683105,30.977111816],[79.828674316,30.980102539],[79.83972168000001,30.976928711],[79.84771728500002,30.971679687],[79.88049316400001,30.969726562],[79.89007568400001,30.954284668],[79.89831543000001,30.922119141],[79.900878906,30.919311523],[79.91351318400001,30.916320801],[79.91827392600001,30.911071777],[79.92492675800001,30.896484375],[79.934509277,30.884887695],[79.95269775400001,30.874511719],[79.95648193400001,30.87512207],[79.96551513700001,30.886108398],[79.97570800800001,30.88671875],[79.99328613300001,30.879272461],[80.00012207,30.86730957],[80.01647949200002,30.853515625],[80.026672363,30.841491699],[80.045471191,30.812072754],[80.062683105,30.809326172],[80.077880859,30.803283691],[80.084472656,30.79510498],[80.092712402,30.791503906],[80.105285645,30.788330078],[80.11932373,30.788513184],[80.13171386700002,30.784301758],[80.13989257800002,30.784301758],[80.15270996100001,30.791870117],[80.160705566,30.801696777],[80.17028808600001,30.806884766],[80.17968750000001,30.807312012],[80.188476562,30.803527832],[80.19592285200001,30.797485352],[80.20269775400001,30.781494141],[80.21490478500002,30.776672363],[80.219726562,30.76550293],[80.22668457,30.761901855],[80.238098145,30.762695312],[80.24749755900001,30.757080078],[80.25347900400001,30.747497559],[80.25592041000002,30.735290527],[80.25531005900001,30.717102051],[80.23992919900002,30.710510254],[80.23547363300001,30.705688477],[80.22912597700001,30.691894531],[80.222473145,30.686706543],[80.204101562,30.685119629],[80.192321777,30.674926758],[80.192687988,30.671691895],[80.199707031,30.669677734],[80.20629882800002,30.663879395],[80.221679687,30.64050293],[80.222473145,30.637512207],[80.220092773,30.634887695],[80.20471191400001,30.629089355],[80.20391845700001,30.625671387],[80.20489502,30.622314453],[80.221679687,30.609680176],[80.22467041000002,30.604125977],[80.22448730500001,30.599121094],[80.22308349600002,30.59588623],[80.26391601600001,30.595092773],[80.32250976600001,30.561889648],[80.32391357400002,30.562316895],[80.33007812500001,30.56427002],[80.33789062500001,30.566101074],[80.33990478500002,30.559875488],[80.35107421900001,30.557495117],[80.35772705100001,30.557312012],[80.361083984,30.55267334],[80.36468505900001,30.547729492],[80.368530273,30.54309082],[80.371276855,30.537902832],[80.37310791000002,30.532287598],[80.374328613,30.530883789],[80.375915527,30.529907227],[80.42010498,30.519714355],[80.44207763700001,30.512084961],[80.44409179700001,30.511901855],[80.450500488,30.510681152],[80.45611572300001,30.507873535],[80.457519531,30.506896973],[80.48547363300001,30.497070312],[80.528320312,30.466674805],[80.550109863,30.471496582],[80.56787109400001,30.461730957],[80.57171630900001,30.463500977],[80.57208252,30.463684082],[80.58312988300001,30.467102051],[80.58892822300001,30.467895508],[80.596679687,30.46887207],[80.59832763700001,30.46887207],[80.60412597700001,30.468688965],[80.610717773,30.466918945],[80.61828613300001,30.464477539],[80.62310791000002,30.463500977],[80.66711425800001,30.464294434],[80.67889404300001,30.435119629],[80.68310546900001,30.428894043],[80.68469238300001,30.427307129],[80.69012451200001,30.419921875],[80.69567871100001,30.417297363],[80.70269775400001,30.416687012],[80.70391845700001,30.416870117],[80.711486816,30.418701172],[80.71752929700001,30.417907715],[80.727478027,30.412109375],[80.74090576200001,30.400512695],[80.74371337900001,30.396728516],[80.75653076200001,30.380310059],[80.761108398,30.377075195],[80.77532959000001,30.370300293],[80.82952880900001,30.329528809],[80.85028076200001,30.317687988],[80.859130859,30.317321777],[80.86669921900001,30.313720703],[80.87268066400001,30.30847168],[80.87689209000001,30.305480957],[80.879882812,30.304077148],[80.88470459000001,30.303527832],[80.88909912100002,30.303894043],[80.89849853500002,30.305725098],[80.908691406,30.306274414],[80.91351318400001,30.303710937],[80.916503906,30.295288086],[80.918884277,30.290527344],[80.94592285200001,30.283081055],[80.95391845700001,30.271728516],[80.95550537100002,30.271911621],[80.967285156,30.273071289],[80.97387695300002,30.273681641],[80.98211669900002,30.27331543],[80.985717773,30.272888184],[80.99407959000001,30.270507812],[81.00030517600001,30.267700195],[81.01092529300001,30.262878418],[81.01409912100002,30.262512207],[81.02227783200001,30.256896973],[81.023925781,30.25567627],[81.03210449200002,30.25012207],[81.03192138700001,30.249084473],[81.04571533200001,30.241699219],[81.05267334000001,30.216125488],[81.10272216800001,30.148681641],[81.10632324200002,30.104125977],[81.118896484,30.057312012],[81.136474609,30.039123535],[81.15350341800001,30.022705078],[81.18170166000002,30.018676758],[81.21710205100001,30.028686523],[81.27288818400001,30.05267334],[81.27532959000001,30.055908203],[81.280273437,30.064086914],[81.283325195,30.073303223],[81.28729248,30.083496094],[81.29071044900002,30.097900391],[81.29089355500001,30.106079102],[81.28948974600002,30.116882324],[81.28631591800001,30.12487793],[81.27911377,30.131103516],[81.26629638700001,30.141296387],[81.26452636700002,30.142700195],[81.261108398,30.145324707],[81.259887695,30.149719238],[81.26092529300001,30.153320312],[81.26672363300001,30.156311035],[81.26568603500002,30.157287598],[81.280273437,30.16027832],[81.32147216800001,30.172729492],[81.34851074200002,30.17388916],[81.354492187,30.180725098],[81.36370849600002,30.186279297],[81.37030029300001,30.189880371],[81.37072753900001,30.190124512],[81.38067627,30.194274902],[81.391113281,30.202087402],[81.395080566,30.209289551],[81.39672851600001,30.213317871],[81.394287109,30.232299805],[81.39447021500001,30.243286133],[81.40307617200001,30.256896973],[81.41131591800001,30.26550293],[81.416503906,30.27331543],[81.41668701200001,30.280090332],[81.41168212900001,30.284301758],[81.40631103500002,30.287475586],[81.40307617200001,30.289489746],[81.401672363,30.292114258],[81.403686523,30.294677734],[81.41027832,30.297729492],[81.410705566,30.297912598],[81.42028808600001,30.304870605],[81.42529296900001,30.308288574],[81.425109863,30.312683105],[81.42028808600001,30.315490723],[81.40887451200001,30.318725586],[81.40350341800001,30.3203125],[81.39727783200001,30.32232666],[81.39691162100002,30.326721191],[81.402099609,30.334106445],[81.40393066400001,30.336730957],[81.40588378900001,30.339477539],[81.40588378900001,30.344299316],[81.40148925800001,30.353088379],[81.40008544900002,30.36328125],[81.402099609,30.36907959],[81.403686523,30.372070312],[81.41052246100001,30.372314453],[81.42248535200001,30.372314453],[81.42730712900001,30.377685547],[81.43011474600002,30.382080078],[81.42248535200001,30.387878418],[81.41271972700001,30.393493652],[81.40649414100001,30.399291992],[81.40393066400001,30.406677246],[81.40728759800001,30.413879395],[81.408691406,30.417114258],[81.41571044900002,30.423095703],[81.42010498,30.423522949],[81.42791748,30.420715332],[81.43389892600001,30.419311523],[81.436889648,30.418701172],[81.441894531,30.417480469],[81.461914062,30.426513672],[81.476318359,30.411315918],[81.52130127,30.382080078],[81.553283691,30.372680664],[81.55511474600002,30.37487793],[81.55731201200001,30.377685547],[81.55688476600001,30.387695312],[81.55548095700001,30.395874023],[81.55810546900001,30.404724121],[81.562316895,30.410888672],[81.56072998,30.42388916],[81.561889648,30.42791748],[81.56408691400001,30.431884766],[81.57348632800002,30.43371582],[81.58227539100001,30.429504395],[81.58508300800001,30.428100586],[81.585327148,30.428527832],[81.61291503900001,30.416687012],[81.61712646500001,30.418273926],[81.62268066400001,30.422912598],[81.62390136700002,30.42767334],[81.62451171900001,30.430908203],[81.62408447300001,30.432678223],[81.620483398,30.444885254],[81.622070312,30.448120117],[81.62768554700001,30.449707031],[81.63928222700001,30.443481445],[81.653686523,30.437316895],[81.67932128900001,30.426879883],[81.691894531,30.424682617],[81.70788574200002,30.417114258],[81.72113037100002,30.410888672],[81.72808837900001,30.410888672],[81.73132324200002,30.408874512],[81.73229980500001,30.40612793],[81.75427246100001,30.402099609],[81.78167724600002,30.391113281],[81.79492187500001,30.386901855],[81.80047607400002,30.387084961],[81.809509277,30.386108398],[81.81689453100002,30.384277344],[81.835327148,30.376281738],[81.841918945,30.375671387],[81.85272216800001,30.377075195],[81.862304687,30.37689209],[81.869689941,30.376098633],[81.87329101600001,30.373718262],[81.878723145,30.370117187],[81.88128662100002,30.367492676],[81.88269043000001,30.36730957],[81.92431640600002,30.359680176],[81.94329834000001,30.352478027],[81.94671630900001,30.355285645],[81.95147705100001,30.359130859],[81.95568847700001,30.359130859],[81.962280273,30.352478027],[81.96252441400001,30.352294922],[81.96508789100001,30.343688965],[81.970092773,30.33972168],[81.99047851600001,30.326293945],[82.00268554700001,30.325500488],[82.010314941,30.329284668],[82.01629638700001,30.338500977],[82.016906738,30.339111328],[82.01947021500001,30.342285156],[82.02288818400001,30.343078613],[82.02807617200001,30.340270996],[82.03149414100001,30.338684082],[82.03430175800001,30.33770752],[82.04089355500001,30.34552002],[82.06048584000001,30.33807373],[82.062683105,30.340087891],[82.06390380900001,30.341125488],[82.07147216800001,30.350280762],[82.07690429700001,30.354492187],[82.077880859,30.354919434],[82.05969238300001,30.384887695],[82.04510498,30.410705566],[82.03210449200002,30.435302734],[82.019714355,30.471313477],[82.020080566,30.50567627],[82.03308105500001,30.540100098],[82.05932617200001,30.558898926],[82.09631347700001,30.552124023],[82.12768554700001,30.530883789],[82.15472412100002,30.513305664],[82.179504395,30.540710449],[82.20751953100002,30.558288574],[82.24731445300002,30.545898437],[82.277893066,30.530517578],[82.31091308600001,30.535888672],[82.35687255900001,30.558898926],[82.39929199200002,30.56451416],[82.43011474600002,30.55670166],[82.46173095700001,30.544677734],[82.50311279300001,30.539123535],[82.51531982400002,30.573913574],[82.508728027,30.605895996],[82.50830078100002,30.64630127],[82.50787353500002,30.678894043],[82.49169921900001,30.706481934],[82.467712402,30.742919922],[82.466918945,30.788879395],[82.47467041000002,30.821105957],[82.48132324200002,30.853881836],[82.487670898,30.882873535],[82.51330566400001,30.905700684],[82.55688476600001,30.912475586],[82.59588623,30.929870605],[82.626281738,30.94732666],[82.653686523,30.922119141],[82.669311523,30.88848877],[82.702880859,30.863708496],[82.73388671900001,30.842529297],[82.74450683600001,30.814880371],[82.783325195,30.805297852],[82.80468750000001,30.767089844],[82.820129395,30.74230957],[82.83850097700001,30.713684082],[82.86791992200001,30.692871094],[82.905273437,30.689697266],[82.93432617200001,30.662109375],[82.93908691400001,30.630493164],[82.938476562,30.590881348],[82.97271728500002,30.570922852],[83.001281738,30.555480957],[83.02893066400001,30.538696289],[83.069702148,30.553283691],[83.09130859400001,30.578674316],[83.12408447300001,30.600708008],[83.13232421900001,30.635314941],[83.15509033200001,30.671875],[83.168518066,30.729492187],[83.16912841800001,30.765930176],[83.163879395,30.79888916],[83.14227294900002,30.828674316],[83.11090087900001,30.834899902],[83.07250976600001,30.836303711],[83.04309082,30.854492187],[83.05072021500001,30.894714355],[83.078125,30.909912109],[83.10650634800001,30.936706543],[83.12530517600001,30.967895508],[83.13891601600001,31.000671387],[83.16192627,31.059082031],[83.179504395,31.098083496],[83.18347168000001,31.148925781],[83.20812988300001,31.196289062],[83.24127197300001,31.215515137],[83.26831054700001,31.235900879],[83.27691650400001,31.269470215],[83.27288818400001,31.312072754],[83.270507812,31.353515625],[83.27032470700001,31.388122559],[83.243896484,31.422119141],[83.19927978500002,31.423095703],[83.192687988,31.391296387],[83.15771484400001,31.401489258],[83.12451171900001,31.43371582],[83.071289062,31.473876953],[83.04211425800001,31.509887695],[83.06048584000001,31.536499023],[83.09613037100002,31.568481445],[83.13330078100002,31.590087891],[83.16748046900001,31.60369873],[83.21008300800001,31.621276855],[83.24108886700002,31.64050293],[83.28509521500001,31.660705566],[83.32989502,31.652709961],[83.36407470700001,31.652099609],[83.40008544900002,31.654296875],[83.43127441400001,31.644714355],[83.454101562,31.620300293],[83.475891113,31.600280762],[83.52148437500001,31.587280273],[83.57952880900001,31.620300293],[83.610290527,31.635070801],[83.659484863,31.65612793],[83.71667480500001,31.663879395],[83.76428222700001,31.653076172],[83.81671142600001,31.618103027],[83.84930419900002,31.610473633],[83.86132812500001,31.638305664],[83.886901855,31.66192627],[83.935302734,31.665710449],[83.97692871100001,31.65447998],[84.020080566,31.635681152],[84.052124023,31.645324707],[84.08807373,31.651916504],[84.111877441,31.631896973],[84.134094238,31.654296875],[84.15087890600002,31.682312012],[84.23132324200002,31.685302734],[84.27587890600002,31.67791748],[84.31170654300001,31.650878906],[84.32849121100001,31.623474121],[84.355285645,31.653686523],[84.38848877,31.65411377],[84.41027832,31.680114746],[84.39770507800002,31.710876465],[84.38348388700001,31.752502441],[84.361083984,31.788879395],[84.362670898,31.822875977],[84.40612793000001,31.829528809],[84.44409179700001,31.805297852],[84.45568847700001,31.76550293],[84.46551513700001,31.734924316],[84.49792480500001,31.711120605],[84.53631591800001,31.705688477],[84.57928466800001,31.706481934],[84.61450195300002,31.708496094],[84.652526855,31.691711426],[84.67968750000001,31.672302246],[84.63427734400001,31.637695312],[84.63269043000001,31.600280762],[84.64532470700001,31.567321777],[84.65692138700001,31.531677246],[84.626708984,31.518920898],[84.585693359,31.515319824],[84.552490234,31.497497559],[84.51409912100002,31.48248291],[84.47070312500001,31.481689453],[84.43872070300002,31.471679687],[84.40808105500001,31.448303223],[84.38232421900001,31.425292969],[84.358703613,31.397888184],[84.343078613,31.366882324],[84.37609863300001,31.354492187],[84.413085937,31.348083496],[84.43347168000001,31.377685547],[84.46710205100001,31.367675781],[84.49987793000001,31.343505859],[84.52130127,31.318725586],[84.55609130900001,31.301513672],[84.57031250000001,31.274475098],[84.57330322300001,31.240722656],[84.59210205100001,31.200317383],[84.627502441,31.1953125],[84.67211914100001,31.203918457],[84.69671630900001,31.183898926],[84.67590332,31.158081055],[84.65948486300002,31.112670898],[84.68908691400001,31.082702637],[84.70648193400001,31.044921875],[84.701293945,30.997924805],[84.74108886700002,30.985717773],[84.76867675800001,30.97088623],[84.78369140600002,30.93371582],[84.74829101600001,30.921691895],[84.74810791000002,30.891113281],[84.71447753900001,30.876098633],[84.68487548800002,30.866088867],[84.65747070300002,30.840881348],[84.63189697300001,30.808898926],[84.61529541000002,30.77947998],[84.59088134800001,30.749511719],[84.56048584000001,30.725280762],[84.53967285200001,30.689880371],[84.543518066,30.656311035],[84.55389404300001,30.62512207],[84.51989746100001,30.616516113],[84.53472900400001,30.576477051],[84.571289062,30.539306641],[84.58032226600001,30.509277344],[84.611877441,30.48449707],[84.635314941,30.460876465],[84.60168457,30.422302246],[84.60687255900001,30.385681152],[84.65228271500001,30.329711914],[84.6875,30.287719727],[84.71832275400001,30.271118164],[84.72113037100002,30.22869873],[84.74951171900001,30.198120117],[84.75592041000002,30.169128418],[84.751708984,30.133483887],[84.74230957,30.102111816],[84.75549316400001,30.07611084],[84.75427246100001,30.04107666],[84.76550293000001,30.00592041],[84.83050537100002,29.989929199],[84.86627197300001,29.99029541],[84.87890625000001,29.962280273],[84.89709472700001,29.937927246],[84.92388916000002,29.919677734],[84.93890380900001,29.890686035],[84.96832275400001,29.872497559],[84.996276855,29.849304199],[85.03192138700001,29.827880859],[85.07067871100001,29.801513672],[85.10028076200001,29.780273437],[85.136474609,29.756286621],[85.17010498,29.731689453],[85.19189453100002,29.711914062],[85.23449707,29.707275391],[85.26391601600001,29.72052002],[85.29772949200002,29.706298828],[85.32067871100001,29.683105469],[85.35510253900001,29.698120117],[85.393127441,29.720092773],[85.42071533200001,29.74609375],[85.40747070300002,29.774902344],[85.413879395,29.81829834],[85.43432617200001,29.850280762],[85.46569824200002,29.85748291],[85.488098145,29.830505371],[85.52368164100001,29.832885742],[85.54968261700002,29.856323242],[85.55908203100002,29.885314941],[85.56127929700001,29.919677734],[85.59771728500002,29.93347168],[85.63891601600001,29.928100586],[85.67388916000002,29.924682617],[85.70867919900002,29.940673828],[85.70471191400001,29.984130859],[85.73950195300002,30.00189209],[85.778320312,30.010070801],[85.803710937,30.034729004],[85.84490966800001,30.043701172],[85.86651611300002,30.063903809],[85.87487793000001,30.095275879],[85.86791992200001,30.13269043],[85.88409423800002,30.160522461],[85.913879395,30.186706543],[85.89007568400001,30.213317871],[85.85388183600001,30.22869873],[85.81567382800002,30.241271973],[85.79010009800001,30.273071289],[85.82531738300001,30.285705566],[85.84832763700001,30.307128906],[85.86529541000002,30.333496094],[85.88189697300001,30.362121582],[85.89672851600001,30.391113281],[85.91009521500001,30.421508789],[85.91412353500002,30.448486328],[85.91711425800001,30.484680176],[85.91009521500001,30.524475098],[85.894714355,30.558898926],[85.85748291000002,30.586914062],[85.81872558600001,30.60369873],[85.78869628900001,30.614929199],[85.75268554700001,30.623474121],[85.72528076200001,30.656311035],[85.74090576200001,30.686279297],[85.77728271500001,30.69708252],[85.802490234,30.678527832],[85.83587646500001,30.669128418],[85.86389160200001,30.68371582],[85.843505859,30.708496094],[85.82208252,30.731079102],[85.813476562,30.75970459],[85.83508300800001,30.782714844],[85.86529541000002,30.768493652],[85.90032959000001,30.768493652],[85.943481445,30.770507812],[85.977478027,30.756713867],[86.02069091800001,30.772888184],[86.04870605500001,30.78692627],[86.07727050800001,30.811096191],[86.08947753900001,30.840270996],[86.09027099600002,30.872314453],[86.08630371100001,30.899475098],[86.077514648,30.930297852],[86.08331298800002,30.981079102],[86.06988525400001,31.032287598],[86.08288574200002,31.060302734],[86.11767578100002,31.071716309],[86.14709472700001,31.08972168],[86.170898437,31.113525391],[86.18548584000001,31.142089844],[86.18890380900001,31.170288086],[86.17547607400002,31.197692871],[86.137695312,31.218505859],[86.10009765600002,31.231506348],[86.05468750000001,31.230102539],[86.01867675800001,31.231079102],[85.98669433600001,31.242919922],[85.95349121100001,31.260314941],[85.91192627,31.257080078],[85.89367675800001,31.279907227],[85.86627197300001,31.298706055],[85.82952880900001,31.30090332],[85.77990722700001,31.325317383],[85.734130859,31.350891113],[85.69152832,31.363708496],[85.65307617200001,31.36328125],[85.62030029300001,31.375488281],[85.609130859,31.403686523],[85.59613037100002,31.438476562],[85.57550048800002,31.472473145],[85.57550048800002,31.504882812],[85.520874023,31.516723633],[85.48889160200001,31.525695801],[85.47668457,31.557922363],[85.471679687,31.588500977],[85.43951416000002,31.604492187],[85.411071777,31.590698242],[85.38250732400002,31.571289062],[85.33111572300001,31.583496094],[85.30749511700002,31.611694336],[85.30627441400001,31.650085449],[85.26831054700001,31.669677734],[85.23388671900001,31.672119141],[85.200927734,31.677307129],[85.17791748,31.714111328],[85.17010498,31.754882812],[85.16009521500001,31.787109375],[85.15032959000001,31.827087402],[85.16247558600001,31.862487793],[85.17327880900001,31.892700195],[85.17132568400001,31.930297852],[85.152099609,31.973510742],[85.13592529300001,32.00769043],[85.11987304700001,32.03527832],[85.09948730500001,32.06048584],[85.08331298800002,32.085876465],[85.09112548800002,32.125671387],[85.12292480500001,32.155090332],[85.15808105500001,32.214294434],[85.169677734,32.240722656],[85.19030761700002,32.268676758],[85.20709228500002,32.292724609],[85.230285645,32.330078125],[85.23852539100001,32.366882324],[85.24127197300001,32.397888184],[85.24890136700002,32.436889648],[85.258728027,32.473693848],[85.27947998,32.503479004],[85.33270263700001,32.521118164],[85.37109375000001,32.537475586],[85.39630127,32.57232666],[85.419311523,32.59387207],[85.46789550800001,32.584899902],[85.51232910200001,32.58770752],[85.55627441400001,32.609680176],[85.586120605,32.625488281],[85.62469482400002,32.646484375],[85.679504395,32.664672852],[85.73187255900001,32.687927246],[85.77850341800001,32.703125],[85.82769775400001,32.707702637],[85.879089355,32.705322266],[85.92309570300002,32.719726562],[85.96612548800002,32.741271973],[85.99090576200001,32.767272949],[86.030273437,32.796875],[86.06451416000002,32.807128906],[86.100524902,32.820495605],[86.120483398,32.844299316],[86.109924316,32.879516602],[86.078308105,32.903503418],[86.05889892600001,32.934326172],[86.054504395,32.971679687],[86.06329345700001,33.014709473],[86.04107666000002,33.049499512],[86.03930664100001,33.080871582],[86.04571533200001,33.108093262],[86.03350830100001,33.145507812],[86.04010009800001,33.176513672],[86.03692627,33.217529297],[86.04608154300001,33.249084473],[86.03387451200001,33.291503906],[86.01049804700001,33.317871094],[85.98712158200001,33.355285645],[85.94610595700001,33.354675293],[85.91491699200002,33.375305176],[85.886474609,33.389282227],[85.843505859,33.389892578],[85.80987548800002,33.395080566],[85.78692627,33.414672852],[85.777099609,33.455078125],[85.768920898,33.491699219],[85.74951171900001,33.518920898],[85.717712402,33.544128418],[85.70812988300001,33.577087402],[85.702514648,33.605102539],[85.66192627,33.624694824],[85.62689209000001,33.60748291],[85.593505859,33.616516113],[85.56530761700002,33.64050293],[85.52911377,33.651672363],[85.47412109400001,33.67010498],[85.42388916000002,33.69909668],[85.38110351600001,33.718688965],[85.343505859,33.737121582],[85.302124023,33.768676758],[85.29168701200001,33.794921875],[85.29888916000002,33.831298828],[85.28009033200001,33.859924316],[85.250915527,33.891113281],[85.21569824200002,33.901916504],[85.17327880900001,33.889709473],[85.14093017600001,33.879882812],[85.10388183600001,33.888122559],[85.06390380900001,33.900512695],[85.02508544900002,33.889709473],[84.98211669900002,33.906311035],[84.95831298800002,33.927124023],[84.93389892600001,33.946289062],[84.89648437500001,33.965087891],[84.85632324200002,33.965881348],[84.820495605,33.95690918],[84.78631591800001,33.953674316],[84.74890136700002,33.957092285],[84.70648193400001,33.962890625],[84.66650390600002,33.951904297],[84.62408447300001,33.948303223],[84.587280273,33.967102051],[84.57928466800001,33.993286133],[84.56951904300001,34.027282715],[84.54248046900001,34.050720215],[84.51049804700001,34.063903809],[84.47052002,34.070129395],[84.42370605500001,34.106872559],[84.40228271500001,34.139282227],[84.39007568400001,34.166687012],[84.39031982400002,34.193908691],[84.38671875000001,34.223327637],[84.39910888700001,34.249328613],[84.429504395,34.266906738],[84.41748046900001,34.299499512],[84.451293945,34.312927246],[84.48791503900001,34.32208252],[84.48327636700002,34.36151123],[84.46008300800001,34.38092041],[84.44769287100002,34.411071777],[84.466125488,34.442504883],[84.49450683600001,34.472717285],[84.511901855,34.510314941],[84.52331543000001,34.555480957],[84.545898437,34.584289551],[84.538085937,34.616516113],[84.518920898,34.646484375],[84.484924316,34.669677734],[84.446289062,34.663513184],[84.41168212900001,34.667724609],[84.38330078100002,34.700317383],[84.360290527,34.723083496],[84.325927734,34.739074707],[84.29492187500001,34.759521484],[84.28967285200001,34.787719727],[84.30572509800001,34.811523437],[84.30468750000001,34.838928223],[84.284484863,34.871520996],[84.27490234400001,34.908325195],[84.24169921900001,34.932495117],[84.209899902,34.944885254],[84.18328857400002,34.916687012],[84.14569091800001,34.907714844],[84.10308837900001,34.91607666],[84.07409668000001,34.947692871],[84.05432128900001,34.97467041],[84.04608154300001,35.001281738],[83.99871826200001,35.028686523],[83.95727539100001,35.029724121],[83.92431640600002,35.02532959],[83.91491699200002,35.057495117],[83.903686523,35.092529297],[83.894714355,35.125671387],[83.89849853500002,35.160522461],[83.93951416000002,35.214294434],[83.93267822300001,35.25012207],[83.93670654300001,35.281311035],[83.94012451200001,35.312927246],[83.93231201200001,35.348510742],[83.885681152,35.377319336]]]}}
