{"type":"Feature","id":"bulk-99377448B35213122058233","bbox":[97.77893066400001,39.463684082,98.52972412100002,40.061889648],"properties":{"id":"bulk-99377448B35213122058233","name":"Jiayuguan","nameEn":"Jiayuguan","fullName":"Jiayuguan","level":"city","boundaryRole":"administrative-extent","boundaryQuality":"generalized-source-2020","boundaryYearRepresented":"2020","bounds":[[97.77893066400001,39.463684082],[98.52972412100002,40.061889648]],"center":[98.15432739250002,39.762786864999995],"centerMethod":"bounding-box midpoint; camera framing only","license":"CC-BY-3.0-IGO","attribution":"geoBoundaries / HDX, China administrative boundaries (2020)","source":{"provider":"geoBoundaries gbHumanitarian / HDX","url":"https://github.com/wmgeolab/geoBoundaries/raw/9469f09/releaseData/gbHumanitarian/CHN/ADM2/geoBoundaries-CHN-ADM2.geojson","metadataUrl":"https://www.geoboundaries.org/api/current/gbHumanitarian/CHN/ADM2/","shapeID":"99377448B35213122058233","shapeName":"Jiayuguan","boundaryID":"CHN-ADM2-99377448","commit":"9469f09"},"geometryCounts":{"coordinates":58,"components":1,"holes":0},"boundaryNotice":"geoBoundaries / HDX 2020 年行政区数据，海岸和边界经过源数据概化，并非当前测绘成果。"},"geometry":{"type":"Polygon","coordinates":[[[97.79388427700002,39.639526367],[97.77893066400001,39.610900879],[97.82891845700001,39.606506348],[97.879089355,39.604309082],[97.91888427700002,39.602722168],[97.95568847700001,39.589111328],[97.98907470700001,39.577087402],[98.02770996100001,39.562072754],[98.06628418000001,39.556274414],[98.10247802700002,39.55267334],[98.13671875000001,39.543701172],[98.17791748,39.53112793],[98.22692871100001,39.513122559],[98.25872802700002,39.499084473],[98.29772949200002,39.483520508],[98.33428955100001,39.469726562],[98.39129638700001,39.463684082],[98.372070312,39.513916016],[98.39251709000001,39.54888916],[98.41052246100001,39.573913574],[98.41809082000002,39.602294922],[98.41369628900001,39.636108398],[98.40869140600002,39.670288086],[98.39831543000001,39.700073242],[98.38092041000002,39.727905273],[98.36791992200001,39.758911133],[98.370483398,39.789306641],[98.39447021500001,39.8125],[98.43707275400001,39.825683594],[98.48651123,39.83190918],[98.51171875000001,39.851928711],[98.52630615200002,39.89831543],[98.52972412100002,39.926879883],[98.52709960900002,39.955322266],[98.49749755900001,40.024475098],[98.45251464800002,40.030273437],[98.41632080100001,40.028076172],[98.37591552700002,40.016906738],[98.320495605,40.009887695],[98.27209472700001,40.021484375],[98.21807861300002,40.038879395],[98.17291259800001,40.046508789],[98.12152099600002,40.061889648],[98.08972168000001,40.042114258],[98.06512451200001,40.008483887],[98.04968261700002,39.976074219],[98.036499023,39.945678711],[98.02008056600002,39.917480469],[98.00708007800002,39.891906738],[97.99127197300001,39.858276367],[97.97387695300002,39.823913574],[97.96771240200002,39.780700684],[97.95452880900001,39.745483398],[97.936523437,39.712097168],[97.91748046900001,39.686279297],[97.88708496100001,39.666503906],[97.84149169900002,39.654724121],[97.79388427700002,39.639526367]]]}}
