{"type":"Feature","id":"bulk-99377448B90467298452220","bbox":[110.75451660200001,31.23828125,113.05328369100002,32.629882812],"properties":{"id":"bulk-99377448B90467298452220","name":"Xiangyang","nameEn":"Xiangyang","fullName":"Xiangyang","level":"city","boundaryRole":"administrative-extent","boundaryQuality":"generalized-source-2020","boundaryYearRepresented":"2020","bounds":[[110.75451660200001,31.23828125],[113.05328369100002,32.629882812]],"center":[111.9039001465,31.934082031],"centerMethod":"bounding-box midpoint; camera framing only","license":"CC-BY-3.0-IGO","attribution":"geoBoundaries / HDX, China administrative boundaries (2020)","source":{"provider":"geoBoundaries gbHumanitarian / HDX","url":"https://github.com/wmgeolab/geoBoundaries/raw/9469f09/releaseData/gbHumanitarian/CHN/ADM2/geoBoundaries-CHN-ADM2.geojson","metadataUrl":"https://www.geoboundaries.org/api/current/gbHumanitarian/CHN/ADM2/","shapeID":"99377448B90467298452220","shapeName":"Xiangyang","boundaryID":"CHN-ADM2-99377448","commit":"9469f09"},"geometryCounts":{"coordinates":183,"components":1,"holes":0},"boundaryNotice":"geoBoundaries / HDX 2020 年行政区数据，海岸和边界经过源数据概化，并非当前测绘成果。"},"geometry":{"type":"Polygon","coordinates":[[[111.54370117200001,32.598327637],[111.54571533200001,32.56652832],[111.53369140600002,32.527893066],[111.51049804700001,32.504699707],[111.453125,32.452880859],[111.44128418000001,32.425292969],[111.40527343700002,32.417907715],[111.36450195300002,32.411071777],[111.34490966800001,32.389282227],[111.31347656200002,32.367492676],[111.28271484400001,32.350097656],[111.24108886700002,32.333496094],[111.20568847700001,32.320678711],[111.18707275400001,32.297912598],[111.20471191400001,32.264099121],[111.22167968700002,32.237915039],[111.22589111300002,32.205078125],[111.21807861300002,32.171691895],[111.19549560500002,32.150512695],[111.15911865200002,32.129882812],[111.11907959000001,32.104125977],[111.06329345700001,32.081481934],[111.07427978500002,32.054321289],[111.10852050800001,32.038330078],[111.08612060500002,32.006286621],[111.05212402300002,31.991271973],[111.02807617200001,32.019470215],[110.988098145,32.020324707],[110.96691894500002,31.995727539],[110.95812988300001,31.958679199],[110.96612548800002,31.927490234],[110.99188232400002,31.885070801],[110.96728515600002,31.83807373],[110.93908691400001,31.860900879],[110.90228271500001,31.876281738],[110.86749267600001,31.862487793],[110.82067871100001,31.85168457],[110.78308105500001,31.847900391],[110.75451660200001,31.81427002],[110.77770996100001,31.784484863],[110.81707763700001,31.772277832],[110.84429931600002,31.751098633],[110.85687255900001,31.719116211],[110.863098145,31.684875488],[110.90710449200002,31.668273926],[110.94012451200001,31.665283203],[110.95568847700001,31.641296387],[110.93511962900001,31.606689453],[110.92248535200001,31.58190918],[110.96612548800002,31.557312012],[111.003723145,31.55847168],[111.02148437500001,31.519287109],[111.02252197300001,31.488891602],[111.01971435500002,31.459472656],[111.03649902300002,31.432678223],[111.07391357400002,31.433105469],[111.10650634800001,31.442321777],[111.13647460900002,31.459472656],[111.16711425800001,31.444091797],[111.19030761700002,31.467895508],[111.22808837900001,31.463684082],[111.24688720700001,31.432312012],[111.27252197300001,31.395080566],[111.29608154300001,31.370300293],[111.33471679700001,31.364501953],[111.38769531200002,31.379882812],[111.40869140600002,31.343505859],[111.42932128900001,31.321899414],[111.45648193400001,31.307312012],[111.49047851600001,31.307678223],[111.52288818400001,31.313293457],[111.55651855500001,31.338928223],[111.57727050800001,31.366088867],[111.61230468700002,31.379882812],[111.66491699200002,31.376708984],[111.70648193400001,31.370483398],[111.71667480500001,31.336486816],[111.71807861300002,31.307922363],[111.74487304700001,31.286499023],[111.77947998000002,31.259887695],[111.81048584000001,31.23828125],[111.84667968700002,31.248291016],[111.88067627,31.253479004],[111.92572021500001,31.273681641],[111.91052246100001,31.303283691],[111.90228271500001,31.332092285],[111.90972900400001,31.373718262],[111.91607666000002,31.407287598],[111.91888427700002,31.444519043],[111.93487548800002,31.476928711],[111.98132324200002,31.44909668],[112.01928710900002,31.444091797],[112.05932617200001,31.450500488],[112.08972168000001,31.467285156],[112.14831543000001,31.481872559],[112.16589355500001,31.519287109],[112.19830322300001,31.538330078],[112.24029541000002,31.547912598],[112.27807617200001,31.553710937],[112.31787109400001,31.525085449],[112.34667968700002,31.507873535],[112.39447021500001,31.511108398],[112.41851806600002,31.53112793],[112.44488525400001,31.551086426],[112.480285645,31.565490723],[112.51312255900001,31.561706543],[112.55267334000001,31.539489746],[112.57952880900001,31.521118164],[112.61468505900001,31.513305664],[112.65051269500002,31.496887207],[112.68371582000002,31.491882324],[112.68371582000002,31.520690918],[112.68109130900001,31.561889648],[112.70648193400001,31.586486816],[112.72668457000002,31.61730957],[112.70831298800002,31.663513184],[112.72027587900001,31.69909668],[112.73687744100002,31.733886719],[112.76788330100001,31.753112793],[112.79571533200001,31.77911377],[112.81927490200002,31.806274414],[112.84948730500001,31.821289062],[112.88867187500001,31.835327148],[112.93328857400002,31.836730957],[112.95288085900002,31.865478516],[112.95568847700001,31.901306152],[112.97589111300002,31.932922363],[112.99847412100002,31.968505859],[112.97210693400001,31.99029541],[112.95031738300001,32.028686523],[112.95910644500002,32.07208252],[112.99328613300001,32.09552002],[113.01190185500002,32.121276855],[112.99932861300002,32.14831543],[113.00628662100002,32.181884766],[113.01287841800001,32.213500977],[112.99908447300001,32.24609375],[112.995910645,32.27532959],[113.02508544900002,32.311279297],[113.04449462900001,32.346313477],[113.05328369100002,32.377685547],[113.05047607400002,32.400512695],[113.003723145,32.397888184],[112.980285645,32.366516113],[112.92248535200001,32.381713867],[112.85131835900002,32.380126953],[112.75671386700002,32.343688965],[112.67669677700002,32.339477539],[112.61468505900001,32.359924316],[112.55792236300002,32.379272461],[112.52429199200002,32.370117187],[112.49072265600002,32.362121582],[112.46368408200001,32.355895996],[112.44812011700002,32.35748291],[112.39788818400001,32.362915039],[112.36010742200001,32.357116699],[112.31768798800002,32.340881348],[112.24212646500001,32.32409668],[112.20391845700001,32.359924316],[112.19409179700001,32.365112305],[112.16088867200001,32.382507324],[112.13928222700001,32.377502441],[112.08789062500001,32.390319824],[112.07208252,32.426879883],[112.04748535200001,32.450927734],[112.01312255900001,32.450500488],[111.98590087900001,32.429504395],[111.97387695300002,32.42767334],[111.96929931600002,32.429321289],[111.95129394500002,32.435119629],[111.93530273400002,32.448486328],[111.85150146500001,32.473083496],[111.81567382800002,32.471679687],[111.76947021500001,32.490478516],[111.75250244100002,32.511901855],[111.72790527300002,32.549316406],[111.69812011700002,32.588500977],[111.66589355500001,32.617919922],[111.64910888700001,32.621704102],[111.61291503900001,32.629882812],[111.58270263700001,32.62109375],[111.55328369100002,32.599121094],[111.54370117200001,32.598327637]]]}}
