{"type":"Feature","id":"bulk-99377448B73129396762038","bbox":[119.89129638700001,30.760314941,121.28869628900001,32.007324219],"properties":{"id":"bulk-99377448B73129396762038","name":"Suzhou","nameEn":"Suzhou","fullName":"Suzhou","level":"city","boundaryRole":"administrative-extent","boundaryQuality":"generalized-source-2020","boundaryYearRepresented":"2020","bounds":[[119.89129638700001,30.760314941],[121.28869628900001,32.007324219]],"center":[120.58999633800002,31.38381958],"centerMethod":"bounding-box midpoint; camera framing only","license":"CC-BY-3.0-IGO","attribution":"geoBoundaries / HDX, China administrative boundaries (2020)","source":{"provider":"geoBoundaries gbHumanitarian / HDX","url":"https://github.com/wmgeolab/geoBoundaries/raw/9469f09/releaseData/gbHumanitarian/CHN/ADM2/geoBoundaries-CHN-ADM2.geojson","metadataUrl":"https://www.geoboundaries.org/api/current/gbHumanitarian/CHN/ADM2/","shapeID":"99377448B73129396762038","shapeName":"Suzhou","boundaryID":"CHN-ADM2-99377448","commit":"9469f09"},"geometryCounts":{"coordinates":214,"components":3,"holes":0},"boundaryNotice":"geoBoundaries / HDX 2020 年行政区数据，海岸和边界经过源数据概化，并非当前测绘成果。"},"geometry":{"type":"MultiPolygon","coordinates":[[[[119.89129638700001,31.156677246],[119.89288330100001,31.153320312],[119.89291468200001,31.153347035],[119.89129638700001,31.156677246]]],[[[121.28869628900001,31.488525391],[121.28009033200001,31.492492676],[121.27648925800001,31.505310059],[121.27349853500002,31.503479004],[121.26788330100001,31.502685547],[121.27447509800001,31.50970459],[121.27532959000001,31.509887695],[121.26751709000001,31.539123535],[121.25451660200001,31.572875977],[121.22088623000002,31.608703613],[121.19372558600001,31.63470459],[121.15527343700002,31.665527344],[121.09649658200001,31.693481445],[121.05712890600002,31.709472656],[121.03930664100001,31.723327637],[121.00909423800002,31.73651123],[120.95867919900002,31.743713379],[120.91912841800001,31.74987793],[120.90087890600002,31.74432373],[120.88488769500002,31.747497559],[120.85931396500001,31.753479004],[120.84887695300002,31.759887695],[120.83129882800002,31.765686035],[120.82470703100002,31.770324707],[120.82171630900001,31.772094727],[120.80969238300001,31.771118164],[120.81188964800002,31.776489258],[120.80871582000002,31.780883789],[120.79187011700002,31.789672852],[120.77490234400001,31.80267334],[120.74847412100002,31.816894531],[120.74212646500001,31.821899414],[120.72711181600002,31.833129883],[120.72149658200001,31.833679199],[120.72729492200001,31.839111328],[120.72827148400002,31.850280762],[120.73608398400002,31.839904785],[120.74151611300002,31.836120605],[120.75048828100002,31.832519531],[120.76208496100001,31.825073242],[120.77032470700001,31.822875977],[120.77471923800002,31.823120117],[120.77508544900002,31.823303223],[120.78448486300002,31.82611084],[120.78668212900001,31.828308105],[120.79229736300002,31.843078613],[120.79547119100002,31.844909668],[120.79888916000002,31.864685059],[120.79150390600002,31.883483887],[120.78228759800001,31.894287109],[120.77532959000001,31.901123047],[120.75567627,31.934082031],[120.75268554700001,31.9453125],[120.75231933600001,31.957275391],[120.74707031200002,31.967102051],[120.73950195300002,31.973693848],[120.73870849600002,31.975097656],[120.71929931600002,31.980529785],[120.67547607400002,31.987121582],[120.67010498000002,31.986877441],[120.65930175800001,31.988525391],[120.64410400400001,31.98828125],[120.63671875000001,31.987121582],[120.62707519500002,31.988098145],[120.62469482400002,31.987915039],[120.62030029300001,31.987487793],[120.61370849600002,31.986877441],[120.58587646500001,31.982727051],[120.55169677700002,31.981079102],[120.51147460900002,31.993530273],[120.47967529300001,32.002685547],[120.45629882800002,32.007324219],[120.44470214800002,32.007080078],[120.45208740200002,32.00012207],[120.45092773400002,31.995483398],[120.45172119100002,31.986083984],[120.44970703100002,31.980895996],[120.44610595700001,31.976501465],[120.44451904300001,31.974487305],[120.43231201200001,31.964477539],[120.42791748000002,31.964111328],[120.42651367200001,31.952697754],[120.39752197300001,31.95690918],[120.37152099600002,31.956298828],[120.370910645,31.955505371],[120.35369873000002,31.953918457],[120.35247802700002,31.953491211],[120.36651611300002,31.902526855],[120.40789794900002,31.889709473],[120.44427490200002,31.875915527],[120.47808837900001,31.849914551],[120.50787353500002,31.826477051],[120.52172851600001,31.800720215],[120.56170654300001,31.781494141],[120.57690429700001,31.754516602],[120.60327148400002,31.723510742],[120.56091308600001,31.695922852],[120.55212402300002,31.662475586],[120.57952880900001,31.633911133],[120.56591796900001,31.608886719],[120.52868652300002,31.603881836],[120.52227783200001,31.575927734],[120.55487060500002,31.573913574],[120.57971191400001,31.551086426],[120.57171630900001,31.519104004],[120.55670166000002,31.494689941],[120.53247070300002,31.466491699],[120.49267578100002,31.442321777],[120.45928955100001,31.444702148],[120.42431640600002,31.44732666],[120.39770507800002,31.444274902],[120.39068603500002,31.437072754],[120.37908935500002,31.429504395],[120.328125,31.41229248],[120.27050781200002,31.383911133],[120.20910644500002,31.338928223],[120.12292480500001,31.293701172],[119.91632080100001,31.173278809],[119.89291468200001,31.153347035],[119.89868164100001,31.141479492],[119.90631103500002,31.112915039],[119.91430664100001,31.088928223],[119.92327880900001,31.073486328],[119.93487548800002,31.06072998],[119.95269775400001,31.044677734],[119.972473145,31.021118164],[119.98651123000002,31.00970459],[120.00909423800002,30.998901367],[120.01849365200002,30.993713379],[120.04327392600001,30.978515625],[120.06689453100002,30.967712402],[120.07507324200002,30.964111328],[120.08111572300001,30.959106445],[120.09191894500002,30.951477051],[120.12048339800002,30.938110352],[120.15069580100001,30.925292969],[120.18432617200001,30.915100098],[120.19488525400001,30.912719727],[120.21051025400001,30.911315918],[120.23248291000002,30.913879395],[120.24371337900001,30.915893555],[120.25488281200002,30.917724609],[120.26568603500002,30.916687012],[120.27252197300001,30.919128418],[120.27929687500001,30.921508789],[120.29492187500001,30.924499512],[120.32830810500002,30.903503418],[120.32928466800001,30.902893066],[120.35632324200002,30.909729004],[120.41650390600002,30.914672852],[120.42248535200001,30.865112305],[120.44189453100002,30.810913086],[120.46191406200002,30.760314941],[120.50549316400001,30.771118164],[120.53167724600002,30.836303711],[120.56689453100002,30.856079102],[120.63751220700001,30.854309082],[120.67749023400002,30.86907959],[120.68408203100002,30.877502441],[120.69128418000001,30.890686035],[120.66949462900001,30.933898926],[120.65032959000001,30.953918457],[120.64111328100002,30.968505859],[120.64172363300001,30.973083496],[120.70227050800001,30.991882324],[120.73449707000002,31.002685547],[120.77087402300002,31.003112793],[120.81671142600001,31.01348877],[120.86267089800002,31.014099121],[120.89270019500002,31.024108887],[120.90087890600002,31.024291992],[120.89227294900002,31.038513184],[120.86267089800002,31.049926758],[120.85351562500001,31.062316895],[120.82928466800001,31.091125488],[120.84771728500002,31.104675293],[120.85607910200001,31.111083984],[120.91809082000002,31.111083984],[120.95330810500002,31.110900879],[120.98852539100001,31.119506836],[121.00769043000001,31.137512207],[121.03527832000002,31.161682129],[121.03289794900002,31.187072754],[121.03027343700002,31.227294922],[121.03631591800001,31.258117676],[121.06207275400001,31.259521484],[121.11907959000001,31.305297852],[121.09710693400001,31.326904297],[121.07928466800001,31.356079102],[121.09631347700001,31.373291016],[121.10668945300002,31.378479004],[121.11828613300001,31.391723633],[121.10491943400001,31.415893555],[121.11169433600001,31.424316406],[121.11767578100002,31.428283691],[121.18151855500001,31.454528809],[121.21112060500002,31.469909668],[121.28869628900001,31.488525391]]],[[[120.42932128900001,32.002319336],[120.43011474600002,31.981506348],[120.42932128900001,31.974914551],[120.429504395,31.975097656],[120.43249511700002,31.980285645],[120.43267822300001,31.986328125],[120.43847656200002,31.992126465],[120.44030761700002,31.996887207],[120.43890380900001,32.00012207],[120.43487548800002,32.002929687],[120.43292236300002,32.00390625],[120.42932128900001,32.002319336]]]]}}
