{"type":"Feature","id":"bulk-99377448B278901352324","bbox":[113.72430419900002,36.70892334,115.84191894500002,37.793884277],"properties":{"id":"bulk-99377448B278901352324","name":"Xingtai","nameEn":"Xingtai","fullName":"Xingtai","level":"city","boundaryRole":"administrative-extent","boundaryQuality":"generalized-source-2020","boundaryYearRepresented":"2020","bounds":[[113.72430419900002,36.70892334],[115.84191894500002,37.793884277]],"center":[114.78311157200002,37.2514038085],"centerMethod":"bounding-box midpoint; camera framing only","license":"CC-BY-3.0-IGO","attribution":"geoBoundaries / HDX, China administrative boundaries (2020)","source":{"provider":"geoBoundaries gbHumanitarian / HDX","url":"https://github.com/wmgeolab/geoBoundaries/raw/9469f09/releaseData/gbHumanitarian/CHN/ADM2/geoBoundaries-CHN-ADM2.geojson","metadataUrl":"https://www.geoboundaries.org/api/current/gbHumanitarian/CHN/ADM2/","shapeID":"99377448B278901352324","shapeName":"Xingtai","boundaryID":"CHN-ADM2-99377448","commit":"9469f09"},"geometryCounts":{"coordinates":128,"components":1,"holes":0},"boundaryNotice":"geoBoundaries / HDX 2020 年行政区数据，海岸和边界经过源数据概化，并非当前测绘成果。"},"geometry":{"type":"Polygon","coordinates":[[[115.42590332000002,36.70892334],[115.45947265600002,36.730895996],[115.46728515600002,36.750488281],[115.49090576200001,36.762084961],[115.52349853500002,36.765686035],[115.55889892600001,36.76171875],[115.63171386700002,36.783691406],[115.65228271500001,36.800292969],[115.66711425800001,36.824707031],[115.66107177700002,36.832519531],[115.66607666000002,36.854919434],[115.69128418000001,36.889099121],[115.72589111300002,36.92010498],[115.74328613300001,36.936889648],[115.75030517600001,36.986877441],[115.80169677700002,37.022277832],[115.82971191400001,37.048522949],[115.84191894500002,37.080688477],[115.81268310500002,37.110900879],[115.78167724600002,37.137878418],[115.75207519500002,37.170288086],[115.73388671900001,37.211730957],[115.68072509800001,37.210327148],[115.64367675800001,37.235717773],[115.613098145,37.263122559],[115.57971191400001,37.309082031],[115.56890869100002,37.334289551],[115.50708007800002,37.319091797],[115.44927978500002,37.346496582],[115.40087890600002,37.367919922],[115.37890625000001,37.407104492],[115.38909912100002,37.444519043],[115.41632080100001,37.463317871],[115.41870117200001,37.499694824],[115.38952636700002,37.519104004],[115.34552002,37.531921387],[115.28808593700002,37.541320801],[115.24090576200001,37.551513672],[115.20489502,37.55670166],[115.17871093700002,37.584106445],[115.18627929700001,37.617126465],[115.22009277300002,37.643310547],[115.25872802700002,37.67791748],[115.22772216800001,37.700317383],[115.20269775400001,37.728088379],[115.18249511700002,37.760681152],[115.15447998000002,37.793884277],[115.07672119100002,37.791687012],[115.06011962900001,37.756286621],[115.03808593700002,37.723510742],[114.99127197300001,37.713928223],[114.94348144500002,37.707885742],[114.91149902300002,37.697692871],[114.86431884800001,37.682495117],[114.81207275400001,37.671325684],[114.78649902300002,37.636291504],[114.77429199200002,37.608093262],[114.72052002,37.594726562],[114.66687011700002,37.558105469],[114.62670898400002,37.516113281],[114.53869628900001,37.53527832],[114.49029541000002,37.545715332],[114.453125,37.561889648],[114.41430664100001,37.544921875],[114.37548828100002,37.533081055],[114.31207275400001,37.505493164],[114.27648925800001,37.509277344],[114.23651123000002,37.536315918],[114.19567871100001,37.546325684],[114.17431640600002,37.522094727],[114.13171386700002,37.501281738],[114.04449462900001,37.513122559],[114.03851318400001,37.50567627],[114.00152587900001,37.456115723],[113.99829101600001,37.451904297],[113.96850585900002,37.423278809],[113.93768310500002,37.404724121],[113.93511962900001,37.381530762],[113.93267822300001,37.360717773],[113.94152832000002,37.324279785],[113.89068603500002,37.316711426],[113.88787841800001,37.316101074],[113.85949707000002,37.310302734],[113.85827636700002,37.277709961],[113.82287597700001,37.224487305],[113.79467773400002,37.177490234],[113.76287841800001,37.14831543],[113.74749755900001,37.138916016],[113.73052978500002,37.08190918],[113.72912597700001,37.073913574],[113.72631835900002,37.058105469],[113.72430419900002,37.034301758],[113.738098145,37.013916016],[113.83007812500001,37.021728516],[113.89550781200002,36.987121582],[113.92871093700002,36.965515137],[113.96008300800001,36.93927002],[113.99890136700002,36.91229248],[114.04547119100002,36.889709473],[114.07971191400001,36.858276367],[114.11590576200001,36.833496094],[114.17028808600001,36.842895508],[114.22570800800001,36.846496582],[114.26947021500001,36.844482422],[114.30627441400001,36.837890625],[114.35430908200001,36.831115723],[114.40148925800001,36.827087402],[114.44989013700001,36.825073242],[114.48828125000001,36.82611084],[114.52270507800002,36.839111328],[114.57427978500002,36.866516113],[114.60931396500001,36.879089355],[114.64550781200002,36.910522461],[114.68988037100002,36.903686523],[114.72991943400001,36.917480469],[114.77868652300002,36.931884766],[114.85272216800001,36.948120117],[114.95452880900001,36.955078125],[115.01068115200002,36.946716309],[115.06707763700001,36.950317383],[115.10791015600002,36.905273437],[115.16931152300002,36.860900879],[115.21551513700001,36.862670898],[115.27648925800001,36.840698242],[115.32769775400001,36.778930664],[115.38751220700001,36.752319336],[115.41607666000002,36.719909668],[115.42590332000002,36.70892334]]]}}
