{"type":"Feature","id":"bulk-99377448B33830295421219","bbox":[105.19927978500002,40.152282715,109.87487793000001,42.446105957],"properties":{"id":"bulk-99377448B33830295421219","name":"Bayannur","nameEn":"Bayannur","fullName":"Bayannur","level":"city","boundaryRole":"administrative-extent","boundaryQuality":"generalized-source-2020","boundaryYearRepresented":"2020","bounds":[[105.19927978500002,40.152282715],[109.87487793000001,42.446105957]],"center":[107.5370788575,41.299194336],"centerMethod":"bounding-box midpoint; camera framing only","license":"CC-BY-3.0-IGO","attribution":"geoBoundaries / HDX, China administrative boundaries (2020)","source":{"provider":"geoBoundaries gbHumanitarian / HDX","url":"https://github.com/wmgeolab/geoBoundaries/raw/9469f09/releaseData/gbHumanitarian/CHN/ADM2/geoBoundaries-CHN-ADM2.geojson","metadataUrl":"https://www.geoboundaries.org/api/current/gbHumanitarian/CHN/ADM2/","shapeID":"99377448B33830295421219","shapeName":"Bayannur","boundaryID":"CHN-ADM2-99377448","commit":"9469f09"},"geometryCounts":{"coordinates":259,"components":1,"holes":0},"boundaryNotice":"geoBoundaries / HDX 2020 年行政区数据，海岸和边界经过源数据概化，并非当前测绘成果。"},"geometry":{"type":"Polygon","coordinates":[[[106.83990478500002,40.152282715],[106.89190673800002,40.19329834],[106.98413085900002,40.259887695],[107.03991699200002,40.313476562],[107.14172363300001,40.361694336],[107.16967773400002,40.38671875],[107.14251709000001,40.447692871],[107.19067382800002,40.488525391],[107.18408203100002,40.549926758],[107.19628906200002,40.553283691],[107.22930908200001,40.563110352],[107.25109863300001,40.643310547],[107.27990722700001,40.656311035],[107.31768798800002,40.644714355],[107.36352539100001,40.645690918],[107.41192627,40.68951416],[107.46990966800001,40.696716309],[107.50207519500002,40.728088379],[107.54309082000002,40.750305176],[107.62951660200001,40.77947998],[107.67492675800001,40.795715332],[107.71508789100001,40.84552002],[107.78192138700001,40.843505859],[107.88989257800002,40.860473633],[107.92791748000002,40.842712402],[108.00671386700002,40.859313965],[108.06988525400001,40.838684082],[108.13629150400001,40.851928711],[108.15747070300002,40.843078613],[108.18347168000001,40.803283691],[108.22509765600002,40.806884766],[108.25848388700001,40.801330566],[108.30511474600002,40.774291992],[108.33807373000002,40.78692627],[108.37109375000001,40.808898926],[108.43511962900001,40.738891602],[108.48950195300002,40.727294922],[108.53131103500002,40.721679687],[108.55249023400002,40.709472656],[108.56109619100002,40.694274902],[108.56207275400001,40.642089844],[108.62011718700002,40.651916504],[108.65411377,40.618530273],[108.70410156200002,40.618896484],[108.72088623000002,40.606689453],[108.73431396500001,40.5546875],[108.74291992200001,40.542480469],[108.77630615200002,40.530517578],[108.796875,40.533874512],[108.85827636700002,40.595703125],[108.94647216800001,40.535095215],[108.97552490200002,40.547485352],[109.02929687500001,40.56628418],[109.05432128900001,40.56048584],[109.10467529300001,40.517700195],[109.17108154300001,40.524291992],[109.18829345700001,40.475280762],[109.24609375000001,40.506286621],[109.27130127,40.478881836],[109.30029296900001,40.475891113],[109.33789062500001,40.457702637],[109.37927246100001,40.454711914],[109.44152832000002,40.473510742],[109.39129638700001,40.510070801],[109.38708496100001,40.519287109],[109.38867187500001,40.526672363],[109.39288330100001,40.556518555],[109.40887451200001,40.580871582],[109.44250488300001,40.615112305],[109.41772460900002,40.64050293],[109.40911865200002,40.668701172],[109.42572021500001,40.709472656],[109.46252441400001,40.730895996],[109.50567627,40.743286133],[109.55651855500001,40.750488281],[109.61108398400002,40.748291016],[109.65570068400001,40.749084473],[109.69488525400001,40.749084473],[109.73968505900001,40.757324219],[109.77069091800001,40.777709961],[109.81329345700001,40.789489746],[109.85052490200002,40.815307617],[109.87487793000001,40.836730957],[109.87207031200002,40.868530273],[109.84930419900002,40.898925781],[109.81927490200002,40.929504395],[109.79571533200001,40.956115723],[109.77569580100001,40.979125977],[109.73510742200001,41.004272461],[109.70428466800001,41.022094727],[109.66912841800001,41.043518066],[109.65930175800001,41.071289062],[109.67492675800001,41.098876953],[109.68688964800002,41.135925293],[109.65551757800002,41.18170166],[109.63049316400001,41.206481934],[109.61450195300002,41.23248291],[109.62591552700002,41.259277344],[109.66027832000002,41.282104492],[109.671875,41.315307617],[109.65832519500002,41.354309082],[109.64508056600002,41.387084961],[109.63470459000001,41.413085937],[109.63970947300001,41.457275391],[109.59307861300002,41.479309082],[109.554504395,41.472717285],[109.50872802700002,41.481506348],[109.46350097700001,41.492126465],[109.421691895,41.509887695],[109.40991210900002,41.535888672],[109.40930175800001,41.564880371],[109.40447998000002,41.600280762],[109.38568115200002,41.633911133],[109.36389160200001,41.669311523],[109.35052490200002,41.70489502],[109.31787109400001,41.761474609],[109.29711914100001,41.790100098],[109.27307128900001,41.8203125],[109.28192138700001,41.858886719],[109.31268310500002,41.884887695],[109.33392334000001,41.910705566],[109.34191894500002,41.944885254],[109.34948730500001,41.987487793],[109.34832763700001,42.01751709],[109.36968994100002,42.051879883],[109.39752197300001,42.090881348],[109.43249511700002,42.124694824],[109.45208740200002,42.152282715],[109.46789550800001,42.18371582],[109.48132324200002,42.209289551],[109.49047851600001,42.241699219],[109.48309326200001,42.285522461],[109.46472168000001,42.320922852],[109.43212890600002,42.351501465],[109.38153076200001,42.394897461],[109.35467529300001,42.428710937],[109.32489013700001,42.415710449],[109.29492187500001,42.413513184],[109.20989990200002,42.410095215],[109.13751220700001,42.41229248],[109.08709716800001,42.426086426],[109.02972412100002,42.424682617],[108.96350097700001,42.420471191],[108.90289306600002,42.412109375],[108.85913085900002,42.396118164],[108.85632324200002,42.403930664],[108.85150146500001,42.403076172],[108.81311035200001,42.384521484],[108.73712158200001,42.379089355],[108.66448974600002,42.387084961],[108.61547851600001,42.395690918],[108.57031250000001,42.402282715],[108.40570068400001,42.434082031],[108.35211181600002,42.424499512],[108.30749511700002,42.416503906],[108.24487304700001,42.420898437],[108.16571044900002,42.446105957],[108.10351562500001,42.439086914],[108.09667968700002,42.4375],[108.03851318400001,42.42388916],[107.93872070300002,42.403930664],[107.93328857400002,42.401916504],[107.93011474600002,42.402099609],[107.89569091800001,42.395080566],[107.86090087900001,42.388305664],[107.66528320300002,42.404296875],[107.63092041000002,42.391906738],[107.57727050800001,42.387084961],[107.51330566400001,42.394897461],[107.45147705100001,42.438720703],[107.39532470700001,42.43572998],[107.35827636700002,42.421325684],[107.30847168000001,42.415710449],[107.27368164100001,42.395690918],[107.24688720700001,42.362487793],[107.20629882800002,42.353881836],[107.19049072300001,42.347106934],[107.14648437500001,42.325317383],[107.01470947300001,42.290527344],[106.93011474600002,42.283081055],[106.81707763700001,42.270080566],[106.71807861300002,42.254882812],[106.63690185500002,42.235473633],[106.56268310500002,42.210693359],[106.54608154300001,42.205078125],[106.47192382800002,42.174072266],[106.01647949200002,42.020507812],[105.80749511700002,41.926086426],[105.58752441400001,41.854492187],[105.39068603500002,41.774291992],[105.31427002,41.750671387],[105.28570556600002,41.718078613],[105.26312255900001,41.735473633],[105.24847412100002,41.703308105],[105.25128173800002,41.655700684],[105.25207519500002,41.619873047],[105.24908447300001,41.587097168],[105.24829101600001,41.558288574],[105.24230957000002,41.526489258],[105.23309326200001,41.496520996],[105.21868896500001,41.461914062],[105.20471191400001,41.428710937],[105.19927978500002,41.398681641],[105.20349121100001,41.370483398],[105.23291015600002,41.324707031],[105.25592041000002,41.289672852],[105.27288818400001,41.25769043],[105.28668212900001,41.230712891],[105.29528808600001,41.189880371],[105.29589843700002,41.161071777],[105.29730224600002,41.122497559],[105.29608154300001,41.090270996],[105.29351806600002,41.063293457],[105.28747558600001,41.033874512],[105.28491210900002,41.001708984],[105.29071044900002,40.949890137],[105.30407714800002,40.918273926],[105.31848144500002,40.886901855],[105.33148193400001,40.861694336],[105.35308837900001,40.832885742],[105.38830566400001,40.817321777],[105.44873046900001,40.80871582],[105.49511718700002,40.805725098],[105.54467773400002,40.81628418],[105.58489990200002,40.826293945],[105.64031982400002,40.831726074],[105.68768310500002,40.83392334],[105.73168945300002,40.830871582],[105.77087402300002,40.823486328],[105.80670166000002,40.8046875],[105.83508300800001,40.787475586],[105.86547851600001,40.762878418],[105.89691162100002,40.740722656],[105.96569824200002,40.722717285],[106.00970459000001,40.712280273],[106.04870605500001,40.70690918],[106.08770752,40.711303711],[106.13470459000001,40.713684082],[106.18572998000002,40.712890625],[106.22369384800001,40.720092773],[106.27429199200002,40.67791748],[106.30487060500002,40.649475098],[106.32910156200002,40.626708984],[106.35931396500001,40.594482422],[106.39227294900002,40.565307617],[106.44268798800002,40.537902832],[106.47229003900001,40.511291504],[106.49127197300001,40.487915039],[106.50531005900001,40.453491211],[106.51312255900001,40.426086426],[106.52331543000001,40.386474609],[106.54547119100002,40.361328125],[106.57672119100002,40.337097168],[106.60650634800001,40.299926758],[106.64288330100001,40.283874512],[106.68011474600002,40.256896973],[106.72772216800001,40.233886719],[106.76770019500002,40.214111328],[106.83990478500002,40.152282715]]]}}
