{"type":"Feature","id":"bulk-99377448B18894846472926","bbox":[103.02270507800002,24.356079102,104.81610107400002,27.038513184],"properties":{"id":"bulk-99377448B18894846472926","name":"Qujing","nameEn":"Qujing","fullName":"Qujing","level":"city","boundaryRole":"administrative-extent","boundaryQuality":"generalized-source-2020","boundaryYearRepresented":"2020","bounds":[[103.02270507800002,24.356079102],[104.81610107400002,27.038513184]],"center":[103.91940307600001,25.697296143],"centerMethod":"bounding-box midpoint; camera framing only","license":"CC-BY-3.0-IGO","attribution":"geoBoundaries / HDX, China administrative boundaries (2020)","source":{"provider":"geoBoundaries gbHumanitarian / HDX","url":"https://github.com/wmgeolab/geoBoundaries/raw/9469f09/releaseData/gbHumanitarian/CHN/ADM2/geoBoundaries-CHN-ADM2.geojson","metadataUrl":"https://www.geoboundaries.org/api/current/gbHumanitarian/CHN/ADM2/","shapeID":"99377448B18894846472926","shapeName":"Qujing","boundaryID":"CHN-ADM2-99377448","commit":"9469f09"},"geometryCounts":{"coordinates":216,"components":1,"holes":0},"boundaryNotice":"geoBoundaries / HDX 2020 年行政区数据，海岸和边界经过源数据概化，并非当前测绘成果。"},"geometry":{"type":"Polygon","coordinates":[[[104.56292724600002,24.742492676],[104.54528808600001,24.760498047],[104.55731201200001,24.825317383],[104.60992431600002,24.869506836],[104.66992187500001,24.926696777],[104.70428466800001,24.997924805],[104.65612793000001,25.039916992],[104.62908935500002,25.078491211],[104.64892578100002,25.093078613],[104.67047119100002,25.093322754],[104.69409179700001,25.094482422],[104.70989990200002,25.095275879],[104.73187255900001,25.12512207],[104.74652099600002,25.147521973],[104.79168701200001,25.163879395],[104.81610107400002,25.203918457],[104.80749511700002,25.283081055],[104.74230957000002,25.295288086],[104.65588378900001,25.262329102],[104.60968017600001,25.350280762],[104.54852294900002,25.399475098],[104.54589843700002,25.401489258],[104.56109619100002,25.44732666],[104.52929687500001,25.528686523],[104.44390869100002,25.475708008],[104.43048095700001,25.497680664],[104.43951416000002,25.576721191],[104.36828613300001,25.598327637],[104.32067871100001,25.674499512],[104.35247802700002,25.739318848],[104.42211914100001,25.758117676],[104.43670654300001,25.859924316],[104.45471191400001,25.907714844],[104.46667480500001,25.983886719],[104.46911621100001,25.998474121],[104.47113037100002,26.029296875],[104.53027343700002,26.174682617],[104.58892822300001,26.282897949],[104.61212158200001,26.314697266],[104.68267822300001,26.410888672],[104.67767334000001,26.433105469],[104.65991210900002,26.460876465],[104.65771484400001,26.496887207],[104.64868164100001,26.510681152],[104.64068603500002,26.510314941],[104.62432861300002,26.516723633],[104.58068847700001,26.57208252],[104.56372070300002,26.585693359],[104.54107666000002,26.599304199],[104.46691894500002,26.638916016],[104.48272705100001,26.710876465],[104.40728759800001,26.734924316],[104.29351806600002,26.621276855],[104.19952392600001,26.639709473],[104.10748291000002,26.61151123],[104.08312988300001,26.540100098],[103.99932861300002,26.527526855],[103.92010498000002,26.517700195],[103.89428710900002,26.514526367],[103.82788085900002,26.557678223],[103.76470947300001,26.594726562],[103.73211669900002,26.655090332],[103.72070312500001,26.772277832],[103.73107910200001,26.838684082],[103.77288818400001,26.877929687],[103.76770019500002,26.977478027],[103.70147705100001,27.038513184],[103.63708496100001,27.004272461],[103.629882812,27.010498047],[103.60632324200002,27.002075195],[103.57391357400002,27.00012207],[103.55670166000002,27.01348877],[103.50830078100002,27.010681152],[103.50091552700002,27.003112793],[103.46850585900002,27.001281738],[103.42547607400002,27.000671387],[103.41467285200001,26.933898926],[103.41027832000002,26.890930176],[103.40771484400001,26.855102539],[103.38067627,26.812072754],[103.35308837900001,26.787109375],[103.38250732400002,26.772277832],[103.41888427700002,26.756530762],[103.39990234400001,26.727111816],[103.36767578100002,26.721130371],[103.33648681600002,26.725524902],[103.30407714800002,26.734313965],[103.25549316400001,26.740112305],[103.22412109400001,26.715515137],[103.21148681600002,26.68927002],[103.20428466800001,26.644714355],[103.16650390600002,26.618286133],[103.13232421900001,26.636901855],[103.09588623000002,26.637695312],[103.07269287100002,26.615478516],[103.02288818400001,26.579101562],[103.02270507800002,26.572509766],[103.05529785200001,26.543884277],[103.06988525400001,26.512329102],[103.05828857400002,26.509887695],[103.08349609400001,26.471679687],[103.08868408200001,26.440673828],[103.09613037100002,26.410888672],[103.10150146500001,26.37310791],[103.11669921900001,26.331115723],[103.13409423800002,26.289123535],[103.16192627,26.266479492],[103.19647216800001,26.263305664],[103.23590087900001,26.256103516],[103.26232910200001,26.233703613],[103.27191162100002,26.20690918],[103.27209472700001,26.179504395],[103.26788330100001,26.139892578],[103.28430175800001,26.106506348],[103.29852294900002,26.073303223],[103.29931640600002,26.043884277],[103.30267334000001,25.977905273],[103.31469726600001,25.947692871],[103.30249023400002,25.912109375],[103.30627441400001,25.883483887],[103.34289550800001,25.862304687],[103.38568115200002,25.869689941],[103.405273437,25.844482422],[103.46771240200002,25.872680664],[103.49371337900001,25.856689453],[103.54168701200001,25.852294922],[103.54370117200001,25.820678711],[103.53668212900001,25.79309082],[103.53387451200001,25.759887695],[103.53411865200002,25.725708008],[103.50469970700001,25.709106445],[103.49548339800002,25.678527832],[103.50628662100002,25.648071289],[103.52807617200001,25.625915527],[103.51391601600001,25.600891113],[103.48712158200001,25.587524414],[103.45587158200001,25.601074219],[103.43090820300002,25.579711914],[103.41571044900002,25.534729004],[103.40167236300002,25.504272461],[103.35913085900002,25.468505859],[103.31652832000002,25.434082031],[103.29431152300002,25.41192627],[103.27990722700001,25.384521484],[103.30810546900001,25.370910645],[103.34588623000002,25.356323242],[103.33612060500002,25.324279785],[103.32409668000001,25.293884277],[103.303710937,25.266723633],[103.29968261700002,25.221130371],[103.31408691400001,25.18371582],[103.35272216800001,25.192077637],[103.39007568400001,25.180114746],[103.41650390600002,25.194885254],[103.45910644500002,25.211730957],[103.47747802700002,25.181091309],[103.46929931600002,25.145690918],[103.45648193400001,25.11328125],[103.42407226600001,25.094116211],[103.42687988300001,25.063110352],[103.45611572300001,25.049072266],[103.45532226600001,25.010070801],[103.45672607400002,24.974121094],[103.46331787100002,24.942077637],[103.47308349600002,24.893493652],[103.49572753900001,24.864318848],[103.52850341800001,24.868713379],[103.54870605500001,24.890686035],[103.56488037100002,24.913513184],[103.59930419900002,24.917114258],[103.63287353500002,24.925109863],[103.663085937,24.913330078],[103.66748046900001,24.864685059],[103.65930175800001,24.829711914],[103.65832519500002,24.798278809],[103.68267822300001,24.778930664],[103.72448730500001,24.800292969],[103.74029541000002,24.754699707],[103.77947998000002,24.754882812],[103.82348632800002,24.760498047],[103.85247802700002,24.750488281],[103.86291503900001,24.718078613],[103.88531494100002,24.688110352],[103.92547607400002,24.69152832],[103.95288085900002,24.677124023],[103.98327636700002,24.663085937],[103.98150634800001,24.615905762],[104.00128173800002,24.586914062],[104.02532959000001,24.555480957],[104.02349853500002,24.515075684],[104.05371093700002,24.460693359],[104.08270263700001,24.450683594],[104.12292480500001,24.451721191],[104.15588378900001,24.452697754],[104.18609619100002,24.45111084],[104.22070312500001,24.445495605],[104.24090576200001,24.410095215],[104.23291015600002,24.381103516],[104.25030517600001,24.356079102],[104.28387451200001,24.365112305],[104.32348632800002,24.38067627],[104.35968017600001,24.391723633],[104.39111328100002,24.38067627],[104.40972900400001,24.40612793],[104.42590332000002,24.4296875],[104.45629882800002,24.444519043],[104.49890136700002,24.440673828],[104.51391601600001,24.440490723],[104.54052734400001,24.445678711],[104.54272460900002,24.49407959],[104.50488281200002,24.548278809],[104.50549316400001,24.570678711],[104.50769043000001,24.683288574],[104.53387451200001,24.720092773],[104.55908203100002,24.730285645],[104.56292724600002,24.742492676]]]}}
