{"type":"Feature","id":"bulk-99377448B86715228614598","bbox":[85.910705566,44.067321777,86.176696777,44.410705566],"properties":{"id":"bulk-99377448B86715228614598","name":"Shihezi","nameEn":"Shihezi","fullName":"Shihezi","level":"city","boundaryRole":"administrative-extent","boundaryQuality":"generalized-source-2020","boundaryYearRepresented":"2020","bounds":[[85.910705566,44.067321777],[86.176696777,44.410705566]],"center":[86.0437011715,44.2390136715],"centerMethod":"bounding-box midpoint; camera framing only","license":"CC-BY-3.0-IGO","attribution":"geoBoundaries / HDX, China administrative boundaries (2020)","source":{"provider":"geoBoundaries gbHumanitarian / HDX","url":"https://github.com/wmgeolab/geoBoundaries/raw/9469f09/releaseData/gbHumanitarian/CHN/ADM2/geoBoundaries-CHN-ADM2.geojson","metadataUrl":"https://www.geoboundaries.org/api/current/gbHumanitarian/CHN/ADM2/","shapeID":"99377448B86715228614598","shapeName":"Shihezi","boundaryID":"CHN-ADM2-99377448","commit":"9469f09"},"geometryCounts":{"coordinates":19,"components":1,"holes":0},"boundaryNotice":"geoBoundaries / HDX 2020 年行政区数据，海岸和边界经过源数据概化，并非当前测绘成果。"},"geometry":{"type":"Polygon","coordinates":[[[86.176696777,44.410705566],[86.05651855500001,44.40411377],[86.01690673800002,44.397888184],[85.97387695300002,44.390319824],[85.93487548800002,44.369873047],[85.910705566,44.346496582],[85.91510009800001,44.289306641],[85.93048095700001,44.244689941],[85.93811035200001,44.218078613],[85.94171142600001,44.172485352],[85.94952392600001,44.139892578],[85.98327636700002,44.120300293],[86.02172851600001,44.123474121],[86.06427002,44.122497559],[86.08471679700001,44.067321777],[86.078125,44.096923828],[86.118103027,44.112304687],[86.10949707,44.266723633],[86.176696777,44.410705566]]]}}
