{"type":"Feature","id":"bulk-99377448B7032309866390","bbox":[106.67791748000002,30.320922852,108.52172851600001,32.321899414],"properties":{"id":"bulk-99377448B7032309866390","name":"Dazhou","nameEn":"Dazhou","fullName":"Dazhou","level":"city","boundaryRole":"administrative-extent","boundaryQuality":"generalized-source-2020","boundaryYearRepresented":"2020","bounds":[[106.67791748000002,30.320922852],[108.52172851600001,32.321899414]],"center":[107.59982299800001,31.321411132999998],"centerMethod":"bounding-box midpoint; camera framing only","license":"CC-BY-3.0-IGO","attribution":"geoBoundaries / HDX, China administrative boundaries (2020)","source":{"provider":"geoBoundaries gbHumanitarian / HDX","url":"https://github.com/wmgeolab/geoBoundaries/raw/9469f09/releaseData/gbHumanitarian/CHN/ADM2/geoBoundaries-CHN-ADM2.geojson","metadataUrl":"https://www.geoboundaries.org/api/current/gbHumanitarian/CHN/ADM2/","shapeID":"99377448B7032309866390","shapeName":"Dazhou","boundaryID":"CHN-ADM2-99377448","commit":"9469f09"},"geometryCounts":{"coordinates":192,"components":1,"holes":0},"boundaryNotice":"geoBoundaries / HDX 2020 年行政区数据，海岸和边界经过源数据概化，并非当前测绘成果。"},"geometry":{"type":"Polygon","coordinates":[[[108.50207519500002,32.202880859],[108.44812011700002,32.228881836],[108.45452880900001,32.26348877],[108.36871337900001,32.251281738],[108.29467773400002,32.242492676],[108.26531982400002,32.284484863],[108.19348144500002,32.276672363],[108.19232177700002,32.271484375],[108.18688964800002,32.247314453],[108.10888671900001,32.227905273],[108.05908203100002,32.237304687],[108.01312255900001,32.228271484],[107.95788574200002,32.174682617],[107.95330810500002,32.153320312],[107.90527343700002,32.145080566],[107.88012695300002,32.182495117],[107.76910400400001,32.241699219],[107.71807861300002,32.321899414],[107.69732666000002,32.263122559],[107.69311523400002,32.225891113],[107.68188476600001,32.195678711],[107.64788818400001,32.192687988],[107.61071777300002,32.1796875],[107.62591552700002,32.141906738],[107.65252685500002,32.116516113],[107.68292236300002,32.101501465],[107.71508789100001,32.091125488],[107.745910645,32.069091797],[107.72509765600002,32.040893555],[107.68328857400002,32.016906738],[107.63830566400001,32.007080078],[107.59472656200002,32.00012207],[107.562316895,31.992126465],[107.54650878900001,31.965515137],[107.54229736300002,31.931091309],[107.53131103500002,31.901672363],[107.49951171900001,31.884887695],[107.47949218700002,31.85949707],[107.53649902300002,31.832275391],[107.54351806600002,31.79510498],[107.52929687500001,31.770690918],[107.49908447300001,31.741882324],[107.47851562500001,31.709106445],[107.49792480500001,31.676330566],[107.51531982400002,31.649475098],[107.48291015600002,31.625671387],[107.44409179700001,31.596130371],[107.41192627,31.571899414],[107.37707519500002,31.551879883],[107.33868408200001,31.516723633],[107.30810546900001,31.487915039],[107.27868652300002,31.47467041],[107.25769043000001,31.445922852],[107.22088623000002,31.440673828],[107.17968750000001,31.424316406],[107.15612793000001,31.397277832],[107.13452148400002,31.362670898],[107.10388183600001,31.33392334],[107.07269287100002,31.353271484],[107.03912353500002,31.33972168],[107.01928710900002,31.307495117],[106.97967529300001,31.268676758],[106.95129394500002,31.22467041],[106.95007324200002,31.184692383],[106.95111084000001,31.151489258],[106.93072509800001,31.12310791],[106.89611816400001,31.100097656],[106.87329101600001,31.080871582],[106.84252929700001,31.049072266],[106.82330322300001,31.017272949],[106.80731201200001,30.979675293],[106.77868652300002,30.966308594],[106.73730468700002,30.958679199],[106.73248291000002,30.920288086],[106.69067382800002,30.908874512],[106.68328857400002,30.87487793],[106.67791748000002,30.842529297],[106.90032959000001,30.724914551],[106.90148925800001,30.692871094],[106.86352539100001,30.691894531],[106.90350341800001,30.644714355],[106.92810058600001,30.642700195],[106.95831298800002,30.633911133],[106.99670410200001,30.631896973],[107.04370117200001,30.658691406],[107.01190185500002,30.56628418],[107.00329589800002,30.539672852],[107.02929687500001,30.513122559],[107.05932617200001,30.495910645],[107.08032226600001,30.470092773],[107.11547851600001,30.472106934],[107.09887695300002,30.502075195],[107.13372802700002,30.507080078],[107.16552734400001,30.528686523],[107.20349121100001,30.522888184],[107.19787597700001,30.471679687],[107.17547607400002,30.452087402],[107.18011474600002,30.424499512],[107.21850585900002,30.414489746],[107.21350097700001,30.386474609],[107.23529052700002,30.33972168],[107.26489257800002,30.320922852],[107.28771972700001,30.352111816],[107.30529785200001,30.377502441],[107.32769775400001,30.414672852],[107.34167480500001,30.444519043],[107.36987304700001,30.484924316],[107.40087890600002,30.505493164],[107.43048095700001,30.549926758],[107.44671630900001,30.575073242],[107.46630859400001,30.597473145],[107.49188232400002,30.61907959],[107.49267578100002,30.647094727],[107.45288085900002,30.673278809],[107.43151855500001,30.701477051],[107.43969726600001,30.741088867],[107.46209716800001,30.763916016],[107.49108886700002,30.797912598],[107.51568603500002,30.838317871],[107.52709960900002,30.868286133],[107.56567382800002,30.856079102],[107.59570312500001,30.84387207],[107.62847900400001,30.831726074],[107.66571044900002,30.84967041],[107.69812011700002,30.867675781],[107.74450683600001,30.878112793],[107.75927734400001,30.842895508],[107.76629638700001,30.81427002],[107.81048584000001,30.795471191],[107.85607910200001,30.803710937],[107.88452148400002,30.828674316],[107.91931152300002,30.848693848],[107.94091796900001,30.877929687],[107.95092773400002,30.906677246],[107.92028808600001,30.923278809],[107.91790771500001,30.963684082],[107.93847656200002,30.992126465],[107.98907470700001,31.008117676],[108.01708984400001,31.032287598],[108.03771972700001,31.061889648],[108.00891113300001,31.085327148],[108.02410888700001,31.113098145],[108.04907226600001,31.140930176],[108.06591796900001,31.164306641],[108.08190918000001,31.192871094],[108.04589843700002,31.204101562],[108.03527832000002,31.246520996],[108.06909179700001,31.254272461],[108.09649658200001,31.268676758],[108.13989257800002,31.288879395],[108.17071533200001,31.314880371],[108.16229248000002,31.348510742],[108.16748046900001,31.378295898],[108.19671630900001,31.396911621],[108.20727539100001,31.424682617],[108.20849609400001,31.458312988],[108.20269775400001,31.484680176],[108.24432373000002,31.49230957],[108.29132080100001,31.49029541],[108.31872558600001,31.504089355],[108.34008789100001,31.534729004],[108.38189697300001,31.56628418],[108.38092041000002,31.597106934],[108.41448974600002,31.618286133],[108.45788574200002,31.616088867],[108.49951171900001,31.637084961],[108.51947021500001,31.67767334],[108.51989746100001,31.716918945],[108.52172851600001,31.747680664],[108.48950195300002,31.768493652],[108.45227050800001,31.780517578],[108.43090820300002,31.803283691],[108.39569091800001,31.812683105],[108.36187744100002,31.835327148],[108.33209228500002,31.849487305],[108.30627441400001,31.873718262],[108.28387451200001,31.903503418],[108.26989746100001,31.931274414],[108.26568603500002,31.963500977],[108.29632568400001,31.983886719],[108.33990478500002,31.969909668],[108.35491943400001,31.995910645],[108.33532714800002,32.027893066],[108.35351562500001,32.051879883],[108.39031982400002,32.066101074],[108.42889404300001,32.061279297],[108.42791748000002,32.092285156],[108.41571044900002,32.125488281],[108.38232421900001,32.144897461],[108.38507080100001,32.179321289],[108.43310546900001,32.180480957],[108.50207519500002,32.202880859]]]}}
