{"type":"Feature","id":"bulk-99377448B93242037086690","bbox":[117.91467285200001,31.286071777,118.84832763700001,32.02331543],"properties":{"id":"bulk-99377448B93242037086690","name":"Ma'anshan","nameEn":"Ma'anshan","fullName":"Ma'anshan","level":"city","boundaryRole":"administrative-extent","boundaryQuality":"generalized-source-2020","boundaryYearRepresented":"2020","bounds":[[117.91467285200001,31.286071777],[118.84832763700001,32.02331543]],"center":[118.38150024450002,31.6546936035],"centerMethod":"bounding-box midpoint; camera framing only","license":"CC-BY-3.0-IGO","attribution":"geoBoundaries / HDX, China administrative boundaries (2020)","source":{"provider":"geoBoundaries gbHumanitarian / HDX","url":"https://github.com/wmgeolab/geoBoundaries/raw/9469f09/releaseData/gbHumanitarian/CHN/ADM2/geoBoundaries-CHN-ADM2.geojson","metadataUrl":"https://www.geoboundaries.org/api/current/gbHumanitarian/CHN/ADM2/","shapeID":"99377448B93242037086690","shapeName":"Ma'anshan","boundaryID":"CHN-ADM2-99377448","commit":"9469f09"},"geometryCounts":{"coordinates":84,"components":1,"holes":0},"boundaryNotice":"geoBoundaries / HDX 2020 年行政区数据，海岸和边界经过源数据概化，并非当前测绘成果。"},"geometry":{"type":"Polygon","coordinates":[[[118.35327148400002,32.02331543],[118.31811523400002,32.008911133],[118.30627441400001,32.000671387],[118.28247070300002,31.984130859],[118.25787353500002,31.958496094],[118.21051025400001,31.925109863],[118.18627929700001,31.903930664],[118.15252685500002,31.897277832],[118.11828613300001,31.885925293],[118.09613037100002,31.882873535],[118.07232666000002,31.866088867],[118.06048584000001,31.857910156],[118.04791259800001,31.840515137],[118.01470947300001,31.83807373],[118.003723145,31.838928223],[117.97271728500002,31.859130859],[117.94152832000002,31.879516602],[117.93908691400001,31.88092041],[117.92968750000001,31.835876465],[117.92327880900001,31.803527832],[117.91632080100001,31.737670898],[117.92932128900001,31.684692383],[117.92272949200002,31.627075195],[117.91467285200001,31.555297852],[117.93469238300001,31.492492676],[117.97668457000002,31.480529785],[117.98828125000001,31.43927002],[118.07391357400002,31.419494629],[118.19372558600001,31.390319824],[118.26788330100001,31.369873047],[118.29168701200001,31.408874512],[118.25311279300001,31.418518066],[118.25732421900001,31.448120117],[118.28991699200002,31.451904297],[118.33691406200002,31.471130371],[118.36590576200001,31.436523437],[118.39868164100001,31.423706055],[118.43029785200001,31.408508301],[118.51031494100002,31.396911621],[118.55371093700002,31.36328125],[118.56408691400001,31.326293945],[118.56408691400001,31.292114258],[118.59271240200002,31.287719727],[118.60308837900001,31.286071777],[118.62469482400002,31.292297363],[118.65087890600002,31.299682617],[118.69567871100001,31.307312012],[118.68310546900001,31.32611084],[118.69787597700001,31.347473145],[118.74530029300001,31.385070801],[118.78350830100001,31.405700684],[118.81768798800002,31.426696777],[118.84832763700001,31.476318359],[118.84527587900001,31.513671875],[118.84710693400001,31.567077637],[118.83288574200002,31.625305176],[118.82928466800001,31.639282227],[118.78491210900002,31.612121582],[118.75012207000002,31.628723145],[118.75549316400001,31.673706055],[118.72552490200002,31.686279297],[118.70092773400002,31.653320312],[118.67712402300002,31.638671875],[118.64990234400001,31.634277344],[118.61389160200001,31.650878906],[118.62011718700002,31.672729492],[118.62109375000001,31.673522949],[118.64849853500002,31.699279785],[118.62890625000001,31.742492676],[118.59271240200002,31.746520996],[118.54010009800001,31.745483398],[118.50512695300002,31.750488281],[118.47949218700002,31.76348877],[118.47271728500002,31.785705566],[118.46868896500001,31.79888916],[118.48168945300002,31.82208252],[118.44067382800002,31.86907959],[118.40307617200001,31.891113281],[118.34069824200002,31.915527344],[118.33087158200001,31.915283203],[118.34088134800001,31.953674316],[118.35211181600002,31.983276367],[118.35327148400002,32.020507812],[118.35327148400002,32.02331543]]]}}
