{"type":"Feature","id":"bulk-99377448B68101194060696","bbox":[116.33331298800002,33.699523926,118.63269043000001,34.917480469],"properties":{"id":"bulk-99377448B68101194060696","name":"Xuzhou","nameEn":"Xuzhou","fullName":"Xuzhou","level":"city","boundaryRole":"administrative-extent","boundaryQuality":"generalized-source-2020","boundaryYearRepresented":"2020","bounds":[[116.33331298800002,33.699523926],[118.63269043000001,34.917480469]],"center":[117.483001709,34.3085021975],"centerMethod":"bounding-box midpoint; camera framing only","license":"CC-BY-3.0-IGO","attribution":"geoBoundaries / HDX, China administrative boundaries (2020)","source":{"provider":"geoBoundaries gbHumanitarian / HDX","url":"https://github.com/wmgeolab/geoBoundaries/raw/9469f09/releaseData/gbHumanitarian/CHN/ADM2/geoBoundaries-CHN-ADM2.geojson","metadataUrl":"https://www.geoboundaries.org/api/current/gbHumanitarian/CHN/ADM2/","shapeID":"99377448B68101194060696","shapeName":"Xuzhou","boundaryID":"CHN-ADM2-99377448","commit":"9469f09"},"geometryCounts":{"coordinates":203,"components":1,"holes":0},"boundaryNotice":"geoBoundaries / HDX 2020 年行政区数据，海岸和边界经过源数据概化，并非当前测绘成果。"},"geometry":{"type":"Polygon","coordinates":[[[118.370910645,34.433288574],[118.36810302700002,34.4296875],[118.33911132800002,34.416503906],[118.30010986300002,34.426696777],[118.26770019500002,34.422485352],[118.20031738300001,34.401672363],[118.16552734400001,34.386108398],[118.15551757800002,34.398681641],[118.13671875000001,34.422302246],[118.12548828100002,34.470703125],[118.11572265600002,34.49609375],[118.14007568400001,34.532897949],[118.09008789100001,34.545471191],[118.06048584000001,34.563110352],[118.04272460900002,34.59967041],[118.06268310500002,34.633117676],[118.06372070300002,34.63470459],[117.99389648400002,34.65032959],[117.90771484400001,34.668518066],[117.79467773400002,34.634887695],[117.79168701200001,34.63269043],[117.76849365200002,34.614318848],[117.77471923800002,34.571472168],[117.78387451200001,34.536315918],[117.76727294900002,34.509887695],[117.69030761700002,34.519287109],[117.63092041000002,34.512878418],[117.59472656200002,34.492919922],[117.58569335900002,34.487915039],[117.55908203100002,34.476074219],[117.54388427700002,34.468078613],[117.51690673800002,34.44909668],[117.45867919900002,34.455688477],[117.42291259800001,34.49230957],[117.37109375000001,34.572509766],[117.33447265600002,34.579711914],[117.31127929700001,34.566101074],[117.23669433600001,34.546875],[117.26068115200002,34.53692627],[117.23132324200002,34.487670898],[117.23510742200001,34.460327148],[117.22747802700002,34.444519043],[117.21447753900001,34.437927246],[117.17449951200001,34.425292969],[117.14788818400001,34.423095703],[117.12432861300002,34.43572998],[117.12609863300001,34.456726074],[117.12152099600002,34.473083496],[117.11572265600002,34.54888916],[117.10748291000002,34.576721191],[117.09692382800002,34.597473145],[117.08691406200002,34.628295898],[117.05548095700001,34.630126953],[117.02868652300002,34.646728516],[117.02148437500001,34.672302246],[117.02368164100001,34.69732666],[117.01312255900001,34.72052002],[116.98968505900001,34.742126465],[116.96368408200001,34.768676758],[116.93530273400002,34.805480957],[116.92431640600002,34.847473145],[116.87451171900001,34.86529541],[116.82427978500002,34.879089355],[116.76672363300001,34.896484375],[116.76470947300001,34.896118164],[116.72808837900001,34.897888184],[116.71527099600002,34.902099609],[116.69329834000001,34.909301758],[116.64971923800002,34.907714844],[116.62408447300001,34.908081055],[116.59130859400001,34.917480469],[116.55572509800001,34.903076172],[116.53271484400001,34.893676758],[116.48052978500002,34.879089355],[116.46429443400001,34.876708984],[116.43548584000001,34.872314453],[116.38208007800002,34.857116699],[116.38208007800002,34.841125488],[116.38171386700002,34.837524414],[116.38067627,34.820678711],[116.38049316400001,34.785522461],[116.35949707000002,34.772277832],[116.35351562500001,34.748474121],[116.33868408200001,34.729675293],[116.36511230500001,34.69152832],[116.35949707000002,34.658081055],[116.33691406200002,34.636901855],[116.33331298800002,34.62689209],[116.35711669900002,34.623718262],[116.40167236300002,34.609313965],[116.45532226600001,34.581298828],[116.49353027300002,34.540527344],[116.54412841800001,34.502929687],[116.60308837900001,34.476074219],[116.61749267600001,34.470275879],[116.67852783200001,34.457275391],[116.70391845700001,34.460876465],[116.74468994100002,34.420898437],[116.78527832000002,34.38092041],[116.80688476600001,34.377319336],[116.83868408200001,34.380493164],[116.86712646500001,34.381530762],[116.89752197300001,34.369689941],[116.91510009800001,34.356079102],[116.92468261700002,34.343078613],[116.92810058600001,34.314697266],[116.92590332000002,34.300476074],[116.92089843700002,34.291870117],[116.93072509800001,34.261474609],[116.95947265600002,34.248474121],[117.00048828100002,34.21887207],[117.01330566400001,34.170471191],[117.04211425800001,34.141723633],[117.06927490200002,34.121704102],[117.09649658200001,34.087524414],[117.09851074200002,34.086303711],[117.13348388700001,34.066101074],[117.17907714800002,34.071899414],[117.23608398400002,34.067077637],[117.27447509800001,34.078491211],[117.33251953100002,34.071899414],[117.35711669900002,34.048278809],[117.37707519500002,34.022521973],[117.39849853500002,34.021484375],[117.40447998000002,34.021118164],[117.42108154300001,34.034301758],[117.44592285200001,34.04107666],[117.47131347700001,34.042297363],[117.50628662100002,34.03692627],[117.50787353500002,34.032470703],[117.51171875000001,34.022521973],[117.53631591800001,33.987487793],[117.56048584000001,33.987915039],[117.57330322300001,33.995117187],[117.59088134800001,34.006713867],[117.62689209000001,34.002929687],[117.61987304700001,33.958129883],[117.61389160200001,33.926513672],[117.66491699200002,33.890075684],[117.68127441400001,33.890075684],[117.71752929700001,33.887878418],[117.72387695300002,33.84588623],[117.70910644500002,33.814086914],[117.68609619100002,33.789489746],[117.70971679700001,33.741271973],[117.71228027300002,33.735900879],[117.71392822300001,33.727722168],[117.75207519500002,33.712280273],[117.76770019500002,33.714904785],[117.81512451200001,33.742492676],[117.86871337900001,33.699523926],[117.88330078100002,33.729675293],[117.90191650400001,33.765930176],[117.95867919900002,33.749328613],[117.99652099600002,33.730285645],[118.01708984400001,33.72467041],[118.04888916000002,33.736083984],[118.07427978500002,33.737304687],[118.12347412100002,33.735290527],[118.13549804700001,33.736328125],[118.14428710900002,33.73828125],[118.15148925800001,33.76550293],[118.15130615200002,33.793884277],[118.15307617200001,33.825500488],[118.14428710900002,33.856689453],[118.12408447300001,33.894104004],[118.09832763700001,33.917297363],[118.06408691400001,33.928100586],[118.04547119100002,33.965881348],[118.02471923800002,33.997314453],[118.03527832000002,34.029724121],[118.02288818400001,34.069274902],[117.99407959000001,34.09588623],[117.98309326200001,34.12109375],[118.03747558600001,34.149902344],[118.09710693400001,34.132873535],[118.13848877,34.138122559],[118.18267822300001,34.150878906],[118.20751953100002,34.131286621],[118.23687744100002,34.106079102],[118.28332519500002,34.09552002],[118.33807373000002,34.100097656],[118.38092041000002,34.098510742],[118.40747070300002,34.102905273],[118.44830322300001,34.096496582],[118.50268554700001,34.11907959],[118.48107910200001,34.124511719],[118.50091552700002,34.147277832],[118.53509521500001,34.170288086],[118.54632568400001,34.206726074],[118.53552246100001,34.243530273],[118.55010986300002,34.27911377],[118.58227539100001,34.289489746],[118.62188720700001,34.306091309],[118.63031005900001,34.341125488],[118.63269043000001,34.370910645],[118.63067627,34.406921387],[118.59387207000002,34.425109863],[118.54650878900001,34.42388916],[118.50769043000001,34.419128418],[118.46447753900001,34.410705566],[118.41632080100001,34.407104492],[118.370910645,34.433288574]]]}}
