{"type":"Feature","id":"bulk-99377448B99943559102430","bbox":[110.23052978500002,34.573486328,112.04632568400001,35.80670166],"properties":{"id":"bulk-99377448B99943559102430","name":"Yuncheng","nameEn":"Yuncheng","fullName":"Yuncheng","level":"city","boundaryRole":"administrative-extent","boundaryQuality":"generalized-source-2020","boundaryYearRepresented":"2020","bounds":[[110.23052978500002,34.573486328],[112.04632568400001,35.80670166]],"center":[111.13842773450001,35.190093994],"centerMethod":"bounding-box midpoint; camera framing only","license":"CC-BY-3.0-IGO","attribution":"geoBoundaries / HDX, China administrative boundaries (2020)","source":{"provider":"geoBoundaries gbHumanitarian / HDX","url":"https://github.com/wmgeolab/geoBoundaries/raw/9469f09/releaseData/gbHumanitarian/CHN/ADM2/geoBoundaries-CHN-ADM2.geojson","metadataUrl":"https://www.geoboundaries.org/api/current/gbHumanitarian/CHN/ADM2/","shapeID":"99377448B99943559102430","shapeName":"Yuncheng","boundaryID":"CHN-ADM2-99377448","commit":"9469f09"},"geometryCounts":{"coordinates":116,"components":1,"holes":0},"boundaryNotice":"geoBoundaries / HDX 2020 年行政区数据，海岸和边界经过源数据概化，并非当前测绘成果。"},"geometry":{"type":"Polygon","coordinates":[[[111.92987060500002,35.598510742],[111.88647460900002,35.595703125],[111.83349609400001,35.584899902],[111.79431152300002,35.594726562],[111.73107910200001,35.589477539],[111.68988037100002,35.629272461],[111.64947509800001,35.624511719],[111.59448242200001,35.645080566],[111.57830810500002,35.603515625],[111.55230712900001,35.572875977],[111.51550293000001,35.565490723],[111.45788574200002,35.559509277],[111.42572021500001,35.575927734],[111.39532470700001,35.557678223],[111.30090332000002,35.531494141],[111.24353027300002,35.54107666],[111.22229003900001,35.5625],[111.22271728500002,35.605895996],[111.26849365200002,35.639709473],[111.29431152300002,35.671508789],[111.24932861300002,35.676086426],[111.20007324200002,35.6796875],[111.18371582000002,35.715515137],[111.16333007800002,35.757507324],[111.13690185500002,35.784912109],[111.11151123000002,35.80670166],[111.05432128900001,35.785888672],[111.03808593700002,35.740112305],[111.04107666000002,35.702880859],[111.00250244100002,35.695129395],[110.96228027300002,35.733276367],[110.91009521500001,35.689086914],[110.80670166000002,35.700317383],[110.76367187500001,35.692687988],[110.72827148400002,35.701293945],[110.70129394500002,35.72088623],[110.64428710900002,35.73828125],[110.62548828100002,35.714111328],[110.55151367200001,35.690490723],[110.56091308600001,35.662902832],[110.55749511700002,35.617675781],[110.56030273400002,35.5625],[110.52807617200001,35.51751709],[110.50250244100002,35.48248291],[110.47668457000002,35.432495117],[110.44787597700001,35.359680176],[110.40307617200001,35.309692383],[110.37127685500002,35.284729004],[110.36169433600001,35.272277832],[110.33630371100001,35.229675293],[110.31707763700001,35.169494629],[110.31347656200002,35.081726074],[110.31030273400002,35.071716309],[110.30389404300001,35.036499023],[110.28167724600002,35.00390625],[110.26568603500002,34.981323242],[110.24670410200001,34.951293945],[110.23730468700002,34.90612793],[110.24969482400002,34.830871582],[110.23052978500002,34.737915039],[110.23992919900002,34.737915039],[110.23669433600001,34.707885742],[110.23968505900001,34.637512207],[110.25848388700001,34.617492676],[110.26788330100001,34.607299805],[110.34027099600002,34.594726562],[110.38732910200001,34.586914062],[110.42510986300002,34.594299316],[110.59790039100001,34.573486328],[110.65472412100002,34.590881348],[110.70507812500001,34.62310791],[110.83447265600002,34.654907227],[110.86608886700002,34.674926758],[110.88507080100001,34.689697266],[110.93872070300002,34.68927002],[111.00469970700001,34.714111328],[111.05889892600001,34.728515625],[111.10968017600001,34.765686035],[111.12548828100002,34.770690918],[111.17590332000002,34.767700195],[111.21392822300001,34.779907227],[111.27392578100002,34.789306641],[111.34667968700002,34.803527832],[111.36871337900001,34.805908203],[111.46990966800001,34.814697266],[111.53308105500001,34.828918457],[111.55230712900001,34.841308594],[111.59149169900002,34.911071777],[111.60131835900002,34.916687012],[111.64587402300002,34.942871094],[111.65289306600002,34.975524902],[111.72607421900001,34.999694824],[111.75811767600001,35.024291992],[111.77447509800001,35.046691895],[111.79388427700002,35.063903809],[111.82250976600001,35.07611084],[111.89227294900002,35.082519531],[111.95568847700001,35.084106445],[111.97430419900002,35.073730469],[112.00207519500002,35.043273926],[112.02551269500002,35.062072754],[112.03729248000002,35.096313477],[112.02270507800002,35.175109863],[112.01770019500002,35.216674805],[112.01928710900002,35.257324219],[112.03967285200001,35.270324707],[112.04632568400001,35.270324707],[112.03369140600002,35.32611084],[112.01428222700001,35.354492187],[111.98590087900001,35.374511719],[111.94287109400001,35.401123047],[111.94732666000002,35.449523926],[111.94531250000001,35.491271973],[111.94268798800002,35.52911377],[111.93591308600001,35.560913086],[111.92987060500002,35.598510742]]]}}
