{"type":"Feature","id":"bulk-99377448B93964358407751","bbox":[121.94152832000002,39.904907227,122.98767089800002,40.936889648],"properties":{"id":"bulk-99377448B93964358407751","name":"Yingkou","nameEn":"Yingkou","fullName":"Yingkou","level":"city","boundaryRole":"administrative-extent","boundaryQuality":"generalized-source-2020","boundaryYearRepresented":"2020","bounds":[[121.94152832000002,39.904907227],[122.98767089800002,40.936889648]],"center":[122.46459960900002,40.4208984375],"centerMethod":"bounding-box midpoint; camera framing only","license":"CC-BY-3.0-IGO","attribution":"geoBoundaries / HDX, China administrative boundaries (2020)","source":{"provider":"geoBoundaries gbHumanitarian / HDX","url":"https://github.com/wmgeolab/geoBoundaries/raw/9469f09/releaseData/gbHumanitarian/CHN/ADM2/geoBoundaries-CHN-ADM2.geojson","metadataUrl":"https://www.geoboundaries.org/api/current/gbHumanitarian/CHN/ADM2/","shapeID":"99377448B93964358407751","shapeName":"Yingkou","boundaryID":"CHN-ADM2-99377448","commit":"9469f09"},"geometryCounts":{"coordinates":156,"components":1,"holes":0},"boundaryNotice":"geoBoundaries / HDX 2020 年行政区数据，海岸和边界经过源数据概化，并非当前测绘成果。"},"geometry":{"type":"Polygon","coordinates":[[[122.30572509800001,40.936889648],[122.26129150400001,40.934082031],[122.25408935500002,40.92791748],[122.25872802700002,40.918273926],[122.27850341800001,40.886291504],[122.23632812500001,40.860107422],[122.19927978500002,40.863525391],[122.17608642600001,40.837890625],[122.14672851600001,40.849914551],[122.13049316400001,40.865112305],[122.07489013700001,40.793884277],[122.09490966800001,40.764526367],[122.13909912100002,40.728088379],[122.14990234400001,40.717895508],[122.16149902300002,40.712280273],[122.19268798800002,40.711730957],[122.20471191400001,40.708312988],[122.22869873000002,40.701477051],[122.22711181600002,40.692504883],[122.20629882800002,40.680480957],[122.17468261700002,40.678710937],[122.11407470700001,40.691101074],[122.11248779300001,40.68170166],[122.11767578100002,40.678527832],[122.13610839800002,40.677124023],[122.14367675800001,40.6796875],[122.15808105500001,40.680725098],[122.16448974600002,40.665710449],[122.16510009800001,40.656311035],[122.16290283200001,40.645690918],[122.14807128900001,40.623901367],[122.14331054700001,40.618530273],[122.14251709000001,40.612304687],[122.14471435500002,40.604309082],[122.14892578100002,40.598327637],[122.16027832000002,40.588684082],[122.18212890600002,40.574279785],[122.21887207000002,40.553527832],[122.24890136700002,40.533081055],[122.26867675800001,40.513916016],[122.28308105500001,40.493103027],[122.28527832000002,40.486877441],[122.28027343700002,40.473327637],[122.28027343700002,40.468078613],[122.26892089800002,40.450073242],[122.25830078100002,40.445129395],[122.25329589800002,40.439880371],[122.24188232400002,40.420288086],[122.23571777300002,40.415710449],[122.21990966800001,40.413330078],[122.21472168000001,40.417480469],[122.20788574200002,40.409912109],[122.20532226600001,40.402282715],[122.20947265600002,40.385314941],[122.20507812500001,40.369873047],[122.19329834000001,40.353088379],[122.18530273400002,40.344909668],[122.18371582000002,40.340515137],[122.16552734400001,40.333679199],[122.16308593700002,40.327697754],[122.15789794900002,40.319274902],[122.14709472700001,40.314697266],[122.12487793000001,40.300109863],[122.11047363300001,40.295898437],[122.10632324200002,40.289916992],[122.10388183600001,40.280700684],[122.10607910200001,40.27532959],[122.11187744100002,40.272888184],[122.11529541000002,40.269287109],[122.11608886700002,40.259094238],[122.11431884800001,40.248474121],[122.10949707000002,40.241882324],[122.10607910200001,40.232727051],[122.10369873000002,40.229675293],[122.10107421900001,40.226501465],[122.08007812500001,40.210327148],[122.05847168000001,40.198486328],[122.04071044900002,40.18548584],[122.01629638700001,40.18170166],[122.00231933600001,40.178100586],[121.99487304700001,40.178100586],[121.99169921900001,40.17388916],[121.99407959000001,40.170715332],[122.00109863300001,40.171691895],[122.00427246100001,40.166503906],[122.00750732400002,40.155090332],[122.00848388700001,40.140930176],[122.00427246100001,40.118713379],[122.00152587900001,40.116882324],[121.99688720700001,40.114074707],[121.98370361300002,40.110473633],[121.97009277300002,40.109130859],[121.96032714800002,40.102905273],[121.95269775400001,40.102111816],[121.94152832000002,40.091125488],[121.95269775400001,40.063903809],[121.97351074200002,40.034484863],[122.01593017600001,40.022521973],[122.05828857400002,40.021911621],[122.09588623000002,40.023071289],[122.13049316400001,40.01171875],[122.15252685500002,39.989685059],[122.21087646500001,39.99230957],[122.22967529300001,39.940673828],[122.27252197300001,39.93170166],[122.32031250000001,39.947875977],[122.36791992200001,39.938903809],[122.40612793000001,39.927490234],[122.44390869100002,39.91809082],[122.47790527300002,39.904907227],[122.472473145,39.94708252],[122.50988769500002,39.985107422],[122.50653076200001,40.019897461],[122.51831054700001,40.026672363],[122.58007812500001,40.043273926],[122.65148925800001,40.047302246],[122.70629882800002,40.057312012],[122.75311279300001,40.067504883],[122.78869628900001,40.078125],[122.81970214800002,40.106323242],[122.84167480500001,40.134887695],[122.88208007800002,40.172485352],[122.85931396500001,40.195922852],[122.85272216800001,40.222900391],[122.85729980500001,40.261291504],[122.86370849600002,40.3046875],[122.90789794900002,40.310913086],[122.92370605500001,40.347473145],[122.91992187500001,40.383117676],[122.95489502,40.392272949],[122.97650146500001,40.418701172],[122.98767089800002,40.462890625],[122.95751953100002,40.482727051],[122.91467285200001,40.502685547],[122.87249755900001,40.50012207],[122.82147216800001,40.502685547],[122.76910400400001,40.516723633],[122.72869873000002,40.533508301],[122.68170166000002,40.555114746],[122.63928222700001,40.588684082],[122.64031982400002,40.621276855],[122.63531494100002,40.657104492],[122.64367675800001,40.689880371],[122.64508056600002,40.718078613],[122.60491943400001,40.720275879],[122.56707763700001,40.718688965],[122.53070068400001,40.735900879],[122.50592041000002,40.756530762],[122.48052978500002,40.781311035],[122.45910644500002,40.807128906],[122.44488525400001,40.847473145],[122.44750976600001,40.87487793],[122.42108154300001,40.900878906],[122.37548828100002,40.890075684],[122.32788085900002,40.886291504],[122.30572509800001,40.936889648]]]}}
