{"type":"Feature","id":"bulk-99377448B32979747063717","bbox":[99.96270752,21.146728516,101.85247802700002,22.621887207],"properties":{"id":"bulk-99377448B32979747063717","name":"Xishuangbanna Dai Autonomous Prefecture","nameEn":"Xishuangbanna Dai Autonomous Prefecture","fullName":"Xishuangbanna Dai Autonomous Prefecture","level":"city","boundaryRole":"administrative-extent","boundaryQuality":"generalized-source-2020","boundaryYearRepresented":"2020","bounds":[[99.96270752,21.146728516],[101.85247802700002,22.621887207]],"center":[100.9075927735,21.884307861499998],"centerMethod":"bounding-box midpoint; camera framing only","license":"CC-BY-3.0-IGO","attribution":"geoBoundaries / HDX, China administrative boundaries (2020)","source":{"provider":"geoBoundaries gbHumanitarian / HDX","url":"https://github.com/wmgeolab/geoBoundaries/raw/9469f09/releaseData/gbHumanitarian/CHN/ADM2/geoBoundaries-CHN-ADM2.geojson","metadataUrl":"https://www.geoboundaries.org/api/current/gbHumanitarian/CHN/ADM2/","shapeID":"99377448B32979747063717","shapeName":"Xishuangbanna Dai Autonomous Prefecture","boundaryID":"CHN-ADM2-99377448","commit":"9469f09"},"geometryCounts":{"coordinates":567,"components":2,"holes":0},"boundaryNotice":"geoBoundaries / HDX 2020 年行政区数据，海岸和边界经过源数据概化，并非当前测绘成果。"},"geometry":{"type":"MultiPolygon","coordinates":[[[[101.65747070300002,22.364501953],[101.65948486300002,22.364685059],[101.66149902300002,22.365478516],[101.65747070300002,22.364501953]]],[[[99.96990966800001,22.059326172],[99.97192382800002,22.059326172],[99.97290039100001,22.056884766],[99.96911621100001,22.048706055],[99.97808837900001,22.014282227],[99.99548339800002,21.989929199],[100.01867675800001,21.95690918],[100.01910400400001,21.918701172],[99.99487304700001,21.890075684],[99.96868896500001,21.86151123],[99.96270752,21.827270508],[99.97210693400001,21.788330078],[99.99072265600002,21.743530273],[100.02911377,21.705505371],[100.02990722700001,21.696289062],[100.03369140600002,21.694702148],[100.03332519500002,21.68927002],[100.03192138700001,21.678100586],[100.03430175800001,21.675476074],[100.04272460900002,21.67767334],[100.04632568400001,21.67010498],[100.05090332000002,21.667114258],[100.04870605500001,21.673278809],[100.05590820300002,21.682312012],[100.06390380900001,21.68572998],[100.07232666000002,21.693908691],[100.08551025400001,21.693481445],[100.086120605,21.696899414],[100.08911132800002,21.698486328],[100.09027099600002,21.701904297],[100.09527587900001,21.706726074],[100.09930419900002,21.706481934],[100.10192871100001,21.704284668],[100.10247802700002,21.701477051],[100.10791015600002,21.699523926],[100.11010742200001,21.699890137],[100.11047363300001,21.704711914],[100.11871337900001,21.706115723],[100.12048339800002,21.705688477],[100.12347412100002,21.700683594],[100.13153076200001,21.702270508],[100.13891601600001,21.698730469],[100.13568115200002,21.694702148],[100.13592529300001,21.694519043],[100.15728759800001,21.693115234],[100.18609619100002,21.670715332],[100.19329834000001,21.649108887],[100.16632080100001,21.628723145],[100.13287353500002,21.603088379],[100.137695312,21.56048584],[100.14331054700001,21.527526855],[100.14770507800002,21.501281738],[100.14807128900001,21.501098633],[100.15472412100002,21.496276855],[100.17388916000002,21.493103027],[100.17492675800001,21.496887207],[100.17608642600001,21.501098633],[100.17749023400002,21.506286621],[100.178710937,21.517272949],[100.18469238300001,21.518920898],[100.19232177700002,21.515075684],[100.19848632800002,21.515319824],[100.20507812500001,21.512878418],[100.20428466800001,21.510314941],[100.21350097700001,21.499511719],[100.21527099600002,21.492675781],[100.22448730500001,21.488708496],[100.23907470700001,21.487487793],[100.25268554700001,21.470275879],[100.252929687,21.471679687],[100.25567627,21.472900391],[100.26147460900002,21.472473145],[100.26251220700001,21.47088623],[100.26611328100002,21.471313477],[100.269714355,21.472473145],[100.27148437500001,21.475891113],[100.27447509800001,21.480285645],[100.280273437,21.484924316],[100.28167724600002,21.486083984],[100.29150390600002,21.479675293],[100.29730224600002,21.480712891],[100.30169677700002,21.485717773],[100.30328369100002,21.489074707],[100.30609130900001,21.491088867],[100.31488037100002,21.494689941],[100.31530761700002,21.494873047],[100.31732177700002,21.498291016],[100.32147216800001,21.502075195],[100.32489013700001,21.504882812],[100.32952880900001,21.508117676],[100.33673095700001,21.518676758],[100.34527587900001,21.52911377],[100.34948730500001,21.531311035],[100.371276855,21.529296875],[100.37530517600001,21.531677246],[100.379089355,21.530273437],[100.38171386700002,21.527526855],[100.40270996100001,21.532470703],[100.41809082000002,21.543273926],[100.42712402300002,21.54107666],[100.42730712900001,21.541320801],[100.43090820300002,21.541503906],[100.43292236300002,21.539672852],[100.43572998,21.539123535],[100.44891357400002,21.535888672],[100.48229980500001,21.50567627],[100.50567627,21.477111816],[100.511901855,21.469726562],[100.52130127,21.472473145],[100.53112793000001,21.47052002],[100.538085937,21.471313477],[100.54412841800001,21.465270996],[100.55908203100002,21.469116211],[100.57452392600001,21.451904297],[100.58209228500002,21.452087402],[100.58673095700001,21.453491211],[100.58892822300001,21.457702637],[100.59490966800001,21.463684082],[100.60467529300001,21.465087891],[100.61151123,21.466308594],[100.62152099600002,21.472717285],[100.62249755900001,21.474487305],[100.63409423800002,21.47869873],[100.63787841800001,21.482299805],[100.64807128900001,21.484680176],[100.65631103500002,21.481689453],[100.66790771500001,21.479492187],[100.67211914100001,21.481506348],[100.67449951200001,21.483093262],[100.68011474600002,21.488098145],[100.68548584000001,21.504882812],[100.69250488300001,21.510498047],[100.69830322300001,21.51348877],[100.70629882800002,21.515319824],[100.71350097700001,21.510681152],[100.72369384800001,21.513122559],[100.73370361300002,21.52331543],[100.73748779300001,21.530273437],[100.74230957000002,21.534118652],[100.74652099600002,21.546325684],[100.75347900400001,21.554077148],[100.75988769500002,21.559326172],[100.76647949200002,21.56048584],[100.77130127,21.571899414],[100.77972412100002,21.569885254],[100.79370117200001,21.570922852],[100.79327392600001,21.582519531],[100.80029296900001,21.593505859],[100.79949951200001,21.596923828],[100.80090332000002,21.604125977],[100.80749511700002,21.610473633],[100.81469726600001,21.61932373],[100.81970214800002,21.625915527],[100.82647705100001,21.630126953],[100.82708740200002,21.632080078],[100.82971191400001,21.632324219],[100.83471679700001,21.637084961],[100.846679687,21.637878418],[100.84887695300002,21.645690918],[100.855285645,21.655273437],[100.85809326200001,21.656494141],[100.86212158200001,21.66192627],[100.86389160200001,21.666870117],[100.86749267600001,21.672119141],[100.87432861300002,21.677124023],[100.88153076200001,21.681274414],[100.88507080100001,21.6875],[100.88732910200001,21.687683105],[100.89007568400001,21.684082031],[100.89648437500001,21.68572998],[100.89849853500002,21.687683105],[100.90509033200001,21.687683105],[100.90649414100001,21.686523437],[100.91247558600001,21.686096191],[100.91088867200001,21.687683105],[100.91107177700002,21.690673828],[100.91772460900002,21.69152832],[100.91967773400002,21.690124512],[100.92492675800001,21.689086914],[100.93389892600001,21.69329834],[100.93548584000001,21.696716309],[100.93988037100002,21.699707031],[100.94787597700001,21.700683594],[100.95690918000001,21.701477051],[100.96411132800002,21.700927734],[100.97631835900002,21.700073242],[100.98107910200001,21.704711914],[100.99530029300001,21.705078125],[100.99792480500001,21.707519531],[101.00592041000002,21.709472656],[101.01031494100002,21.708129883],[101.01428222700001,21.709899902],[101.01348877,21.715270996],[101.01568603500002,21.71887207],[101.01867675800001,21.723327637],[101.02508544900002,21.724487305],[101.02929687500001,21.726501465],[101.03967285200001,21.733703613],[101.04150390600002,21.741271973],[101.04632568400001,21.743530273],[101.05230712900001,21.746704102],[101.05688476600001,21.753295898],[101.06488037100002,21.756713867],[101.06872558600001,21.761474609],[101.07849121100001,21.764709473],[101.08190918000001,21.766479492],[101.08227539100001,21.770507812],[101.08770752,21.776123047],[101.09808349600002,21.77532959],[101.10791015600002,21.774291992],[101.11407470700001,21.774719238],[101.11853027300002,21.777282715],[101.122070312,21.774475098],[101.11730957000002,21.770080566],[101.127929687,21.770690918],[101.16607666000002,21.772888184],[101.18432617200001,21.75592041],[101.16467285200001,21.737304687],[101.15887451200001,21.716308594],[101.16748046900001,21.699523926],[101.18487548800002,21.670288086],[101.19549560500002,21.642272949],[101.19989013700001,21.627685547],[101.19567871100001,21.601318359],[101.18572998,21.583679199],[101.16729736300002,21.572692871],[101.16589355500001,21.562072754],[101.17730712900001,21.561096191],[101.18267822300001,21.557678223],[101.187683105,21.557128906],[101.20050048800002,21.56072998],[101.20910644500002,21.561096191],[101.21209716800001,21.5546875],[101.21270752,21.546081543],[101.21630859400001,21.539916992],[101.21612548800002,21.537719727],[101.238098145,21.53527832],[101.25268554700001,21.526306152],[101.24908447300001,21.511108398],[101.23608398400002,21.475524902],[101.22912597700001,21.447875977],[101.22888183600001,21.421691895],[101.21228027300002,21.41192627],[101.19909668000001,21.405273437],[101.211914062,21.40411377],[101.22668457000002,21.398498535],[101.24627685500002,21.376281738],[101.25091552700002,21.37512207],[101.25250244100002,21.376525879],[101.25549316400001,21.375915527],[101.26147460900002,21.373901367],[101.26507568400001,21.36907959],[101.26391601600001,21.360290527],[101.24688720700001,21.357299805],[101.24871826200001,21.350524902],[101.24987793000001,21.344909668],[101.24908447300001,21.341491699],[101.24627685500002,21.341125488],[101.24548339800002,21.327880859],[101.23590087900001,21.31628418],[101.23388671900001,21.315307617],[101.23907470700001,21.308288574],[101.24127197300001,21.307678223],[101.24847412100002,21.30267334],[101.28430175800001,21.289672852],[101.27807617200001,21.264892578],[101.26452636700002,21.234680176],[101.26129150400001,21.217712402],[101.29528808600001,21.207519531],[101.30712890600002,21.19128418],[101.31628418000001,21.194519043],[101.32751464800002,21.190490723],[101.33251953100002,21.196716309],[101.33990478500002,21.200683594],[101.34271240200002,21.200317383],[101.35272216800001,21.209899902],[101.35772705100001,21.207275391],[101.36212158200001,21.211486816],[101.36590576200001,21.219299316],[101.37628173800002,21.219726562],[101.38488769500002,21.22668457],[101.40252685500002,21.233703613],[101.41168212900001,21.228881836],[101.42572021500001,21.233276367],[101.45251464800002,21.232910156],[101.46728515600002,21.244506836],[101.47668457000002,21.24407959],[101.48388671900001,21.249511719],[101.50408935500002,21.249084473],[101.50891113300001,21.252685547],[101.52288818400001,21.24987793],[101.52868652300002,21.252685547],[101.53247070300002,21.256896973],[101.55389404300001,21.250671387],[101.56427002,21.249511719],[101.57049560500002,21.245727539],[101.58410644500002,21.241271973],[101.58648681600002,21.235107422],[101.59271240200002,21.235107422],[101.59588623000002,21.239929199],[101.61389160200001,21.230285645],[101.62347412100002,21.230529785],[101.63507080100001,21.230529785],[101.63128662100002,21.199279785],[101.63208007800002,21.199707031],[101.64508056600002,21.194519043],[101.64971923800002,21.196289062],[101.65228271500001,21.198730469],[101.65948486300002,21.200927734],[101.671875,21.203674316],[101.68389892600001,21.204528809],[101.687316895,21.200073242],[101.68811035200001,21.184509277],[101.71008300800001,21.184692383],[101.73132324200002,21.155700684],[101.73992919900002,21.149108887],[101.74468994100002,21.152099609],[101.754882812,21.150512695],[101.76348877,21.150878906],[101.76849365200002,21.147094727],[101.76928710900002,21.146728516],[101.780273437,21.148681641],[101.79968261700002,21.147521973],[101.81311035200001,21.17010498],[101.81427002,21.200927734],[101.84271240200002,21.207885742],[101.85247802700002,21.209289551],[101.85211181600002,21.210083008],[101.83508300800001,21.221313477],[101.83648681600002,21.234680176],[101.84069824200002,21.244689941],[101.84490966800001,21.25012207],[101.82989502,21.260314941],[101.82592773400002,21.260925293],[101.82031250000001,21.266723633],[101.80712890600002,21.263671875],[101.80072021500001,21.272277832],[101.79870605500001,21.278930664],[101.79888916000002,21.282897949],[101.796691895,21.288085937],[101.79467773400002,21.288879395],[101.79229736300002,21.288330078],[101.78991699200002,21.284912109],[101.78149414100001,21.292907715],[101.78070068400001,21.29309082],[101.77508544900002,21.293518066],[101.76470947300001,21.288085937],[101.75689697300001,21.292724609],[101.73907470700001,21.311706543],[101.73388671900001,21.321472168],[101.72650146500001,21.356506348],[101.73931884800001,21.368530273],[101.73748779300001,21.376281738],[101.74353027300002,21.377685547],[101.73791503900001,21.388916016],[101.73608398400002,21.400085449],[101.73968505900001,21.41229248],[101.74548339800002,21.425720215],[101.74487304700001,21.432495117],[101.75109863300001,21.437683105],[101.753723145,21.442687988],[101.75329589800002,21.449279785],[101.74151611300002,21.461120605],[101.745117187,21.465087891],[101.73791503900001,21.481079102],[101.73931884800001,21.486877441],[101.75610351600001,21.497924805],[101.76428222700001,21.50769043],[101.76867675800001,21.511901855],[101.77728271500001,21.51751709],[101.76770019500002,21.528076172],[101.75988769500002,21.52947998],[101.753723145,21.546325684],[101.76348877,21.563720703],[101.75787353500002,21.569091797],[101.74407959000001,21.57232666],[101.74810791000002,21.579284668],[101.747070312,21.587280273],[101.75628662100002,21.584472656],[101.76611328100002,21.584289551],[101.78930664100001,21.578674316],[101.79791259800001,21.579528809],[101.80310058600001,21.57989502],[101.80871582000002,21.590515137],[101.82452392600001,21.590270996],[101.82550048800002,21.606689453],[101.83209228500002,21.61529541],[101.83471679700001,21.627502441],[101.82550048800002,21.628479004],[101.8125,21.626525879],[101.80627441400001,21.644470215],[101.78387451200001,21.637878418],[101.78131103500002,21.639526367],[101.77947998000002,21.643676758],[101.78070068400001,21.654296875],[101.76892089800002,21.659484863],[101.770507812,21.670471191],[101.77368164100001,21.689697266],[101.77111816400001,21.696105957],[101.77172851600001,21.702697754],[101.76989746100001,21.713500977],[101.75451660200001,21.727294922],[101.74749755900001,21.728881836],[101.74468994100002,21.746276855],[101.75671386700002,21.757324219],[101.76068115200002,21.763671875],[101.75830078100002,21.773071289],[101.75848388700001,21.783874512],[101.76892089800002,21.797485352],[101.77307128900001,21.821105957],[101.77850341800001,21.821472168],[101.78387451200001,21.824890137],[101.77630615200002,21.829101562],[101.77270507800002,21.837280273],[101.76287841800001,21.83807373],[101.75347900400001,21.837280273],[101.74652099600002,21.842285156],[101.74090576200001,21.847717285],[101.73712158200001,21.854675293],[101.73931884800001,21.872314453],[101.73272705100001,21.878295898],[101.72412109400001,21.883300781],[101.71472168000001,21.883117676],[101.70788574200002,21.886474609],[101.70910644500002,21.89050293],[101.695129395,21.903320312],[101.70129394500002,21.912475586],[101.70172119100002,21.918701172],[101.70507812500001,21.925720215],[101.69732666000002,21.9453125],[101.686523437,21.945678711],[101.67791748000002,21.940917969],[101.67248535200001,21.932678223],[101.66571044900002,21.936096191],[101.65008544900002,21.953125],[101.63470459000001,21.950683594],[101.62750244100002,21.955322266],[101.62310791000002,21.968078613],[101.61151123000002,21.972106934],[101.60430908200001,21.97088623],[101.59771728500002,21.971679687],[101.59912109400001,21.979309082],[101.60571289100001,21.986328125],[101.60729980500001,21.991271973],[101.61407470700001,21.995117187],[101.61791992200001,22.001281738],[101.61669921900001,22.006896973],[101.622070312,22.011474609],[101.61932373000002,22.016723633],[101.62310791000002,22.021118164],[101.61730957000002,22.026489258],[101.61511230500001,22.034484863],[101.61071777300002,22.039123535],[101.61529541000002,22.052307129],[101.61468505900001,22.053894043],[101.61132812500001,22.0546875],[101.60510253900001,22.06048584],[101.60430908200001,22.063293457],[101.59613037100002,22.06427002],[101.57849121100001,22.063293457],[101.57427978500002,22.06829834],[101.57708740200002,22.075500488],[101.579101562,22.076904297],[101.579101562,22.080505371],[101.57409668000001,22.088500977],[101.57769775400001,22.10168457],[101.57769775400001,22.111083984],[101.57470703100002,22.116516113],[101.57427978500002,22.126281738],[101.59948730500001,22.133483887],[101.597473145,22.146484375],[101.60272216800001,22.159484863],[101.59051513700001,22.166870117],[101.58447265600002,22.174072266],[101.58288574200002,22.182678223],[101.57867431600002,22.185913086],[101.57269287100002,22.195922852],[101.56970214800002,22.204711914],[101.570129395,22.215270996],[101.5625,22.220092773],[101.55230712900001,22.228088379],[101.55072021500001,22.234130859],[101.54150390600002,22.237487793],[101.53472900400001,22.245117187],[101.53527832000002,22.255493164],[101.54931640600002,22.256896973],[101.55072021500001,22.261474609],[101.56127929700001,22.271484375],[101.55847168000001,22.277893066],[101.58471679700001,22.283691406],[101.60089111300002,22.278320312],[101.61267089800002,22.288330078],[101.62811279300001,22.290893555],[101.62768554700001,22.301086426],[101.63031005900001,22.301330566],[101.63470459000001,22.307678223],[101.63427734400001,22.313903809],[101.64770507800002,22.327880859],[101.65167236300002,22.337524414],[101.64892578100002,22.344116211],[101.65289306600002,22.354675293],[101.64611816400001,22.358093262],[101.64910888700001,22.362670898],[101.60687255900001,22.35369873],[101.56872558600001,22.381103516],[101.53991699200002,22.401916504],[101.54229736300002,22.41809082],[101.49548339800002,22.478515625],[101.48950195300002,22.51171875],[101.47131347700001,22.565307617],[101.42907714800002,22.621887207],[101.37487793000001,22.586730957],[101.34130859400001,22.563720703],[101.31188964800002,22.553100586],[101.27008056600002,22.550292969],[101.23687744100002,22.552490234],[101.187683105,22.551513672],[101.15069580100001,22.55291748],[101.10992431600002,22.562927246],[101.07452392600001,22.58807373],[101.05169677700002,22.60949707],[101.01928710900002,22.596923828],[100.97808837900001,22.591918945],[100.94989013700001,22.60168457],[100.92669677700002,22.568115234],[100.89770507800002,22.582885742],[100.86071777300002,22.589294434],[100.82647705100001,22.608520508],[100.78967285200001,22.598693848],[100.79827880900001,22.570678711],[100.78131103500002,22.547119141],[100.74688720700001,22.535705566],[100.69250488300001,22.521728516],[100.65948486300002,22.509887695],[100.629089355,22.492126465],[100.58551025400001,22.474121094],[100.53588867200001,22.514099121],[100.51007080100001,22.498474121],[100.47570800800001,22.468688965],[100.45129394500002,22.453674316],[100.39947509800001,22.453918457],[100.36291503900001,22.452270508],[100.34588623,22.420715332],[100.371276855,22.407287598],[100.39709472700001,22.394714355],[100.40008544900002,22.36151123],[100.37530517600001,22.323486328],[100.36492919900002,22.291320801],[100.34027099600002,22.262878418],[100.31030273400002,22.29888916],[100.27227783200001,22.296691895],[100.24432373,22.311523437],[100.20812988300001,22.322509766],[100.19232177700002,22.29510498],[100.17651367200001,22.267272949],[100.14831543000001,22.256713867],[100.10607910200001,22.246520996],[100.07427978500002,22.214294434],[100.04827880900001,22.160095215],[100.02447509800001,22.131286621],[100.00628662100002,22.107299805],[99.98413085900002,22.080505371],[99.96990966800001,22.059326172]]]]}}
