{"type":"Feature","id":"bulk-99377448B87795068754898","bbox":[114.84588623000002,32.387695312,116.58129882800002,33.573486328],"properties":{"id":"bulk-99377448B87795068754898","name":"Fuyang","nameEn":"Fuyang","fullName":"Fuyang","level":"city","boundaryRole":"administrative-extent","boundaryQuality":"generalized-source-2020","boundaryYearRepresented":"2020","bounds":[[114.84588623000002,32.387695312],[116.58129882800002,33.573486328]],"center":[115.71359252900001,32.98059082],"centerMethod":"bounding-box midpoint; camera framing only","license":"CC-BY-3.0-IGO","attribution":"geoBoundaries / HDX, China administrative boundaries (2020)","source":{"provider":"geoBoundaries gbHumanitarian / HDX","url":"https://github.com/wmgeolab/geoBoundaries/raw/9469f09/releaseData/gbHumanitarian/CHN/ADM2/geoBoundaries-CHN-ADM2.geojson","metadataUrl":"https://www.geoboundaries.org/api/current/gbHumanitarian/CHN/ADM2/","shapeID":"99377448B87795068754898","shapeName":"Fuyang","boundaryID":"CHN-ADM2-99377448","commit":"9469f09"},"geometryCounts":{"coordinates":168,"components":1,"holes":0},"boundaryNotice":"geoBoundaries / HDX 2020 年行政区数据，海岸和边界经过源数据概化，并非当前测绘成果。"},"geometry":{"type":"Polygon","coordinates":[[[115.56927490200002,33.573486328],[115.55590820300002,33.560913086],[115.52490234400001,33.554870605],[115.46148681600002,33.555480957],[115.40393066400001,33.563110352],[115.38171386700002,33.539916992],[115.39172363300001,33.503295898],[115.34167480500001,33.48828125],[115.31890869100002,33.491882324],[115.30187988300001,33.460510254],[115.30767822300001,33.438720703],[115.31091308600001,33.425720215],[115.27630615200002,33.389709473],[115.28552246100001,33.33807373],[115.31591796900001,33.295288086],[115.27349853500002,33.257080078],[115.27111816400001,33.211914062],[115.26672363300001,33.13067627],[115.25628662100002,33.120483398],[115.22528076200001,33.090515137],[115.17767334000001,33.09387207],[115.14971923800002,33.101074219],[115.12750244100002,33.092102051],[115.01971435500002,33.069274902],[114.95007324200002,33.092895508],[114.90209960900002,33.121520996],[114.89807128900001,33.123901367],[114.87347412100002,33.13269043],[114.84588623000002,33.125488281],[114.86047363300001,33.092529297],[114.86572265600002,33.080688477],[114.87152099600002,33.06628418],[114.87188720700001,33.02911377],[114.85748291000002,33.004699707],[114.85748291000002,32.967712402],[114.85748291000002,32.955078125],[114.87408447300001,32.940490723],[114.91210937500001,32.917114258],[114.95812988300001,32.926086426],[114.97991943400001,32.927124023],[114.98687744100002,32.916320801],[114.98413085900002,32.901306152],[114.99810791000002,32.878723145],[115.08569335900002,32.89251709],[115.11547851600001,32.879882812],[115.12310791000002,32.85748291],[115.13848877,32.818908691],[115.15850830100001,32.765930176],[115.15710449200002,32.741088867],[115.12249755900001,32.679504395],[115.14129638700001,32.641479492],[115.16668701200001,32.636901855],[115.15490722700001,32.623718262],[115.15307617200001,32.596496582],[115.16271972700001,32.573486328],[115.17388916000002,32.572875977],[115.25848388700001,32.56829834],[115.26171875000001,32.559875488],[115.25970459000001,32.528320312],[115.28167724600002,32.527282715],[115.304504395,32.53527832],[115.33868408200001,32.552124023],[115.36151123000002,32.560119629],[115.37231445300002,32.555114746],[115.38232421900001,32.54107666],[115.39288330100001,32.531494141],[115.42449951200001,32.507324219],[115.46691894500002,32.478088379],[115.47631835900002,32.45489502],[115.48651123000002,32.440673828],[115.50787353500002,32.430725098],[115.51788330100001,32.412109375],[115.53930664100001,32.401916504],[115.56628418000001,32.390075684],[115.62689209000001,32.388671875],[115.64892578100002,32.387695312],[115.65087890600002,32.414916992],[115.64007568400001,32.42010498],[115.65332031200002,32.451293945],[115.65447998000002,32.469482422],[115.67730712900001,32.477478027],[115.69909668000001,32.471923828],[115.71032714800002,32.475891113],[115.74389648400002,32.478881836],[115.75390625000001,32.46472168],[115.75347900400001,32.460083008],[115.78668212900001,32.458496094],[115.80810546900001,32.448486328],[115.81829834000001,32.434326172],[115.82507324200002,32.452087402],[115.83709716800001,32.465270996],[115.84967041000002,32.487304687],[115.85070800800001,32.500915527],[115.87792968700002,32.572509766],[115.90008544900002,32.571289062],[115.91210937500001,32.584472656],[115.92370605500001,32.593078613],[115.94549560500002,32.602294922],[115.96789550800001,32.590881348],[115.98950195300002,32.580688477],[115.99908447300001,32.561889648],[116.00952148400002,32.552307129],[116.04132080100001,32.532470703],[116.07373046900001,32.521728516],[116.08392334000001,32.50769043],[116.10449218700002,32.48828125],[116.12487793000001,32.464477539],[116.12329101600001,32.441894531],[116.23950195300002,32.440490723],[116.24151611300002,32.467712402],[116.25427246100001,32.489685059],[116.27728271500001,32.502319336],[116.29907226600001,32.496520996],[116.31988525400001,32.477294922],[116.34051513700001,32.457885742],[116.35089111300002,32.448303223],[116.39428710900002,32.436889648],[116.43829345700001,32.434509277],[116.48010253900001,32.467712402],[116.49810791000002,32.494506836],[116.51550293000001,32.526916504],[116.55267334000001,32.554870605],[116.58129882800002,32.582519531],[116.52868652300002,32.610717773],[116.51708984400001,32.64050293],[116.50408935500002,32.671691895],[116.46789550800001,32.692077637],[116.44671630900001,32.72467041],[116.43951416000002,32.768676758],[116.44030761700002,32.80267334],[116.42492675800001,32.827087402],[116.37591552700002,32.843078613],[116.36468505900001,32.843505859],[116.36767578100002,32.879882812],[116.35449218700002,32.891479492],[116.31530761700002,32.867675781],[116.27612304700001,32.860473633],[116.24127197300001,32.873901367],[116.19451904300001,32.885498047],[116.14630127,32.908691406],[116.12469482400002,32.930297852],[116.09307861300002,32.942687988],[116.05670166000002,32.944885254],[116.04028320300002,32.970275879],[116.02447509800001,32.998901367],[116.01330566400001,33.02911377],[115.99487304700001,33.058105469],[115.96929931600002,33.083679199],[115.93408203100002,33.09588623],[115.88708496100001,33.105529785],[115.84228515600002,33.119689941],[115.82550048800002,33.185119629],[115.83227539100001,33.257080078],[115.85552978500002,33.269470215],[115.86810302700002,33.287109375],[115.86968994100002,33.309692383],[115.85968017600001,33.328491211],[115.84967041000002,33.342529297],[115.85028076200001,33.35168457],[115.85308837900001,33.392272949],[115.83190918000001,33.407104492],[115.76147460900002,33.442077637],[115.72967529300001,33.466491699],[115.66949462900001,33.487487793],[115.62567138700001,33.503112793],[115.59271240200002,33.513671875],[115.58288574200002,33.532287598],[115.56927490200002,33.573486328]]]}}
