{"type":"Feature","id":"bulk-99377448B85102643542139","bbox":[118.21008300800001,32.717102051,119.62750244100002,34.066894531],"properties":{"id":"bulk-99377448B85102643542139","name":"Huai'an","nameEn":"Huai'an","fullName":"Huai'an","level":"city","boundaryRole":"administrative-extent","boundaryQuality":"generalized-source-2020","boundaryYearRepresented":"2020","bounds":[[118.21008300800001,32.717102051],[119.62750244100002,34.066894531]],"center":[118.91879272450001,33.391998291],"centerMethod":"bounding-box midpoint; camera framing only","license":"CC-BY-3.0-IGO","attribution":"geoBoundaries / HDX, China administrative boundaries (2020)","source":{"provider":"geoBoundaries gbHumanitarian / HDX","url":"https://github.com/wmgeolab/geoBoundaries/raw/9469f09/releaseData/gbHumanitarian/CHN/ADM2/geoBoundaries-CHN-ADM2.geojson","metadataUrl":"https://www.geoboundaries.org/api/current/gbHumanitarian/CHN/ADM2/","shapeID":"99377448B85102643542139","shapeName":"Huai'an","boundaryID":"CHN-ADM2-99377448","commit":"9469f09"},"geometryCounts":{"coordinates":169,"components":1,"holes":0},"boundaryNotice":"geoBoundaries / HDX 2020 年行政区数据，海岸和边界经过源数据概化，并非当前测绘成果。"},"geometry":{"type":"Polygon","coordinates":[[[119.55651855500001,33.414123535],[119.56768798800002,33.443115234],[119.54187011700002,33.463684082],[119.50427246100001,33.480102539],[119.45727539100001,33.540527344],[119.45751953100002,33.581481934],[119.45648193400001,33.612915039],[119.45532226600001,33.643310547],[119.45812988300001,33.666503906],[119.48327636700002,33.749084473],[119.49932861300002,33.776306152],[119.51751709000001,33.807495117],[119.53869628900001,33.83972168],[119.56671142600001,33.85748291],[119.60729980500001,33.87689209],[119.61267089800002,33.933105469],[119.62750244100002,33.957885742],[119.57928466800001,33.965515137],[119.54949951200001,33.997680664],[119.54370117200001,34.030273437],[119.49688720700001,34.026672363],[119.47167968700002,33.998901367],[119.42272949200002,33.982116699],[119.39312744100002,34.002685547],[119.35308837900001,34.028320312],[119.31909179700001,34.025695801],[119.26690673800002,34.027893066],[119.23229980500001,34.02947998],[119.19909668000001,34.043273926],[119.15728759800001,34.066894531],[119.10809326200001,34.027282715],[119.08270263700001,34.008300781],[119.05047607400002,33.983886719],[119.03808593700002,33.955322266],[119.03149414100001,33.917297363],[119.01831054700001,33.890319824],[118.94671630900001,33.910522461],[118.921875,33.892272949],[118.86328125000001,33.913513184],[118.84967041000002,33.882324219],[118.82568359400001,33.860473633],[118.79571533200001,33.834899902],[118.78009033200001,33.800720215],[118.78131103500002,33.767272949],[118.78527832000002,33.726501465],[118.79150390600002,33.689086914],[118.78167724600002,33.657714844],[118.75451660200001,33.625488281],[118.76507568400001,33.588317871],[118.78948974600002,33.561889648],[118.78509521500001,33.52911377],[118.77569580100001,33.489685059],[118.76251220700001,33.435913086],[118.75347900400001,33.434082031],[118.74029541000002,33.43347168],[118.72589111300002,33.393310547],[118.71307373000002,33.369873047],[118.71270752,33.368896484],[118.73248291000002,33.318481445],[118.73632812500001,33.298278809],[118.46307373000002,33.185913086],[118.23931884800001,33.201293945],[118.21008300800001,33.187316895],[118.21490478500002,33.179504395],[118.26348877,33.157287598],[118.27569580100001,33.152893066],[118.29467773400002,33.139892578],[118.31048584000001,33.143493652],[118.33673095700001,33.142883301],[118.35931396500001,33.146118164],[118.38189697300001,33.131530762],[118.39508056600002,33.127075195],[118.42492675800001,33.139099121],[118.437316895,33.146118164],[118.47027587900001,33.152526855],[118.48168945300002,33.149475098],[118.48712158200001,33.145507812],[118.48010253900001,33.133728027],[118.44207763700001,33.104125977],[118.42633056600002,33.08770752],[118.44329834000001,33.083129883],[118.45812988300001,33.077270508],[118.44409179700001,33.058898926],[118.41967773400002,33.03729248],[118.40209960900002,33.025878906],[118.40228271500001,33.064880371],[118.36730957000002,33.040527344],[118.34490966800001,33.029907227],[118.33648681600002,33.024475098],[118.33367919900002,33.014892578],[118.33648681600002,33.005310059],[118.36010742200001,32.993713379],[118.37152099600002,32.98828125],[118.36492919900002,32.980285645],[118.32049560500002,32.965270996],[118.28289794900002,32.962097168],[118.25671386700002,32.961486816],[118.24792480500001,32.956115723],[118.24291992200001,32.949279785],[118.24847412100002,32.893676758],[118.26208496100001,32.856689453],[118.27648925800001,32.823730469],[118.28710937500001,32.796508789],[118.32867431600002,32.762878418],[118.33551025400001,32.729675293],[118.36370849600002,32.717102051],[118.38348388700001,32.733520508],[118.38470459000001,32.73449707],[118.42132568400001,32.742919922],[118.44671630900001,32.735107422],[118.46850585900002,32.736328125],[118.51428222700001,32.737121582],[118.58551025400001,32.737915039],[118.61968994100002,32.73828125],[118.65332031200002,32.726501465],[118.70788574200002,32.740722656],[118.71752929700001,32.760498047],[118.71331787100002,32.797119141],[118.71972656200002,32.817077637],[118.74072265600002,32.821105957],[118.78192138700001,32.864685059],[118.78369140600002,32.894714355],[118.78631591800001,32.932678223],[118.80871582000002,32.961486816],[118.83508300800001,32.964111328],[118.88128662100002,32.957519531],[118.88970947300001,32.957885742],[118.91308593700002,32.95892334],[118.94830322300001,32.962890625],[118.98352050800001,32.955078125],[119.02850341800001,32.893493652],[119.06329345700001,32.860107422],[119.08612060500002,32.860290527],[119.13427734400001,32.840087891],[119.13690185500002,32.844482422],[119.18231201200001,32.820922852],[119.18292236300002,32.819885254],[119.19787597700001,32.817871094],[119.23687744100002,32.81451416],[119.28747558600001,32.824279785],[119.29809570300002,32.85748291],[119.30432128900001,32.891479492],[119.30828857400002,32.919311523],[119.304504395,32.95111084],[119.30310058600001,32.984313965],[119.32690429700001,33.010925293],[119.34967041000002,33.040100098],[119.33288574200002,33.063720703],[119.31311035200001,33.085876465],[119.29370117200001,33.12487793],[119.25469970700001,33.140686035],[119.21472168000001,33.149291992],[119.20330810500002,33.186706543],[119.171875,33.208679199],[119.13732910200001,33.211303711],[119.11853027300002,33.241882324],[119.13507080100001,33.290100098],[119.17968750000001,33.29107666],[119.21173095700001,33.303100586],[119.20111084000001,33.33392334],[119.22149658200001,33.356872559],[119.25769043000001,33.361083984],[119.30389404300001,33.363098145],[119.35107421900001,33.363098145],[119.39172363300001,33.371520996],[119.42907714800002,33.395080566],[119.46069335900002,33.411071777],[119.49792480500001,33.418884277],[119.55651855500001,33.414123535]]]}}
