{"type":"Feature","id":"bulk-99377448B24912315527399","bbox":[116.23730468700002,23.064086914,117.14532470700001,23.653930664],"properties":{"id":"bulk-99377448B24912315527399","name":"Shantou","nameEn":"Shantou","fullName":"Shantou","level":"city","boundaryRole":"administrative-extent","boundaryQuality":"generalized-source-2020","boundaryYearRepresented":"2020","bounds":[[116.23730468700002,23.064086914],[117.14532470700001,23.653930664]],"center":[116.69131469700002,23.359008789],"centerMethod":"bounding-box midpoint; camera framing only","license":"CC-BY-3.0-IGO","attribution":"geoBoundaries / HDX, China administrative boundaries (2020)","source":{"provider":"geoBoundaries gbHumanitarian / HDX","url":"https://github.com/wmgeolab/geoBoundaries/raw/9469f09/releaseData/gbHumanitarian/CHN/ADM2/geoBoundaries-CHN-ADM2.geojson","metadataUrl":"https://www.geoboundaries.org/api/current/gbHumanitarian/CHN/ADM2/","shapeID":"99377448B24912315527399","shapeName":"Shantou","boundaryID":"CHN-ADM2-99377448","commit":"9469f09"},"geometryCounts":{"coordinates":306,"components":4,"holes":0},"boundaryNotice":"geoBoundaries / HDX 2020 年行政区数据，海岸和边界经过源数据概化，并非当前测绘成果。"},"geometry":{"type":"MultiPolygon","coordinates":[[[[116.62048339800002,23.457092285],[116.56689453100002,23.436279297],[116.53552246100001,23.450683594],[116.50891113300001,23.464904785],[116.45989990200002,23.470275879],[116.44708252,23.508483887],[116.40972900400001,23.501708984],[116.41467285200001,23.545471191],[116.38031005900001,23.54309082],[116.36248779300001,23.518310547],[116.34069824200002,23.495483398],[116.31372070300002,23.482727051],[116.33148193400001,23.454528809],[116.35009765600002,23.417114258],[116.37451171900001,23.397705078],[116.36810302700002,23.361877441],[116.33032226600001,23.346130371],[116.31048584000001,23.324523926],[116.29309082000002,23.284301758],[116.28167724600002,23.237487793],[116.26129150400001,23.217712402],[116.23730468700002,23.180480957],[116.24932861300002,23.145507812],[116.28570556600002,23.120727539],[116.31927490200002,23.116271973],[116.35107421900001,23.088317871],[116.378723145,23.064086914],[116.40771484400001,23.07232666],[116.429504395,23.094116211],[116.45947265600002,23.110290527],[116.48748779300001,23.119689941],[116.53369140600002,23.134094238],[116.54412841800001,23.152282715],[116.57250976600001,23.181274414],[116.57928466800001,23.187072754],[116.59527587900001,23.194885254],[116.59710693400001,23.19708252],[116.60028076200001,23.195678711],[116.60687255900001,23.20690918],[116.57952880900001,23.212280273],[116.55810546900001,23.214477539],[116.52929687500001,23.212280273],[116.51928710900002,23.227722168],[116.52008056600002,23.240478516],[116.51147460900002,23.259521484],[116.50408935500002,23.266479492],[116.54309082000002,23.258728027],[116.57830810500002,23.25390625],[116.60028076200001,23.255310059],[116.620910645,23.238525391],[116.62548828100002,23.217895508],[116.62231445300002,23.200500488],[116.62451171900001,23.188293457],[116.63970947300001,23.179077148],[116.64312744100002,23.176513672],[116.64569091800001,23.178710937],[116.64868164100001,23.185913086],[116.65527343700002,23.189880371],[116.66088867200001,23.206298828],[116.66870117200001,23.216918945],[116.67572021500001,23.223083496],[116.67669677700002,23.223876953],[116.67828369100002,23.22467041],[116.67828369100002,23.224914551],[116.68811035200001,23.23828125],[116.71447753900001,23.242919922],[116.72491455100001,23.246704102],[116.72827148400002,23.246887207],[116.74127197300001,23.250671387],[116.73547363300001,23.268676758],[116.71771240200002,23.281677246],[116.69927978500002,23.288330078],[116.73150634800001,23.280883789],[116.74987793000001,23.275085449],[116.76129150400001,23.253295898],[116.75610351600001,23.236877441],[116.76867675800001,23.227111816],[116.77087402300002,23.22668457],[116.77349853500002,23.224914551],[116.79388427700002,23.218688965],[116.796691895,23.230102539],[116.80151367200001,23.236694336],[116.80047607400002,23.24029541],[116.79412841800001,23.245727539],[116.79211425800001,23.245483398],[116.79107666000002,23.245300293],[116.79010009800001,23.241882324],[116.78771972700001,23.241699219],[116.78210449200002,23.237121582],[116.77807617200001,23.236083984],[116.77429199200002,23.237915039],[116.76690673800002,23.253112793],[116.76568603500002,23.284912109],[116.76092529300001,23.298278809],[116.75207519500002,23.307922363],[116.75451660200001,23.312927246],[116.75408935500002,23.315490723],[116.74890136700002,23.319885254],[116.73431396500001,23.326721191],[116.73272705100001,23.327514648],[116.72747802700002,23.326904297],[116.72668457000002,23.317321777],[116.72448730500001,23.313476562],[116.72009277300002,23.313476562],[116.70629882800002,23.320129395],[116.69091796900001,23.321716309],[116.68432617200001,23.325683594],[116.68328857400002,23.334716797],[116.67852783200001,23.339294434],[116.67010498000002,23.342529297],[116.66632080100001,23.342285156],[116.65447998000002,23.335083008],[116.64788818400001,23.326477051],[116.64367675800001,23.323486328],[116.63928222700001,23.314697266],[116.63232421900001,23.317504883],[116.62670898400002,23.314697266],[116.61328125000001,23.316894531],[116.60949707000002,23.31652832],[116.60607910200001,23.310913086],[116.60028076200001,23.31048584],[116.59411621100001,23.301330566],[116.59191894500002,23.303710937],[116.58929443400001,23.323120117],[116.58172607400002,23.328125],[116.57611084000001,23.335876465],[116.57250976600001,23.336486816],[116.56567382800002,23.332702637],[116.56188964800002,23.332885742],[116.54650878900001,23.343078613],[116.54028320300002,23.349121094],[116.53729248000002,23.355529785],[116.53308105500001,23.372070312],[116.52789306600002,23.389709473],[116.52929687500001,23.399475098],[116.53289794900002,23.414916992],[116.53271484400001,23.420898437],[116.53967285200001,23.426330566],[116.54608154300001,23.42010498],[116.54132080100001,23.42767334],[116.55389404300001,23.424072266],[116.56707763700001,23.416320801],[116.57592773400002,23.410888672],[116.59027099600002,23.390686035],[116.60729980500001,23.377685547],[116.63470459000001,23.373474121],[116.67047119100002,23.375915527],[116.69909668000001,23.356689453],[116.71032714800002,23.364074707],[116.71752929700001,23.366699219],[116.72790527300002,23.368286133],[116.73168945300002,23.367126465],[116.73852539100001,23.370910645],[116.75329589800002,23.356323242],[116.76751709000001,23.354919434],[116.76989746100001,23.356079102],[116.78729248000002,23.370910645],[116.79168701200001,23.377075195],[116.796691895,23.379516602],[116.80267334000001,23.379882812],[116.80627441400001,23.38269043],[116.80352783200001,23.391479492],[116.80487060500002,23.394470215],[116.80969238300001,23.39831543],[116.81048584000001,23.41192627],[116.81988525400001,23.409912109],[116.82507324200002,23.421875],[116.84588623000002,23.44732666],[116.85150146500001,23.451477051],[116.84649658200001,23.455078125],[116.84472656200002,23.457275391],[116.84509277300002,23.464477539],[116.85308837900001,23.464477539],[116.863098145,23.462097168],[116.86461124900002,23.46727664],[116.86151123000002,23.466918945],[116.85192871100001,23.48248291],[116.85870361300002,23.480895996],[116.86169433600001,23.487915039],[116.85028076200001,23.493713379],[116.86010742200001,23.494873047],[116.85748291000002,23.49810791],[116.85229492200001,23.498718262],[116.84411621100001,23.503295898],[116.85290527300002,23.50567627],[116.85687255900001,23.504882812],[116.85827636700002,23.511291504],[116.86230468700002,23.515686035],[116.85571289100001,23.522094727],[116.86431884800001,23.52331543],[116.86828613300001,23.528320312],[116.86669921900001,23.53112793],[116.86712646500001,23.534484863],[116.87207031200002,23.533874512],[116.88488769500002,23.54510498],[116.88427734400001,23.548522949],[116.88012695300002,23.55267334],[116.88708496100001,23.559509277],[116.88970947300001,23.564697266],[116.88690185500002,23.568481445],[116.88769531200002,23.571472168],[116.88647460900002,23.574279785],[116.88372802700002,23.575073242],[116.88507080100001,23.582702637],[116.88348388700001,23.585327148],[116.86688232400002,23.583496094],[116.87011718700002,23.587524414],[116.87951660200001,23.589904785],[116.88049316400001,23.591918945],[116.87310791000002,23.600097656],[116.87268066400001,23.605102539],[116.87469482400002,23.608093262],[116.88250732400002,23.610900879],[116.88909912100002,23.619873047],[116.89569091800001,23.621887207],[116.83911132800002,23.653930664],[116.79791259800001,23.618103027],[116.76690673800002,23.603271484],[116.72949218700002,23.608520508],[116.70190429700001,23.592285156],[116.70892334000001,23.549499512],[116.71710205100001,23.517272949],[116.70391845700001,23.477478027],[116.68310546900001,23.448730469],[116.65289306600002,23.452087402],[116.62048339800002,23.457092285]]],[[[116.84429931600002,23.428283691],[116.84368896500001,23.425720215],[116.84490966800001,23.42388916],[116.84771728500002,23.428100586],[116.84429931600002,23.428283691]]],[[[117.13067627,23.471496582],[117.12927246100001,23.475708008],[117.12451171900001,23.478271484],[117.12329101600001,23.487487793],[117.11889648400002,23.491699219],[117.11370849600002,23.488098145],[117.11291503900001,23.485290527],[117.11029052700002,23.483886719],[117.10968017600001,23.485107422],[117.10272216800001,23.480285645],[117.10211181600002,23.477722168],[117.09808349600002,23.472290039],[117.09771728500002,23.463317871],[117.09570312500001,23.460083008],[117.09167480500001,23.459716797],[117.08050537100002,23.464111328],[117.06707763700001,23.47869873],[117.06048584000001,23.479492187],[117.05407714800002,23.477111816],[117.04730224600002,23.473083496],[117.04510498000002,23.468505859],[117.04248046900001,23.466918945],[117.04071044900002,23.461486816],[117.03527832000002,23.456481934],[117.03527832000002,23.452514648],[117.03009033200001,23.446289062],[117.02508544900002,23.445129395],[117.02270507800002,23.443115234],[117.02087402300002,23.441894531],[117.01770019500002,23.434082031],[117.01409912100002,23.433288574],[117.01171875000001,23.436096191],[117.00872802700002,23.440673828],[117.00610351600001,23.444885254],[117.00067138700001,23.447875977],[116.99768066400001,23.456481934],[116.99407959000001,23.458679199],[116.98632812500001,23.459472656],[116.98309326200001,23.463500977],[116.980285645,23.463684082],[116.94012451200001,23.427124023],[116.94531250000001,23.424499512],[116.96447753900001,23.418884277],[116.97088623000002,23.420288086],[116.98229980500001,23.418884277],[116.98931884800001,23.420715332],[116.99847412100002,23.420715332],[117.00628662100002,23.418518066],[117.01971435500002,23.42010498],[117.02410888700001,23.41809082],[117.02490234400001,23.417297363],[117.03912353500002,23.421508789],[117.11828613300001,23.407287598],[117.13787841800001,23.41809082],[117.13848877,23.419677734],[117.13812255900001,23.421875],[117.13409423800002,23.424316406],[117.13031005900001,23.429504395],[117.13208007800002,23.43951416],[117.13067627,23.44329834],[117.13427734400001,23.449279785],[117.14050293000001,23.444274902],[117.14532470700001,23.45111084],[117.13690185500002,23.455505371],[117.13568115200002,23.464294434],[117.13269043000001,23.465087891],[117.12731933600001,23.46270752],[117.12469482400002,23.463684082],[117.12469482400002,23.465270996],[117.12969970700001,23.467895508],[117.13067627,23.471496582]]],[[[116.86461124900002,23.46727664],[116.86468505900001,23.467285156],[116.86468505900001,23.467529297],[116.86461124900002,23.46727664]]]]}}
