{"type":"Feature","id":"bulk-99377448B11945366036542","bbox":[113.29327392600001,30.375915527,114.56268310500002,31.859313965],"properties":{"id":"bulk-99377448B11945366036542","name":"Xiaogan","nameEn":"Xiaogan","fullName":"Xiaogan","level":"city","boundaryRole":"administrative-extent","boundaryQuality":"generalized-source-2020","boundaryYearRepresented":"2020","bounds":[[113.29327392600001,30.375915527],[114.56268310500002,31.859313965]],"center":[113.92797851550002,31.117614746],"centerMethod":"bounding-box midpoint; camera framing only","license":"CC-BY-3.0-IGO","attribution":"geoBoundaries / HDX, China administrative boundaries (2020)","source":{"provider":"geoBoundaries gbHumanitarian / HDX","url":"https://github.com/wmgeolab/geoBoundaries/raw/9469f09/releaseData/gbHumanitarian/CHN/ADM2/geoBoundaries-CHN-ADM2.geojson","metadataUrl":"https://www.geoboundaries.org/api/current/gbHumanitarian/CHN/ADM2/","shapeID":"99377448B11945366036542","shapeName":"Xiaogan","boundaryID":"CHN-ADM2-99377448","commit":"9469f09"},"geometryCounts":{"coordinates":139,"components":1,"holes":0},"boundaryNotice":"geoBoundaries / HDX 2020 年行政区数据，海岸和边界经过源数据概化，并非当前测绘成果。"},"geometry":{"type":"Polygon","coordinates":[[[114.15747070300002,31.859313965],[114.10168457000002,31.763916016],[114.10028076200001,31.735900879],[114.12072753900001,31.710693359],[114.12829589800002,31.681274414],[114.11907959000001,31.651672363],[114.11352539100001,31.618530273],[114.08807373000002,31.55291748],[114.08349609400001,31.509094238],[114.05407714800002,31.461914062],[114.01928710900002,31.447509766],[113.99108886700002,31.433105469],[113.94067382800002,31.424072266],[113.88989257800002,31.450683594],[113.86187744100002,31.466674805],[113.82531738300001,31.469299316],[113.77429199200002,31.452087402],[113.73870849600002,31.455688477],[113.68267822300001,31.467102051],[113.65051269500002,31.437072754],[113.62048339800002,31.417297363],[113.58172607400002,31.430725098],[113.54888916000002,31.452087402],[113.53387451200001,31.41192627],[113.49652099600002,31.417297363],[113.45831298800002,31.431518555],[113.42327880900001,31.445922852],[113.39172363300001,31.452270508],[113.34991455100001,31.444885254],[113.32128906200002,31.432312012],[113.31152343700002,31.399719238],[113.31408691400001,31.364501953],[113.31707763700001,31.333312988],[113.34027099600002,31.308898926],[113.37811279300001,31.299499512],[113.40527343700002,31.270690918],[113.43872070300002,31.248474121],[113.45690918000001,31.217895508],[113.46350097700001,31.182922363],[113.503723145,31.137084961],[113.46850585900002,31.105895996],[113.44488525400001,31.084716797],[113.43267822300001,31.057128906],[113.39392089800002,31.041687012],[113.35809326200001,31.007324219],[113.33172607400002,30.989929199],[113.30133056600002,30.971496582],[113.29327392600001,30.9453125],[113.30792236300002,30.918701172],[113.33148193400001,30.893676758],[113.37292480500001,30.826721191],[113.38848877,30.789916992],[113.40411377,30.741699219],[113.40368652300002,30.709716797],[113.40631103500002,30.672485352],[113.421875,30.642883301],[113.43170166000002,30.605102539],[113.42431640600002,30.573730469],[113.40832519500002,30.542724609],[113.41552734400001,30.503723145],[113.42608642600001,30.469116211],[113.46392822300001,30.375915527],[113.50811767600001,30.402099609],[113.50872802700002,30.415710449],[113.53149414100001,30.442321777],[113.55352783200001,30.455322266],[113.57568359400001,30.468322754],[113.59667968700002,30.454101562],[113.62969970700001,30.435302734],[113.70471191400001,30.457275391],[113.74249267600001,30.465881348],[113.77789306600002,30.486877441],[113.80712890600002,30.517089844],[113.83868408200001,30.534729004],[113.86291503900001,30.555114746],[113.88812255900001,30.589294434],[113.89447021500001,30.620727539],[113.89569091800001,30.649719238],[113.90368652300002,30.672302246],[113.87390136700002,30.708679199],[113.87792968700002,30.743286133],[113.90112304700001,30.764282227],[113.89947509800001,30.792297363],[113.91351318400001,30.767700195],[113.93450927700002,30.753295898],[113.95611572300001,30.752502441],[113.97772216800001,30.75189209],[114.02111816400001,30.750305176],[114.10772705100001,30.747314453],[114.14050293000001,30.755310059],[114.16967773400002,30.823913574],[114.16430664100001,30.852722168],[114.16571044900002,30.897705078],[114.15887451200001,30.934326172],[114.16430664100001,30.966308594],[114.16192627,31.008911133],[114.15869140600002,31.037475586],[114.16888427700002,31.077087402],[114.17468261700002,31.107727051],[114.18389892600001,31.138122559],[114.20190429700001,31.163879395],[114.21612548800002,31.189880371],[114.18927002,31.215087891],[114.18432617200001,31.249084473],[114.20147705100001,31.281311035],[114.20672607400002,31.309082031],[114.22332763700001,31.347473145],[114.24450683600001,31.373718262],[114.28607177700002,31.37310791],[114.31109619100002,31.352478027],[114.34350585900002,31.332092285],[114.38330078100002,31.319274902],[114.43969726600001,31.319274902],[114.45190429700001,31.344482422],[114.44348144500002,31.372497559],[114.45568847700001,31.410095215],[114.48950195300002,31.437683105],[114.49688720700001,31.472473145],[114.51269531200002,31.496887207],[114.50848388700001,31.533874512],[114.51989746100001,31.561889648],[114.53747558600001,31.581298828],[114.53088378900001,31.585083008],[114.52947998000002,31.628723145],[114.54608154300001,31.664489746],[114.55969238300001,31.710327148],[114.56268310500002,31.753723145],[114.55072021500001,31.765075684],[114.54827880900001,31.767272949],[114.52569580100001,31.761901855],[114.49328613300001,31.75567627],[114.43188476600001,31.748718262],[114.39752197300001,31.747924805],[114.35247802700002,31.748474121],[114.29748535200001,31.762512207],[114.23150634800001,31.79888916],[114.20751953100002,31.81829834],[114.17468261700002,31.851928711],[114.15747070300002,31.859313965]]]}}
