{"type":"Feature","id":"bulk-99377448B74705870797716","bbox":[114.47607421900001,27.515075684,115.37652587900001,28.072692871],"properties":{"id":"bulk-99377448B74705870797716","name":"Xinyu","nameEn":"Xinyu","fullName":"Xinyu","level":"city","boundaryRole":"administrative-extent","boundaryQuality":"generalized-source-2020","boundaryYearRepresented":"2020","bounds":[[114.47607421900001,27.515075684],[115.37652587900001,28.072692871]],"center":[114.92630004900002,27.7938842775],"centerMethod":"bounding-box midpoint; camera framing only","license":"CC-BY-3.0-IGO","attribution":"geoBoundaries / HDX, China administrative boundaries (2020)","source":{"provider":"geoBoundaries gbHumanitarian / HDX","url":"https://github.com/wmgeolab/geoBoundaries/raw/9469f09/releaseData/gbHumanitarian/CHN/ADM2/geoBoundaries-CHN-ADM2.geojson","metadataUrl":"https://www.geoboundaries.org/api/current/gbHumanitarian/CHN/ADM2/","shapeID":"99377448B74705870797716","shapeName":"Xinyu","boundaryID":"CHN-ADM2-99377448","commit":"9469f09"},"geometryCounts":{"coordinates":77,"components":1,"holes":0},"boundaryNotice":"geoBoundaries / HDX 2020 年行政区数据，海岸和边界经过源数据概化，并非当前测绘成果。"},"geometry":{"type":"Polygon","coordinates":[[[115.37652587900001,27.853088379],[115.33471679700001,27.860900879],[115.31390380900001,27.861877441],[115.27288818400001,27.877502441],[115.23187255900001,27.893310547],[115.21087646500001,27.894287109],[115.18927002,27.881286621],[115.14752197300001,27.883300781],[115.12567138700001,27.870483398],[115.10552978500002,27.885314941],[115.08551025400001,27.899902344],[115.08709716800001,27.927307129],[115.10968017600001,27.953918457],[115.11047363300001,27.967712402],[115.13287353500002,27.99407959],[115.14807128900001,28.029724121],[115.12109375000001,28.04510498],[115.08007812500001,28.046508789],[115.04809570300002,28.043518066],[115.02148437500001,28.05847168],[114.96850585900002,28.053894043],[114.93267822300001,28.054321289],[114.90228271500001,28.039489746],[114.84991455100001,28.010681152],[114.78491210900002,28.010925293],[114.77252197300001,28.040283203],[114.75653076200001,28.065673828],[114.72192382800002,28.072692871],[114.68627929700001,28.0703125],[114.64428710900002,28.060913086],[114.60290527300002,28.054321289],[114.55407714800002,28.026489258],[114.57348632800002,27.973876953],[114.57928466800001,27.940917969],[114.55749511700002,27.920288086],[114.52893066400001,27.909729004],[114.50152587900001,27.895874023],[114.48229980500001,27.874511719],[114.47607421900001,27.847106934],[114.48510742200001,27.812072754],[114.51788330100001,27.796875],[114.54949951200001,27.806884766],[114.57147216800001,27.786071777],[114.56732177700002,27.758911133],[114.56451416000002,27.727478027],[114.55731201200001,27.693725586],[114.54888916000002,27.664672852],[114.53912353500002,27.638671875],[114.52569580100001,27.604492187],[114.52087402300002,27.575073242],[114.55010986300002,27.566101074],[114.57928466800001,27.538330078],[114.60107421900001,27.515075684],[114.63708496100001,27.532897949],[114.65930175800001,27.553283691],[114.69287109400001,27.57232666],[114.74688720700001,27.571105957],[114.75689697300001,27.596923828],[114.79107666000002,27.598083496],[114.82067871100001,27.579528809],[114.87988281200002,27.567077637],[114.89672851600001,27.605285645],[114.91967773400002,27.626281738],[114.96411132800002,27.650085449],[114.99871826200001,27.655700684],[115.03308105500001,27.664672852],[115.06408691400001,27.686889648],[115.09613037100002,27.687927246],[115.13891601600001,27.692504883],[115.17810058600001,27.709716797],[115.21411132800002,27.723876953],[115.25012207000002,27.733093262],[115.27630615200002,27.748291016],[115.30407714800002,27.766906738],[115.32672119100002,27.786071777],[115.347473145,27.807495117],[115.37652587900001,27.853088379]]]}}
