{"type":"Feature","id":"bulk-99377448B16643963456163","bbox":[120.17572021500001,31.692077637,121.88372802700002,32.701904297],"properties":{"id":"bulk-99377448B16643963456163","name":"Nantong","nameEn":"Nantong","fullName":"Nantong","level":"city","boundaryRole":"administrative-extent","boundaryQuality":"generalized-source-2020","boundaryYearRepresented":"2020","bounds":[[120.17572021500001,31.692077637],[121.88372802700002,32.701904297]],"center":[121.02972412100002,32.196990967],"centerMethod":"bounding-box midpoint; camera framing only","license":"CC-BY-3.0-IGO","attribution":"geoBoundaries / HDX, China administrative boundaries (2020)","source":{"provider":"geoBoundaries gbHumanitarian / HDX","url":"https://github.com/wmgeolab/geoBoundaries/raw/9469f09/releaseData/gbHumanitarian/CHN/ADM2/geoBoundaries-CHN-ADM2.geojson","metadataUrl":"https://www.geoboundaries.org/api/current/gbHumanitarian/CHN/ADM2/","shapeID":"99377448B16643963456163","shapeName":"Nantong","boundaryID":"CHN-ADM2-99377448","commit":"9469f09"},"geometryCounts":{"coordinates":320,"components":3,"holes":0},"boundaryNotice":"geoBoundaries / HDX 2020 年行政区数据，海岸和边界经过源数据概化，并非当前测绘成果。"},"geometry":{"type":"MultiPolygon","coordinates":[[[[120.77972412100002,32.00769043],[120.78552246100001,32.008911133],[120.78228759800001,32.012329102],[120.77130127,32.016113281],[120.76812744100002,32.014892578],[120.77490234400001,32.008911133],[120.77972412100002,32.00769043]]],[[[120.60772705100001,32.065124512],[120.605285645,32.06829834],[120.60192871100001,32.072509766],[120.59167480500001,32.071716309],[120.58508300800001,32.068725586],[120.57550048800002,32.065490723],[120.57727050800001,32.065124512],[120.60168457000002,32.066711426],[120.63092041000002,32.054077148],[120.63928222700001,32.050292969],[120.64849853500002,32.046081543],[120.64807128900001,32.046875],[120.65112304700001,32.047485352],[120.65551757800002,32.045715332],[120.65728759800001,32.046875],[120.65087890600002,32.051696777],[120.64630127,32.054077148],[120.62652587900001,32.057128906],[120.61871337900001,32.059875488],[120.61212158200001,32.065490723],[120.60772705100001,32.065124512]]],[[[120.83190918000001,32.623901367],[120.79791259800001,32.605895996],[120.75488281200002,32.597900391],[120.71929931600002,32.58807373],[120.687316895,32.597106934],[120.64648437500001,32.592102051],[120.61212158200001,32.627685547],[120.57727050800001,32.643676758],[120.54412841800001,32.640075684],[120.49987793000001,32.635681152],[120.45928955100001,32.635925293],[120.41809082000002,32.650085449],[120.39648437500001,32.679870605],[120.36572265600002,32.701904297],[120.32409668000001,32.700317383],[120.288879395,32.689880371],[120.24432373000002,32.681274414],[120.20471191400001,32.665710449],[120.17572021500001,32.627502441],[120.21209716800001,32.59387207],[120.24468994100002,32.572692871],[120.25012207000002,32.540283203],[120.25048828100002,32.504699707],[120.25311279300001,32.463500977],[120.26232910200001,32.422302246],[120.26928710900002,32.379516602],[120.33209228500002,32.367126465],[120.37072753900001,32.360107422],[120.34429931600002,32.303894043],[120.33331298800002,32.273071289],[120.34307861300002,32.241271973],[120.33148193400001,32.172912598],[120.35668945300002,32.126708984],[120.39807128900001,32.12487793],[120.43048095700001,32.124511719],[120.46972656200002,32.114685059],[120.50427246100001,32.079101562],[120.51208496100001,32.079711914],[120.51232910200001,32.079711914],[120.51428222700001,32.081726074],[120.51190185500002,32.084716797],[120.50311279300001,32.089477539],[120.50549316400001,32.091125488],[120.51452636700002,32.088928223],[120.52191162100002,32.092895508],[120.52868652300002,32.088928223],[120.54547119100002,32.071105957],[120.54827880900001,32.0703125],[120.55212402300002,32.069702148],[120.55029296900001,32.073913574],[120.55212402300002,32.074890137],[120.55932617200001,32.069885254],[120.56188964800002,32.069702148],[120.56469726600001,32.069519043],[120.59307861300002,32.078308105],[120.60412597700001,32.079711914],[120.61352539100001,32.076477051],[120.63189697300001,32.065673828],[120.64709472700001,32.061279297],[120.67449951200001,32.056274414],[120.69329834000001,32.04510498],[120.69689941400001,32.043701172],[120.70788574200002,32.039489746],[120.71429443400001,32.039672852],[120.72448730500001,32.043518066],[120.72692871100001,32.03692627],[120.73547363300001,32.036682129],[120.74011230500001,32.028503418],[120.75347900400001,32.02947998],[120.77209472700001,32.021728516],[120.78668212900001,32.019287109],[120.79052734400001,32.014892578],[120.796875,32.013305664],[120.80212402300002,31.99987793],[120.81909179700001,32.00012207],[120.82171630900001,31.995483398],[120.83111572300001,31.984924316],[120.83489990200002,31.985290527],[120.84649658200001,31.972717285],[120.85211181600002,31.969482422],[120.85491943400001,31.96270752],[120.86669921900001,31.947509766],[120.87310791000002,31.945129395],[120.87731933600001,31.94128418],[120.88452148400002,31.928894043],[120.89508056600002,31.92010498],[120.90130615200002,31.907287598],[120.90588378900001,31.900695801],[120.90850830100001,31.893127441],[120.91009521500001,31.892883301],[120.91308593700002,31.895507812],[120.91369628900001,31.890686035],[120.93670654300001,31.879882812],[120.95031738300001,31.870117187],[120.96112060500002,31.86730957],[120.95947265600002,31.864501953],[120.95849609400001,31.864318848],[120.96270752,31.861328125],[120.92211914100001,31.851318359],[120.94769287100002,31.829101562],[120.96069335900002,31.822692871],[120.96069335900002,31.823730469],[120.95989990200002,31.830688477],[120.95550537100002,31.836730957],[120.95587158200001,31.841308594],[120.95812988300001,31.841308594],[120.96649169900002,31.826477051],[120.96771240200002,31.820922852],[120.96771240200002,31.819274902],[120.972473145,31.816894531],[120.99407959000001,31.815917969],[121.01788330100001,31.821899414],[121.03448486300002,31.829711914],[121.03527832000002,31.830505371],[121.03210449200002,31.834716797],[121.05249023400002,31.83807373],[121.05407714800002,31.838684082],[121.07348632800002,31.848327637],[121.08209228500002,31.852478027],[121.09069824200002,31.850524902],[121.09490966800001,31.852478027],[121.10711669900002,31.852478027],[121.12310791000002,31.848876953],[121.13092041000002,31.842895508],[121.13269043000001,31.841491699],[121.16027832000002,31.836120605],[121.16369628900001,31.837524414],[121.19409179700001,31.858276367],[121.19952392600001,31.860473633],[121.20587158200001,31.861694336],[121.21551513700001,31.861083984],[121.22692871100001,31.85748291],[121.22991943400001,31.858886719],[121.24511718700002,31.867126465],[121.26110839800002,31.873718262],[121.26971435500002,31.88092041],[121.28027343700002,31.884887695],[121.28747558600001,31.885925293],[121.31048584000001,31.881896973],[121.32788085900002,31.871276855],[121.34869384800001,31.863098145],[121.36547851600001,31.859680176],[121.38647460900002,31.853088379],[121.40789794900002,31.850097656],[121.42547607400002,31.842895508],[121.44012451200001,31.841674805],[121.45709228500002,31.831481934],[121.47192382800002,31.824707031],[121.49908447300001,31.803527832],[121.50927734400001,31.792114258],[121.51452636700002,31.789123535],[121.53387451200001,31.783325195],[121.55090332000002,31.785095215],[121.57067871100001,31.768493652],[121.57189941400001,31.766723633],[121.58367919900002,31.764099121],[121.58947753900001,31.760925293],[121.59051513700001,31.762084961],[121.59649658200001,31.773925781],[121.60028076200001,31.772888184],[121.59350585900002,31.758728027],[121.63769531200002,31.73449707],[121.65167236300002,31.729492187],[121.65887451200001,31.727478027],[121.68811035200001,31.722900391],[121.70727539100001,31.722473145],[121.72308349600002,31.720092773],[121.73730468700002,31.715270996],[121.76287841800001,31.710510254],[121.77929687500001,31.700317383],[121.78967285200001,31.70111084],[121.80267334000001,31.696899414],[121.80688476600001,31.702087402],[121.81207275400001,31.695922852],[121.81671142600001,31.698120117],[121.82067871100001,31.697509766],[121.82507324200002,31.693481445],[121.84027099600002,31.692077637],[121.85168457000002,31.693725586],[121.85791015600002,31.692321777],[121.87048339800002,31.6953125],[121.88372802700002,31.707702637],[121.87988281200002,31.729675293],[121.86889648400002,31.752075195],[121.86651611300002,31.756896973],[121.85552978500002,31.782897949],[121.84967041000002,31.811523437],[121.83648681600002,31.834472656],[121.81988525400001,31.857116699],[121.82147216800001,31.884887695],[121.81768798800002,31.898071289],[121.812316895,31.921325684],[121.79528808600001,31.942077637],[121.79431152300002,31.942871094],[121.78948974600002,31.943725586],[121.78509521500001,31.947692871],[121.78509521500001,31.950927734],[121.77770996100001,31.957275391],[121.74847412100002,31.98449707],[121.71771240200002,31.999328613],[121.68389892600001,32.017883301],[121.67388916000002,32.024475098],[121.65771484400001,32.034912109],[121.63031005900001,32.051086426],[121.59930419900002,32.064880371],[121.56848144500002,32.080505371],[121.53247070300002,32.100097656],[121.49652099600002,32.10168457],[121.46209716800001,32.106506348],[121.45507812500001,32.107727051],[121.43408203100002,32.110900879],[121.42211914100001,32.118713379],[121.41571044900002,32.118103027],[121.41632080100001,32.127685547],[121.413879395,32.139526367],[121.41467285200001,32.140319824],[121.41333007800002,32.144714355],[121.40008544900002,32.176696777],[121.38092041000002,32.175292969],[121.36767578100002,32.174072266],[121.34851074200002,32.186889648],[121.33532714800002,32.194274902],[121.33349609400001,32.19708252],[121.33087158200001,32.200927734],[121.32312011700002,32.200317383],[121.31628418000001,32.200927734],[121.31030273400002,32.204711914],[121.32769775400001,32.205688477],[121.32611084000001,32.207885742],[121.33050537100002,32.216674805],[121.33807373000002,32.225097656],[121.34149169900002,32.228881836],[121.33929443400001,32.240722656],[121.35327148400002,32.251098633],[121.36669921900001,32.250305176],[121.36688232400002,32.250488281],[121.35272216800001,32.267089844],[121.347473145,32.285705566],[121.34710693400001,32.300292969],[121.34729003900001,32.300720215],[121.33972168000001,32.37487793],[121.34948730500001,32.376098633],[121.35192871100001,32.377502441],[121.33612060500002,32.391113281],[121.31408691400001,32.405700684],[121.31268310500002,32.406677246],[121.29510498000002,32.414672852],[121.28649902300002,32.431884766],[121.27307128900001,32.43927002],[121.26647949200002,32.44152832],[121.26489257800002,32.440673828],[121.25891113300001,32.441894531],[121.17987060500002,32.473083496],[121.17370605500001,32.47052002],[121.16333007800002,32.455322266],[121.16088867200001,32.455871582],[121.15911865200002,32.460083008],[121.16607666000002,32.475097656],[121.16369628900001,32.479125977],[121.15808105500001,32.479675293],[121.15527343700002,32.482299805],[121.12548828100002,32.492492676],[121.08288574200002,32.51171875],[121.04071044900002,32.526306152],[121.00927734400001,32.531677246],[120.98669433600001,32.535522461],[120.97912597700001,32.540710449],[120.97650146500001,32.518127441],[120.97113037100002,32.520324707],[120.97607421900001,32.527099609],[120.97210693400001,32.532104492],[120.96691894500002,32.542907715],[120.96051025400001,32.546875],[120.95910644500002,32.549926758],[120.96008300800001,32.553527832],[120.95892334000001,32.558288574],[120.95172119100002,32.564880371],[120.94970703100002,32.567321777],[120.921875,32.584472656],[120.91333007800002,32.58972168],[120.91308593700002,32.590515137],[120.89709472700001,32.594116211],[120.89367675800001,32.594299316],[120.86853027300002,32.595703125],[120.86468505900001,32.60748291],[120.86047363300001,32.608093262],[120.85308837900001,32.61151123],[120.85009765600002,32.612670898],[120.84631347700001,32.615905762],[120.83349609400001,32.616088867],[120.83129882800002,32.617675781],[120.83190918000001,32.623901367]]]]}}
