{"type":"Feature","id":"bulk-99377448B97580729450669","bbox":[113.72070312500001,38.245117187,116.32727050800001,39.937316895],"properties":{"id":"bulk-99377448B97580729450669","name":"Baoding","nameEn":"Baoding","fullName":"Baoding","level":"city","boundaryRole":"administrative-extent","boundaryQuality":"generalized-source-2020","boundaryYearRepresented":"2020","bounds":[[113.72070312500001,38.245117187],[116.32727050800001,39.937316895]],"center":[115.02398681650001,39.091217041],"centerMethod":"bounding-box midpoint; camera framing only","license":"CC-BY-3.0-IGO","attribution":"geoBoundaries / HDX, China administrative boundaries (2020)","source":{"provider":"geoBoundaries gbHumanitarian / HDX","url":"https://github.com/wmgeolab/geoBoundaries/raw/9469f09/releaseData/gbHumanitarian/CHN/ADM2/geoBoundaries-CHN-ADM2.geojson","metadataUrl":"https://www.geoboundaries.org/api/current/gbHumanitarian/CHN/ADM2/","shapeID":"99377448B97580729450669","shapeName":"Baoding","boundaryID":"CHN-ADM2-99377448","commit":"9469f09"},"geometryCounts":{"coordinates":186,"components":1,"holes":0},"boundaryNotice":"geoBoundaries / HDX 2020 年行政区数据，海岸和边界经过源数据概化，并非当前测绘成果。"},"geometry":{"type":"Polygon","coordinates":[[[115.42248535200001,39.937316895],[115.37188720700001,39.867919922],[115.34667968700002,39.817687988],[115.32391357400002,39.786315918],[115.28472900400001,39.740112305],[115.25592041000002,39.719726562],[115.21252441400001,39.688293457],[115.17987060500002,39.672912598],[115.13208007800002,39.658874512],[115.07910156200002,39.649108887],[115.01110839800002,39.677124023],[114.98352050800001,39.648071289],[114.94189453100002,39.629089355],[114.89910888700001,39.628295898],[114.85668945300002,39.624328613],[114.82647705100001,39.599121094],[114.78967285200001,39.606872559],[114.74707031200002,39.63269043],[114.71051025400001,39.635681152],[114.67230224600002,39.622314453],[114.63549804700001,39.595092773],[114.60131835900002,39.563720703],[114.56909179700001,39.543518066],[114.49768066400001,39.538879395],[114.48510742200001,39.498291016],[114.48150634800001,39.445495605],[114.45391845700001,39.363098145],[114.42687988300001,39.31427002],[114.39550781200002,39.271911621],[114.41412353500002,39.213928223],[114.43707275400001,39.176086426],[114.36352539100001,39.164916992],[114.31268310500002,39.134521484],[114.31091308600001,39.092895508],[114.27532959000001,39.088684082],[114.25787353500002,39.094299316],[114.25427246100001,39.091308594],[114.21270752,39.055725098],[114.15789794900002,39.038513184],[114.08367919900002,39.058898926],[114.04492187500001,39.08807373],[114.00347900400001,39.110290527],[113.94592285200001,39.097717285],[113.93469238300001,39.095275879],[113.89471435500002,39.066101074],[113.85308837900001,39.053710937],[113.77429199200002,39.021118164],[113.75109863300001,39.000488281],[113.74749755900001,38.987670898],[113.74169921900001,38.967895508],[113.72070312500001,38.9375],[113.75408935500002,38.859924316],[113.812316895,38.818908691],[113.80310058600001,38.76171875],[113.83807373000002,38.749328613],[113.87408447300001,38.731872559],[113.90527343700002,38.715881348],[113.94250488300001,38.686279297],[113.97790527300002,38.664672852],[114.02789306600002,38.653686523],[114.06848144500002,38.654724121],[114.11431884800001,38.657897949],[114.14831543000001,38.675109863],[114.20928955100001,38.682495117],[114.24572753900001,38.695922852],[114.29449462900001,38.705871582],[114.33331298800002,38.701293945],[114.36529541000002,38.689697266],[114.40472412100002,38.675476074],[114.44470214800002,38.660888672],[114.48687744100002,38.643493652],[114.51831054700001,38.630126953],[114.56188964800002,38.587097168],[114.56811523400002,38.555725098],[114.56707763700001,38.540100098],[114.57489013700001,38.530273437],[114.58251953100002,38.520690918],[114.59008789100001,38.511108398],[114.59790039100001,38.501525879],[114.605285645,38.488708496],[114.61267089800002,38.475891113],[114.62048339800002,38.469482422],[114.62847900400001,38.462890625],[114.71069335900002,38.47668457],[114.75067138700001,38.481689453],[114.82489013700001,38.498291016],[114.85607910200001,38.435913086],[114.86328125000001,38.408081055],[114.88092041000002,38.368286133],[114.88153076200001,38.327087402],[114.88311767600001,38.272888184],[114.93487548800002,38.256286621],[114.98571777300002,38.25189209],[115.02368164100001,38.245910645],[115.07592773400002,38.250671387],[115.12792968700002,38.255493164],[115.15771484400001,38.27130127],[115.21508789100001,38.293273926],[115.25891113300001,38.269897461],[115.27850341800001,38.245117187],[115.32891845700001,38.248901367],[115.35107421900001,38.281311035],[115.36987304700001,38.304504395],[115.44012451200001,38.308288574],[115.49407959000001,38.298095703],[115.53387451200001,38.301513672],[115.59771728500002,38.313110352],[115.65209960900002,38.321716309],[115.70111084000001,38.350708008],[115.69891357400002,38.390319824],[115.70367431600002,38.419677734],[115.72229003900001,38.454101562],[115.74890136700002,38.47869873],[115.77929687500001,38.494506836],[115.81152343700002,38.522521973],[115.84667968700002,38.517272949],[115.91430664100001,38.517883301],[115.94311523400002,38.56652832],[115.95489502,38.600708008],[115.95892334000001,38.633911133],[115.95947265600002,38.676086426],[115.98052978500002,38.743286133],[116.00671386700002,38.77532959],[116.03112793000001,38.812316895],[116.05249023400002,38.849304199],[116.07049560500002,38.882080078],[116.09832763700001,38.904907227],[116.15270996100001,38.920471191],[116.195129395,38.91607666],[116.22088623000002,38.914306641],[116.25347900400001,38.930297852],[116.28588867200001,38.951904297],[116.32727050800001,38.998901367],[116.31091308600001,39.039916992],[116.29431152300002,39.065490723],[116.24987793000001,39.12109375],[116.19732666000002,39.145507812],[116.19012451200001,39.172119141],[116.187316895,39.199279785],[116.18072509800001,39.245483398],[116.17352294900002,39.276672363],[116.15631103500002,39.307922363],[116.11791992200001,39.321472168],[116.08630371100001,39.366516113],[116.09472656200002,39.401306152],[116.10388183600001,39.431518555],[116.12268066400001,39.458312988],[116.15747070300002,39.470275879],[116.21887207000002,39.492919922],[116.21032714800002,39.504089355],[116.20989990200002,39.527282715],[116.18072509800001,39.576721191],[116.171691895,39.578674316],[116.13348388700001,39.557128906],[116.06988525400001,39.545471191],[116.01110839800002,39.534484863],[115.99291992200001,39.544128418],[115.95251464800002,39.543884277],[115.92767334000001,39.542114258],[115.89068603500002,39.555908203],[115.84008789100001,39.542907715],[115.82452392600001,39.522277832],[115.80792236300002,39.503295898],[115.77947998000002,39.494689941],[115.72808837900001,39.478881836],[115.66949462900001,39.542907715],[115.63708496100001,39.57409668],[115.60968017600001,39.588500977],[115.56170654300001,39.579528809],[115.53833007800002,39.58392334],[115.50787353500002,39.591125488],[115.48828125000001,39.618286133],[115.45227050800001,39.669921875],[115.43548584000001,39.704284668],[115.44848632800002,39.705505371],[115.46447753900001,39.712890625],[115.41589355500001,39.733093262],[115.41607666000002,39.776489258],[115.47851562500001,39.767272949],[115.54992675800001,39.772705078],[115.54632568400001,39.788085937],[115.54528808600001,39.792297363],[115.47888183600001,39.853881836],[115.47827148400002,39.882324219],[115.43811035200001,39.904907227],[115.42248535200001,39.937316895]]]}}
