{"type":"Feature","id":"bulk-99377448B86653037781596","bbox":[115.82391357400002,24.364501953,117.72589111300002,26.04309082],"properties":{"id":"bulk-99377448B86653037781596","name":"Longyan","nameEn":"Longyan","fullName":"Longyan","level":"city","boundaryRole":"administrative-extent","boundaryQuality":"generalized-source-2020","boundaryYearRepresented":"2020","bounds":[[115.82391357400002,24.364501953],[117.72589111300002,26.04309082]],"center":[116.77490234350002,25.203796386500002],"centerMethod":"bounding-box midpoint; camera framing only","license":"CC-BY-3.0-IGO","attribution":"geoBoundaries / HDX, China administrative boundaries (2020)","source":{"provider":"geoBoundaries gbHumanitarian / HDX","url":"https://github.com/wmgeolab/geoBoundaries/raw/9469f09/releaseData/gbHumanitarian/CHN/ADM2/geoBoundaries-CHN-ADM2.geojson","metadataUrl":"https://www.geoboundaries.org/api/current/gbHumanitarian/CHN/ADM2/","shapeID":"99377448B86653037781596","shapeName":"Longyan","boundaryID":"CHN-ADM2-99377448","commit":"9469f09"},"geometryCounts":{"coordinates":178,"components":1,"holes":0},"boundaryNotice":"geoBoundaries / HDX 2020 年行政区数据，海岸和边界经过源数据概化，并非当前测绘成果。"},"geometry":{"type":"Polygon","coordinates":[[[117.57708740200002,25.237487793],[117.60650634800001,25.262878418],[117.64630127,25.269104004],[117.63488769500002,25.295288086],[117.61108398400002,25.311889648],[117.62530517600001,25.340087891],[117.66729736300002,25.352478027],[117.66052246100001,25.386291504],[117.65948486300002,25.416503906],[117.66912841800001,25.444091797],[117.67889404300001,25.472473145],[117.68890380900001,25.504882812],[117.72589111300002,25.539672852],[117.65692138700001,25.535705566],[117.66192627,25.570678711],[117.70227050800001,25.578308105],[117.70050048800002,25.612304687],[117.67767334000001,25.630493164],[117.66552734400001,25.66607666],[117.63787841800001,25.698913574],[117.60131835900002,25.688476562],[117.56988525400001,25.696289062],[117.54547119100002,25.725280762],[117.50152587900001,25.765075684],[117.44787597700001,25.729675293],[117.41931152300002,25.694274902],[117.37969970700001,25.709289551],[117.39050293000001,25.747497559],[117.37890625000001,25.780883789],[117.35809326200001,25.809326172],[117.32629394500002,25.788085937],[117.27331543000001,25.752502441],[117.24029541000002,25.728271484],[117.21911621100001,25.707519531],[117.20989990200002,25.667907715],[117.20831298800002,25.640319824],[117.20648193400001,25.610290527],[117.16168212900001,25.583312988],[117.13372802700002,25.609680176],[117.12707519500002,25.646484375],[117.105285645,25.673522949],[117.07348632800002,25.679321289],[117.05249023400002,25.704528809],[117.05712890600002,25.732299805],[117.05249023400002,25.775695801],[117.04272460900002,25.805908203],[117.02972412100002,25.834289551],[117.01611328100002,25.858703613],[116.98132324200002,25.88269043],[116.92889404300001,25.875305176],[116.89349365200002,25.862304687],[116.85748291000002,25.841674805],[116.84613037100002,25.806884766],[116.82348632800002,25.788330078],[116.79168701200001,25.80267334],[116.76208496100001,25.856872559],[116.72113037100002,25.877929687],[116.72308349600002,25.913330078],[116.68212890600002,25.92791748],[116.65112304700001,25.946716309],[116.63812255900001,25.976928711],[116.62890625000001,26.011901855],[116.60028076200001,25.99987793],[116.56848144500002,26.00012207],[116.54089355500001,26.015930176],[116.50030517600001,26.006713867],[116.49029541000002,25.975891113],[116.453125,25.986328125],[116.41552734400001,26.006530762],[116.37011718700002,26.04309082],[116.35632324200002,26.04107666],[116.34368896500001,26.028320312],[116.32952880900001,25.991088867],[116.30151367200001,25.958312988],[116.28808593700002,25.932922363],[116.26568603500002,25.926879883],[116.22650146500001,25.924316406],[116.18109130900001,25.921081543],[116.12249755900001,25.893310547],[116.09887695300002,25.848510742],[116.11029052700002,25.837280273],[116.13153076200001,25.823486328],[116.15252685500002,25.808288574],[116.15948486300002,25.789916992],[116.15209960900002,25.766906738],[116.11071777300002,25.759887695],[116.05950927700002,25.719909668],[116.05133056600002,25.697875977],[116.03869628900001,25.667907715],[116.02508544900002,25.642272949],[116.02227783200001,25.625305176],[116.03833007800002,25.592285156],[116.03790283200001,25.57989502],[116.03710937500001,25.553527832],[116.02209472700001,25.518310547],[116.00250244100002,25.487670898],[115.99670410200001,25.474914551],[115.98309326200001,25.444274902],[115.99688720700001,25.388916016],[115.97589111300002,25.349304199],[115.96887207000002,25.313476562],[115.91430664100001,25.261108398],[115.88647460900002,25.241699219],[115.82391357400002,25.188720703],[115.82550048800002,25.181274414],[115.83032226600001,25.159484863],[115.84613037100002,25.121887207],[115.85687255900001,25.100708008],[115.89208984400001,25.089904785],[115.91430664100001,25.062683105],[115.86047363300001,25.040893555],[115.86187744100002,25.009277344],[115.86889648400002,24.993713379],[115.88348388700001,24.953308105],[115.85229492200001,24.924072266],[115.86968994100002,24.885498047],[115.89288330100001,24.925720215],[115.96728515600002,24.907897949],[116.02069091800001,24.854919434],[116.06927490200002,24.848876953],[116.10607910200001,24.844482422],[116.17669677700002,24.850097656],[116.24407959000001,24.79888916],[116.31127929700001,24.850524902],[116.32391357400002,24.847290039],[116.378723145,24.833312988],[116.38153076200001,24.832519531],[116.33929443400001,24.789672852],[116.36108398400002,24.780700684],[116.40209960900002,24.763916016],[116.45770263700001,24.717712402],[116.48669433600001,24.661071777],[116.51531982400002,24.610717773],[116.52972412100002,24.61932373],[116.57672119100002,24.647277832],[116.64587402300002,24.662475586],[116.72229003900001,24.667480469],[116.79870605500001,24.657897949],[116.75592041000002,24.53112793],[116.82312011700002,24.485900879],[116.85388183600001,24.427124023],[116.86889648400002,24.364501953],[116.91168212900001,24.397094727],[116.91467285200001,24.428710937],[116.90631103500002,24.463684082],[116.89508056600002,24.495483398],[116.89392089800002,24.527099609],[116.90789794900002,24.556884766],[116.94329834000001,24.573486328],[117.00152587900001,24.600097656],[117.01788330100001,24.631530762],[117.02209472700001,24.672119141],[117.01892089800002,24.714294434],[117.01312255900001,24.751098633],[117.00891113300001,24.784301758],[117.03607177700002,24.834716797],[117.09051513700001,24.801696777],[117.11968994100002,24.828491211],[117.13488769500002,24.851928711],[117.13531494100002,24.887084961],[117.16912841800001,24.931518555],[117.21270752,24.967895508],[117.23309326200001,24.994873047],[117.31530761700002,25.00189209],[117.34948730500001,25.016479492],[117.38830566400001,25.009887695],[117.42272949200002,24.99609375],[117.46228027300002,25.005310059],[117.46411132800002,25.034118652],[117.47009277300002,25.066711426],[117.49108886700002,25.097473145],[117.50268554700001,25.131713867],[117.46472168000001,25.135070801],[117.44970703100002,25.176513672],[117.46508789100001,25.20111084],[117.50250244100002,25.194519043],[117.53869628900001,25.194091797],[117.57708740200002,25.237487793]]]}}
