{"type":"Feature","id":"bulk-99377448B18144144293826","bbox":[111.24450683600001,21.514099121,112.40130615200002,22.704284668],"properties":{"id":"bulk-99377448B18144144293826","name":"Yangjiang","nameEn":"Yangjiang","fullName":"Yangjiang","level":"city","boundaryRole":"administrative-extent","boundaryQuality":"generalized-source-2020","boundaryYearRepresented":"2020","bounds":[[111.24450683600001,21.514099121],[112.40130615200002,22.704284668]],"center":[111.82290649400002,22.1091918945],"centerMethod":"bounding-box midpoint; camera framing only","license":"CC-BY-3.0-IGO","attribution":"geoBoundaries / HDX, China administrative boundaries (2020)","source":{"provider":"geoBoundaries gbHumanitarian / HDX","url":"https://github.com/wmgeolab/geoBoundaries/raw/9469f09/releaseData/gbHumanitarian/CHN/ADM2/geoBoundaries-CHN-ADM2.geojson","metadataUrl":"https://www.geoboundaries.org/api/current/gbHumanitarian/CHN/ADM2/","shapeID":"99377448B18144144293826","shapeName":"Yangjiang","boundaryID":"CHN-ADM2-99377448","commit":"9469f09"},"geometryCounts":{"coordinates":452,"components":8,"holes":0},"boundaryNotice":"geoBoundaries / HDX 2020 年行政区数据，海岸和边界经过源数据概化，并非当前测绘成果。"},"geometry":{"type":"MultiPolygon","coordinates":[[[[112.02972412100002,21.77947998],[112.02990722700001,21.77947998],[112.02911377,21.779907227],[112.02972412100002,21.77947998]]],[[[111.93927002,21.796508789],[111.93988037100002,21.789672852],[111.94390869100002,21.787475586],[111.94750976600001,21.787475586],[111.93927002,21.796508789]]],[[[112.01110839800002,21.815673828],[112.00927734400001,21.816711426],[112.00671386700002,21.817077637],[112.01391601600001,21.802124023],[112.01550293000001,21.8046875],[112.01568603500002,21.80847168],[112.01409912100002,21.813720703],[112.01110839800002,21.815673828]]],[[[112.20330810500002,21.816101074],[112.20092773400002,21.820678711],[112.20007324200002,21.810913086],[112.20190429700001,21.801879883],[112.20269775400001,21.802490234],[112.20471191400001,21.808105469],[112.20330810500002,21.816101074]]],[[[111.62927246100001,21.526123047],[111.62988281200002,21.526672363],[111.62707519500002,21.52947998],[111.62927246100001,21.526123047]]],[[[111.94409179700001,21.648071289],[111.94311523400002,21.648681641],[111.94189453100002,21.644897461],[111.93847656200002,21.644287109],[111.93408203100002,21.648071289],[111.92907714800002,21.657714844],[111.92852783200001,21.664489746],[111.92828369100002,21.66607666],[111.91607666000002,21.669677734],[111.90747070300002,21.661315918],[111.90411377,21.659729004],[111.90350341800001,21.650512695],[111.89648437500001,21.637695312],[111.87127685500002,21.638916016],[111.85308837900001,21.648498535],[111.83752441400001,21.643127441],[111.83947753900001,21.641113281],[111.84112548800002,21.640686035],[111.84387207000002,21.640075684],[111.84887695300002,21.629882812],[111.85650634800001,21.618713379],[111.85089111300002,21.613708496],[111.85089111300002,21.613525391],[111.85070800800001,21.61328125],[111.83587646500001,21.599487305],[111.82592773400002,21.588684082],[111.82568359400001,21.58807373],[111.82727050800001,21.586730957],[111.82830810500002,21.583129883],[111.82647705100001,21.579528809],[111.81811523400002,21.577514648],[111.80670166000002,21.561706543],[111.80932617200001,21.561523437],[111.81127929700001,21.561279297],[111.81872558600001,21.565124512],[111.82690429700001,21.564086914],[111.84490966800001,21.573486328],[111.84851074200002,21.572875977],[111.85247802700002,21.567687988],[111.85369873000002,21.567321777],[111.86407470700001,21.569274902],[111.86853027300002,21.581481934],[111.87750244100002,21.590698242],[111.88507080100001,21.597106934],[111.89471435500002,21.600280762],[111.90209960900002,21.606689453],[111.91088867200001,21.607910156],[111.91827392600001,21.610473633],[111.92211914100001,21.611694336],[111.92852783200001,21.611877441],[111.93127441400001,21.613891602],[111.96032714800002,21.608276367],[111.96368408200001,21.608520508],[111.97009277300002,21.614501953],[111.97509765600002,21.615905762],[111.99029541000002,21.625305176],[111.99487304700001,21.625305176],[111.99871826200001,21.621520996],[112.00207519500002,21.627685547],[112.00610351600001,21.64251709],[111.99072265600002,21.651123047],[111.972473145,21.649108887],[111.97113037100002,21.64831543],[111.96868896500001,21.648681641],[111.94409179700001,21.648071289]]],[[[111.93608728200002,21.799871432],[111.93627929700001,21.799682617],[111.93627929700001,21.799926758],[111.93608728200002,21.799871432]]],[[[112.13732910200001,22.374694824],[112.12408447300001,22.404724121],[112.09271240200002,22.413879395],[112.04431152300002,22.431274414],[112.00292968700002,22.468688965],[111.97851562500001,22.503295898],[111.95672607400002,22.528320312],[111.95147705100001,22.557922363],[111.97070312500001,22.596923828],[111.93609619100002,22.640075684],[111.89569091800001,22.604309082],[111.85809326200001,22.585693359],[111.81848144500002,22.596679687],[111.83251953100002,22.622070312],[111.84991455100001,22.648498535],[111.84967041000002,22.704284668],[111.80792236300002,22.669677734],[111.77191162100002,22.633483887],[111.75311279300001,22.612487793],[111.71551513700001,22.586486816],[111.68627929700001,22.554321289],[111.66888427700002,22.519287109],[111.64367675800001,22.477478027],[111.62969970700001,22.449279785],[111.59667968700002,22.409484863],[111.55792236300002,22.384521484],[111.51647949200002,22.36932373],[111.48352050800001,22.35748291],[111.46051025400001,22.335510254],[111.44049072300001,22.302307129],[111.40948486300002,22.275695801],[111.38128662100002,22.269714355],[111.34808349600002,22.264526367],[111.33630371100001,22.232116699],[111.32690429700001,22.199890137],[111.312316895,22.15612793],[111.29187011700002,22.121276855],[111.27587890600002,22.087524414],[111.27368164100001,22.052124023],[111.26971435500002,22.017883301],[111.24450683600001,21.994873047],[111.26049804700001,21.952697754],[111.26507568400001,21.922729492],[111.28833007800002,21.889526367],[111.32373046900001,21.873718262],[111.35430908200001,21.86151123],[111.38031005900001,21.847473145],[111.39093017600001,21.815673828],[111.37487793000001,21.790100098],[111.35968017600001,21.752075195],[111.37567138700001,21.723876953],[111.40112304700001,21.687683105],[111.39190673800002,21.649291992],[111.41552734400001,21.58392334],[111.42352294900002,21.589477539],[111.41870117200001,21.593688965],[111.42132568400001,21.594909668],[111.42633056600002,21.594116211],[111.42767334000001,21.592529297],[111.43267822300001,21.59588623],[111.43469238300001,21.590515137],[111.43670654300001,21.596923828],[111.44012451200001,21.597473145],[111.44409179700001,21.59552002],[111.44128418000001,21.592529297],[111.44189453100002,21.586914062],[111.43847656200002,21.582275391],[111.43829345700001,21.581115723],[111.43969726600001,21.577697754],[111.44250488300001,21.574890137],[111.44708252,21.573913574],[111.45330810500002,21.553894043],[111.47369384800001,21.549316406],[111.47528076200001,21.550476074],[111.47747802700002,21.548278809],[111.47869873000002,21.548095703],[111.47827148400002,21.547729492],[111.48309326200001,21.543701172],[111.47467041000002,21.53527832],[111.47088623000002,21.534729004],[111.46728515600002,21.532104492],[111.46807861300002,21.530517578],[111.48388671900001,21.528930664],[111.48687744100002,21.526123047],[111.48449707000002,21.52331543],[111.47412109400001,21.522705078],[111.46148681600002,21.526123047],[111.45928955100001,21.524902344],[111.45831298800002,21.521484375],[111.46508789100001,21.514526367],[111.49291992200001,21.516113281],[111.49328613300001,21.516479492],[111.49627685500002,21.518493652],[111.50048828100002,21.521118164],[111.51232910200001,21.525085449],[111.51910400400001,21.52911377],[111.52069091800001,21.528076172],[111.52770996100001,21.528686523],[111.53833007800002,21.52130127],[111.53948974600002,21.523071289],[111.53808593700002,21.525512695],[111.52429199200002,21.535095215],[111.53167724600002,21.537902832],[111.54571533200001,21.524108887],[111.54632568400001,21.519470215],[111.54010009800001,21.517700195],[111.53729248000002,21.514892578],[111.53833007800002,21.514099121],[111.56689453100002,21.520874023],[111.57269287100002,21.525085449],[111.59667968700002,21.53112793],[111.59667968700002,21.539489746],[111.57250976600001,21.547119141],[111.57788085900002,21.579528809],[111.59228515600002,21.573303223],[111.59613037100002,21.574890137],[111.597473145,21.571105957],[111.59991455100001,21.570129395],[111.61328125000001,21.552307129],[111.61950683600001,21.542297363],[111.62609863300001,21.541687012],[111.62988281200002,21.539672852],[111.63171386700002,21.538513184],[111.63409423800002,21.536315918],[111.63409423800002,21.526916504],[111.63732910200001,21.523925781],[111.63732910200001,21.519470215],[111.64007568400001,21.517700195],[111.64227294900002,21.520507812],[111.64312744100002,21.522521973],[111.64392089800002,21.522888184],[111.64892578100002,21.52947998],[111.65490722700001,21.549926758],[111.66088867200001,21.565673828],[111.66992187500001,21.58972168],[111.69152832000002,21.603271484],[111.71032714800002,21.606689453],[111.71728515600002,21.610717773],[111.73107910200001,21.615722656],[111.74291992200001,21.617675781],[111.75732421900001,21.618103027],[111.72869873000002,21.634277344],[111.75128173800002,21.641296387],[111.75408935500002,21.646728516],[111.75848388700001,21.64630127],[111.76110839800002,21.644287109],[111.76672363300001,21.645874023],[111.76232910200001,21.683105469],[111.75970459000001,21.707275391],[111.74829101600001,21.720275879],[111.73211669900002,21.716491699],[111.73089599600002,21.710327148],[111.72747802700002,21.714111328],[111.72650146500001,21.715087891],[111.72192382800002,21.713928223],[111.71990966800001,21.715698242],[111.72070312500001,21.716125488],[111.71252441400001,21.728088379],[111.69812011700002,21.747924805],[111.69549560500002,21.749328613],[111.69207763700001,21.749694824],[111.69128418000001,21.751281738],[111.69171142600001,21.751708984],[111.67590332000002,21.761108398],[111.70007324200002,21.759094238],[111.69769287100002,21.761901855],[111.69091796900001,21.76171875],[111.68072509800001,21.772277832],[111.67572021500001,21.772521973],[111.67132568400001,21.780883789],[111.663879395,21.778686523],[111.66247558600001,21.780517578],[111.66448974600002,21.783081055],[111.67327880900001,21.787475586],[111.67529296900001,21.795898437],[111.67767334000001,21.793701172],[111.67871093700002,21.781921387],[111.68170166000002,21.777526855],[111.68811035200001,21.773681641],[111.69610595700001,21.773925781],[111.70031738300001,21.775512695],[111.70288085900002,21.783081055],[111.70507812500001,21.783325195],[111.70611572300001,21.781494141],[111.70629882800002,21.771728516],[111.71429443400001,21.762512207],[111.71972656200002,21.762695312],[111.72528076200001,21.759521484],[111.72747802700002,21.759521484],[111.75469970700001,21.766479492],[111.77227783200001,21.778076172],[111.77227783200001,21.781921387],[111.77307128900001,21.78527832],[111.77990722700001,21.78729248],[111.77728271500001,21.778076172],[111.77832031200002,21.776672363],[111.78668212900001,21.771118164],[111.78912353500002,21.773681641],[111.788879395,21.769897461],[111.80029296900001,21.761291504],[111.83428955100001,21.770080566],[111.84552002,21.736694336],[111.82788085900002,21.723083496],[111.82568359400001,21.705505371],[111.83227539100001,21.68951416],[111.83630371100001,21.684326172],[111.84051513700001,21.683898926],[111.84552002,21.673706055],[111.87371826200001,21.67791748],[111.89428710900002,21.681274414],[111.89727783200001,21.677490234],[111.89849853500002,21.67791748],[111.90411377,21.680908203],[111.90710449200002,21.692504883],[111.91888427700002,21.701721191],[111.92071533200001,21.704284668],[111.92089843700002,21.714294434],[111.93090820300002,21.73449707],[111.95928955100001,21.74432373],[111.98852539100001,21.75592041],[112.01190185500002,21.762878418],[111.98089599600002,21.769897461],[111.95867919900002,21.774902344],[111.95092773400002,21.783508301],[111.94787597700001,21.783325195],[111.94329834000001,21.785522461],[111.93890380900001,21.786499023],[111.93652343700002,21.788085937],[111.93408203100002,21.79510498],[111.93072509800001,21.796081543],[111.92492675800001,21.797119141],[111.91748046900001,21.805480957],[111.913879395,21.807312012],[111.91271972700001,21.810302734],[111.91192627,21.82232666],[111.91467285200001,21.82208252],[111.91528320300002,21.817321777],[111.91552734400001,21.811279297],[111.91748046900001,21.809509277],[111.92089843700002,21.807495117],[111.92968750000001,21.79888916],[111.93267822300001,21.79888916],[111.93608728200002,21.799871432],[111.92529296900001,21.81048584],[111.91992187500001,21.840270996],[111.95751953100002,21.823120117],[111.97387695300002,21.820129395],[112.00067138700001,21.82208252],[112.00250244100002,21.826477051],[111.99829101600001,21.832702637],[111.99951171900001,21.835083008],[112.00128173800002,21.833496094],[112.01690673800002,21.819702148],[112.01989746100001,21.814697266],[112.02172851600001,21.8046875],[112.01849365200002,21.795288086],[112.03387451200001,21.792724609],[112.04309082000002,21.788879395],[112.05828857400002,21.789123535],[112.06152343700002,21.788330078],[112.06390380900001,21.789123535],[112.10870361300002,21.796691895],[112.11108398400002,21.796508789],[112.13128662100002,21.802490234],[112.15008544900002,21.805480957],[112.171691895,21.805480957],[112.18328857400002,21.800720215],[112.18408203100002,21.799499512],[112.18927002,21.80090332],[112.187316895,21.815307617],[112.18572998000002,21.81652832],[112.17828369100002,21.816101074],[112.16827392600001,21.815673828],[112.16772460900002,21.817871094],[112.17370605500001,21.820129395],[112.18670654300001,21.819519043],[112.18591308600001,21.831481934],[112.19091796900001,21.839904785],[112.19232177700002,21.839904785],[112.19409179700001,21.842529297],[112.19909668000001,21.84588623],[112.20532226600001,21.849121094],[112.20471191400001,21.845703125],[112.19891357400002,21.841491699],[112.19873046900001,21.840698242],[112.21228027300002,21.842285156],[112.20251464800002,21.82989502],[112.20751953100002,21.819885254],[112.20910644500002,21.807495117],[112.20849609400001,21.80090332],[112.19470214800002,21.788879395],[112.19268798800002,21.781677246],[112.19531250000001,21.771484375],[112.19488525400001,21.766906738],[112.19110107400002,21.758483887],[112.19189453100002,21.754089355],[112.19689941400001,21.749694824],[112.19207763700001,21.744873047],[112.19189453100002,21.742675781],[112.195129395,21.742492676],[112.20190429700001,21.74609375],[112.20611572300001,21.745300293],[112.20770263700001,21.741088867],[112.20709228500002,21.738891602],[112.20849609400001,21.735717773],[112.21087646500001,21.735107422],[112.22509765600002,21.738098145],[112.23608398400002,21.731872559],[112.23992919900002,21.727722168],[112.23767089800002,21.72052002],[112.23968505900001,21.713317871],[112.23571777300002,21.706115723],[112.24450683600001,21.702697754],[112.25091552700002,21.703918457],[112.26007080100001,21.700500488],[112.27392578100002,21.700500488],[112.32373046900001,21.712280273],[112.32629394500002,21.716918945],[112.33850097700001,21.717102051],[112.33929443400001,21.716125488],[112.34613037100002,21.717712402],[112.34692382800002,21.719482422],[112.35070800800001,21.722900391],[112.36529541000002,21.727111816],[112.378723145,21.727478027],[112.39227294900002,21.732910156],[112.39709472700001,21.745300293],[112.39428710900002,21.758300781],[112.39288330100001,21.776916504],[112.39892578100002,21.790710449],[112.40130615200002,21.806274414],[112.39587402300002,21.829711914],[112.38409423800002,21.870727539],[112.37231445300002,21.91809082],[112.36492919900002,21.946716309],[112.26892089800002,21.974487305],[112.23748779300001,21.989685059],[112.21270752,22.019470215],[112.19989013700001,22.063720703],[112.17749023400002,22.087890625],[112.14727783200001,22.090698242],[112.12390136700002,22.111328125],[112.09649658200001,22.125915527],[112.0625,22.126098633],[112.02893066400001,22.123291016],[112.00512695300002,22.138916016],[112.00451660200001,22.16809082],[112.01507568400001,22.198913574],[112.00787353500002,22.227111816],[111.99932861300002,22.253479004],[112.00750732400002,22.291687012],[112.03247070300002,22.329528809],[112.06909179700001,22.356323242],[112.10510253900001,22.363891602],[112.13732910200001,22.374694824]]]]}}
