{"type":"Feature","id":"bulk-99377448B7159718902830","bbox":[118.43408203100002,25.111083984,119.35791015600002,25.792114258],"properties":{"id":"bulk-99377448B7159718902830","name":"Putian","nameEn":"Putian","fullName":"Putian","level":"city","boundaryRole":"administrative-extent","boundaryQuality":"generalized-source-2020","boundaryYearRepresented":"2020","bounds":[[118.43408203100002,25.111083984],[119.35791015600002,25.792114258]],"center":[118.89599609350002,25.451599121],"centerMethod":"bounding-box midpoint; camera framing only","license":"CC-BY-3.0-IGO","attribution":"geoBoundaries / HDX, China administrative boundaries (2020)","source":{"provider":"geoBoundaries gbHumanitarian / HDX","url":"https://github.com/wmgeolab/geoBoundaries/raw/9469f09/releaseData/gbHumanitarian/CHN/ADM2/geoBoundaries-CHN-ADM2.geojson","metadataUrl":"https://www.geoboundaries.org/api/current/gbHumanitarian/CHN/ADM2/","shapeID":"99377448B7159718902830","shapeName":"Putian","boundaryID":"CHN-ADM2-99377448","commit":"9469f09"},"geometryCounts":{"coordinates":353,"components":9,"holes":0},"boundaryNotice":"geoBoundaries / HDX 2020 年行政区数据，海岸和边界经过源数据概化，并非当前测绘成果。"},"geometry":{"type":"MultiPolygon","coordinates":[[[[119.15692138700001,25.129516602],[119.14367675800001,25.139892578],[119.11169433600001,25.142272949],[119.11230468700002,25.134521484],[119.11407470700001,25.132873535],[119.11932373000002,25.132324219],[119.12310791000002,25.129272461],[119.13732910200001,25.137084961],[119.14172363300001,25.137878418],[119.14410400400001,25.136901855],[119.14648437500001,25.132080078],[119.15191650400001,25.132507324],[119.15447998000002,25.126281738],[119.15850830100001,25.126098633],[119.15692138700001,25.129516602]]],[[[119.05828857400002,25.135681152],[119.05908203100002,25.140319824],[119.05310058600001,25.150085449],[119.05328369100002,25.150878906],[119.04351806600002,25.148071289],[119.04528808600001,25.145080566],[119.04571533200001,25.139892578],[119.04187011700002,25.139099121],[119.03948974600002,25.136291504],[119.03448486300002,25.135314941],[119.03833007800002,25.131713867],[119.04272460900002,25.122314453],[119.04949951200001,25.122314453],[119.05627441400001,25.11730957],[119.05932617200001,25.117492676],[119.06188964800002,25.119873047],[119.06127929700001,25.122924805],[119.05090332000002,25.134094238],[119.05187988300001,25.136108398],[119.05670166000002,25.135925293],[119.05828857400002,25.135681152]]],[[[118.97271728500002,25.19152832],[118.97729492200001,25.191711426],[118.97949218700002,25.1953125],[118.97912597700001,25.197692871],[118.97790527300002,25.198120117],[118.97271728500002,25.19152832]]],[[[119.03088378900001,25.232727051],[119.03289794900002,25.232727051],[119.02990722700001,25.233276367],[119.03088378900001,25.232727051]]],[[[118.99468994100002,25.239074707],[118.98889160200001,25.239929199],[118.98229980500001,25.223083496],[118.99090576200001,25.224487305],[119.00012207000002,25.226074219],[119.00848388700001,25.223876953],[119.01269531200002,25.224914551],[119.01507568400001,25.227905273],[119.01171875000001,25.233276367],[119.01751709000001,25.234680176],[119.01867675800001,25.235473633],[119.01330566400001,25.236694336],[118.99627685500002,25.239929199],[118.99468994100002,25.239074707]]],[[[118.89770507800002,25.239501953],[118.90948486300002,25.241699219],[118.90588378900001,25.24432373],[118.89788818400001,25.240112305],[118.89770507800002,25.239501953]]],[[[119.03247070300002,25.259277344],[119.02893066400001,25.261291504],[119.02832031200002,25.260314941],[119.03247070300002,25.259277344]]],[[[118.99768066400001,25.264282227],[118.99468994100002,25.267089844],[118.99108886700002,25.264709473],[118.99249267600001,25.26348877],[118.99468994100002,25.264709473],[118.99768066400001,25.264282227]]],[[[118.50030517600001,25.695495605],[118.52050781200002,25.670471191],[118.51751709000001,25.636901855],[118.48687744100002,25.614685059],[118.46887207000002,25.591674805],[118.45672607400002,25.56072998],[118.45489502,25.521118164],[118.44952392600001,25.488891602],[118.43408203100002,25.462280273],[118.46612548800002,25.442077637],[118.47088623000002,25.408325195],[118.50531005900001,25.38067627],[118.50091552700002,25.347473145],[118.56207275400001,25.30291748],[118.61132812500001,25.325317383],[118.64190673800002,25.314086914],[118.65527343700002,25.278686523],[118.65747070300002,25.248718262],[118.66308593700002,25.221313477],[118.68548584000001,25.20111084],[118.71850585900002,25.203674316],[118.75567627,25.223693848],[118.788879395,25.249511719],[118.82067871100001,25.257507324],[118.86468505900001,25.226928711],[118.87487793000001,25.223083496],[118.88391113300001,25.231872559],[118.88330078100002,25.232299805],[118.87451171900001,25.22869873],[118.87109375000001,25.232727051],[118.87487793000001,25.238525391],[118.86907959000001,25.244689941],[118.87152099600002,25.247070312],[118.87548828100002,25.247924805],[118.87908935500002,25.254699707],[118.88592529300001,25.255493164],[118.90728759800001,25.268493652],[118.91290283200001,25.268310547],[118.91967773400002,25.267883301],[118.92749023400002,25.271118164],[118.93408203100002,25.276123047],[118.95428466800001,25.283874512],[118.96948242200001,25.283874512],[118.97808837900001,25.285522461],[118.98492431600002,25.294921875],[119.00109863300001,25.292907715],[119.01348877,25.283874512],[119.01892089800002,25.29107666],[119.02368164100001,25.290527344],[119.03210449200002,25.285522461],[119.03491210900002,25.279724121],[119.03808593700002,25.278503418],[119.04809570300002,25.295288086],[119.04992675800001,25.296081543],[119.05468750000001,25.289916992],[119.05511474600002,25.282897949],[119.05310058600001,25.276306152],[119.05670166000002,25.274291992],[119.06787109400001,25.284912109],[119.07092285200001,25.284118652],[119.07189941400001,25.28112793],[119.07067871100001,25.27911377],[119.06488037100002,25.276489258],[119.0625,25.267272949],[119.05810546900001,25.261474609],[119.05047607400002,25.256530762],[119.06988525400001,25.256896973],[119.06127929700001,25.241882324],[119.05572509800001,25.239685059],[119.05688476600001,25.238525391],[119.06011962900001,25.237487793],[119.06610107400002,25.239501953],[119.07232666000002,25.245483398],[119.08209228500002,25.263305664],[119.08447265600002,25.262878418],[119.08447265600002,25.262329102],[119.08630371100001,25.256103516],[119.08068847700001,25.246887207],[119.08447265600002,25.241271973],[119.08489990200002,25.238891602],[119.08288574200002,25.234680176],[119.08392334000001,25.230102539],[119.08648681600002,25.226318359],[119.09027099600002,25.224121094],[119.09088134800001,25.22088623],[119.08850097700001,25.214111328],[119.08129882800002,25.207885742],[119.07788085900002,25.196289062],[119.08172607400002,25.190490723],[119.07568359400001,25.183105469],[119.07287597700001,25.171875],[119.06628418000001,25.165893555],[119.06347656200002,25.155273437],[119.08050537100002,25.155883789],[119.08850097700001,25.158874512],[119.09069824200002,25.157104492],[119.09271240200002,25.145874023],[119.09191894500002,25.14251709],[119.08471679700001,25.137084961],[119.07989502,25.138916016],[119.08068847700001,25.132080078],[119.08532714800002,25.128723145],[119.10052490200002,25.12310791],[119.10412597700001,25.114074707],[119.10711669900002,25.111083984],[119.10852050800001,25.111877441],[119.11212158200001,25.114318848],[119.11407470700001,25.11907959],[119.11267089800002,25.122680664],[119.09912109400001,25.131713867],[119.10229492200001,25.135070801],[119.10369873000002,25.143920898],[119.10729980500001,25.147094727],[119.09692382800002,25.158325195],[119.10809326200001,25.171325684],[119.10632324200002,25.173095703],[119.10009765600002,25.174072266],[119.09808349600002,25.175720215],[119.09387207000002,25.179077148],[119.08947753900001,25.186523437],[119.09368896500001,25.19128418],[119.09472656200002,25.197509766],[119.09808349600002,25.200073242],[119.11090087900001,25.201721191],[119.11492919900002,25.209106445],[119.11450195300002,25.212097168],[119.11608886700002,25.215270996],[119.12072753900001,25.21887207],[119.11968994100002,25.227294922],[119.12591552700002,25.228088379],[119.12347412100002,25.229675293],[119.12207031200002,25.232116699],[119.12231445300002,25.235107422],[119.12890625000001,25.239929199],[119.13470459000001,25.246887207],[119.13488769500002,25.250671387],[119.12469482400002,25.257080078],[119.12487793000001,25.259277344],[119.12811279300001,25.260681152],[119.12847900400001,25.264892578],[119.12908935500002,25.271728516],[119.13647460900002,25.258483887],[119.14288330100001,25.264099121],[119.14691162100002,25.261474609],[119.15289306600002,25.252319336],[119.14892578100002,25.246887207],[119.15368652300002,25.245910645],[119.16290283200001,25.251525879],[119.16552734400001,25.249084473],[119.15850830100001,25.241088867],[119.16247558600001,25.235473633],[119.16888427700002,25.236328125],[119.16967773400002,25.231872559],[119.16668701200001,25.227905273],[119.17687988300001,25.229492187],[119.17828369100002,25.227905273],[119.17669677700002,25.226074219],[119.17047119100002,25.225524902],[119.16571044900002,25.222290039],[119.17150878900001,25.218505859],[119.16711425800001,25.204101562],[119.16448974600002,25.200073242],[119.16748046900001,25.197692871],[119.17388916000002,25.185913086],[119.18707275400001,25.1796875],[119.20288085900002,25.180908203],[119.20947265600002,25.185119629],[119.21447753900001,25.18572998],[119.22491455100001,25.193725586],[119.23107910200001,25.194091797],[119.23510742200001,25.19152832],[119.22930908200001,25.188110352],[119.22149658200001,25.186523437],[119.22149658200001,25.184692383],[119.22729492200001,25.18572998],[119.23571777300002,25.1875],[119.24310302700002,25.186889648],[119.25329589800002,25.180480957],[119.27191162100002,25.178894043],[119.27471923800002,25.177124023],[119.27612304700001,25.169677734],[119.27947998000002,25.164916992],[119.28308105500001,25.16809082],[119.28588867200001,25.176330566],[119.29211425800001,25.181091309],[119.296875,25.182922363],[119.28387451200001,25.200317383],[119.28967285200001,25.216308594],[119.29510498000002,25.215881348],[119.29211425800001,25.221679687],[119.29309082000002,25.229919434],[119.28771972700001,25.232116699],[119.28668212900001,25.233703613],[119.28747558600001,25.236083984],[119.29290771500001,25.240112305],[119.29949951200001,25.242919922],[119.30230712900001,25.241882324],[119.30468750000001,25.234924316],[119.31970214800002,25.239685059],[119.33068847700001,25.234313965],[119.33569335900002,25.235290527],[119.34228515600002,25.243286133],[119.35192871100001,25.243530273],[119.35791015600002,25.247680664],[119.32208252,25.279907227],[119.29888916000002,25.301086426],[119.25708007800002,25.300476074],[119.25732421900001,25.300476074],[119.25671386700002,25.295715332],[119.25268554700001,25.292480469],[119.245910645,25.290893555],[119.24468994100002,25.289916992],[119.21307373000002,25.229919434],[119.19909668000001,25.242126465],[119.19110107400002,25.263916016],[119.20611572300001,25.272705078],[119.20629882800002,25.272888184],[119.20269775400001,25.277526855],[119.20227050800001,25.285095215],[119.19708252,25.285888672],[119.19250488300001,25.292297363],[119.19348144500002,25.29888916],[119.19689941400001,25.30090332],[119.20568847700001,25.301513672],[119.22009277300002,25.307312012],[119.22351074200002,25.307495117],[119.21252441400001,25.339294434],[119.19567871100001,25.32232666],[119.14770507800002,25.350097656],[119.13189697300001,25.37512207],[119.12371826200001,25.405090332],[119.12469482400002,25.405273437],[119.12152099600002,25.407897949],[119.11987304700001,25.415710449],[119.11547851600001,25.424926758],[119.10772705100001,25.423706055],[119.11352539100001,25.428283691],[119.11749267600001,25.428100586],[119.12487793000001,25.422729492],[119.12927246100001,25.41607666],[119.13031005900001,25.414672852],[119.13372802700002,25.412475586],[119.13549804700001,25.413513184],[119.14251709000001,25.431274414],[119.14807128900001,25.434082031],[119.15228271500001,25.441894531],[119.16009521500001,25.448486328],[119.16369628900001,25.456298828],[119.1875,25.467102051],[119.19628906200002,25.465698242],[119.203125,25.468322754],[119.20349121100001,25.468688965],[119.19409179700001,25.524108887],[119.21270752,25.551879883],[119.21887207000002,25.579101562],[119.20989990200002,25.609924316],[119.17608642600001,25.606079102],[119.14508056600002,25.588928223],[119.13372802700002,25.621276855],[119.11547851600001,25.654907227],[119.10870361300002,25.703125],[119.12170410200001,25.735717773],[119.12530517600001,25.769287109],[119.05847168000001,25.792114258],[119.02410888700001,25.773498535],[118.988098145,25.761474609],[118.95428466800001,25.759094238],[118.91912841800001,25.763305664],[118.88507080100001,25.756286621],[118.83288574200002,25.755126953],[118.77648925800001,25.737487793],[118.73889160200001,25.708679199],[118.70892334000001,25.710693359],[118.66967773400002,25.715087891],[118.62329101600001,25.721679687],[118.57708740200002,25.719909668],[118.53527832000002,25.708129883],[118.50030517600001,25.695495605]]]]}}
