{"type":"Feature","id":"bulk-99377448B33698547426153","bbox":[102.90728759800001,26.579101562,105.33831787100002,28.669311523],"properties":{"id":"bulk-99377448B33698547426153","name":"Zhaotong","nameEn":"Zhaotong","fullName":"Zhaotong","level":"city","boundaryRole":"administrative-extent","boundaryQuality":"generalized-source-2020","boundaryYearRepresented":"2020","bounds":[[102.90728759800001,26.579101562],[105.33831787100002,28.669311523]],"center":[104.12280273450001,27.6242065425],"centerMethod":"bounding-box midpoint; camera framing only","license":"CC-BY-3.0-IGO","attribution":"geoBoundaries / HDX, China administrative boundaries (2020)","source":{"provider":"geoBoundaries gbHumanitarian / HDX","url":"https://github.com/wmgeolab/geoBoundaries/raw/9469f09/releaseData/gbHumanitarian/CHN/ADM2/geoBoundaries-CHN-ADM2.geojson","metadataUrl":"https://www.geoboundaries.org/api/current/gbHumanitarian/CHN/ADM2/","shapeID":"99377448B33698547426153","shapeName":"Zhaotong","boundaryID":"CHN-ADM2-99377448","commit":"9469f09"},"geometryCounts":{"coordinates":202,"components":1,"holes":0},"boundaryNotice":"geoBoundaries / HDX 2020 年行政区数据，海岸和边界经过源数据概化，并非当前测绘成果。"},"geometry":{"type":"Polygon","coordinates":[[[103.02288818400001,26.579101562],[103.07269287100002,26.615478516],[103.09588623000002,26.637695312],[103.13232421900001,26.636901855],[103.16650390600002,26.618286133],[103.20428466800001,26.644714355],[103.21148681600002,26.68927002],[103.22412109400001,26.715515137],[103.25549316400001,26.740112305],[103.30407714800002,26.734313965],[103.33648681600002,26.725524902],[103.36767578100002,26.721130371],[103.39990234400001,26.727111816],[103.41888427700002,26.756530762],[103.38250732400002,26.772277832],[103.35308837900001,26.787109375],[103.38067627,26.812072754],[103.40771484400001,26.855102539],[103.41027832000002,26.890930176],[103.41467285200001,26.933898926],[103.42547607400002,27.000671387],[103.46850585900002,27.001281738],[103.50091552700002,27.003112793],[103.50830078100002,27.010681152],[103.55670166000002,27.01348877],[103.57391357400002,27.00012207],[103.60632324200002,27.002075195],[103.629882812,27.010498047],[103.61248779300001,27.036071777],[103.63751220700001,27.053710937],[103.67132568400001,27.077270508],[103.65350341800001,27.098876953],[103.64770507800002,27.124511719],[103.66229248000002,27.131713867],[103.72027587900001,27.159118652],[103.74151611300002,27.188293457],[103.75451660200001,27.206115723],[103.81329345700001,27.263305664],[103.87908935500002,27.338684082],[103.89691162100002,27.404296875],[103.93371582000002,27.444702148],[103.95471191400001,27.467712402],[103.99047851600001,27.436279297],[104.04168701200001,27.403076172],[104.13952636700002,27.311096191],[104.19732666000002,27.266479492],[104.22668457000002,27.273498535],[104.25628662100002,27.280273437],[104.28668212900001,27.3125],[104.33129882800002,27.377502441],[104.35949707000002,27.413085937],[104.38128662100002,27.43927002],[104.42132568400001,27.450317383],[104.45690918000001,27.422912598],[104.46087646500001,27.419921875],[104.51031494100002,27.395324707],[104.52307128900001,27.354675293],[104.55267334000001,27.303100586],[104.64349365200002,27.315490723],[104.71771240200002,27.332519531],[104.78851318400001,27.32232666],[104.82452392600001,27.330322266],[104.86431884800001,27.306274414],[104.89947509800001,27.285095215],[104.94012451200001,27.354309082],[105.02752685500002,27.371704102],[105.14227294900002,27.428710937],[105.22027587900001,27.415893555],[105.24188232400002,27.451904297],[105.25708007800002,27.48828125],[105.26947021500001,27.521118164],[105.24670410200001,27.567687988],[105.26788330100001,27.608093262],[105.27227783200001,27.618286133],[105.32971191400001,27.653686523],[105.32507324200002,27.700317383],[105.33227539100001,27.711914062],[105.28332519500002,27.716491699],[105.27069091800001,27.723083496],[105.27148437500001,27.724304199],[105.29968261700002,27.770080566],[105.33831787100002,27.813903809],[105.33789062500001,27.840698242],[105.26947021500001,27.838684082],[105.26110839800002,27.879699707],[105.28668212900001,27.918273926],[105.296691895,27.977111816],[105.27752685500002,28.028320312],[105.21307373000002,28.008483887],[105.18951416000002,28.00567627],[105.17272949200002,28.033691406],[105.14807128900001,28.055297852],[105.13269043000001,28.068908691],[105.06109619100002,28.121276855],[104.99609375000001,28.090698242],[104.96868896500001,28.030273437],[104.96807861300002,28.028503418],[104.93951416000002,27.989685059],[104.92047119100002,27.947509766],[104.89508056600002,27.891723633],[104.83587646500001,27.873718262],[104.80047607400002,27.882080078],[104.73931884800001,27.880126953],[104.73052978500002,27.877502441],[104.61267089800002,27.842895508],[104.56988525400001,27.856872559],[104.50769043000001,27.887084961],[104.47131347700001,27.926696777],[104.44470214800002,27.934692383],[104.39508056600002,27.949890137],[104.36029052700002,27.995727539],[104.32928466800001,28.031677246],[104.32830810500002,28.061279297],[104.34667968700002,28.062316895],[104.37292480500001,28.068908691],[104.39788818400001,28.077270508],[104.45330810500002,28.110473633],[104.46368408200001,28.13470459],[104.47113037100002,28.151672363],[104.43127441400001,28.182128906],[104.40447998000002,28.196899414],[104.43627929700001,28.229675293],[104.40850830100001,28.278686523],[104.39752197300001,28.305908203],[104.34887695300002,28.314697266],[104.33489990200002,28.317077637],[104.28570556600002,28.32989502],[104.26849365200002,28.389099121],[104.27130127,28.402893066],[104.28491210900002,28.466125488],[104.32470703100002,28.53527832],[104.39251709000001,28.586120605],[104.40069580100001,28.597717285],[104.42730712900001,28.635070801],[104.36468505900001,28.660888672],[104.35351562500001,28.658508301],[104.29351806600002,28.645690918],[104.26068115200002,28.655700684],[104.20648193400001,28.651123047],[104.16290283200001,28.639099121],[104.11968994100002,28.621704102],[104.06469726600001,28.62512207],[103.96252441400001,28.623474121],[103.89068603500002,28.631286621],[103.86431884800001,28.669311523],[103.84869384800001,28.640686035],[103.81909179700001,28.580871582],[103.81072998000002,28.538330078],[103.81951904300001,28.518676758],[103.83789062500001,28.476928711],[103.84167480500001,28.465515137],[103.86047363300001,28.407287598],[103.89227294900002,28.35168457],[103.87530517600001,28.299682617],[103.84448242200001,28.284729004],[103.79028320300002,28.238708496],[103.74389648400002,28.211120605],[103.711914062,28.212890625],[103.67132568400001,28.26348877],[103.59613037100002,28.250488281],[103.52270507800002,28.174499512],[103.48168945300002,28.117492676],[103.48089599600002,28.060913086],[103.51928710900002,28.013671875],[103.56427002,27.989318848],[103.571289062,27.937683105],[103.53552246100001,27.854919434],[103.495910645,27.795288086],[103.45367431600002,27.758911133],[103.43450927700002,27.74230957],[103.37890625000001,27.721923828],[103.33111572300001,27.650878906],[103.29711914100001,27.601318359],[103.26568603500002,27.574279785],[103.26092529300001,27.571289062],[103.22491455100001,27.547485352],[103.20947265600002,27.508911133],[103.17388916000002,27.469909668],[103.16192627,27.436279297],[103.13867187500001,27.424682617],[103.07647705100001,27.41192627],[103.06011962900001,27.395690918],[103.04907226600001,27.385070801],[103.01788330100001,27.368713379],[102.97552490200002,27.401123047],[102.96069335900002,27.408325195],[102.95751953100002,27.408325195],[102.94952392600001,27.370727539],[102.92272949200002,27.29888916],[102.920898437,27.283874512],[102.91650390600002,27.24987793],[102.92248535200001,27.201904297],[102.92572021500001,27.149902344],[102.92468261700002,27.075073242],[102.91247558600001,27.037475586],[102.90728759800001,26.902099609],[102.90972900400001,26.897277832],[102.97229003900001,26.774719238],[102.98071289100001,26.732116699],[102.99871826200001,26.658508301],[103.02288818400001,26.607727051],[103.02288818400001,26.579101562]]]}}
