{"type":"Feature","id":"bulk-99377448B66443294850990","bbox":[117.19451904300001,36.683105469,118.36370849600002,38.20489502],"properties":{"id":"bulk-99377448B66443294850990","name":"Binzhou","nameEn":"Binzhou","fullName":"Binzhou","level":"city","boundaryRole":"administrative-extent","boundaryQuality":"generalized-source-2020","boundaryYearRepresented":"2020","bounds":[[117.19451904300001,36.683105469],[118.36370849600002,38.20489502]],"center":[117.77911376950001,37.4440002445],"centerMethod":"bounding-box midpoint; camera framing only","license":"CC-BY-3.0-IGO","attribution":"geoBoundaries / HDX, China administrative boundaries (2020)","source":{"provider":"geoBoundaries gbHumanitarian / HDX","url":"https://github.com/wmgeolab/geoBoundaries/raw/9469f09/releaseData/gbHumanitarian/CHN/ADM2/geoBoundaries-CHN-ADM2.geojson","metadataUrl":"https://www.geoboundaries.org/api/current/gbHumanitarian/CHN/ADM2/","shapeID":"99377448B66443294850990","shapeName":"Binzhou","boundaryID":"CHN-ADM2-99377448","commit":"9469f09"},"geometryCounts":{"coordinates":235,"components":1,"holes":0},"boundaryNotice":"geoBoundaries / HDX 2020 年行政区数据，海岸和边界经过源数据概化，并非当前测绘成果。"},"geometry":{"type":"Polygon","coordinates":[[[117.50469970700001,37.987304687],[117.54388427700002,37.962524414],[117.54711914100001,37.922485352],[117.53747558600001,37.891479492],[117.54992675800001,37.855285645],[117.56707763700001,37.830688477],[117.52807617200001,37.790283203],[117.51849365200002,37.754699707],[117.52050781200002,37.69152832],[117.50128173800002,37.667480469],[117.47113037100002,37.644897461],[117.44091796900001,37.625915527],[117.40429687500001,37.61328125],[117.36907959000001,37.618896484],[117.34307861300002,37.63671875],[117.31909179700001,37.678710937],[117.27770996100001,37.598083496],[117.24267578100002,37.559082031],[117.19451904300001,37.513671875],[117.30310058600001,37.487487793],[117.26428222700001,37.445495605],[117.29650878900001,37.428283691],[117.33050537100002,37.399902344],[117.35070800800001,37.371276855],[117.37188720700001,37.342895508],[117.38732910200001,37.318481445],[117.39947509800001,37.290893555],[117.40350341800001,37.280883789],[117.40368652300002,37.192077637],[117.41607666000002,37.16229248],[117.42272949200002,37.126525879],[117.43469238300001,37.101074219],[117.35687255900001,37.070495605],[117.31048584000001,37.063110352],[117.26092529300001,37.053283691],[117.28771972700001,37.000305176],[117.30047607400002,36.974304199],[117.34570312500001,36.961914062],[117.36492919900002,36.930297852],[117.39569091800001,36.906677246],[117.42987060500002,36.922302246],[117.45611572300001,36.94152832],[117.48907470700001,36.957275391],[117.52551269500002,36.94909668],[117.52972412100002,36.922729492],[117.53570556600002,36.886901855],[117.55029296900001,36.861083984],[117.56427002,36.832092285],[117.59027099600002,36.80090332],[117.62329101600001,36.783508301],[117.65307617200001,36.767700195],[117.68548584000001,36.748291016],[117.68627929700001,36.717529297],[117.67968750000001,36.683105469],[117.71807861300002,36.690124512],[117.753723145,36.707275391],[117.76647949200002,36.732116699],[117.76892089800002,36.769104004],[117.77807617200001,36.796325684],[117.80291748000002,36.819885254],[117.83148193400001,36.835693359],[117.87292480500001,36.853271484],[117.921875,36.856323242],[117.92712402300002,36.888916016],[117.89709472700001,36.917724609],[117.86767578100002,36.943725586],[117.855285645,36.978088379],[117.81591796900001,36.989318848],[117.78790283200001,37.00592041],[117.81329345700001,37.045898437],[117.79711914100001,37.046875],[117.76849365200002,37.053710937],[117.73187255900001,37.045715332],[117.62390136700002,37.07232666],[117.59490966800001,37.07409668],[117.56671142600001,37.085876465],[117.54248046900001,37.104919434],[117.53472900400001,37.125488281],[117.53631591800001,37.14050293],[117.56890869100002,37.173706055],[117.60327148400002,37.25970459],[117.65112304700001,37.246887207],[117.72827148400002,37.237121582],[117.79931640600002,37.260498047],[117.90509033200001,37.274291992],[117.96691894500002,37.299316406],[117.99090576200001,37.277282715],[118.01129150400001,37.247680664],[118.04010009800001,37.221313477],[118.04010009800001,37.155273437],[118.02752685500002,37.129089355],[118.03192138700001,37.082702637],[118.09088134800001,37.068908691],[118.13311767600001,37.065673828],[118.13452148400002,37.027099609],[118.13452148400002,36.996704102],[118.14111328100002,36.968688965],[118.17291259800001,36.944702148],[118.20788574200002,36.970092773],[118.24847412100002,36.98651123],[118.30133056600002,37.029724121],[118.31890869100002,37.057678223],[118.33807373000002,37.086730957],[118.35028076200001,37.116882324],[118.34948730500001,37.154724121],[118.34027099600002,37.185302734],[118.33569335900002,37.240722656],[118.36370849600002,37.25769043],[118.34191894500002,37.275085449],[118.35827636700002,37.307312012],[118.34631347700001,37.362487793],[118.30212402300002,37.340087891],[118.27868652300002,37.372680664],[118.25128173800002,37.394897461],[118.20349121100001,37.408874512],[118.18469238300001,37.384887695],[118.13269043000001,37.358093262],[118.11749267600001,37.393676758],[118.08551025400001,37.412719727],[118.08489990200002,37.443115234],[118.11389160200001,37.470703125],[118.13751220700001,37.49609375],[118.11492919900002,37.530883789],[118.09228515600002,37.556274414],[118.12188720700001,37.577087402],[118.13549804700001,37.610107422],[118.15930175800001,37.631713867],[118.19909668000001,37.631530762],[118.24310302700002,37.63067627],[118.27612304700001,37.646118164],[118.29187011700002,37.678283691],[118.30749511700002,37.702880859],[118.32629394500002,37.735107422],[118.33691406200002,37.771911621],[118.33148193400001,37.811889648],[118.29827880900001,37.824890137],[118.26031494100002,37.816711426],[118.22467041000002,37.819885254],[118.20550537100002,37.850708008],[118.18627929700001,37.88092041],[118.19152832000002,37.916503906],[118.19830322300001,37.949890137],[118.19549560500002,37.980895996],[118.22631835900002,38.028320312],[118.25231933600001,38.074707031],[118.22491455100001,38.054321289],[118.18292236300002,38.082885742],[118.16149902300002,38.069702148],[118.12908935500002,38.063476562],[118.12548828100002,38.028686523],[118.11932373000002,38.013671875],[118.10510253900001,37.990112305],[118.10687255900001,37.973876953],[118.10852050800001,37.953918457],[118.10150146500001,37.943481445],[118.08508300800001,37.954528809],[118.07092285200001,37.955322266],[118.05548095700001,37.955322266],[118.04431152300002,37.947875977],[118.02770996100001,37.936279297],[118.03112793000001,37.923278809],[118.01507568400001,37.915283203],[117.99487304700001,37.902099609],[117.99407959000001,37.900695801],[117.99267578100002,37.897521973],[117.98889160200001,37.886901855],[117.98791503900001,37.879089355],[117.99108886700002,37.864501953],[117.98852539100001,37.849304199],[117.97113037100002,37.828308105],[117.95068359400001,37.811889648],[117.93627929700001,37.820678711],[117.92230224600002,37.823486328],[117.89508056600002,37.82232666],[117.90887451200001,37.829528809],[117.93347168000001,37.840881348],[117.95227050800001,37.853088379],[117.96429443400001,37.866088867],[117.96209716800001,37.879699707],[117.96490478500002,37.897521973],[117.96173095700001,37.912109375],[117.98931884800001,37.929504395],[118.00488281200002,37.942871094],[118.00549316400001,37.960876465],[117.99731445300002,37.974914551],[117.97192382800002,37.980895996],[117.94989013700001,37.983093262],[117.92510986300002,37.983520508],[117.93109130900001,37.995910645],[117.94812011700002,38.002075195],[117.97692871100001,37.994873047],[117.99108886700002,37.99407959],[118.00451660200001,37.998718262],[118.01727294900002,38.008911133],[118.00927734400001,38.024719238],[117.99969482400002,38.034301758],[117.99707031200002,38.055908203],[117.99731445300002,38.069519043],[117.96130371100001,38.06427002],[117.94647216800001,38.081481934],[117.92547607400002,38.084472656],[117.90307617200001,38.084899902],[117.88970947300001,38.080078125],[117.86431884800001,38.074523926],[117.88867187500001,38.094726562],[117.90447998000002,38.099121094],[117.91992187500001,38.100097656],[117.93768310500002,38.100891113],[117.95092773400002,38.102722168],[117.94250488300001,38.112304687],[117.92871093700002,38.117675781],[117.91052246100001,38.112304687],[117.89929199200002,38.106689453],[117.88012695300002,38.103271484],[117.85772705100001,38.104492187],[117.83868408200001,38.102905273],[117.85168457000002,38.115722656],[117.86871337900001,38.120117187],[117.88592529300001,38.126281738],[117.85888671900001,38.153076172],[117.83270263700001,38.139282227],[117.83331298800002,38.157287598],[117.84552002,38.173706055],[117.84790039100001,38.184326172],[117.83673095700001,38.192077637],[117.80108642600001,38.202270508],[117.78387451200001,38.20489502],[117.74609375000001,38.156677246],[117.73632812500001,38.127075195],[117.71392822300001,38.100891113],[117.67230224600002,38.080688477],[117.61810302700002,38.06628418],[117.57110595700001,38.058898926],[117.53289794900002,38.038513184],[117.50469970700001,37.987304687]]]}}
