{"type":"Feature","id":"bulk-99377448B32216141494348","bbox":[121.60791015600002,44.213928223,124.35308837900001,46.295471191],"properties":{"id":"bulk-99377448B32216141494348","name":"Baicheng","nameEn":"Baicheng","fullName":"Baicheng","level":"city","boundaryRole":"administrative-extent","boundaryQuality":"generalized-source-2020","boundaryYearRepresented":"2020","bounds":[[121.60791015600002,44.213928223],[124.35308837900001,46.295471191]],"center":[122.98049926750002,45.254699707],"centerMethod":"bounding-box midpoint; camera framing only","license":"CC-BY-3.0-IGO","attribution":"geoBoundaries / HDX, China administrative boundaries (2020)","source":{"provider":"geoBoundaries gbHumanitarian / HDX","url":"https://github.com/wmgeolab/geoBoundaries/raw/9469f09/releaseData/gbHumanitarian/CHN/ADM2/geoBoundaries-CHN-ADM2.geojson","metadataUrl":"https://www.geoboundaries.org/api/current/gbHumanitarian/CHN/ADM2/","shapeID":"99377448B32216141494348","shapeName":"Baicheng","boundaryID":"CHN-ADM2-99377448","commit":"9469f09"},"geometryCounts":{"coordinates":189,"components":1,"holes":0},"boundaryNotice":"geoBoundaries / HDX 2020 年行政区数据，海岸和边界经过源数据概化，并非当前测绘成果。"},"geometry":{"type":"Polygon","coordinates":[[[122.22167968700002,44.251708984],[122.22692871100001,44.24609375],[122.28271484400001,44.223327637],[122.39569091800001,44.213928223],[122.52148437500001,44.256896973],[122.58569335900002,44.287902832],[122.68652343700002,44.35168457],[122.72930908200001,44.376525879],[122.81768798800002,44.405273437],[122.89447021500001,44.45489502],[122.98089599600002,44.500915527],[123.07568359400001,44.512084961],[123.09112548800002,44.582275391],[123.14892578100002,44.590087891],[123.18927002,44.603515625],[123.230285645,44.628295898],[123.25732421900001,44.652893066],[123.29089355500001,44.667480469],[123.33508300800001,44.678710937],[123.38250732400002,44.696899414],[123.42889404300001,44.711303711],[123.50488281200002,44.708679199],[123.49169921900001,44.742919922],[123.47271728500002,44.782287598],[123.44873046900001,44.804077148],[123.41491699200002,44.836486816],[123.37988281200002,44.869873047],[123.40148925800001,44.902099609],[123.43347168000001,44.928283691],[123.45812988300001,44.961486816],[123.50048828100002,44.96307373],[123.53448486300002,44.980895996],[123.57092285200001,45.000915527],[123.61370849600002,45.019470215],[123.64270019500002,45.043518066],[123.69628906200002,45.08392334],[123.74627685500002,45.113525391],[123.79772949200002,45.147521973],[123.82452392600001,45.172302246],[123.86669921900001,45.202270508],[123.92687988300001,45.21307373],[123.96868896500001,45.216674805],[124.01031494100002,45.231079102],[124.046691895,45.262878418],[124.06127929700001,45.297119141],[124.07110595700001,45.326721191],[124.10791015600002,45.356506348],[124.15087890600002,45.367492676],[124.20410156200002,45.393127441],[124.25292968700002,45.411499023],[124.35308837900001,45.444274902],[124.30590820300002,45.534301758],[124.22552490200002,45.555480957],[124.19970703100002,45.614074707],[124.17730712900001,45.619506836],[124.15350341800001,45.618713379],[124.11328125000001,45.606323242],[124.08471679700001,45.674682617],[124.06628418000001,45.699523926],[124.04229736300002,45.721679687],[123.98608398400002,45.746887207],[123.96209716800001,45.768920898],[123.99450683600001,45.811706543],[124.01287841800001,45.87890625],[124.00231933600001,45.89630127],[123.97167968700002,45.909118652],[123.95568847700001,45.92388916],[123.92791748000002,45.926696777],[123.91790771500001,45.94732666],[123.92651367200001,45.966125488],[123.98950195300002,46.019104004],[123.99407959000001,46.041687012],[123.97070312500001,46.067077637],[123.95910644500002,46.15032959],[123.89770507800002,46.19909668],[123.94488525400001,46.243713379],[123.94689941400001,46.253479004],[123.94152832000002,46.273681641],[123.92669677700002,46.294921875],[123.89349365200002,46.271728516],[123.86407470700001,46.268127441],[123.84149169900002,46.273498535],[123.81732177700002,46.295471191],[123.77990722700001,46.280273437],[123.74609375000001,46.269104004],[123.68548584000001,46.268493652],[123.65130615200002,46.274475098],[123.61968994100002,46.260314941],[123.55871582000002,46.224487305],[123.50488281200002,46.24407959],[123.48291015600002,46.258728027],[123.429504395,46.241088867],[123.35809326200001,46.218078613],[123.33770752,46.214477539],[123.29248046900001,46.225097656],[123.23510742200001,46.233093262],[123.20031738300001,46.236328125],[123.09368896500001,46.248718262],[123.08508300800001,46.24407959],[123.05847168000001,46.194091797],[123.05712890600002,46.125488281],[122.99871826200001,46.073120117],[122.92590332000002,46.067871094],[122.81732177700002,46.088500977],[122.74987793000001,46.067321777],[122.71447753900001,46.056091309],[122.72991943400001,46.026672363],[122.73968505900001,45.931884766],[122.76330566400001,45.855895996],[122.75750732400002,45.73449707],[122.73992919900002,45.717285156],[122.69232177700002,45.670898437],[122.65887451200001,45.658325195],[122.64770507800002,45.65411377],[122.628723145,45.663879395],[122.61047363300001,45.72052002],[122.56207275400001,45.768127441],[122.49291992200001,45.759887695],[122.43469238300001,45.819091797],[122.42712402300002,45.906311035],[122.35491943400001,45.910705566],[122.28527832000002,45.834716797],[122.22271728500002,45.797729492],[122.16668701200001,45.841308594],[122.08587646500001,45.856079102],[122.03808593700002,45.901672363],[122.02911377,45.910095215],[121.98968505900001,45.946289062],[121.94348144500002,45.994506836],[121.91687011700002,46.013916016],[121.84790039100001,45.992492676],[121.82830810500002,45.997680664],[121.76068115200002,46.015930176],[121.70867919900002,45.986877441],[121.75872802700002,45.921325684],[121.77447509800001,45.846130371],[121.71868896500001,45.786682129],[121.71429443400001,45.785095215],[121.64111328100002,45.758911133],[121.60791015600002,45.747070312],[121.66607666000002,45.700073242],[121.72271728500002,45.681091309],[121.81988525400001,45.718078613],[121.91308593700002,45.700317383],[121.93109130900001,45.677307129],[121.93347168000001,45.586914062],[121.90069580100001,45.554504395],[121.96307373000002,45.511474609],[122.03192138700001,45.475097656],[122.10028076200001,45.437683105],[122.13732910200001,45.39050293],[122.07708740200002,45.342285156],[122.09472656200002,45.324707031],[122.11151123000002,45.311523437],[122.13330078100002,45.294494629],[122.16992187500001,45.275085449],[122.17871093700002,45.251708984],[122.17730712900001,45.247314453],[122.16687011700002,45.210510254],[122.14849853500002,45.185913086],[122.10992431600002,45.179321289],[122.07452392600001,45.110473633],[122.06848144500002,45.075073242],[122.04907226600001,45.017883301],[122.04187011700002,44.976074219],[122.05529785200001,44.945495605],[122.00952148400002,44.923278809],[121.99871826200001,44.888305664],[122.01049804700001,44.848083496],[122.01129150400001,44.79888916],[122.01672363300001,44.749511719],[122.06591796900001,44.764892578],[122.05047607400002,44.730285645],[122.04547119100002,44.701293945],[122.02172851600001,44.670715332],[122.03387451200001,44.633911133],[122.03369140600002,44.578308105],[122.06909179700001,44.568725586],[122.11529541000002,44.568115234],[122.13708496100001,44.533508301],[122.16290283200001,44.495483398],[122.18688964800002,44.473693848],[122.22692871100001,44.463684082],[122.25207519500002,44.448486328],[122.26507568400001,44.417907715],[122.26251220700001,44.375671387],[122.24371337900001,44.348083496],[122.22607421900001,44.300720215],[122.22167968700002,44.251708984]]]}}
