{"type":"Feature","id":"bulk-99377448B25776083476303","bbox":[120.98272705100001,41.73651123,122.97430419900002,42.818908691],"properties":{"id":"bulk-99377448B25776083476303","name":"Fuxin","nameEn":"Fuxin","fullName":"Fuxin","level":"city","boundaryRole":"administrative-extent","boundaryQuality":"generalized-source-2020","boundaryYearRepresented":"2020","bounds":[[120.98272705100001,41.73651123],[122.97430419900002,42.818908691]],"center":[121.97851562500001,42.2777099605],"centerMethod":"bounding-box midpoint; camera framing only","license":"CC-BY-3.0-IGO","attribution":"geoBoundaries / HDX, China administrative boundaries (2020)","source":{"provider":"geoBoundaries gbHumanitarian / HDX","url":"https://github.com/wmgeolab/geoBoundaries/raw/9469f09/releaseData/gbHumanitarian/CHN/ADM2/geoBoundaries-CHN-ADM2.geojson","metadataUrl":"https://www.geoboundaries.org/api/current/gbHumanitarian/CHN/ADM2/","shapeID":"99377448B25776083476303","shapeName":"Fuxin","boundaryID":"CHN-ADM2-99377448","commit":"9469f09"},"geometryCounts":{"coordinates":125,"components":1,"holes":0},"boundaryNotice":"geoBoundaries / HDX 2020 年行政区数据，海岸和边界经过源数据概化，并非当前测绘成果。"},"geometry":{"type":"Polygon","coordinates":[[[120.98968505900001,42.208496094],[121.00170898400002,42.172912598],[121.00592041000002,42.144104004],[121.01068115200002,42.118530273],[121.02447509800001,42.095275879],[121.02227783200001,42.07989502],[121.01788330100001,42.051879883],[121.01367187500001,42.023681641],[120.99310302700002,42.003479004],[120.98272705100001,41.991699219],[121.03430175800001,41.960327148],[121.06829834000001,41.950317383],[121.12329101600001,41.947509766],[121.15930175800001,41.935119629],[121.18292236300002,41.913513184],[121.20410156200002,41.887878418],[121.23767089800002,41.864501953],[121.28411865200002,41.866088867],[121.29547119100002,41.838317871],[121.26971435500002,41.8125],[121.25708007800002,41.78729248],[121.29248046900001,41.75567627],[121.31787109400001,41.73651123],[121.35131835900002,41.755310059],[121.40509033200001,41.768676758],[121.44189453100002,41.772277832],[121.48168945300002,41.775085449],[121.51751709000001,41.769714355],[121.5625,41.752075195],[121.60791015600002,41.755126953],[121.65008544900002,41.76550293],[121.69207763700001,41.767272949],[121.74108886700002,41.759521484],[121.83068847700001,41.765075684],[121.81927490200002,41.795898437],[121.84948730500001,41.811889648],[121.89532470700001,41.831481934],[121.93048095700001,41.852905273],[121.96112060500002,41.873474121],[121.98669433600001,41.894287109],[122.01452636700002,41.91607666],[122.04510498000002,41.93927002],[122.07287597700001,41.957885742],[122.12310791000002,41.980712891],[122.16168212900001,41.997314453],[122.20831298800002,42.016723633],[122.24548339800002,42.031921387],[122.30047607400002,42.053283691],[122.34027099600002,42.068725586],[122.37152099600002,42.083679199],[122.39007568400001,42.099121094],[122.45947265600002,42.134094238],[122.50610351600001,42.155273437],[122.54589843700002,42.174316406],[122.59167480500001,42.194274902],[122.63311767600001,42.214477539],[122.67590332000002,42.23248291],[122.76068115200002,42.262084961],[122.79229736300002,42.276489258],[122.82751464800002,42.299316406],[122.84613037100002,42.325683594],[122.84790039100001,42.358703613],[122.82788085900002,42.381286621],[122.80249023400002,42.401123047],[122.78131103500002,42.426879883],[122.79968261700002,42.456481934],[122.83892822300001,42.477111816],[122.87408447300001,42.489074707],[122.91149902300002,42.506103516],[122.97430419900002,42.552490234],[122.921691895,42.567077637],[122.86608886700002,42.582275391],[122.83270263700001,42.596496582],[122.80047607400002,42.610900879],[122.77087402300002,42.636291504],[122.753723145,42.670471191],[122.78649902300002,42.710693359],[122.78009033200001,42.713317871],[122.75128173800002,42.754272461],[122.74688720700001,42.763671875],[122.69671630900001,42.769897461],[122.61950683600001,42.770080566],[122.55310058600001,42.782470703],[122.53967285200001,42.803710937],[122.38751220700001,42.818908691],[122.33587646500001,42.81652832],[122.32171630900001,42.792724609],[122.32891845700001,42.783081055],[122.37792968700002,42.764282227],[122.40307617200001,42.765686035],[122.44171142600001,42.758483887],[122.43231201200001,42.747680664],[122.36547851600001,42.700073242],[122.33752441400001,42.668701172],[122.31268310500002,42.653930664],[122.27691650400001,42.65612793],[122.17071533200001,42.689697266],[122.16571044900002,42.683105469],[122.14770507800002,42.6796875],[121.95452880900001,42.712890625],[121.91912841800001,42.690124512],[121.88049316400001,42.647888184],[121.84332275400001,42.560119629],[121.82910156200002,42.528930664],[121.77947998000002,42.500671387],[121.72747802700002,42.485717773],[121.70031738300001,42.484680176],[121.663879395,42.455322266],[121.62487793000001,42.436096191],[121.60711669900002,42.4375],[121.58587646500001,42.445678711],[121.57629394500002,42.469299316],[121.56372070300002,42.502929687],[121.54589843700002,42.504272461],[121.46972656200002,42.478271484],[121.36212158200001,42.480712891],[121.33850097700001,42.473083496],[121.31512451200001,42.43927002],[121.27648925800001,42.422912598],[121.23352050800001,42.377929687],[121.18109130900001,42.336486816],[121.14447021500001,42.309326172],[121.05987548800002,42.257324219],[121.01989746100001,42.231079102],[120.98968505900001,42.208496094]]]}}
