{"type":"Feature","id":"bulk-99377448B57869178635741","bbox":[111.36688232400002,36.641723633,114.11907959000001,38.089111328],"properties":{"id":"bulk-99377448B57869178635741","name":"Jinzhong","nameEn":"Jinzhong","fullName":"Jinzhong","level":"city","boundaryRole":"administrative-extent","boundaryQuality":"generalized-source-2020","boundaryYearRepresented":"2020","bounds":[[111.36688232400002,36.641723633],[114.11907959000001,38.089111328]],"center":[112.74298095700001,37.3654174805],"centerMethod":"bounding-box midpoint; camera framing only","license":"CC-BY-3.0-IGO","attribution":"geoBoundaries / HDX, China administrative boundaries (2020)","source":{"provider":"geoBoundaries gbHumanitarian / HDX","url":"https://github.com/wmgeolab/geoBoundaries/raw/9469f09/releaseData/gbHumanitarian/CHN/ADM2/geoBoundaries-CHN-ADM2.geojson","metadataUrl":"https://www.geoboundaries.org/api/current/gbHumanitarian/CHN/ADM2/","shapeID":"99377448B57869178635741","shapeName":"Jinzhong","boundaryID":"CHN-ADM2-99377448","commit":"9469f09"},"geometryCounts":{"coordinates":225,"components":1,"holes":0},"boundaryNotice":"geoBoundaries / HDX 2020 年行政区数据，海岸和边界经过源数据概化，并非当前测绘成果。"},"geometry":{"type":"Polygon","coordinates":[[[113.738098145,37.013916016],[113.72430419900002,37.034301758],[113.72631835900002,37.058105469],[113.72912597700001,37.073913574],[113.73052978500002,37.08190918],[113.74749755900001,37.138916016],[113.76287841800001,37.14831543],[113.79467773400002,37.177490234],[113.82287597700001,37.224487305],[113.85827636700002,37.277709961],[113.85949707000002,37.310302734],[113.88787841800001,37.316101074],[113.89068603500002,37.316711426],[113.94152832000002,37.324279785],[113.93267822300001,37.360717773],[113.93511962900001,37.381530762],[113.93768310500002,37.404724121],[113.96850585900002,37.423278809],[113.99829101600001,37.451904297],[114.00152587900001,37.456115723],[114.03851318400001,37.50567627],[114.04449462900001,37.513122559],[114.07348632800002,37.549682617],[114.09008789100001,37.586486816],[114.11389160200001,37.629882812],[114.11907959000001,37.676696777],[114.09991455100001,37.699890137],[114.08288574200002,37.719909668],[114.03308105500001,37.717712402],[113.98089599600002,37.710083008],[113.96148681600002,37.718505859],[113.92211914100001,37.682922363],[113.89007568400001,37.695495605],[113.83990478500002,37.693908691],[113.79992675800001,37.667724609],[113.76568603500002,37.661499023],[113.73107910200001,37.676330566],[113.68707275400001,37.683288574],[113.65551757800002,37.66192627],[113.60192871100001,37.667297363],[113.55627441400001,37.678283691],[113.50988769500002,37.674499512],[113.47491455100001,37.680480957],[113.42889404300001,37.710693359],[113.42633056600002,37.739074707],[113.38848877,37.763671875],[113.36108398400002,37.803100586],[113.34613037100002,37.829528809],[113.33410644500002,37.862670898],[113.32312011700002,37.898071289],[113.31268310500002,37.948913574],[113.28833007800002,37.981689453],[113.24627685500002,38.009887695],[113.22650146500001,38.052307129],[113.20709228500002,38.089111328],[113.17449951200001,38.076477051],[113.14508056600002,38.046325684],[113.10192871100001,38.065124512],[113.05767822300001,38.072875977],[113.02069091800001,38.068725586],[112.99468994100002,38.035888672],[112.94427490200002,38.006713867],[112.90228271500001,38.003723145],[112.87048339800002,37.986083984],[112.81927490200002,37.976501465],[112.78790283200001,37.963928223],[112.76232910200001,37.92791748],[112.76190185500002,37.894897461],[112.72808837900001,37.832275391],[112.69689941400001,37.79510498],[112.66448974600002,37.751708984],[112.64691162100002,37.725524902],[112.64093017600001,37.694885254],[112.63311767600001,37.663696289],[112.58270263700001,37.64050293],[112.57427978500002,37.607727051],[112.57409668000001,37.57611084],[112.59851074200002,37.54888916],[112.56127929700001,37.522094727],[112.51049804700001,37.497924805],[112.49450683600001,37.464111328],[112.46887207000002,37.422729492],[112.43249511700002,37.459716797],[112.38531494100002,37.465515137],[112.32867431600002,37.457275391],[112.29229736300002,37.457702637],[112.26611328100002,37.430297852],[112.25170898400002,37.398925781],[112.22149658200001,37.361083984],[112.18530273400002,37.340881348],[112.13549804700001,37.294921875],[112.12170410200001,37.28112793],[112.11572265600002,37.287719727],[112.10791015600002,37.301086426],[112.09808349600002,37.304504395],[112.08709716800001,37.305908203],[112.07409668000001,37.307495117],[112.06768798800002,37.313903809],[112.05969238300001,37.322875977],[112.05407714800002,37.325683594],[112.04211425800001,37.329284668],[112.03387451200001,37.325317383],[112.02868652300002,37.319519043],[112.02709960900002,37.31451416],[112.02630615200002,37.305725098],[112.02331543000001,37.297302246],[112.02191162100002,37.292114258],[112.01831054700001,37.288085937],[112.00872802700002,37.282470703],[111.995910645,37.280517578],[111.97729492200001,37.272888184],[111.94787597700001,37.258117676],[111.93688964800002,37.259521484],[111.937316895,37.252685547],[111.94470214800002,37.246887207],[111.94207763700001,37.242919922],[111.93988037100002,37.233276367],[111.92211914100001,37.121887207],[111.92089843700002,37.107116699],[111.90472412100002,37.10369873],[111.89630127,37.097106934],[111.88928222700001,37.082885742],[111.87951660200001,37.074707031],[111.86730957000002,37.062316895],[111.85913085900002,37.035095215],[111.86370849600002,37.034484863],[111.83850097700001,37.022277832],[111.77868652300002,37.003723145],[111.71588134800001,36.976501465],[111.63751220700001,36.947875977],[111.59667968700002,36.933898926],[111.56091308600001,36.937072754],[111.52490234400001,36.958129883],[111.47668457000002,36.982116699],[111.49169921900001,36.929077148],[111.51892089800002,36.907104492],[111.50567627,36.879516602],[111.46868896500001,36.869873047],[111.40948486300002,36.859313965],[111.36688232400002,36.837097168],[111.36907959000001,36.80871582],[111.39007568400001,36.78729248],[111.45227050800001,36.758300781],[111.48870849600002,36.762878418],[111.52770996100001,36.756286621],[111.55432128900001,36.73651123],[111.56970214800002,36.708496094],[111.58807373000002,36.679321289],[111.62487793000001,36.641723633],[111.66888427700002,36.666503906],[111.71929931600002,36.686889648],[111.77410888700001,36.695678711],[111.82788085900002,36.69128418],[111.88452148400002,36.686706543],[111.92791748000002,36.680297852],[111.99572753900001,36.680297852],[111.98968505900001,36.707519531],[111.97229003900001,36.741699219],[111.95770263700001,36.772094727],[111.99670410200001,36.823730469],[112.04187011700002,36.832275391],[112.06170654300001,36.854492187],[112.05468750000001,36.883117676],[112.04510498000002,36.909301758],[112.05029296900001,36.949279785],[112.10449218700002,36.973693848],[112.13507080100001,37.009521484],[112.17309570300002,36.997314453],[112.20452880900001,36.985900879],[112.23431396500001,36.961730957],[112.27630615200002,36.942321777],[112.33172607400002,36.948730469],[112.37292480500001,36.93347168],[112.40509033200001,36.922485352],[112.45788574200002,36.940307617],[112.49652099600002,36.942687988],[112.50067138700001,36.976318359],[112.48107910200001,37.019470215],[112.45611572300001,37.051696777],[112.45489502,37.11151123],[112.51629638700001,37.103088379],[112.54809570300002,37.091125488],[112.59271240200002,37.091308594],[112.65710449200002,37.108093262],[112.68432617200001,37.089904785],[112.72851562500001,37.05871582],[112.73767089800002,37.030273437],[112.75549316400001,36.999694824],[112.80029296900001,37.000671387],[112.83050537100002,36.983703613],[112.85229492200001,36.948730469],[112.85247802700002,36.909484863],[112.86651611300002,36.871276855],[112.91149902300002,36.867675781],[112.93652343700002,36.888122559],[112.97192382800002,36.907287598],[113.02490234400001,36.90612793],[113.08728027300002,36.899291992],[113.128723145,36.918884277],[113.16790771500001,36.9296875],[113.17730712900001,36.959716797],[113.21411132800002,36.95489502],[113.24291992200001,36.929504395],[113.28387451200001,36.958496094],[113.31030273400002,36.880126953],[113.36248779300001,36.869689941],[113.40429687500001,36.853881836],[113.43072509800001,36.829101562],[113.45892334000001,36.786315918],[113.47747802700002,36.75390625],[113.49249267600001,36.74230957],[113.51208496100001,36.745727539],[113.56628418000001,36.762329102],[113.60028076200001,36.791503906],[113.63690185500002,36.823486328],[113.63952636700002,36.866699219],[113.66528320300002,36.883728027],[113.69927978500002,36.844116211],[113.71411132800002,36.84387207],[113.73229980500001,36.855529785],[113.75268554700001,36.868530273],[113.75128173800002,36.893310547],[113.72930908200001,36.951293945],[113.74609375000001,37.002075195],[113.738098145,37.013916016]]]}}
