{"type":"Feature","id":"bulk-99377448B24350420356302","bbox":[104.21228027300002,29.67388916,105.75152587900001,30.634521484],"properties":{"id":"bulk-99377448B24350420356302","name":"Ziyang","nameEn":"Ziyang","fullName":"Ziyang","level":"city","boundaryRole":"administrative-extent","boundaryQuality":"generalized-source-2020","boundaryYearRepresented":"2020","bounds":[[104.21228027300002,29.67388916],[105.75152587900001,30.634521484]],"center":[104.98190307600001,30.154205322000003],"centerMethod":"bounding-box midpoint; camera framing only","license":"CC-BY-3.0-IGO","attribution":"geoBoundaries / HDX, China administrative boundaries (2020)","source":{"provider":"geoBoundaries gbHumanitarian / HDX","url":"https://github.com/wmgeolab/geoBoundaries/raw/9469f09/releaseData/gbHumanitarian/CHN/ADM2/geoBoundaries-CHN-ADM2.geojson","metadataUrl":"https://www.geoboundaries.org/api/current/gbHumanitarian/CHN/ADM2/","shapeID":"99377448B24350420356302","shapeName":"Ziyang","boundaryID":"CHN-ADM2-99377448","commit":"9469f09"},"geometryCounts":{"coordinates":127,"components":1,"holes":0},"boundaryNotice":"geoBoundaries / HDX 2020 年行政区数据，海岸和边界经过源数据概化，并非当前测绘成果。"},"geometry":{"type":"Polygon","coordinates":[[[105.55047607400002,30.20690918],[105.51831054700001,30.212280273],[105.48547363300001,30.228881836],[105.48309326200001,30.256530762],[105.44830322300001,30.265075684],[105.41271972700001,30.286682129],[105.38012695300002,30.286499023],[105.34991455100001,30.304077148],[105.27508544900002,30.303283691],[105.22589111300002,30.294494629],[105.19348144500002,30.313476562],[105.16687011700002,30.332885742],[105.12567138700001,30.340698242],[105.10449218700002,30.376281738],[105.08410644500002,30.396911621],[105.08032226600001,30.42767334],[105.07910156200002,30.467285156],[105.078125,30.520324707],[105.07751464800002,30.55267334],[105.03448486300002,30.533691406],[105.00268554700001,30.523498535],[104.980285645,30.553527832],[104.972473145,30.582519531],[104.95489502,30.610473633],[104.92150878900001,30.615905762],[104.88671875000001,30.615905762],[104.85809326200001,30.602111816],[104.88348388700001,30.572875977],[104.90447998000002,30.549682617],[104.90148925800001,30.514709473],[104.88708496100001,30.479919434],[104.83227539100001,30.500305176],[104.79071044900002,30.498291016],[104.75567627,30.505126953],[104.73571777300002,30.526489258],[104.703125,30.541687012],[104.69927978500002,30.575073242],[104.69012451200001,30.606323242],[104.65570068400001,30.605895996],[104.62207031200002,30.619506836],[104.58172607400002,30.634521484],[104.54711914100001,30.618286133],[104.52087402300002,30.595275879],[104.45428466800001,30.586303711],[104.41992187500001,30.543701172],[104.421691895,30.513305664],[104.41931152300002,30.48651123],[104.38708496100001,30.467895508],[104.35052490200002,30.475891113],[104.32769775400001,30.497070312],[104.29608154300001,30.494689941],[104.28167724600002,30.467285156],[104.26708984400001,30.440124512],[104.23907470700001,30.411499023],[104.22210693400001,30.375671387],[104.21228027300002,30.349121094],[104.23889160200001,30.304870605],[104.24829101600001,30.271118164],[104.25128173800002,30.242492676],[104.28247070300002,30.21270752],[104.32391357400002,30.198303223],[104.36389160200001,30.19708252],[104.39630127,30.164672852],[104.41369628900001,30.141906738],[104.45971679700001,30.109130859],[104.49047851600001,30.040710449],[104.52648925800001,30.038330078],[104.55487060500002,30.015319824],[104.58972168000001,30.009887695],[104.60992431600002,29.973693848],[104.59613037100002,29.943115234],[104.66290283200001,29.952514648],[104.70410156200002,29.957885742],[104.73791503900001,29.948730469],[104.76507568400001,29.920898437],[104.78790283200001,29.892700195],[104.79272460900002,29.859924316],[104.82629394500002,29.860473633],[104.85211181600002,29.877929687],[104.88330078100002,29.887084961],[104.90252685500002,29.914306641],[104.93347168000001,29.93170166],[104.95471191400001,29.975524902],[104.98309326200001,29.99987793],[105.01147460900002,30.018676758],[105.02227783200001,29.980529785],[105.03808593700002,29.944702148],[105.06671142600001,29.925292969],[105.09368896500001,29.905883789],[105.09289550800001,29.87109375],[105.09490966800001,29.842102051],[105.10931396500001,29.811096191],[105.14508056600002,29.820678711],[105.18371582000002,29.827880859],[105.21868896500001,29.820129395],[105.25012207000002,29.797485352],[105.28991699200002,29.792724609],[105.32507324200002,29.8125],[105.36169433600001,29.809326172],[105.39788818400001,29.805114746],[105.40307617200001,29.764099121],[105.41070556600002,29.720703125],[105.42150878900001,29.689880371],[105.45092773400002,29.67388916],[105.47210693400001,29.695922852],[105.50952148400002,29.714294434],[105.54388427700002,29.711914062],[105.55871582000002,29.742919922],[105.59887695300002,29.740905762],[105.60308837900001,29.786071777],[105.61688232400002,29.817687988],[105.65850830100001,29.825927734],[105.72167968700002,29.830688477],[105.72113037100002,29.887329102],[105.71508789100001,29.917724609],[105.73492431600002,29.958496094],[105.75152587900001,29.986328125],[105.75048828100002,30.019104004],[105.72509765600002,30.043701172],[105.69250488300001,30.051330566],[105.64910888700001,30.085510254],[105.62072753900001,30.100524902],[105.58691406200002,30.11907959],[105.58428955100001,30.14630127],[105.54931640600002,30.143676758],[105.54827880900001,30.178283691],[105.55047607400002,30.20690918]]]}}
