{"type":"Feature","id":"bulk-99377448B44591107647609","bbox":[116.14471435500002,33.259887695,118.13610839800002,34.62689209],"properties":{"id":"bulk-99377448B44591107647609","name":"Suzhou","nameEn":"Suzhou","fullName":"Suzhou","level":"city","boundaryRole":"administrative-extent","boundaryQuality":"generalized-source-2020","boundaryYearRepresented":"2020","bounds":[[116.14471435500002,33.259887695],[118.13610839800002,34.62689209]],"center":[117.14041137650003,33.9433898925],"centerMethod":"bounding-box midpoint; camera framing only","license":"CC-BY-3.0-IGO","attribution":"geoBoundaries / HDX, China administrative boundaries (2020)","source":{"provider":"geoBoundaries gbHumanitarian / HDX","url":"https://github.com/wmgeolab/geoBoundaries/raw/9469f09/releaseData/gbHumanitarian/CHN/ADM2/geoBoundaries-CHN-ADM2.geojson","metadataUrl":"https://www.geoboundaries.org/api/current/gbHumanitarian/CHN/ADM2/","shapeID":"99377448B44591107647609","shapeName":"Suzhou","boundaryID":"CHN-ADM2-99377448","commit":"9469f09"},"geometryCounts":{"coordinates":216,"components":1,"holes":0},"boundaryNotice":"geoBoundaries / HDX 2020 年行政区数据，海岸和边界经过源数据概化，并非当前测绘成果。"},"geometry":{"type":"Polygon","coordinates":[[[118.12347412100002,33.735290527],[118.07427978500002,33.737304687],[118.04888916000002,33.736083984],[118.01708984400001,33.72467041],[117.99652099600002,33.730285645],[117.95867919900002,33.749328613],[117.90191650400001,33.765930176],[117.88330078100002,33.729675293],[117.86871337900001,33.699523926],[117.81512451200001,33.742492676],[117.76770019500002,33.714904785],[117.75207519500002,33.712280273],[117.71392822300001,33.727722168],[117.71228027300002,33.735900879],[117.70971679700001,33.741271973],[117.68609619100002,33.789489746],[117.70910644500002,33.814086914],[117.72387695300002,33.84588623],[117.71752929700001,33.887878418],[117.68127441400001,33.890075684],[117.66491699200002,33.890075684],[117.61389160200001,33.926513672],[117.61987304700001,33.958129883],[117.62689209000001,34.002929687],[117.59088134800001,34.006713867],[117.57330322300001,33.995117187],[117.56048584000001,33.987915039],[117.53631591800001,33.987487793],[117.51171875000001,34.022521973],[117.50787353500002,34.032470703],[117.50628662100002,34.03692627],[117.47131347700001,34.042297363],[117.44592285200001,34.04107666],[117.42108154300001,34.034301758],[117.40447998000002,34.021118164],[117.39849853500002,34.021484375],[117.37707519500002,34.022521973],[117.35711669900002,34.048278809],[117.33251953100002,34.071899414],[117.27447509800001,34.078491211],[117.23608398400002,34.067077637],[117.17907714800002,34.071899414],[117.13348388700001,34.066101074],[117.09851074200002,34.086303711],[117.09649658200001,34.087524414],[117.06927490200002,34.121704102],[117.04211425800001,34.141723633],[117.01330566400001,34.170471191],[117.00048828100002,34.21887207],[116.95947265600002,34.248474121],[116.93072509800001,34.261474609],[116.92089843700002,34.291870117],[116.92590332000002,34.300476074],[116.92810058600001,34.314697266],[116.92468261700002,34.343078613],[116.91510009800001,34.356079102],[116.89752197300001,34.369689941],[116.86712646500001,34.381530762],[116.83868408200001,34.380493164],[116.80688476600001,34.377319336],[116.78527832000002,34.38092041],[116.74468994100002,34.420898437],[116.70391845700001,34.460876465],[116.67852783200001,34.457275391],[116.61749267600001,34.470275879],[116.60308837900001,34.476074219],[116.54412841800001,34.502929687],[116.49353027300002,34.540527344],[116.45532226600001,34.581298828],[116.40167236300002,34.609313965],[116.35711669900002,34.623718262],[116.33331298800002,34.62689209],[116.30590820300002,34.606506348],[116.27471923800002,34.587524414],[116.24908447300001,34.57611084],[116.24389648400002,34.573913574],[116.16107177700002,34.544494629],[116.16607666000002,34.523071289],[116.15869140600002,34.49407959],[116.14471435500002,34.466491699],[116.15832519500002,34.438476562],[116.15887451200001,34.4375],[116.17907714800002,34.401306152],[116.20147705100001,34.368530273],[116.23889160200001,34.350097656],[116.28710937500001,34.342712402],[116.31048584000001,34.327514648],[116.32092285200001,34.301330566],[116.33630371100001,34.283874512],[116.35247802700002,34.260925293],[116.36352539100001,34.246276855],[116.41088867200001,34.261108398],[116.45007324200002,34.282287598],[116.49011230500001,34.284912109],[116.51330566400001,34.252929687],[116.51507568400001,34.248718262],[116.53149414100001,34.212097168],[116.52008056600002,34.178100586],[116.51593017600001,34.165100098],[116.51452636700002,34.155700684],[116.51208496100001,34.14050293],[116.51391601600001,34.103088379],[116.51867675800001,34.076477051],[116.53289794900002,34.043884277],[116.538879395,34.037719727],[116.63330078100002,34.020324707],[116.68151855500001,34.008911133],[116.75152587900001,34.007873535],[116.78668212900001,34.026672363],[116.80169677700002,34.020874023],[116.80352783200001,34.027709961],[116.80407714800002,34.033874512],[116.80810546900001,34.043884277],[116.81591796900001,34.060119629],[116.82708740200002,34.073486328],[116.83367919900002,34.078125],[116.84167480500001,34.081298828],[116.84729003900001,34.081481934],[116.85552978500002,34.087890625],[116.86791992200001,34.094299316],[116.87908935500002,34.100524902],[116.88787841800001,34.102478027],[116.89611816400001,34.102478027],[116.90167236300002,34.101318359],[116.90649414100001,34.099914551],[116.91870117200001,34.094299316],[116.92651367200001,34.091308594],[116.93048095700001,34.088500977],[116.93530273400002,34.087097168],[116.94067382800002,34.086486816],[116.94689941400001,34.086730957],[116.95770263700001,34.092285156],[116.96148681600002,34.093322754],[116.96472168000001,34.094116211],[116.96850585900002,34.09387207],[116.96911621100001,34.090698242],[116.96691894500002,34.083496094],[116.96008300800001,34.071716309],[116.94848632800002,34.05847168],[116.94628906200002,34.053283691],[116.94891357400002,34.043701172],[116.95532226600001,34.03729248],[116.95947265600002,34.024108887],[116.95892334000001,34.009277344],[116.95532226600001,33.992919922],[116.95489502,33.977478027],[116.95672607400002,33.971923828],[116.96612548800002,33.963928223],[116.97668457000002,33.955322266],[116.98767089800002,33.94329834],[116.98870849600002,33.938293457],[116.98431396500001,33.932128906],[116.96667480500001,33.896484375],[116.95208740200002,33.872497559],[116.92712402300002,33.778320312],[116.92889404300001,33.730102539],[116.91650390600002,33.673522949],[116.85870361300002,33.666320801],[116.84210205100001,33.634277344],[116.85571289100001,33.603088379],[116.88647460900002,33.580322266],[116.91107177700002,33.561706543],[116.91290283200001,33.533508301],[116.89288330100001,33.505310059],[116.90008544900002,33.471313477],[116.91790771500001,33.442871094],[116.90728759800001,33.412475586],[116.89147949200002,33.381896973],[116.86370849600002,33.348693848],[116.88067627,33.31829834],[116.92590332000002,33.293518066],[116.96270752,33.277282715],[116.99688720700001,33.269470215],[117.04211425800001,33.259887695],[117.07629394500002,33.302490234],[117.07110595700001,33.329101562],[117.05908203100002,33.389709473],[117.09948730500001,33.387329102],[117.13372802700002,33.390075684],[117.15130615200002,33.420471191],[117.17907714800002,33.4375],[117.20208740200002,33.45892334],[117.22192382800002,33.482299805],[117.23510742200001,33.486083984],[117.30609130900001,33.479675293],[117.33947753900001,33.46307373],[117.36547851600001,33.437683105],[117.37908935500002,33.412902832],[117.40008544900002,33.376098633],[117.41772460900002,33.348876953],[117.45349121100001,33.328918457],[117.48828125000001,33.319885254],[117.53411865200002,33.323913574],[117.60668945300002,33.322875977],[117.65350341800001,33.320495605],[117.68408203100002,33.293884277],[117.71392822300001,33.273681641],[117.75451660200001,33.275695801],[117.79187011700002,33.276489258],[117.82708740200002,33.294311523],[117.86108398400002,33.312316895],[117.93829345700001,33.310913086],[117.94390869100002,33.339477539],[117.96807861300002,33.355102539],[118.00030517600001,33.397521973],[118.00787353500002,33.447692871],[118.01367187500001,33.475708008],[118.04010009800001,33.475891113],[118.08251953100002,33.485717773],[118.08007812500001,33.518676758],[118.078125,33.55871582],[118.08148193400001,33.597473145],[118.09912109400001,33.622314453],[118.13208007800002,33.646118164],[118.13610839800002,33.691894531],[118.12347412100002,33.735290527]]]}}
