{"type":"Feature","id":"bulk-99377448B58287137300640","bbox":[112.57470703100002,39.038513184,114.50189209000001,40.759277344],"properties":{"id":"bulk-99377448B58287137300640","name":"Datong","nameEn":"Datong","fullName":"Datong","level":"city","boundaryRole":"administrative-extent","boundaryQuality":"generalized-source-2020","boundaryYearRepresented":"2020","bounds":[[112.57470703100002,39.038513184],[114.50189209000001,40.759277344]],"center":[113.53829956050001,39.898895264000004],"centerMethod":"bounding-box midpoint; camera framing only","license":"CC-BY-3.0-IGO","attribution":"geoBoundaries / HDX, China administrative boundaries (2020)","source":{"provider":"geoBoundaries gbHumanitarian / HDX","url":"https://github.com/wmgeolab/geoBoundaries/raw/9469f09/releaseData/gbHumanitarian/CHN/ADM2/geoBoundaries-CHN-ADM2.geojson","metadataUrl":"https://www.geoboundaries.org/api/current/gbHumanitarian/CHN/ADM2/","shapeID":"99377448B58287137300640","shapeName":"Datong","boundaryID":"CHN-ADM2-99377448","commit":"9469f09"},"geometryCounts":{"coordinates":173,"components":1,"holes":0},"boundaryNotice":"geoBoundaries / HDX 2020 年行政区数据，海岸和边界经过源数据概化，并非当前测绘成果。"},"geometry":{"type":"Polygon","coordinates":[[[114.49768066400001,39.538879395],[114.50189209000001,39.55267334],[114.48272705100001,39.571716309],[114.44848632800002,39.600097656],[114.39410400400001,39.641113281],[114.39007568400001,39.644104004],[114.36212158200001,39.701477051],[114.36791992200001,39.724304199],[114.39508056600002,39.748291016],[114.39868164100001,39.801086426],[114.36932373000002,39.85949707],[114.34307861300002,39.860107422],[114.26190185500002,39.848876953],[114.18170166000002,39.86328125],[114.13012695300002,39.876098633],[114.08947753900001,39.891723633],[114.06329345700001,39.901672363],[114.00549316400001,39.9375],[113.98248291000002,39.961120605],[113.95812988300001,39.991699219],[113.90447998000002,39.993286133],[113.921875,40.022521973],[113.93969726600001,40.048706055],[113.94989013700001,40.095275879],[114.02532959000001,40.071289062],[114.03771972700001,40.056884766],[114.06311035200001,40.06427002],[114.06927490200002,40.098693848],[114.04907226600001,40.131896973],[114.06207275400001,40.167907715],[114.06268310500002,40.169494629],[114.09869384800001,40.175720215],[114.17071533200001,40.18548584],[114.20068359400001,40.21307373],[114.24249267600001,40.213684082],[114.25549316400001,40.210876465],[114.32232666000002,40.212524414],[114.36767578100002,40.239685059],[114.42230224600002,40.253295898],[114.47729492200001,40.282897949],[114.49011230500001,40.298278809],[114.47467041000002,40.305725098],[114.472473145,40.306884766],[114.45007324200002,40.31451416],[114.38592529300001,40.320678711],[114.32910156200002,40.334472656],[114.28948974600002,40.354919434],[114.27691650400001,40.369506836],[114.26849365200002,40.421875],[114.25811767600001,40.456481934],[114.24951171900001,40.506286621],[114.23510742200001,40.557922363],[114.22027587900001,40.60168457],[114.19732666000002,40.626098633],[114.16430664100001,40.642089844],[114.15032959000001,40.651306152],[114.13049316400001,40.663085937],[114.07971191400001,40.759277344],[114.04449462900001,40.751098633],[114.00427246100001,40.703125],[113.99987793000001,40.620300293],[113.97869873000002,40.534912109],[113.93109130900001,40.50189209],[113.89752197300001,40.49407959],[113.86407470700001,40.489074707],[113.82250976600001,40.49029541],[113.79467773400002,40.512512207],[113.76232910200001,40.531921387],[113.76092529300001,40.530883789],[113.71490478500002,40.496276855],[113.66668701200001,40.445495605],[113.63012695300002,40.37890625],[113.59130859400001,40.346130371],[113.54449462900001,40.322875977],[113.47332763700001,40.306274414],[113.42370605500001,40.307495117],[113.37829589800002,40.314880371],[113.32971191400001,40.340698242],[113.27789306600002,40.384887695],[113.23730468700002,40.407287598],[113.18408203100002,40.427124023],[113.13452148400002,40.428283691],[113.09667968700002,40.419921875],[113.054504395,40.402526855],[113.01629638700001,40.378723145],[112.98229980500001,40.361083984],[112.94110107400002,40.320129395],[112.90051269500002,40.280090332],[112.86010742200001,40.221496582],[112.83508300800001,40.192504883],[112.81347656200002,40.171325684],[112.79248046900001,40.162475586],[112.76770019500002,40.163085937],[112.72271728500002,40.173278809],[112.67749023400002,40.183288574],[112.64489746100001,40.199279785],[112.61669921900001,40.218322754],[112.59631347700001,40.23828125],[112.59088134800001,40.08392334],[112.60632324200002,40.044677734],[112.60412597700001,40.010314941],[112.59710693400001,39.981689453],[112.59271240200002,39.950683594],[112.58148193400001,39.907714844],[112.57470703100002,39.862121582],[112.58007812500001,39.835083008],[112.57971191400001,39.799682617],[112.58770752,39.760925293],[112.60748291000002,39.737487793],[112.64630127,39.724304199],[112.69750976600001,39.730712891],[112.76629638700001,39.739318848],[112.78808593700002,39.784912109],[112.84271240200002,39.796081543],[112.86108398400002,39.823730469],[112.89611816400001,39.839477539],[112.92431640600002,39.856079102],[112.93450927700002,39.885925293],[112.98413085900002,39.894470215],[113.04010009800001,39.890930176],[113.08569335900002,39.887329102],[113.14031982400002,39.905273437],[113.18469238300001,39.921508789],[113.22290039100001,39.931091309],[113.28051757800002,39.924072266],[113.33227539100001,39.910705566],[113.36090087900001,39.876098633],[113.36712646500001,39.83807373],[113.33929443400001,39.811279297],[113.32867431600002,39.778930664],[113.35247802700002,39.748291016],[113.40887451200001,39.722473145],[113.37567138700001,39.675476074],[113.36987304700001,39.647277832],[113.38049316400001,39.611328125],[113.39550781200002,39.587097168],[113.44567871100001,39.56427002],[113.46191406200002,39.520324707],[113.49188232400002,39.47467041],[113.53448486300002,39.435302734],[113.57507324200002,39.428527832],[113.61407470700001,39.42791748],[113.67248535200001,39.428894043],[113.72052002,39.403686523],[113.76171875000001,39.37310791],[113.81170654300001,39.364929199],[113.855285645,39.364929199],[113.89971923800002,39.310913086],[113.91668701200001,39.275512695],[113.89648437500001,39.225097656],[113.89508056600002,39.197875977],[113.90631103500002,39.150512695],[113.92572021500001,39.127502441],[113.94592285200001,39.097717285],[114.00347900400001,39.110290527],[114.04492187500001,39.08807373],[114.08367919900002,39.058898926],[114.15789794900002,39.038513184],[114.21270752,39.055725098],[114.25427246100001,39.091308594],[114.25787353500002,39.094299316],[114.27532959000001,39.088684082],[114.31091308600001,39.092895508],[114.31268310500002,39.134521484],[114.36352539100001,39.164916992],[114.43707275400001,39.176086426],[114.41412353500002,39.213928223],[114.39550781200002,39.271911621],[114.42687988300001,39.31427002],[114.45391845700001,39.363098145],[114.48150634800001,39.445495605],[114.48510742200001,39.498291016],[114.49768066400001,39.538879395]]]}}
