{"type":"Feature","id":"bulk-99377448B57619124203883","bbox":[113.97467041000002,35.463928223,114.72711181600002,36.051696777],"properties":{"id":"bulk-99377448B57619124203883","name":"Hebi","nameEn":"Hebi","fullName":"Hebi","level":"city","boundaryRole":"administrative-extent","boundaryQuality":"generalized-source-2020","boundaryYearRepresented":"2020","bounds":[[113.97467041000002,35.463928223],[114.72711181600002,36.051696777]],"center":[114.35089111300002,35.7578125],"centerMethod":"bounding-box midpoint; camera framing only","license":"CC-BY-3.0-IGO","attribution":"geoBoundaries / HDX, China administrative boundaries (2020)","source":{"provider":"geoBoundaries gbHumanitarian / HDX","url":"https://github.com/wmgeolab/geoBoundaries/raw/9469f09/releaseData/gbHumanitarian/CHN/ADM2/geoBoundaries-CHN-ADM2.geojson","metadataUrl":"https://www.geoboundaries.org/api/current/gbHumanitarian/CHN/ADM2/","shapeID":"99377448B57619124203883","shapeName":"Hebi","boundaryID":"CHN-ADM2-99377448","commit":"9469f09"},"geometryCounts":{"coordinates":61,"components":1,"holes":0},"boundaryNotice":"geoBoundaries / HDX 2020 年行政区数据，海岸和边界经过源数据概化，并非当前测绘成果。"},"geometry":{"type":"Polygon","coordinates":[[[113.97467041000002,35.717712402],[114.00592041000002,35.688293457],[114.00250244100002,35.661071777],[114.00488281200002,35.626098633],[114.02648925800001,35.586730957],[114.05529785200001,35.56652832],[114.11407470700001,35.551879883],[114.14508056600002,35.534729004],[114.18872070300002,35.512878418],[114.22070312500001,35.502929687],[114.25567627,35.502502441],[114.25347900400001,35.475524902],[114.31909179700001,35.463928223],[114.37390136700002,35.481689453],[114.38452148400002,35.510070801],[114.41088867200001,35.537902832],[114.44171142600001,35.555114746],[114.47589111300002,35.570495605],[114.50909423800002,35.580505371],[114.55029296900001,35.593078613],[114.58532714800002,35.621276855],[114.61547851600001,35.653686523],[114.64208984400001,35.673522949],[114.68792724600002,35.684082031],[114.72332763700001,35.699890137],[114.72711181600002,35.731689453],[114.71807861300002,35.760070801],[114.68969726600001,35.789489746],[114.65130615200002,35.813293457],[114.62792968700002,35.862915039],[114.55371093700002,35.847717285],[114.50488281200002,35.826477051],[114.46472168000001,35.815124512],[114.42089843700002,35.805725098],[114.37792968700002,35.796691895],[114.32373046900001,35.785522461],[114.28051757800002,35.780517578],[114.23370361300002,35.785888672],[114.22448730500001,35.821472168],[114.24371337900001,35.849914551],[114.27130127,35.877502441],[114.29608154300001,35.913879395],[114.28912353500002,35.948730469],[114.25927734400001,35.97052002],[114.21948242200001,35.993286133],[114.20031738300001,36.031311035],[114.13470459000001,36.051696777],[114.09667968700002,36.02331543],[114.08111572300001,35.995910645],[114.06311035200001,35.971923828],[114.02368164100001,35.976928711],[113.97711181600002,35.977478027],[113.99829101600001,35.937072754],[114.03710937500001,35.92388916],[114.05267334000001,35.899291992],[114.03912353500002,35.872924805],[114.01989746100001,35.849121094],[114.05047607400002,35.798095703],[114.02990722700001,35.772888184],[113.99707031200002,35.745300293],[113.97467041000002,35.717712402]]]}}
