{"type":"Feature","id":"bulk-99377448B23075849087634","bbox":[93.620910645,28.426086426,99.15270996100001,32.54510498],"properties":{"id":"bulk-99377448B23075849087634","name":"Qamdo","nameEn":"Qamdo","fullName":"Qamdo","level":"city","boundaryRole":"administrative-extent","boundaryQuality":"generalized-source-2020","boundaryYearRepresented":"2020","bounds":[[93.620910645,28.426086426],[99.15270996100001,32.54510498]],"center":[96.386810303,30.485595703],"centerMethod":"bounding-box midpoint; camera framing only","license":"CC-BY-3.0-IGO","attribution":"geoBoundaries / HDX, China administrative boundaries (2020)","source":{"provider":"geoBoundaries gbHumanitarian / HDX","url":"https://github.com/wmgeolab/geoBoundaries/raw/9469f09/releaseData/gbHumanitarian/CHN/ADM2/geoBoundaries-CHN-ADM2.geojson","metadataUrl":"https://www.geoboundaries.org/api/current/gbHumanitarian/CHN/ADM2/","shapeID":"99377448B23075849087634","shapeName":"Qamdo","boundaryID":"CHN-ADM2-99377448","commit":"9469f09"},"geometryCounts":{"coordinates":645,"components":1,"holes":0},"boundaryNotice":"geoBoundaries / HDX 2020 年行政区数据，海岸和边界经过源数据概化，并非当前测绘成果。"},"geometry":{"type":"Polygon","coordinates":[[[97.77209472700001,32.544494629],[97.745117187,32.509094238],[97.67388916000002,32.484924316],[97.61187744100002,32.491088867],[97.56072998,32.51348877],[97.42510986300002,32.54510498],[97.39489746100001,32.543701172],[97.36248779300001,32.506286621],[97.33648681600002,32.450683594],[97.39367675800001,32.426330566],[97.43707275400001,32.391479492],[97.378723145,32.354919434],[97.37689209000001,32.324279785],[97.41412353500002,32.315673828],[97.37030029300001,32.261901855],[97.35668945300002,32.299926758],[97.30969238300001,32.267883301],[97.27349853500002,32.180908203],[97.312683105,32.151916504],[97.26348877,32.092895508],[97.22491455100001,32.117492676],[97.19427490200002,32.099121094],[97.20690918000001,32.067321777],[97.18908691400001,32.035888672],[97.16790771500001,32.027282715],[97.112304687,32.043273926],[97.05468750000001,32.071472168],[97.00628662100002,32.088317871],[96.97808837900001,32.075683594],[96.96252441400001,32.064086914],[96.95648193400001,32.045288086],[96.946289062,32.017700195],[96.90728759800001,32.003479004],[96.85247802700002,32.01550293],[96.77130127,32.034301758],[96.74987793000001,32.032714844],[96.74267578100002,32.004089355],[96.73388671900001,31.944885254],[96.80310058600001,31.91229248],[96.75787353500002,31.850891113],[96.77252197300001,31.787902832],[96.82189941400001,31.756530762],[96.85107421900001,31.723083496],[96.78570556600002,31.672119141],[96.745117187,31.68951416],[96.69128418000001,31.709716797],[96.65350341800001,31.736083984],[96.58789062500001,31.760925293],[96.571289062,31.757324219],[96.497070312,31.774902344],[96.46130371100001,31.788879395],[96.43408203100002,31.841308594],[96.36889648400002,31.863525391],[96.36212158200001,31.89050293],[96.31030273400002,31.93572998],[96.23968505900001,31.930297852],[96.23608398400002,31.868896484],[96.18151855500001,31.846496582],[96.17608642600001,31.80090332],[96.22747802700002,31.766479492],[96.24249267600001,31.709106445],[96.27368164100001,31.665100098],[96.29632568400001,31.616699219],[96.304077148,31.570495605],[96.29931640600002,31.554077148],[96.253723145,31.555297852],[96.22271728500002,31.561096191],[96.20507812500001,31.574707031],[96.16607666000002,31.598876953],[96.16271972700001,31.663879395],[96.01312255900001,31.718322754],[95.91528320300002,31.73449707],[95.87890625000001,31.732116699],[95.81909179700001,31.68951416],[95.81530761700002,31.688476562],[95.752929687,31.760925293],[95.68048095700001,31.791687012],[95.64611816400001,31.790283203],[95.602905273,31.747497559],[95.49609375000001,31.794677734],[95.395507812,31.981689453],[95.42407226600001,32.009521484],[95.44750976600001,32.042907715],[95.44787597700001,32.06451416],[95.45147705100001,32.123291016],[95.35589599600002,32.201477051],[95.33508300800001,32.232116699],[95.33990478500002,32.228515625],[95.32952880900001,32.262878418],[95.22210693400001,32.261291504],[95.15911865200002,32.259887695],[95.11749267600001,32.268127441],[95.10192871100001,32.311096191],[95.04150390600002,32.343078613],[94.94128418000001,32.360290527],[94.93890380900001,32.367126465],[94.90130615200002,32.340087891],[94.89929199200002,32.307495117],[94.88330078100002,32.274719238],[94.85308837900001,32.250305176],[94.82330322300001,32.23828125],[94.77972412100002,32.227478027],[94.74151611300002,32.219726562],[94.73608398400002,32.190124512],[94.74530029300001,32.160095215],[94.743530273,32.129272461],[94.70989990200002,32.113891602],[94.70031738300001,32.081481934],[94.71008300800001,32.051513672],[94.70147705100001,32.020080566],[94.68811035200001,31.988525391],[94.679077148,31.952880859],[94.67108154300001,31.918518066],[94.66247558600001,31.891723633],[94.65209960900002,31.861694336],[94.66467285200001,31.831481934],[94.69732666000002,31.802124023],[94.73291015600002,31.790100098],[94.76092529300001,31.776123047],[94.77612304700001,31.736328125],[94.76287841800001,31.707275391],[94.72570800800001,31.686279297],[94.69610595700001,31.67388916],[94.69207763700001,31.645874023],[94.73187255900001,31.640686035],[94.75610351600001,31.610473633],[94.76452636700002,31.577514648],[94.79870605500001,31.565917969],[94.84631347700001,31.55871582],[94.877502441,31.549926758],[94.89971923800002,31.526123047],[94.91552734400001,31.493896484],[94.89770507800002,31.46270752],[94.86291503900001,31.439880371],[94.86590576200001,31.406494141],[94.89648437500001,31.392700195],[94.927124023,31.383911133],[94.96411132800002,31.36730957],[94.984924316,31.340515137],[94.99987793000001,31.304504395],[94.99768066400001,31.274719238],[94.97930908200001,31.244873047],[94.99011230500001,31.217529297],[95.01287841800001,31.192321777],[95.00311279300001,31.161315918],[94.96392822300001,31.163330078],[94.93048095700001,31.15612793],[94.89428710900002,31.142700195],[94.86608886700002,31.122497559],[94.82971191400001,31.114074707],[94.82611084000001,31.083129883],[94.78991699200002,31.090515137],[94.74230957000002,31.104125977],[94.722473145,31.147705078],[94.721679687,31.189086914],[94.72851562500001,31.233703613],[94.73608398400002,31.275085449],[94.75128173800002,31.309509277],[94.76928710900002,31.337890625],[94.73071289100001,31.350524902],[94.69250488300001,31.333679199],[94.65588378900001,31.317687988],[94.62628173800002,31.331115723],[94.62707519500002,31.372924805],[94.62731933600001,31.401123047],[94.61328125000001,31.427490234],[94.570495605,31.430908203],[94.54132080100001,31.411071777],[94.51989746100001,31.385498047],[94.49310302700002,31.368530273],[94.45928955100001,31.351928711],[94.42132568400001,31.358886719],[94.402526855,31.325683594],[94.35913085900002,31.308105469],[94.30468750000001,31.314086914],[94.294311523,31.283325195],[94.277893066,31.218322754],[94.25811767600001,31.194274902],[94.24072265600002,31.16607666],[94.22528076200001,31.137329102],[94.21789550800001,31.111083984],[94.23272705100001,31.079711914],[94.25708007800002,31.055725098],[94.27227783200001,31.028930664],[94.28350830100001,30.99987793],[94.30029296900001,30.961303711],[94.31768798800002,30.933288574],[94.32891845700001,30.907470703],[94.32989502,30.87512207],[94.31127929700001,30.845092773],[94.27947998,30.847106934],[94.24731445300002,30.86151123],[94.21472168000001,30.865722656],[94.16571044900002,30.849914551],[94.12072753900001,30.855102539],[94.086486816,30.859313965],[94.04931640600002,30.866699219],[94.010314941,30.86328125],[93.98547363300001,30.844116211],[93.95227050800001,30.834289551],[93.90930175800001,30.840087891],[93.886901855,30.861083984],[93.85308837900001,30.890075684],[93.80908203100002,30.903686523],[93.77130127,30.903686523],[93.72528076200001,30.908081055],[93.695495605,30.919494629],[93.65112304700001,30.927124023],[93.63348388700001,30.899291992],[93.620910645,30.874328613],[93.62451171900001,30.844116211],[93.65649414100001,30.843688965],[93.66528320300002,30.814086914],[93.69989013700001,30.819885254],[93.70629882800002,30.788085937],[93.68487548800002,30.764526367],[93.70812988300001,30.738708496],[93.74530029300001,30.718688965],[93.768127441,30.696472168],[93.79327392600001,30.671691895],[93.82647705100001,30.650085449],[93.85650634800001,30.620117187],[93.88952636700002,30.599914551],[93.927124023,30.596313477],[93.962280273,30.58770752],[93.99328613300001,30.573730469],[94.02532959000001,30.565673828],[94.02648925800001,30.536071777],[94.05291748,30.508728027],[94.096679687,30.498291016],[94.13012695300002,30.494506836],[94.17669677700002,30.502929687],[94.21130371100001,30.519714355],[94.24829101600001,30.541870117],[94.29412841800001,30.564880371],[94.32568359400001,30.580505371],[94.35852050800001,30.590698242],[94.38647460900002,30.5703125],[94.39971923800002,30.537719727],[94.43927002,30.535095215],[94.46887207000002,30.556518555],[94.48510742200001,30.588684082],[94.51251220700001,30.60369873],[94.55389404300001,30.621520996],[94.60028076200001,30.638122559],[94.64428710900002,30.65612793],[94.68389892600001,30.671081543],[94.72070312500001,30.661499023],[94.76287841800001,30.642272949],[94.80151367200001,30.613891602],[94.83868408200001,30.596130371],[94.87731933600001,30.575073242],[94.92327880900001,30.550109863],[94.96350097700001,30.546508789],[95.00207519500002,30.548095703],[95.05169677700002,30.555480957],[95.09967041000002,30.569885254],[95.11090087900001,30.602478027],[95.09967041000002,30.634277344],[95.10589599600002,30.667297363],[95.145080566,30.672302246],[95.17230224600002,30.644714355],[95.188476562,30.619689941],[95.22351074200002,30.63848877],[95.25030517600001,30.654907227],[95.28631591800001,30.660888672],[95.31610107400002,30.645507812],[95.35107421900001,30.633911133],[95.33868408200001,30.600708008],[95.33447265600002,30.564086914],[95.37310791000002,30.555114746],[95.40588378900001,30.570922852],[95.42749023400002,30.591308594],[95.46948242200001,30.608886719],[95.51708984400001,30.596313477],[95.553283691,30.585083008],[95.59448242200001,30.56829834],[95.64288330100001,30.561889648],[95.67749023400002,30.559692383],[95.71569824200002,30.544921875],[95.71392822300001,30.512329102],[95.704101562,30.486877441],[95.72711181600002,30.460083008],[95.75653076200001,30.442321777],[95.77447509800001,30.417480469],[95.80047607400002,30.387695312],[95.82269287100002,30.363098145],[95.86608886700002,30.351928711],[95.87750244100002,30.320678711],[95.887695312,30.293884277],[95.91467285200001,30.268676758],[95.94207763700001,30.244506836],[95.97210693400001,30.22467041],[96.00628662100002,30.225891113],[96.04870605500001,30.233886719],[96.08929443400001,30.23449707],[96.10211181600002,30.203491211],[96.14569091800001,30.195495605],[96.18408203100002,30.206481934],[96.21868896500001,30.227905273],[96.230285645,30.253295898],[96.245483398,30.285888672],[96.27532959000001,30.297485352],[96.32250976600001,30.310913086],[96.36767578100002,30.334899902],[96.43432617200001,30.331115723],[96.46588134800001,30.30670166],[96.47607421900001,30.272521973],[96.487304687,30.246520996],[96.52410888700001,30.253723145],[96.55969238300001,30.262084961],[96.58312988300001,30.240478516],[96.58587646500001,30.20690918],[96.59710693400001,30.1796875],[96.627929687,30.152099609],[96.66912841800001,30.146118164],[96.67547607400002,30.10168457],[96.66589355500001,30.066711426],[96.65850830100001,30.035095215],[96.62109375000001,29.996704102],[96.57891845700001,29.991271973],[96.571289062,29.957519531],[96.56652832000002,29.915100098],[96.54870605500001,29.883117676],[96.52789306600002,29.853515625],[96.50689697300001,29.821899414],[96.497070312,29.793273926],[96.52008056600002,29.757507324],[96.54931640600002,29.726501465],[96.57550048800002,29.694702148],[96.58892822300001,29.669677734],[96.59149169900002,29.632873535],[96.57568359400001,29.607910156],[96.54412841800001,29.576721191],[96.51611328100002,29.545715332],[96.49108886700002,29.517089844],[96.47412109400001,29.493896484],[96.47827148400002,29.460876465],[96.49090576200001,29.423278809],[96.495117187,29.395874023],[96.53588867200001,29.395324707],[96.57110595700001,29.395507812],[96.58172607400002,29.367126465],[96.61132812500001,29.321716309],[96.63671875000001,29.292297363],[96.65509033200001,29.265075684],[96.67449951200001,29.242126465],[96.71649169900002,29.24609375],[96.74890136700002,29.241088867],[96.77392578100002,29.224121094],[96.79827880900001,29.199279785],[96.83312988300001,29.156677246],[96.86871337900001,29.132873535],[96.90112304700001,29.122497559],[96.94110107400002,29.139099121],[96.94732666000002,29.173278809],[96.97851562500001,29.218688965],[96.99328613300001,29.244689941],[96.98449707000002,29.276916504],[96.99609375000001,29.319274902],[96.99810791000002,29.363891602],[96.99249267600001,29.39630127],[96.95971679700001,29.406494141],[96.95391845700001,29.440673828],[96.98468017600001,29.462280273],[96.99108886700002,29.489685059],[97.03228759800001,29.50567627],[97.08172607400002,29.503723145],[97.10913085900002,29.523498535],[97.13269043000001,29.495117187],[97.16772460900002,29.461914062],[97.17468261700002,29.431884766],[97.221679687,29.437316895],[97.27331543000001,29.446716309],[97.30352783200001,29.459716797],[97.33111572300001,29.472473145],[97.370483398,29.471679687],[97.38592529300001,29.434875488],[97.38031005900001,29.403503418],[97.40130615200002,29.373474121],[97.41687011700002,29.344726562],[97.43029785200001,29.29888916],[97.45172119100002,29.263916016],[97.46490478500002,29.225891113],[97.46447753900001,29.182922363],[97.46350097700001,29.141479492],[97.47070312500001,29.112487793],[97.502929687,29.088928223],[97.53552246100001,29.092102051],[97.57788085900002,29.113098145],[97.57391357400002,29.141113281],[97.54467773400002,29.160705566],[97.53369140600002,29.19708252],[97.53912353500002,29.223876953],[97.55047607400002,29.254699707],[97.57507324200002,29.278076172],[97.622070312,29.283325195],[97.663879395,29.27130127],[97.69152832000002,29.258911133],[97.73291015600002,29.230102539],[97.76727294900002,29.204711914],[97.79852294900002,29.181274414],[97.80688476600001,29.153503418],[97.82208252,29.122070312],[97.84387207000002,29.096679687],[97.87689209000001,29.089111328],[97.91668701200001,29.096496582],[97.95507812500001,29.110473633],[98.00592041000002,29.139526367],[98.04370117200001,29.12890625],[98.07568359400001,29.120910645],[98.09008789100001,29.083129883],[98.06530761700002,29.056274414],[98.03948974600002,29.043884277],[98.04010009800001,29.03729248],[98.04272460900002,29.032287598],[98.04870605500001,29.02911377],[98.06329345700001,29.029907227],[98.077514648,29.035095215],[98.08367919900002,29.033081055],[98.08587646500001,29.028076172],[98.08892822300001,29.014709473],[98.09490966800001,29.002502441],[98.086120605,28.980895996],[98.08673095700001,28.971679687],[98.09088134800001,28.966125488],[98.11029052700002,28.943481445],[98.13012695300002,28.907714844],[98.13592529300001,28.90612793],[98.14190673800002,28.90411377],[98.14849853500002,28.897705078],[98.14709472700001,28.87487793],[98.14569091800001,28.870483398],[98.145874023,28.865478516],[98.15130615200002,28.862487793],[98.16210937500001,28.859680176],[98.17291259800001,28.862304687],[98.17651367200001,28.862487793],[98.19049072300001,28.859680176],[98.20208740200002,28.861328125],[98.21008300800001,28.870117187],[98.22747802700002,28.897277832],[98.22888183600001,28.903320312],[98.22711181600002,28.915893555],[98.22851562500001,28.920288086],[98.23449707000002,28.920715332],[98.23748779300001,28.91809082],[98.24011230500001,28.913513184],[98.245117187,28.908508301],[98.25708007800002,28.906677246],[98.25927734400001,28.903503418],[98.25891113300001,28.895874023],[98.25811767600001,28.894287109],[98.26550293000001,28.888671875],[98.27850341800001,28.88269043],[98.29370117200001,28.876098633],[98.30468750000001,28.858886719],[98.31170654300001,28.833129883],[98.31628418000001,28.809875488],[98.32031250000001,28.799072266],[98.32531738300001,28.795898437],[98.33331298800002,28.792297363],[98.34948730500001,28.786499023],[98.35827636700002,28.784301758],[98.36590576200001,28.774719238],[98.370483398,28.768310547],[98.37731933600001,28.764282227],[98.39007568400001,28.765075684],[98.41088867200001,28.773925781],[98.41967773400002,28.775878906],[98.43707275400001,28.776916504],[98.43890380900001,28.776306152],[98.45007324200002,28.772094727],[98.45550537100002,28.762878418],[98.47412109400001,28.725097656],[98.47967529300001,28.717102051],[98.47930908200001,28.709472656],[98.47967529300001,28.705078125],[98.47552490200002,28.694091797],[98.48052978500002,28.669128418],[98.48010253900001,28.64630127],[98.48431396500001,28.631103516],[98.50048828100002,28.599487305],[98.51928710900002,28.580322266],[98.53948974600002,28.569519043],[98.54809570300002,28.558105469],[98.55468750000001,28.547485352],[98.55133056600002,28.543273926],[98.54272460900002,28.539123535],[98.53790283200001,28.528930664],[98.54028320300002,28.520690918],[98.54168701200001,28.512878418],[98.571289062,28.484313965],[98.59368896500001,28.466918945],[98.61688232400002,28.458312988],[98.66949462900001,28.445678711],[98.70428466800001,28.431091309],[98.72967529300001,28.426086426],[98.71051025400001,28.452697754],[98.66687011700002,28.536499023],[98.63452148400002,28.66229248],[98.67651367200001,28.678527832],[98.69891357400002,28.694702148],[98.70367431600002,28.719909668],[98.71289062500001,28.741882324],[98.70568847700001,28.765930176],[98.67248535200001,28.801330566],[98.69030761700002,28.820678711],[98.69647216800001,28.835510254],[98.68872070300002,28.862915039],[98.68890380900001,28.922729492],[98.66851806600002,28.952514648],[98.68292236300002,28.967895508],[98.73327636700002,28.986877441],[98.77447509800001,29.015686035],[98.80407714800002,29.007873535],[98.82269287100002,28.960510254],[98.84027099600002,28.888305664],[98.84808349600002,28.829101562],[98.85388183600001,28.815673828],[98.89508056600002,28.812683105],[98.96490478500002,28.840515137],[98.97912597700001,28.855895996],[98.97729492200001,28.869873047],[98.94592285200001,28.891479492],[98.94049072300001,28.933288574],[98.97052002,28.985290527],[99.02252197300001,29.025512695],[99.03588867200001,29.047912598],[99.03149414100001,29.082702637],[99.01251220700001,29.102111816],[98.99688720700001,29.128723145],[98.98950195300002,29.184326172],[99.01208496100001,29.200500488],[99.04467773400002,29.200073242],[99.07708740200002,29.203125],[99.15270996100001,29.22088623],[99.14093017600001,29.247924805],[99.10729980500001,29.28692627],[99.10150146500001,29.300476074],[99.11688232400002,29.340515137],[99.11450195300002,29.357910156],[99.09289550800001,29.398071289],[99.10369873,29.44128418],[99.09649658200001,29.465270996],[99.08209228500002,29.481506348],[99.06909179700001,29.518920898],[99.07891845700001,29.537475586],[99.05590820300002,29.58807373],[99.03747558600001,29.603881836],[99.01208496100001,29.640686035],[99.01428222700001,29.717712402],[99.02392578100002,29.739685059],[99.04907226600001,29.766479492],[99.05010986300002,29.791320801],[99.10070800800001,29.908508301],[99.10131835900002,29.936706543],[99.05950927700002,30.097717285],[99.03411865200002,30.134094238],[99.03088378900001,30.221496582],[99.00708007800002,30.243896484],[99.004089355,30.268127441],[99.01727294900002,30.293884277],[99.020507812,30.309509277],[99.01812744100002,30.315490723],[99.00592041000002,30.367126465],[99.00732421900001,30.391723633],[99.01489257800002,30.40612793],[98.99932861300002,30.460693359],[98.96508789100001,30.499694824],[98.97491455100001,30.581298828],[98.96667480500001,30.612121582],[98.92468261700002,30.646728516],[98.93591308600001,30.686279297],[98.95068359400001,30.701721191],[98.98529052700002,30.722473145],[98.99951171900001,30.741516113],[98.99670410200001,30.762329102],[98.97149658200001,30.794921875],[98.94451904300001,30.809875488],[98.92932128900001,30.829528809],[98.89990234400001,30.861877441],[98.83709716800001,30.894470215],[98.82287597700001,30.907287598],[98.83551025400001,30.968078613],[98.83068847700001,31.002685547],[98.81048584000001,31.028686523],[98.770507812,31.046081543],[98.74847412100002,31.074890137],[98.74688720700001,31.096496582],[98.74072265600002,31.141479492],[98.65087890600002,31.18548584],[98.64709472700001,31.21307373],[98.65148925800001,31.241516113],[98.64807128900001,31.265686035],[98.65972900400001,31.273925781],[98.65808105500001,31.315917969],[98.66809082000002,31.334289551],[98.68408203100002,31.339294434],[98.72192382800002,31.339477539],[98.74047851600001,31.327087402],[98.75170898400002,31.307312012],[98.79730224600002,31.279907227],[98.82208252,31.282287598],[98.83789062500001,31.290893555],[98.86169433600001,31.331481934],[98.89892578100002,31.366699219],[98.89709472700001,31.380493164],[98.88452148400002,31.410888672],[98.87951660200001,31.417480469],[98.83648681600002,31.455322266],[98.78369140600002,31.502929687],[98.70629882800002,31.544677734],[98.69470214800002,31.568115234],[98.62048339800002,31.617126465],[98.58868408200001,31.663085937],[98.57373046900001,31.710876465],[98.54327392600001,31.746520996],[98.47808837900001,31.789123535],[98.45208740200002,31.793701172],[98.44128418000001,31.841674805],[98.402526855,31.876525879],[98.39892578100002,31.900695801],[98.44610595700001,31.926330566],[98.44567871100001,31.989318848],[98.43389892600001,32.012695312],[98.33648681600002,32.101318359],[98.31072998,32.161682129],[98.22869873,32.236328125],[98.22692871100001,32.351928711],[98.20611572300001,32.365478516],[98.18908691400001,32.376281738],[98.17291259800001,32.384277344],[98.153320312,32.38848877],[98.12652587900001,32.389099121],[98.09289550800001,32.410705566],[98.06811523400002,32.42388916],[98.04571533200001,32.446716309],[98.01910400400001,32.44708252],[98.00128173800002,32.439086914],[97.95391845700001,32.450073242],[97.929870605,32.457092285],[97.87188720700001,32.488708496],[97.84808349600002,32.520874023],[97.77209472700001,32.544494629]]]}}
