{"type":"Feature","id":"bulk-99377448B28422113633305","bbox":[113.54730224600002,26.94708252,114.25030517600001,27.996704102],"properties":{"id":"bulk-99377448B28422113633305","name":"Pingxiang","nameEn":"Pingxiang","fullName":"Pingxiang","level":"city","boundaryRole":"administrative-extent","boundaryQuality":"generalized-source-2020","boundaryYearRepresented":"2020","bounds":[[113.54730224600002,26.94708252],[114.25030517600001,27.996704102]],"center":[113.89880371100001,27.471893311],"centerMethod":"bounding-box midpoint; camera framing only","license":"CC-BY-3.0-IGO","attribution":"geoBoundaries / HDX, China administrative boundaries (2020)","source":{"provider":"geoBoundaries gbHumanitarian / HDX","url":"https://github.com/wmgeolab/geoBoundaries/raw/9469f09/releaseData/gbHumanitarian/CHN/ADM2/geoBoundaries-CHN-ADM2.geojson","metadataUrl":"https://www.geoboundaries.org/api/current/gbHumanitarian/CHN/ADM2/","shapeID":"99377448B28422113633305","shapeName":"Pingxiang","boundaryID":"CHN-ADM2-99377448","commit":"9469f09"},"geometryCounts":{"coordinates":99,"components":1,"holes":0},"boundaryNotice":"geoBoundaries / HDX 2020 年行政区数据，海岸和边界经过源数据概化，并非当前测绘成果。"},"geometry":{"type":"Polygon","coordinates":[[[114.25030517600001,27.561706543],[114.21649169900002,27.584106445],[114.20288085900002,27.614074707],[114.20288085900002,27.641906738],[114.19470214800002,27.674316406],[114.16748046900001,27.697692871],[114.14190673800002,27.718078613],[114.10992431600002,27.728881836],[114.06567382800002,27.719299316],[114.02832031200002,27.715270996],[113.98492431600002,27.717712402],[113.95391845700001,27.731506348],[113.94830322300001,27.760070801],[113.92712402300002,27.783081055],[113.89587402300002,27.804870605],[113.89868164100001,27.832702637],[113.92150878900001,27.852905273],[113.95471191400001,27.873474121],[113.98168945300002,27.901123047],[113.96472168000001,27.931518555],[113.929504395,27.948120117],[113.83990478500002,27.996704102],[113.82531738300001,27.99407959],[113.78289794900002,27.981689453],[113.75988769500002,27.96887207],[113.72888183600001,27.957275391],[113.72308349600002,27.93951416],[113.70910644500002,27.917480469],[113.69732666000002,27.864501953],[113.71612548800002,27.844116211],[113.72131347700001,27.817077637],[113.71069335900002,27.802124023],[113.69970703100002,27.780883789],[113.68487548800002,27.76348877],[113.67431640600002,27.752929687],[113.65631103500002,27.727478027],[113.64129638700001,27.707275391],[113.62048339800002,27.663085937],[113.58728027300002,27.611083984],[113.57110595700001,27.609680176],[113.54730224600002,27.599487305],[113.55133056600002,27.565490723],[113.55847168000001,27.534912109],[113.57427978500002,27.518493652],[113.59191894500002,27.522521973],[113.59332275400001,27.503723145],[113.58532714800002,27.476074219],[113.56652832000002,27.462280273],[113.57629394500002,27.442321777],[113.59307861300002,27.428527832],[113.59930419900002,27.413330078],[113.60168457000002,27.407714844],[113.58648681600002,27.382080078],[113.63012695300002,27.340698242],[113.65747070300002,27.338317871],[113.74792480500001,27.372680664],[113.81127929700001,27.38269043],[113.83392334000001,27.38848877],[113.85327148400002,27.37890625],[113.86090087900001,27.37512207],[113.85412597700001,27.356506348],[113.82147216800001,27.320678711],[113.83148193400001,27.285522461],[113.83447265600002,27.252319336],[113.81567382800002,27.233886719],[113.79968261700002,27.213684082],[113.76428222700001,27.153930664],[113.75231933600001,27.11730957],[113.74749755900001,27.102294922],[113.77392578100002,27.072875977],[113.80108642600001,27.064086914],[113.82232666000002,27.032287598],[113.85711669900002,26.982116699],[113.87371826200001,26.967285156],[113.88348388700001,26.94708252],[113.91149902300002,26.958679199],[113.92633056600002,26.99230957],[113.94488525400001,27.018676758],[113.98010253900001,27.055908203],[114.00268554700001,27.091918945],[114.01452636700002,27.11730957],[114.04431152300002,27.150878906],[114.09008789100001,27.175720215],[114.105285645,27.172119141],[114.13769531200002,27.235717773],[114.13732910200001,27.264892578],[114.12152099600002,27.292114258],[114.08551025400001,27.313476562],[114.04711914100001,27.341308594],[114.02490234400001,27.36932373],[114.04248046900001,27.401672363],[114.07250976600001,27.408691406],[114.10607910200001,27.413696289],[114.14752197300001,27.427124023],[114.17669677700002,27.453674316],[114.18872070300002,27.485107422],[114.20269775400001,27.512084961],[114.22747802700002,27.534484863],[114.25030517600001,27.561706543]]]}}
