{"type":"Feature","id":"bulk-99377448B37407569159360","bbox":[108.56170654300001,34.807312012,109.46368408200001,35.56829834],"properties":{"id":"bulk-99377448B37407569159360","name":"Tongchuan","nameEn":"Tongchuan","fullName":"Tongchuan","level":"city","boundaryRole":"administrative-extent","boundaryQuality":"generalized-source-2020","boundaryYearRepresented":"2020","bounds":[[108.56170654300001,34.807312012],[109.46368408200001,35.56829834]],"center":[109.01269531250001,35.187805176],"centerMethod":"bounding-box midpoint; camera framing only","license":"CC-BY-3.0-IGO","attribution":"geoBoundaries / HDX, China administrative boundaries (2020)","source":{"provider":"geoBoundaries gbHumanitarian / HDX","url":"https://github.com/wmgeolab/geoBoundaries/raw/9469f09/releaseData/gbHumanitarian/CHN/ADM2/geoBoundaries-CHN-ADM2.geojson","metadataUrl":"https://www.geoboundaries.org/api/current/gbHumanitarian/CHN/ADM2/","shapeID":"99377448B37407569159360","shapeName":"Tongchuan","boundaryID":"CHN-ADM2-99377448","commit":"9469f09"},"geometryCounts":{"coordinates":67,"components":1,"holes":0},"boundaryNotice":"geoBoundaries / HDX 2020 年行政区数据，海岸和边界经过源数据概化，并非当前测绘成果。"},"geometry":{"type":"Polygon","coordinates":[[[108.94128418000001,34.82208252],[108.97210693400001,34.846679687],[108.97650146500001,34.88067627],[108.99890136700002,34.90447998],[109.04412841800001,34.909118652],[109.08447265600002,34.917907715],[109.10107421900001,34.94732666],[109.11468505900001,34.975097656],[109.15808105500001,34.98828125],[109.20428466800001,35.003479004],[109.23651123000002,35.053283691],[109.24627685500002,35.08190918],[109.27532959000001,35.096496582],[109.30792236300002,35.086486816],[109.35632324200002,35.085083008],[109.39093017600001,35.099914551],[109.40728759800001,35.151672363],[109.36370849600002,35.166870117],[109.32049560500002,35.1796875],[109.29132080100001,35.207885742],[109.28631591800001,35.239685059],[109.32031250000001,35.272277832],[109.35552978500002,35.288085937],[109.40570068400001,35.310913086],[109.44708252,35.33190918],[109.46368408200001,35.389282227],[109.45208740200002,35.420288086],[109.44970703100002,35.466125488],[109.43688964800002,35.49987793],[109.35430908200001,35.510314941],[109.29388427700002,35.515319824],[109.25769043000001,35.521728516],[109.20410156200002,35.546081543],[109.17211914100001,35.56829834],[109.11468505900001,35.561706543],[109.08007812500001,35.549926758],[109.04827880900001,35.537719727],[109.01708984400001,35.525512695],[108.97912597700001,35.49407959],[108.96490478500002,35.469299316],[108.95770263700001,35.43548584],[108.95269775400001,35.394714355],[108.93109130900001,35.36730957],[108.89312744100002,35.351928711],[108.84368896500001,35.330688477],[108.85028076200001,35.30291748],[108.80548095700001,35.301696777],[108.74890136700002,35.278686523],[108.70007324200002,35.246276855],[108.67352294900002,35.214477539],[108.663879395,35.187683105],[108.63928222700001,35.163879395],[108.62127685500002,35.13848877],[108.63568115200002,35.114318848],[108.59631347700001,35.099914551],[108.60888671900001,35.071289062],[108.56170654300001,35.038513184],[108.61352539100001,34.989074707],[108.64050293000001,34.95111084],[108.66711425800001,34.904907227],[108.68487548800002,34.877929687],[108.72991943400001,34.860717773],[108.77789306600002,34.844299316],[108.79827880900001,34.81652832],[108.84429931600002,34.807312012],[108.89508056600002,34.818481445],[108.94128418000001,34.82208252]]]}}
