{"type":"Feature","id":"bulk-99377448B61684057272806","bbox":[109.72131347700001,19.373718262,110.25408935500002,20.010070801],"properties":{"id":"bulk-99377448B61684057272806","name":"Chengmai County","nameEn":"Chengmai County","fullName":"Chengmai County","level":"city","boundaryRole":"administrative-extent","boundaryQuality":"generalized-source-2020","boundaryYearRepresented":"2020","bounds":[[109.72131347700001,19.373718262],[110.25408935500002,20.010070801]],"center":[109.98770141600002,19.6918945315],"centerMethod":"bounding-box midpoint; camera framing only","license":"CC-BY-3.0-IGO","attribution":"geoBoundaries / HDX, China administrative boundaries (2020)","source":{"provider":"geoBoundaries gbHumanitarian / HDX","url":"https://github.com/wmgeolab/geoBoundaries/raw/9469f09/releaseData/gbHumanitarian/CHN/ADM2/geoBoundaries-CHN-ADM2.geojson","metadataUrl":"https://www.geoboundaries.org/api/current/gbHumanitarian/CHN/ADM2/","shapeID":"99377448B61684057272806","shapeName":"Chengmai County","boundaryID":"CHN-ADM2-99377448","commit":"9469f09"},"geometryCounts":{"coordinates":1380,"components":10,"holes":0},"boundaryNotice":"geoBoundaries / HDX 2020 年行政区数据，海岸和边界经过源数据概化，并非当前测绘成果。"},"geometry":{"type":"MultiPolygon","coordinates":[[[[110.25408935500002,19.692687988],[110.24951171900001,19.690124512],[110.24432373000002,19.688293457],[110.23449707000002,19.68548584],[110.22967529300001,19.684509277],[110.22491455100001,19.682495117],[110.21649169900002,19.684509277],[110.21472168000001,19.691894531],[110.21472168000001,19.698303223],[110.21551513700001,19.702880859],[110.21752929700001,19.70690918],[110.21691894500002,19.71307373],[110.21307373000002,19.715087891],[110.20947265600002,19.721130371],[110.20648193400001,19.72668457],[110.20648193400001,19.733886719],[110.20849609400001,19.740112305],[110.21289062500001,19.74407959],[110.21649169900002,19.748718262],[110.22027587900001,19.752685547],[110.22290039100001,19.757507324],[110.22210693400001,19.764709473],[110.21868896500001,19.771484375],[110.21508789100001,19.775878906],[110.21130371100001,19.780273437],[110.20770263700001,19.785888672],[110.20391845700001,19.790710449],[110.20269775400001,19.796081543],[110.20208740200002,19.801086426],[110.20208740200002,19.808288574],[110.20172119100002,19.812683105],[110.20227050800001,19.817871094],[110.203125,19.82409668],[110.203125,19.829711914],[110.20330810500002,19.833679199],[110.20190429700001,19.841308594],[110.19989013700001,19.842895508],[110.19451904300001,19.844726562],[110.18688964800002,19.847106934],[110.17291259800001,19.847106934],[110.17047119100002,19.850524902],[110.17211914100001,19.85369873],[110.18029785200001,19.85369873],[110.18212890600002,19.862487793],[110.17608642600001,19.868103027],[110.17150878900001,19.86932373],[110.163879395,19.86932373],[110.15631103500002,19.866088867],[110.14508056600002,19.862121582],[110.13909912100002,19.860473633],[110.13531494100002,19.862670898],[110.13629150400001,19.865112305],[110.13952636700002,19.867126465],[110.14550781200002,19.86932373],[110.14892578100002,19.874511719],[110.14752197300001,19.882507324],[110.14630127,19.884094238],[110.14331054700001,19.888122559],[110.14050293000001,19.891906738],[110.14093017600001,19.898498535],[110.14508056600002,19.901916504],[110.14990234400001,19.907104492],[110.14831543000001,19.913513184],[110.14367675800001,19.914123535],[110.13708496100001,19.912719727],[110.13452148400002,19.914123535],[110.13372802700002,19.920288086],[110.13549804700001,19.928527832],[110.13970947300001,19.930908203],[110.14489746100001,19.92767334],[110.15032959000001,19.928894043],[110.15032959000001,19.93548584],[110.15069580100001,19.943908691],[110.15167236300002,19.951293945],[110.15368652300002,19.956726074],[110.15612793000001,19.963684082],[110.15789794900002,19.968505859],[110.15692138700001,19.972106934],[110.15588378900001,19.976501465],[110.15472412100002,19.981079102],[110.15350341800001,19.986877441],[110.15289306600002,19.99029541],[110.15332031200002,19.993713379],[110.15270996100001,19.997497559],[110.15228271500001,20.00012207],[110.15228271500001,20.000305176],[110.15167236300002,20.00012207],[110.14147949200002,19.995727539],[110.13909912100002,19.992675781],[110.13549804700001,19.980712891],[110.12371826200001,19.975708008],[110.12127685500002,19.972473145],[110.12188720700001,19.97088623],[110.12249755900001,19.97088623],[110.12249755900001,19.971313477],[110.12292480500001,19.971313477],[110.12292480500001,19.971679687],[110.12329101600001,19.971679687],[110.12329101600001,19.971923828],[110.12408447300001,19.971923828],[110.12408447300001,19.971679687],[110.12487793000001,19.971679687],[110.12487793000001,19.971496582],[110.12487793000001,19.971313477],[110.12609863300001,19.971313477],[110.12609863300001,19.970703125],[110.12628173800002,19.970703125],[110.12628173800002,19.970275879],[110.12487793000001,19.970275879],[110.12469482400002,19.970275879],[110.12469482400002,19.970092773],[110.12469482400002,19.969909668],[110.12451171900001,19.969909668],[110.12292480500001,19.969909668],[110.12292480500001,19.969726562],[110.12268066400001,19.969726562],[110.12268066400001,19.969482422],[110.12432861300002,19.966308594],[110.12329101600001,19.96307373],[110.11932373000002,19.966918945],[110.11932373000002,19.966674805],[110.11907959000001,19.966674805],[110.11907959000001,19.965881348],[110.11889648400002,19.965881348],[110.11889648400002,19.965515137],[110.11853027300002,19.965515137],[110.11853027300002,19.964904785],[110.11828613300001,19.964904785],[110.11828613300001,19.964294434],[110.11791992200001,19.964294434],[110.11791992200001,19.963684082],[110.11767578100002,19.963684082],[110.11767578100002,19.963317871],[110.11749267600001,19.963317871],[110.11749267600001,19.962890625],[110.11590576200001,19.962890625],[110.11572265600002,19.962890625],[110.11572265600002,19.963317871],[110.11627197300001,19.963317871],[110.11627197300001,19.964904785],[110.11511230500001,19.964904785],[110.11468505900001,19.964904785],[110.11468505900001,19.965087891],[110.11431884800001,19.965087891],[110.11431884800001,19.965698242],[110.11468505900001,19.965698242],[110.11468505900001,19.965881348],[110.11492919900002,19.965881348],[110.11492919900002,19.966674805],[110.11511230500001,19.966674805],[110.11511230500001,19.966918945],[110.11547851600001,19.966918945],[110.11547851600001,19.967102051],[110.11572265600002,19.967102051],[110.11572265600002,19.967712402],[110.11608886700002,19.967712402],[110.11608886700002,19.967895508],[110.11627197300001,19.967895508],[110.11627197300001,19.968505859],[110.11651611300002,19.968505859],[110.11651611300002,19.969299316],[110.11688232400002,19.969299316],[110.11688232400002,19.969482422],[110.11468505900001,19.971496582],[110.11212158200001,19.972900391],[110.11169433600001,19.972900391],[110.11108398400002,19.972900391],[110.11108398400002,19.973083496],[110.11108398400002,19.973327637],[110.11071777300002,19.973327637],[110.11071777300002,19.973510742],[110.11010742200001,19.973510742],[110.11010742200001,19.973876953],[110.10992431600002,19.973876953],[110.10992431600002,19.974121094],[110.10968017600001,19.974121094],[110.10949707000002,19.974304199],[110.10913085900002,19.974304199],[110.10913085900002,19.974487305],[110.10913085900002,19.97467041],[110.10888671900001,19.97467041],[110.10552978500002,19.975097656],[110.09307861300002,19.972106934],[110.08532714800002,19.970092773],[110.08111572300001,19.97052002],[110.06848144500002,19.978881836],[110.06292724600002,19.978271484],[110.05810546900001,19.975524902],[110.05047607400002,19.965698242],[110.03808593700002,19.959472656],[110.02929687500001,19.959472656],[110.02551269500002,19.95690918],[110.02368164100001,19.954528809],[110.02368164100001,19.950500488],[110.02947998000002,19.950073242],[110.03070068400001,19.946716309],[110.02667236300002,19.937072754],[110.02551269500002,19.935913086],[110.02551269500002,19.93572998],[110.02569580100001,19.93572998],[110.02569580100001,19.93548584],[110.02630615200002,19.93548584],[110.02630615200002,19.935119629],[110.02648925800001,19.935119629],[110.02648925800001,19.934875488],[110.02868652300002,19.934875488],[110.02868652300002,19.934082031],[110.02850341800001,19.934082031],[110.02850341800001,19.933898926],[110.02709960900002,19.933898926],[110.02709960900002,19.934082031],[110.02630615200002,19.934082031],[110.02630615200002,19.934326172],[110.02569580100001,19.934326172],[110.02569580100001,19.934692383],[110.02508544900002,19.934692383],[110.02508544900002,19.934875488],[110.02471923800002,19.934875488],[110.02471923800002,19.935119629],[110.02270507800002,19.93347168],[110.01470947300001,19.928710937],[110.01007080100001,19.928527832],[110.00628662100002,19.930480957],[110.00427246100001,19.930480957],[110.00427246100001,19.930725098],[110.00207519500002,19.930725098],[110.00207519500002,19.930114746],[110.00207519500002,19.929870605],[110.00109863300001,19.929870605],[110.00109863300001,19.930114746],[110.00067138700001,19.930114746],[110.00067138700001,19.930480957],[109.99987793000001,19.930480957],[109.99969482400002,19.930480957],[109.99969482400002,19.931091309],[109.99932861300002,19.931091309],[109.99627685500002,19.930908203],[109.99267578100002,19.927490234],[109.99847412100002,19.924316406],[110.00012207000002,19.924316406],[110.00610351600001,19.92388916],[110.00988769500002,19.921875],[110.01232910200001,19.918273926],[110.01269531200002,19.913696289],[110.01092529300001,19.908081055],[110.00872802700002,19.907714844],[110.00170898400002,19.915283203],[110.00012207000002,19.91607666],[109.99768066400001,19.917480469],[109.99688720700001,19.913330078],[110.00012207000002,19.905090332],[110.00128173800002,19.901916504],[110.00012207000002,19.900085449],[109.99908447300001,19.898681641],[109.99652099600002,19.89831543],[109.99029541000002,19.905273437],[109.98211669900002,19.904907227],[109.96990966800001,19.913879395],[109.96289062500001,19.917114258],[109.96051025400001,19.919494629],[109.95788574200002,19.922119141],[109.95709228500002,19.924072266],[109.95867919900002,19.926513672],[109.96887207000002,19.926330566],[109.97692871100001,19.924682617],[109.97692871100001,19.924926758],[109.97711181600002,19.924926758],[109.97711181600002,19.925292969],[109.97747802700002,19.925292969],[109.97747802700002,19.925476074],[109.97772216800001,19.925476074],[109.97772216800001,19.925720215],[109.97827148400002,19.925720215],[109.97827148400002,19.926086426],[109.97851562500001,19.926086426],[109.97851562500001,19.926330566],[109.97912597700001,19.926330566],[109.97912597700001,19.926513672],[109.97930908200001,19.926513672],[109.97930908200001,19.926879883],[109.97991943400001,19.926879883],[109.97991943400001,19.927124023],[109.980285645,19.927124023],[109.980285645,19.927490234],[109.98071289100001,19.927490234],[109.98089599600002,19.92767334],[109.98132324200002,19.928283691],[109.98388671900001,19.93170166],[109.98712158200001,19.940307617],[109.98669433600001,19.94152832],[109.98651123000002,19.94152832],[109.98651123000002,19.941894531],[109.98632812500001,19.941894531],[109.98632812500001,19.942077637],[109.98571777300002,19.942077637],[109.98571777300002,19.942504883],[109.98547363300001,19.942504883],[109.98547363300001,19.941894531],[109.98510742200001,19.941894531],[109.98510742200001,19.942077637],[109.98431396500001,19.942077637],[109.98431396500001,19.942504883],[109.98388671900001,19.942504883],[109.98388671900001,19.942687988],[109.98352050800001,19.942687988],[109.98352050800001,19.942871094],[109.98291015600002,19.942871094],[109.98291015600002,19.94329834],[109.98248291000002,19.94329834],[109.98248291000002,19.943481445],[109.98211669900002,19.943481445],[109.98211669900002,19.943725586],[109.98150634800001,19.943725586],[109.98150634800001,19.944091797],[109.98107910200001,19.944091797],[109.98107910200001,19.944274902],[109.98052978500002,19.944274902],[109.98052978500002,19.944702148],[109.980285645,19.944702148],[109.980285645,19.944885254],[109.97967529300001,19.944885254],[109.97967529300001,19.945129395],[109.97912597700001,19.945129395],[109.97912597700001,19.945495605],[109.97888183600001,19.945495605],[109.97888183600001,19.945678711],[109.97827148400002,19.945678711],[109.97827148400002,19.946105957],[109.97772216800001,19.946105957],[109.97772216800001,19.946289062],[109.97747802700002,19.946289062],[109.97747802700002,19.946472168],[109.97692871100001,19.946472168],[109.97692871100001,19.946899414],[109.97650146500001,19.946899414],[109.97650146500001,19.94708252],[109.97607421900001,19.94708252],[109.97607421900001,19.947509766],[109.97570800800001,19.947509766],[109.97570800800001,19.947692871],[109.97528076200001,19.947692871],[109.97528076200001,19.947875977],[109.97430419900002,19.947875977],[109.97430419900002,19.948303223],[109.97387695300002,19.948303223],[109.97387695300002,19.948486328],[109.97351074200002,19.948486328],[109.97351074200002,19.948730469],[109.97290039100001,19.948730469],[109.97290039100001,19.94909668],[109.97271728500002,19.94909668],[109.97271728500002,19.949707031],[109.972473145,19.949707031],[109.972473145,19.949890137],[109.97210693400001,19.949890137],[109.97210693400001,19.950073242],[109.97192382800002,19.950073242],[109.97192382800002,19.950500488],[109.97167968700002,19.950500488],[109.97167968700002,19.950683594],[109.97088623000002,19.950683594],[109.97088623000002,19.95111084],[109.97052002,19.95111084],[109.97052002,19.951293945],[109.97027587900001,19.951293945],[109.97027587900001,19.951904297],[109.96929931600002,19.951904297],[109.96929931600002,19.952087402],[109.96850585900002,19.952087402],[109.96850585900002,19.952270508],[109.96832275400001,19.952270508],[109.96832275400001,19.952697754],[109.96771240200002,19.952697754],[109.96771240200002,19.952880859],[109.96728515600002,19.952880859],[109.96728515600002,19.953308105],[109.96710205100001,19.953308105],[109.96710205100001,19.953491211],[109.96667480500001,19.953491211],[109.96667480500001,19.953674316],[109.96630859400001,19.953674316],[109.96630859400001,19.954101562],[109.96569824200002,19.954101562],[109.96569824200002,19.954284668],[109.96551513700001,19.954284668],[109.96551513700001,19.954711914],[109.96508789100001,19.954711914],[109.96508789100001,19.95489502],[109.96490478500002,19.95489502],[109.96490478500002,19.955078125],[109.96472168000001,19.955078125],[109.96472168000001,19.955505371],[109.96429443400001,19.955505371],[109.96429443400001,19.955688477],[109.96411132800002,19.955688477],[109.96411132800002,19.956115723],[109.96368408200001,19.956115723],[109.96368408200001,19.956298828],[109.96350097700001,19.956298828],[109.96350097700001,19.956481934],[109.96331787100002,19.956481934],[109.96331787100002,19.95690918],[109.96289062500001,19.95690918],[109.96289062500001,19.957092285],[109.96270752,19.957092285],[109.96270752,19.957275391],[109.96228027300002,19.957275391],[109.96228027300002,19.957702637],[109.96209716800001,19.957702637],[109.96209716800001,19.958312988],[109.96191406200002,19.958312988],[109.96191406200002,19.958496094],[109.96148681600002,19.958496094],[109.96148681600002,19.958679199],[109.96112060500002,19.958679199],[109.96112060500002,19.959716797],[109.96051025400001,19.959716797],[109.96051025400001,19.960510254],[109.96008300800001,19.960510254],[109.96008300800001,19.961120605],[109.95989990200002,19.961120605],[109.95989990200002,19.961486816],[109.95971679700001,19.961486816],[109.95971679700001,19.962280273],[109.95928955100001,19.962280273],[109.95928955100001,19.96270752],[109.95910644500002,19.96270752],[109.95910644500002,19.96307373],[109.95867919900002,19.962890625],[109.95867919900002,19.963500977],[109.95831298800002,19.963500977],[109.95831298800002,19.963684082],[109.95788574200002,19.963684082],[109.95788574200002,19.964111328],[109.95770263700001,19.964111328],[109.95770263700001,19.964294434],[109.95727539100001,19.964294434],[109.95727539100001,19.96472168],[109.95709228500002,19.96472168],[109.95709228500002,19.964904785],[109.95648193400001,19.964904785],[109.95648193400001,19.965087891],[109.95629882800002,19.965087891],[109.95629882800002,19.965698242],[109.95611572300001,19.965698242],[109.95611572300001,19.966308594],[109.95550537100002,19.966308594],[109.95550537100002,19.966674805],[109.95489502,19.966674805],[109.95489502,19.966918945],[109.95428466800001,19.966918945],[109.95428466800001,19.967102051],[109.95410156200002,19.967102051],[109.95410156200002,19.967712402],[109.95367431600002,19.967712402],[109.95367431600002,19.967895508],[109.95349121100001,19.967895508],[109.95349121100001,19.968322754],[109.95330810500002,19.968322754],[109.95330810500002,19.969299316],[109.95288085900002,19.969299316],[109.95288085900002,19.969909668],[109.95269775400001,19.969909668],[109.95269775400001,19.97088623],[109.95288085900002,19.97088623],[109.95288085900002,19.972106934],[109.95330810500002,19.972106934],[109.95330810500002,19.972473145],[109.95349121100001,19.972473145],[109.95367431600002,19.972473145],[109.95367431600002,19.972900391],[109.95428466800001,19.972900391],[109.95428466800001,19.973327637],[109.95471191400001,19.973327637],[109.95471191400001,19.974304199],[109.95428466800001,19.974304199],[109.95428466800001,19.97467041],[109.95471191400001,19.97467041],[109.95471191400001,19.974914551],[109.95428466800001,19.974914551],[109.95428466800001,19.975524902],[109.95410156200002,19.975524902],[109.95410156200002,19.975708008],[109.95367431600002,19.975708008],[109.95367431600002,19.976074219],[109.95349121100001,19.976074219],[109.95349121100001,19.976318359],[109.95330810500002,19.976318359],[109.95330810500002,19.976501465],[109.95269775400001,19.976501465],[109.95269775400001,19.976928711],[109.95251464800002,19.976928711],[109.95251464800002,19.977111816],[109.95190429700001,19.977111816],[109.95190429700001,19.977722168],[109.95147705100001,19.977722168],[109.95147705100001,19.978271484],[109.95129394500002,19.978271484],[109.95129394500002,19.978515625],[109.95111084000001,19.978515625],[109.95111084000001,19.979125977],[109.95068359400001,19.979125977],[109.95068359400001,19.979309082],[109.95050048800002,19.979309082],[109.95050048800002,19.979919434],[109.95007324200002,19.979919434],[109.95007324200002,19.980285645],[109.94989013700001,19.980285645],[109.94989013700001,19.980712891],[109.94970703100002,19.980712891],[109.94970703100002,19.981079102],[109.94927978500002,19.981079102],[109.94927978500002,19.981506348],[109.94873046900001,19.981506348],[109.94873046900001,19.982116699],[109.94848632800002,19.982116699],[109.94848632800002,19.982727051],[109.94830322300001,19.982727051],[109.94830322300001,19.982910156],[109.94787597700001,19.982910156],[109.94787597700001,19.983276367],[109.94769287100002,19.983276367],[109.94769287100002,19.983886719],[109.94750976600001,19.983886719],[109.94750976600001,19.984130859],[109.94708252,19.984130859],[109.94708252,19.984313965],[109.94628906200002,19.984313965],[109.94628906200002,19.984924316],[109.94647216800001,19.984924316],[109.94647216800001,19.985717773],[109.94689941400001,19.985717773],[109.94689941400001,19.987121582],[109.94689941400001,19.988525391],[109.94647216800001,19.988525391],[109.94647216800001,19.989074707],[109.94628906200002,19.989074707],[109.94628906200002,19.989318848],[109.94610595700001,19.989318848],[109.94610595700001,19.989929199],[109.94567871100001,19.989929199],[109.94567871100001,19.990112305],[109.945129395,19.990112305],[109.945129395,19.990478516],[109.94427490200002,19.990478516],[109.94427490200002,19.990722656],[109.94409179700001,19.990722656],[109.94409179700001,19.991088867],[109.94372558600001,19.991088867],[109.94372558600001,19.991516113],[109.94348144500002,19.991516113],[109.94348144500002,19.991882324],[109.94268798800002,19.991882324],[109.94268798800002,19.992126465],[109.94250488300001,19.992126465],[109.94250488300001,19.992492676],[109.94207763700001,19.992492676],[109.94207763700001,19.992675781],[109.94189453100002,19.992675781],[109.93847656200002,19.992126465],[109.93792724600002,19.992126465],[109.93792724600002,19.991882324],[109.9375,19.991882324],[109.9375,19.991516113],[109.93652343700002,19.991516113],[109.93652343700002,19.991271973],[109.93487548800002,19.991271973],[109.93487548800002,19.991088867],[109.93432617200001,19.991088867],[109.93432617200001,19.990722656],[109.93408203100002,19.990722656],[109.93408203100002,19.990478516],[109.93347168000001,19.990478516],[109.93347168000001,19.990112305],[109.93267822300001,19.990112305],[109.93267822300001,19.989929199],[109.93249511700002,19.989929199],[109.93249511700002,19.989685059],[109.93188476600001,19.989685059],[109.93188476600001,19.989318848],[109.93127441400001,19.989318848],[109.93127441400001,19.989074707],[109.93109130900001,19.989074707],[109.93109130900001,19.988891602],[109.93072509800001,19.988891602],[109.93072509800001,19.988525391],[109.93048095700001,19.988525391],[109.93048095700001,19.987487793],[109.93011474600002,19.987487793],[109.93011474600002,19.987121582],[109.92932128900001,19.987121582],[109.92932128900001,19.986877441],[109.92907714800002,19.986877441],[109.92907714800002,19.986328125],[109.92889404300001,19.986328125],[109.92889404300001,19.985717773],[109.92852783200001,19.985717773],[109.92852783200001,19.985473633],[109.92828369100002,19.985473633],[109.92828369100002,19.985290527],[109.92767334000001,19.985290527],[109.92767334000001,19.984924316],[109.92687988300001,19.984924316],[109.92687988300001,19.984680176],[109.92572021500001,19.984680176],[109.92572021500001,19.984924316],[109.92468261700002,19.984924316],[109.92468261700002,19.985290527],[109.92407226600001,19.985107422],[109.92407226600001,19.985717773],[109.92388916000002,19.985717773],[109.92388916000002,19.985473633],[109.92352294900002,19.985473633],[109.92352294900002,19.985717773],[109.92291259800001,19.985717773],[109.92291259800001,19.986083984],[109.92272949200002,19.986083984],[109.92272949200002,19.986328125],[109.92211914100001,19.986328125],[109.92211914100001,19.98651123],[109.921875,19.98651123],[109.921875,19.986877441],[109.92132568400001,19.986877441],[109.92132568400001,19.987121582],[109.92108154300001,19.987121582],[109.92108154300001,19.987487793],[109.92071533200001,19.987487793],[109.92071533200001,19.987670898],[109.91967773400002,19.987670898],[109.91967773400002,19.987915039],[109.91912841800001,19.987915039],[109.91912841800001,19.98828125],[109.91888427700002,19.98828125],[109.91790771500001,19.988525391],[109.91748046900001,19.988525391],[109.91748046900001,19.98828125],[109.91711425800001,19.98828125],[109.91711425800001,19.987915039],[109.91650390600002,19.987915039],[109.91650390600002,19.988098145],[109.91632080100001,19.987915039],[109.91632080100001,19.987670898],[109.91607666000002,19.987670898],[109.91607666000002,19.987487793],[109.91571044900002,19.987487793],[109.91571044900002,19.987121582],[109.91552734400001,19.987121582],[109.91552734400001,19.986877441],[109.91528320300002,19.986877441],[109.91528320300002,19.986328125],[109.91491699200002,19.986328125],[109.91491699200002,19.985717773],[109.91430664100001,19.985717773],[109.91430664100001,19.985473633],[109.91290283200001,19.985473633],[109.91271972700001,19.985290527],[109.91192627,19.985290527],[109.91192627,19.984313965],[109.91192627,19.984130859],[109.91149902300002,19.984130859],[109.91149902300002,19.983886719],[109.91088867200001,19.983886719],[109.91088867200001,19.983520508],[109.91027832000002,19.983520508],[109.91027832000002,19.983886719],[109.90991210900002,19.983886719],[109.90991210900002,19.984130859],[109.90991210900002,19.984313965],[109.90930175800001,19.984313965],[109.90930175800001,19.984680176],[109.90911865200002,19.984680176],[109.90911865200002,19.984924316],[109.90789794900002,19.984924316],[109.90789794900002,19.985290527],[109.90771484400001,19.985107422],[109.90771484400001,19.985717773],[109.90710449200002,19.985717773],[109.90692138700001,19.985717773],[109.90692138700001,19.985473633],[109.90612793000001,19.985473633],[109.90612793000001,19.985290527],[109.90570068400001,19.985290527],[109.90570068400001,19.984680176],[109.90551757800002,19.984680176],[109.90551757800002,19.984313965],[109.90527343700002,19.984313965],[109.90527343700002,19.984130859],[109.90472412100002,19.984130859],[109.90472412100002,19.983886719],[109.90411377,19.983886719],[109.90411377,19.984130859],[109.90368652300002,19.984130859],[109.90368652300002,19.984313965],[109.90350341800001,19.984313965],[109.90350341800001,19.984680176],[109.90289306600002,19.984680176],[109.90289306600002,19.984924316],[109.90191650400001,19.984924316],[109.90191650400001,19.985290527],[109.90130615200002,19.985107422],[109.90130615200002,19.985290527],[109.89630127,19.983886719],[109.88787841800001,19.987487793],[109.87927246100001,19.987304687],[109.87927246100001,19.987121582],[109.87969970700001,19.987121582],[109.87969970700001,19.985717773],[109.87927246100001,19.985717773],[109.87927246100001,19.985473633],[109.87908935500002,19.985473633],[109.87908935500002,19.984313965],[109.87927246100001,19.984313965],[109.87927246100001,19.984130859],[109.88012695300002,19.984130859],[109.88012695300002,19.983886719],[109.88049316400001,19.983886719],[109.88049316400001,19.984130859],[109.88153076200001,19.984130859],[109.88153076200001,19.983886719],[109.88250732400002,19.983886719],[109.88250732400002,19.983520508],[109.88269043000001,19.983520508],[109.88269043000001,19.983276367],[109.88287353500002,19.983276367],[109.88287353500002,19.982727051],[109.88330078100002,19.982727051],[109.88330078100002,19.98248291],[109.88488769500002,19.98248291],[109.88488769500002,19.982116699],[109.88629150400001,19.982116699],[109.88629150400001,19.981872559],[109.88690185500002,19.981872559],[109.88690185500002,19.982116699],[109.88647460900002,19.982116699],[109.88647460900002,19.98248291],[109.88629150400001,19.98248291],[109.88629150400001,19.982727051],[109.88610839800002,19.982727051],[109.88610839800002,19.983520508],[109.88708496100001,19.983520508],[109.88708496100001,19.983276367],[109.88787841800001,19.983276367],[109.88787841800001,19.982910156],[109.88830566400001,19.982910156],[109.88830566400001,19.982727051],[109.88848877,19.982727051],[109.88848877,19.98248291],[109.88830566400001,19.98248291],[109.88830566400001,19.982116699],[109.88787841800001,19.982116699],[109.88787841800001,19.981872559],[109.88769531200002,19.981872559],[109.88769531200002,19.981506348],[109.88787841800001,19.981506348],[109.88787841800001,19.981079102],[109.88830566400001,19.981079102],[109.88830566400001,19.980529785],[109.88928222700001,19.980529785],[109.89050293000001,19.980529785],[109.89050293000001,19.979675293],[109.89007568400001,19.979675293],[109.89007568400001,19.979125977],[109.88970947300001,19.979125977],[109.88970947300001,19.978881836],[109.88928222700001,19.978881836],[109.88928222700001,19.978271484],[109.88970947300001,19.978271484],[109.88970947300001,19.974304199],[109.88928222700001,19.974304199],[109.88928222700001,19.974121094],[109.88970947300001,19.974121094],[109.88970947300001,19.972106934],[109.88928222700001,19.972106934],[109.88928222700001,19.971923828],[109.88909912100002,19.971923828],[109.88909912100002,19.971313477],[109.88867187500001,19.971313477],[109.88867187500001,19.970703125],[109.88848877,19.970703125],[109.88848877,19.970275879],[109.88830566400001,19.970275879],[109.88830566400001,19.969726562],[109.88787841800001,19.969726562],[109.88787841800001,19.969299316],[109.88769531200002,19.969299316],[109.88769531200002,19.969116211],[109.88732910200001,19.969116211],[109.88732910200001,19.968505859],[109.88690185500002,19.968505859],[109.88690185500002,19.968322754],[109.88708496100001,19.968322754],[109.88708496100001,19.967895508],[109.88690185500002,19.967895508],[109.88690185500002,19.967285156],[109.88647460900002,19.967285156],[109.88647460900002,19.966918945],[109.88629150400001,19.966918945],[109.88629150400001,19.966674805],[109.88610839800002,19.966674805],[109.88610839800002,19.966308594],[109.88568115200002,19.966308594],[109.88568115200002,19.965881348],[109.88507080100001,19.965881348],[109.88507080100001,19.965698242],[109.88488769500002,19.965698242],[109.88488769500002,19.965515137],[109.88470459000001,19.965515137],[109.88470459000001,19.965087891],[109.88372802700002,19.965087891],[109.88372802700002,19.964904785],[109.88330078100002,19.964904785],[109.88330078100002,19.96472168],[109.88269043000001,19.96472168],[109.88269043000001,19.964294434],[109.88208007800002,19.964294434],[109.88208007800002,19.964111328],[109.88110351600001,19.964111328],[109.88110351600001,19.964294434],[109.88067627,19.964294434],[109.88012695300002,19.963928223],[109.87567138700001,19.965698242],[109.87512207000002,19.964477539],[109.87512207000002,19.964111328],[109.87548828100002,19.964111328],[109.87548828100002,19.962280273],[109.87567138700001,19.962280273],[109.87567138700001,19.962097168],[109.87548828100002,19.962097168],[109.87548828100002,19.961303711],[109.87567138700001,19.961303711],[109.87567138700001,19.960693359],[109.87609863300001,19.960693359],[109.87609863300001,19.960083008],[109.87628173800002,19.960083008],[109.87628173800002,19.959899902],[109.87652587900001,19.959899902],[109.87652587900001,19.959716797],[109.87689209000001,19.959716797],[109.87689209000001,19.958679199],[109.87707519500002,19.958679199],[109.87707519500002,19.958496094],[109.87750244100002,19.958496094],[109.87750244100002,19.959106445],[109.87768554700001,19.959106445],[109.87768554700001,19.958679199],[109.87792968700002,19.958679199],[109.87792968700002,19.958496094],[109.87829589800002,19.958496094],[109.87829589800002,19.957092285],[109.87792968700002,19.957092285],[109.87792968700002,19.956298828],[109.87768554700001,19.956298828],[109.87768554700001,19.954711914],[109.87750244100002,19.954711914],[109.87750244100002,19.954101562],[109.87707519500002,19.954101562],[109.87707519500002,19.953674316],[109.87652587900001,19.953674316],[109.87652587900001,19.953491211],[109.87628173800002,19.953491211],[109.87628173800002,19.952514648],[109.87609863300001,19.952270508],[109.87609863300001,19.952087402],[109.87567138700001,19.952087402],[109.87567138700001,19.951477051],[109.87548828100002,19.951477051],[109.87548828100002,19.951293945],[109.87512207000002,19.951293945],[109.87512207000002,19.950683594],[109.87432861300002,19.950683594],[109.87432861300002,19.950500488],[109.87408447300001,19.950500488],[109.87408447300001,19.950073242],[109.87347412100002,19.950073242],[109.87347412100002,19.949890137],[109.87329101600001,19.949890137],[109.87329101600001,19.949707031],[109.87268066400001,19.949707031],[109.87268066400001,19.949279785],[109.87249755900001,19.949279785],[109.87249755900001,19.94909668],[109.87152099600002,19.94909668],[109.87152099600002,19.948730469],[109.87109375000001,19.948730469],[109.87109375000001,19.948303223],[109.86950683600001,19.948303223],[109.86730957000002,19.945495605],[109.86511230500001,19.939880371],[109.86071777300002,19.939697266],[109.86071777300002,19.93927002],[109.86010742200001,19.93927002],[109.86010742200001,19.939086914],[109.85931396500001,19.939086914],[109.85931396500001,19.938903809],[109.85852050800001,19.938903809],[109.85852050800001,19.938476562],[109.85772705100001,19.938476562],[109.85772705100001,19.938903809],[109.85607910200001,19.938903809],[109.85589599600002,19.939086914],[109.85351562500001,19.939086914],[109.85351562500001,19.937927246],[109.85327148400002,19.937927246],[109.85327148400002,19.938903809],[109.85290527300002,19.938903809],[109.85290527300002,19.939086914],[109.85211181600002,19.939086914],[109.85211181600002,19.93927002],[109.84631347700001,19.93927002],[109.84631347700001,19.939086914],[109.84527587900001,19.939086914],[109.84527587900001,19.938903809],[109.84429931600002,19.938903809],[109.84429931600002,19.938476562],[109.84411621100001,19.938476562],[109.84411621100001,19.938293457],[109.84350585900002,19.938293457],[109.84350585900002,19.937927246],[109.84332275400001,19.937927246],[109.84332275400001,19.937683105],[109.84271240200002,19.937683105],[109.84271240200002,19.9375],[109.84228515600002,19.9375],[109.84228515600002,19.936889648],[109.84210205100001,19.936889648],[109.84210205100001,19.936523437],[109.84191894500002,19.936523437],[109.84191894500002,19.936279297],[109.84167480500001,19.936279297],[109.84167480500001,19.93572998],[109.84130859400001,19.93572998],[109.84130859400001,19.934692383],[109.84271240200002,19.934692383],[109.84271240200002,19.934326172],[109.84332275400001,19.934326172],[109.84332275400001,19.934692383],[109.84350585900002,19.934692383],[109.84350585900002,19.934875488],[109.84368896500001,19.934875488],[109.84368896500001,19.93548584],[109.84411621100001,19.93548584],[109.84411621100001,19.936096191],[109.84429931600002,19.936096191],[109.84429931600002,19.936889648],[109.84472656200002,19.936889648],[109.84472656200002,19.9375],[109.84552002,19.9375],[109.84552002,19.937683105],[109.84570312500001,19.937683105],[109.84570312500001,19.937927246],[109.84588623000002,19.937927246],[109.84588623000002,19.938293457],[109.84710693400001,19.938293457],[109.84710693400001,19.937683105],[109.84967041000002,19.937683105],[109.85571289100001,19.937683105],[109.86450195300002,19.936889648],[109.86889648400002,19.936889648],[109.86932373000002,19.935913086],[109.87152099600002,19.932495117],[109.87512207000002,19.929077148],[109.87890625000001,19.929870605],[109.87951660200001,19.926330566],[109.88592529300001,19.925292969],[109.88470459000001,19.919494629],[109.88507080100001,19.913879395],[109.88470459000001,19.905273437],[109.88269043000001,19.899719238],[109.88128662100002,19.894470215],[109.87548828100002,19.887512207],[109.86810302700002,19.885681152],[109.85913085900002,19.885681152],[109.85351562500001,19.88470459],[109.85028076200001,19.883117676],[109.84991455100001,19.876525879],[109.85388183600001,19.867492676],[109.85729980500001,19.862915039],[109.85809326200001,19.859313965],[109.85791015600002,19.85748291],[109.85931396500001,19.853088379],[109.86071777300002,19.845275879],[109.86389160200001,19.842712402],[109.86468505900001,19.840881348],[109.86627197300001,19.833496094],[109.87048339800002,19.827697754],[109.87170410200001,19.823913574],[109.86932373000002,19.81427002],[109.86669921900001,19.809082031],[109.86590576200001,19.807128906],[109.86669921900001,19.801513672],[109.87109375000001,19.797302246],[109.87548828100002,19.794677734],[109.87847900400001,19.792297363],[109.87927246100001,19.790283203],[109.88092041000002,19.787902832],[109.88153076200001,19.781494141],[109.88012695300002,19.77130127],[109.87988281200002,19.768310547],[109.87890625000001,19.761291504],[109.88110351600001,19.75189209],[109.88311767600001,19.745117187],[109.88012695300002,19.737487793],[109.87908935500002,19.726074219],[109.87530517600001,19.72052002],[109.87030029300001,19.71472168],[109.86627197300001,19.710083008],[109.86132812500001,19.704284668],[109.85827636700002,19.698486328],[109.85748291000002,19.691101074],[109.85748291000002,19.680480957],[109.85247802700002,19.671081543],[109.85089111300002,19.664916992],[109.85052490200002,19.659301758],[109.84869384800001,19.65447998],[109.84271240200002,19.651672363],[109.83929443400001,19.651489258],[109.83331298800002,19.65032959],[109.82647705100001,19.645874023],[109.82373046900001,19.641723633],[109.82232666000002,19.634277344],[109.82110595700001,19.632080078],[109.81469726600001,19.627685547],[109.81109619100002,19.624328613],[109.80969238300001,19.61932373],[109.8125,19.613098145],[109.81671142600001,19.611694336],[109.82690429700001,19.609313965],[109.82788085900002,19.604675293],[109.82067871100001,19.600097656],[109.81512451200001,19.599304199],[109.81268310500002,19.600524902],[109.80627441400001,19.602111816],[109.80072021500001,19.601501465],[109.79510498000002,19.602294922],[109.78967285200001,19.605895996],[109.78649902300002,19.609680176],[109.78070068400001,19.610107422],[109.77569580100001,19.60748291],[109.77288818400001,19.604492187],[109.76971435500002,19.597900391],[109.76593017600001,19.58972168],[109.76092529300001,19.581481934],[109.75671386700002,19.576477051],[109.75512695300002,19.572692871],[109.75592041000002,19.565307617],[109.75671386700002,19.562683105],[109.75848388700001,19.556884766],[109.75811767600001,19.549682617],[109.75427246100001,19.545715332],[109.75128173800002,19.539306641],[109.75030517600001,19.536682129],[109.74908447300001,19.526306152],[109.74432373000002,19.521484375],[109.74047851600001,19.51550293],[109.73571777300002,19.50970459],[109.72851562500001,19.507873535],[109.72369384800001,19.504272461],[109.72167968700002,19.496520996],[109.72131347700001,19.487915039],[109.72210693400001,19.486083984],[109.72631835900002,19.479919434],[109.72912597700001,19.479309082],[109.73327636700002,19.47869873],[109.73950195300002,19.475097656],[109.74090576200001,19.467285156],[109.73748779300001,19.458496094],[109.73590087900001,19.452880859],[109.73608398400002,19.448303223],[109.73889160200001,19.444274902],[109.74468994100002,19.44128418],[109.74890136700002,19.438293457],[109.75109863300001,19.429870605],[109.74969482400002,19.426879883],[109.74468994100002,19.421875],[109.738098145,19.422485352],[109.73571777300002,19.423278809],[109.73791503900001,19.417480469],[109.73571777300002,19.415100098],[109.73571777300002,19.41192627],[109.738098145,19.406494141],[109.74572753900001,19.403686523],[109.75292968700002,19.401916504],[109.75848388700001,19.402099609],[109.76269531200002,19.401306152],[109.77087402300002,19.397521973],[109.77252197300001,19.391296387],[109.76947021500001,19.387084961],[109.77728271500001,19.378723145],[109.78112793000001,19.377075195],[109.78747558600001,19.373718262],[109.79071044900002,19.379516602],[109.79107666000002,19.384277344],[109.80187988300001,19.388305664],[109.80871582000002,19.392089844],[109.81390380900001,19.39630127],[109.82128906200002,19.398071289],[109.83007812500001,19.393493652],[109.83807373000002,19.388122559],[109.84448242200001,19.38848877],[109.84667968700002,19.391479492],[109.84490966800001,19.398498535],[109.83990478500002,19.400878906],[109.83892822300001,19.405700684],[109.84613037100002,19.409729004],[109.84832763700001,19.41192627],[109.84912109400001,19.414672852],[109.85028076200001,19.421325684],[109.85491943400001,19.423278809],[109.85888671900001,19.421875],[109.85552978500002,19.414916992],[109.85949707000002,19.412719727],[109.86608886700002,19.407897949],[109.86407470700001,19.397094727],[109.86688232400002,19.391296387],[109.870910645,19.389099121],[109.87792968700002,19.385498047],[109.88348388700001,19.382873535],[109.89093017600001,19.386291504],[109.89587402300002,19.387512207],[109.90167236300002,19.388671875],[109.90551757800002,19.390686035],[109.90509033200001,19.396484375],[109.90771484400001,19.403076172],[109.91009521500001,19.406311035],[109.90411377,19.41027832],[109.90112304700001,19.410888672],[109.90789794900002,19.414489746],[109.91290283200001,19.423522949],[109.91229248000002,19.427490234],[109.92510986300002,19.42791748],[109.93072509800001,19.428283691],[109.93652343700002,19.429077148],[109.93908691400001,19.432128906],[109.937316895,19.436523437],[109.92889404300001,19.438110352],[109.92352294900002,19.43951416],[109.92510986300002,19.443481445],[109.93310546900001,19.448303223],[109.93408203100002,19.457092285],[109.93408203100002,19.462890625],[109.93591308600001,19.466125488],[109.94067382800002,19.467895508],[109.93328857400002,19.473693848],[109.93450927700002,19.48248291],[109.93328857400002,19.487670898],[109.94488525400001,19.488708496],[109.95172119100002,19.490478516],[109.95770263700001,19.491516113],[109.96209716800001,19.490905762],[109.96868896500001,19.49029541],[109.97351074200002,19.489074707],[109.97949218700002,19.486877441],[109.98492431600002,19.485107422],[109.99389648400002,19.484130859],[110.00048828100002,19.48449707],[110.00811767600001,19.486083984],[110.01629638700001,19.487121582],[110.02209472700001,19.485717773],[110.02612304700001,19.48248291],[110.02728271500001,19.480285645],[110.02807617200001,19.477905273],[110.02947998000002,19.470092773],[110.03009033200001,19.464904785],[110.03411865200002,19.459472656],[110.04150390600002,19.457702637],[110.05108642600001,19.460083008],[110.06011962900001,19.464294434],[110.06787109400001,19.469299316],[110.06951904300001,19.473876953],[110.06909179700001,19.478881836],[110.06567382800002,19.485473633],[110.06768798800002,19.493713379],[110.07629394500002,19.498291016],[110.08172607400002,19.499511719],[110.09112548800002,19.499328613],[110.09912109400001,19.498718262],[110.10772705100001,19.500305176],[110.11511230500001,19.504882812],[110.11407470700001,19.510498047],[110.11248779300001,19.513916016],[110.10888671900001,19.517883301],[110.10791015600002,19.522277832],[110.10888671900001,19.521911621],[110.10852050800001,19.532287598],[110.10607910200001,19.537475586],[110.10089111300002,19.536682129],[110.10009765600002,19.539489746],[110.09729003900001,19.545715332],[110.09887695300002,19.550720215],[110.10412597700001,19.559509277],[110.10827636700002,19.562316895],[110.11230468700002,19.563720703],[110.11669921900001,19.564880371],[110.12072753900001,19.56451416],[110.12408447300001,19.563476562],[110.12707519500002,19.563293457],[110.13232421900001,19.564086914],[110.13153076200001,19.569885254],[110.13110351600001,19.574523926],[110.13067627,19.579284668],[110.12829589800002,19.590270996],[110.13012695300002,19.597900391],[110.13409423800002,19.604309082],[110.13848877,19.608886719],[110.14007568400001,19.618713379],[110.13568115200002,19.627929687],[110.13049316400001,19.638305664],[110.12707519500002,19.649719238],[110.13031005900001,19.653320312],[110.13488769500002,19.653686523],[110.13952636700002,19.654907227],[110.14349365200002,19.66027832],[110.14410400400001,19.665527344],[110.14770507800002,19.670288086],[110.15649414100001,19.673278809],[110.16308593700002,19.669921875],[110.16748046900001,19.665893555],[110.16467285200001,19.654907227],[110.16290283200001,19.646118164],[110.16809082000002,19.638671875],[110.17431640600002,19.63470459],[110.18188476600001,19.634277344],[110.19207763700001,19.635314941],[110.19830322300001,19.631896973],[110.203125,19.62487793],[110.20928955100001,19.626281738],[110.21368408200001,19.632080078],[110.21649169900002,19.638916016],[110.21972656200002,19.647705078],[110.22412109400001,19.65032959],[110.22949218700002,19.651123047],[110.23168945300002,19.656494141],[110.23187255900001,19.658691406],[110.23468017600001,19.664916992],[110.24047851600001,19.672912598],[110.24572753900001,19.678283691],[110.24847412100002,19.681884766],[110.25048828100002,19.686523437],[110.25207519500002,19.689697266],[110.25408935500002,19.692687988]]],[[[110.01846952200002,19.93572998],[110.01751709000001,19.93572998],[110.01751709000001,19.93548584],[110.01611328100002,19.93548584],[110.01611328100002,19.935119629],[110.01568603500002,19.935119629],[110.01568603500002,19.934692383],[110.01550293000001,19.934692383],[110.01550293000001,19.934326172],[110.01428222700001,19.934326172],[110.01428222700001,19.934082031],[110.01330566400001,19.934082031],[110.01330566400001,19.933898926],[110.01208496100001,19.933898926],[110.01208496100001,19.93347168],[110.01190185500002,19.93347168],[110.01190185500002,19.933288574],[110.01147460900002,19.933288574],[110.01147460900002,19.933105469],[110.01568603500002,19.93347168],[110.01846952200002,19.93572998]]],[[[110.00292968700002,19.936523437],[110.00170898400002,19.935119629],[110.00207519500002,19.935119629],[110.00207519500002,19.934875488],[110.00469970700001,19.934875488],[110.00469970700001,19.936096191],[110.00830078100002,19.936096191],[110.00830078100002,19.936279297],[110.00292968700002,19.936523437]]],[[[110.01190185500002,19.937683105],[110.01190185500002,19.937927246],[110.01147460900002,19.937683105],[110.01190185500002,19.937683105]]],[[[110.01846952200002,19.93572998],[110.01849365200002,19.93572998],[110.01849365200002,19.935749558],[110.01846952200002,19.93572998]]],[[[110.01849365200002,19.935749558],[110.01892089800002,19.936096191],[110.01849365200002,19.936096191],[110.01849365200002,19.935749558]]],[[[110.02050781200002,19.937072754],[110.02069091800001,19.937316895],[110.02069091800001,19.9375],[110.02050781200002,19.9375],[110.02050781200002,19.937072754]]],[[[110.01629638700001,19.939880371],[110.01690673800002,19.939880371],[110.01690673800002,19.940124512],[110.01629638700001,19.939880371]]],[[[110.01629638700001,19.939880371],[110.01208496100001,19.937927246],[110.01330566400001,19.937927246],[110.01330566400001,19.938293457],[110.01470947300001,19.938293457],[110.01470947300001,19.938476562],[110.01489257800002,19.938476562],[110.01489257800002,19.938903809],[110.01550293000001,19.938903809],[110.01550293000001,19.939086914],[110.01568603500002,19.939086914],[110.01568603500002,19.93927002],[110.01629638700001,19.93927002],[110.01629638700001,19.939880371]]],[[[110.15148925800001,20.009094238],[110.15191650400001,20.010070801],[110.14447021500001,20.009094238],[110.12988281200002,20.00012207],[110.11907959000001,19.993286133],[110.10327148400002,19.987487793],[110.09008789100001,19.985717773],[110.08331298800002,19.984680176],[110.08251953100002,19.984680176],[110.08227539100001,19.984680176],[110.08227539100001,19.984313965],[110.08111572300001,19.984313965],[110.08111572300001,19.984130859],[110.07849121100001,19.984130859],[110.07830810500002,19.984130859],[110.07830810500002,19.983886719],[110.07647705100001,19.983886719],[110.07611084000001,19.983703613],[110.07611084000001,19.983520508],[110.07470703100002,19.983520508],[110.08087158200001,19.980529785],[110.08612060500002,19.980285645],[110.08612060500002,19.980529785],[110.08709716800001,19.980529785],[110.08709716800001,19.980712891],[110.08831787100002,19.980712891],[110.08831787100002,19.981079102],[110.09289550800001,19.981079102],[110.09289550800001,19.980712891],[110.09570312500001,19.980712891],[110.09570312500001,19.980529785],[110.09588623000002,19.980529785],[110.09771728500002,19.980529785],[110.09771728500002,19.980285645],[110.09930419900002,19.980285645],[110.09930419900002,19.979919434],[110.10192871100001,19.979919434],[110.10192871100001,19.980285645],[110.10247802700002,19.980285645],[110.10247802700002,19.980529785],[110.10290527300002,19.980529785],[110.10290527300002,19.980712891],[110.10351562500001,19.980712891],[110.10351562500001,19.981079102],[110.10430908200001,19.981079102],[110.10430908200001,19.981323242],[110.105285645,19.981323242],[110.105285645,19.981506348],[110.10607910200001,19.981506348],[110.10607910200001,19.981872559],[110.10687255900001,19.981872559],[110.10687255900001,19.982116699],[110.11352539100001,19.982116699],[110.11352539100001,19.981872559],[110.11407470700001,19.981872559],[110.11407470700001,19.981689453],[110.11529541000002,19.981506348],[110.11688232400002,19.981689453],[110.11688232400002,19.981872559],[110.11730957000002,19.981872559],[110.11907959000001,19.982116699],[110.12109375000001,19.98248291],[110.12292480500001,19.982727051],[110.12408447300001,19.982910156],[110.12487793000001,19.982910156],[110.12548828100002,19.983093262],[110.12548828100002,19.983276367],[110.12652587900001,19.983276367],[110.12652587900001,19.983520508],[110.12847900400001,19.983520508],[110.13671875000001,19.997497559],[110.14093017600001,20.00012207],[110.14947509800001,20.005493164],[110.14727783200001,20.008117676],[110.15148925800001,20.009094238]]]]}}
