{"type":"Feature","id":"bulk-99377448B42991608644160","bbox":[112.70831298800002,31.348693848,114.15747070300002,32.409301758],"properties":{"id":"bulk-99377448B42991608644160","name":"Suizhou","nameEn":"Suizhou","fullName":"Suizhou","level":"city","boundaryRole":"administrative-extent","boundaryQuality":"generalized-source-2020","boundaryYearRepresented":"2020","bounds":[[112.70831298800002,31.348693848],[114.15747070300002,32.409301758]],"center":[113.43289184550002,31.878997802999997],"centerMethod":"bounding-box midpoint; camera framing only","license":"CC-BY-3.0-IGO","attribution":"geoBoundaries / HDX, China administrative boundaries (2020)","source":{"provider":"geoBoundaries gbHumanitarian / HDX","url":"https://github.com/wmgeolab/geoBoundaries/raw/9469f09/releaseData/gbHumanitarian/CHN/ADM2/geoBoundaries-CHN-ADM2.geojson","metadataUrl":"https://www.geoboundaries.org/api/current/gbHumanitarian/CHN/ADM2/","shapeID":"99377448B42991608644160","shapeName":"Suizhou","boundaryID":"CHN-ADM2-99377448","commit":"9469f09"},"geometryCounts":{"coordinates":129,"components":1,"holes":0},"boundaryNotice":"geoBoundaries / HDX 2020 年行政区数据，海岸和边界经过源数据概化，并非当前测绘成果。"},"geometry":{"type":"Polygon","coordinates":[[[113.05047607400002,32.400512695],[113.05328369100002,32.377685547],[113.04449462900001,32.346313477],[113.02508544900002,32.311279297],[112.995910645,32.27532959],[112.99908447300001,32.24609375],[113.01287841800001,32.213500977],[113.00628662100002,32.181884766],[112.99932861300002,32.14831543],[113.01190185500002,32.121276855],[112.99328613300001,32.09552002],[112.95910644500002,32.07208252],[112.95031738300001,32.028686523],[112.97210693400001,31.99029541],[112.99847412100002,31.968505859],[112.97589111300002,31.932922363],[112.95568847700001,31.901306152],[112.95288085900002,31.865478516],[112.93328857400002,31.836730957],[112.88867187500001,31.835327148],[112.84948730500001,31.821289062],[112.81927490200002,31.806274414],[112.79571533200001,31.77911377],[112.76788330100001,31.753112793],[112.73687744100002,31.733886719],[112.72027587900001,31.69909668],[112.70831298800002,31.663513184],[112.72668457000002,31.61730957],[112.76312255900001,31.614501953],[112.79107666000002,31.589111328],[112.82568359400001,31.578308105],[112.86108398400002,31.569885254],[112.87567138700001,31.537109375],[112.86590576200001,31.506286621],[112.87487793000001,31.479125977],[112.91729736300002,31.474121094],[112.96948242200001,31.453918457],[113.02868652300002,31.45489502],[113.07470703100002,31.447509766],[113.11407470700001,31.444885254],[113.15051269500002,31.41607666],[113.17608642600001,31.389282227],[113.19891357400002,31.366882324],[113.24072265600002,31.350524902],[113.27349853500002,31.348693848],[113.31408691400001,31.364501953],[113.31152343700002,31.399719238],[113.32128906200002,31.432312012],[113.34991455100001,31.444885254],[113.39172363300001,31.452270508],[113.42327880900001,31.445922852],[113.45831298800002,31.431518555],[113.49652099600002,31.417297363],[113.53387451200001,31.41192627],[113.54888916000002,31.452087402],[113.58172607400002,31.430725098],[113.62048339800002,31.417297363],[113.65051269500002,31.437072754],[113.68267822300001,31.467102051],[113.73870849600002,31.455688477],[113.77429199200002,31.452087402],[113.82531738300001,31.469299316],[113.86187744100002,31.466674805],[113.88989257800002,31.450683594],[113.94067382800002,31.424072266],[113.99108886700002,31.433105469],[114.01928710900002,31.447509766],[114.05407714800002,31.461914062],[114.08349609400001,31.509094238],[114.08807373000002,31.55291748],[114.11352539100001,31.618530273],[114.11907959000001,31.651672363],[114.12829589800002,31.681274414],[114.12072753900001,31.710693359],[114.10028076200001,31.735900879],[114.10168457000002,31.763916016],[114.15747070300002,31.859313965],[114.12829589800002,31.871887207],[114.08068847700001,31.862487793],[114.06072998000002,31.842712402],[114.05371093700002,31.800292969],[114.03210449200002,31.767883301],[113.97467041000002,31.751708984],[113.96508789100001,31.72088623],[113.92828369100002,31.711303711],[113.91687011700002,31.747924805],[113.91748046900001,31.798522949],[113.90789794900002,31.855529785],[113.89190673800002,31.860290527],[113.87548828100002,31.848327637],[113.85388183600001,31.8125],[113.81372070300002,31.860473633],[113.80230712900001,31.901489258],[113.79351806600002,31.928283691],[113.77191162100002,31.956481934],[113.72747802700002,31.976928711],[113.72210693400001,32.004516602],[113.74291992200001,32.020874023],[113.74987793000001,32.034118652],[113.72869873000002,32.045288086],[113.70050048800002,32.068115234],[113.687316895,32.093078613],[113.695129395,32.09552002],[113.71228027300002,32.100524902],[113.74353027300002,32.129882812],[113.74127197300001,32.164672852],[113.72229003900001,32.202270508],[113.70428466800001,32.246887207],[113.72790527300002,32.273071289],[113.72027587900001,32.305114746],[113.70190429700001,32.366699219],[113.68670654300001,32.398071289],[113.68371582000002,32.39831543],[113.66192627,32.399475098],[113.57452392600001,32.331481934],[113.53631591800001,32.315490723],[113.48791503900001,32.319274902],[113.45947265600002,32.306518555],[113.43310546900001,32.288513184],[113.39990234400001,32.260925293],[113.36547851600001,32.260681152],[113.29528808600001,32.290527344],[113.26568603500002,32.346130371],[113.25390625000001,32.392272949],[113.16168212900001,32.409301758],[113.10552978500002,32.372070312],[113.08331298800002,32.38671875],[113.05249023400002,32.400695801],[113.05047607400002,32.400512695]]]}}
