{"type":"Feature","id":"bulk-99377448B91154202212828","bbox":[113.60430908200001,35.216308594,114.98730468700002,36.343322754],"properties":{"id":"bulk-99377448B91154202212828","name":"Anyang","nameEn":"Anyang","fullName":"Anyang","level":"city","boundaryRole":"administrative-extent","boundaryQuality":"generalized-source-2020","boundaryYearRepresented":"2020","bounds":[[113.60430908200001,35.216308594],[114.98730468700002,36.343322754]],"center":[114.29580688450002,35.779815674],"centerMethod":"bounding-box midpoint; camera framing only","license":"CC-BY-3.0-IGO","attribution":"geoBoundaries / HDX, China administrative boundaries (2020)","source":{"provider":"geoBoundaries gbHumanitarian / HDX","url":"https://github.com/wmgeolab/geoBoundaries/raw/9469f09/releaseData/gbHumanitarian/CHN/ADM2/geoBoundaries-CHN-ADM2.geojson","metadataUrl":"https://www.geoboundaries.org/api/current/gbHumanitarian/CHN/ADM2/","shapeID":"99377448B91154202212828","shapeName":"Anyang","boundaryID":"CHN-ADM2-99377448","commit":"9469f09"},"geometryCounts":{"coordinates":150,"components":1,"holes":0},"boundaryNotice":"geoBoundaries / HDX 2020 年行政区数据，海岸和边界经过源数据概化，并非当前测绘成果。"},"geometry":{"type":"Polygon","coordinates":[[[113.70690918000001,36.332092285],[113.69628906200002,36.313476562],[113.66369628900001,36.28692627],[113.65087890600002,36.245727539],[113.65032959000001,36.197875977],[113.64831543000001,36.169677734],[113.64068603500002,36.146911621],[113.65228271500001,36.123718262],[113.63287353500002,36.087097168],[113.65368652300002,36.067077637],[113.62072753900001,36.02911377],[113.64709472700001,36.002929687],[113.65850830100001,35.977905273],[113.63110351600001,35.966125488],[113.62432861300002,35.964477539],[113.60430908200001,35.943725586],[113.60467529300001,35.931091309],[113.60510253900001,35.900512695],[113.62231445300002,35.873474121],[113.63092041000002,35.830078125],[113.62249755900001,35.825317383],[113.66790771500001,35.819885254],[113.70709228500002,35.806091309],[113.74328613300001,35.791870117],[113.75268554700001,35.757873535],[113.75512695300002,35.728881836],[113.75207519500002,35.696899414],[113.77630615200002,35.67767334],[113.85449218700002,35.692077637],[113.89971923800002,35.694702148],[113.93768310500002,35.709106445],[113.97467041000002,35.717712402],[113.99707031200002,35.745300293],[114.02990722700001,35.772888184],[114.05047607400002,35.798095703],[114.01989746100001,35.849121094],[114.03912353500002,35.872924805],[114.05267334000001,35.899291992],[114.03710937500001,35.92388916],[113.99829101600001,35.937072754],[113.97711181600002,35.977478027],[114.02368164100001,35.976928711],[114.06311035200001,35.971923828],[114.08111572300001,35.995910645],[114.09667968700002,36.02331543],[114.13470459000001,36.051696777],[114.20031738300001,36.031311035],[114.21948242200001,35.993286133],[114.25927734400001,35.97052002],[114.28912353500002,35.948730469],[114.29608154300001,35.913879395],[114.27130127,35.877502441],[114.24371337900001,35.849914551],[114.22448730500001,35.821472168],[114.23370361300002,35.785888672],[114.28051757800002,35.780517578],[114.32373046900001,35.785522461],[114.37792968700002,35.796691895],[114.42089843700002,35.805725098],[114.46472168000001,35.815124512],[114.50488281200002,35.826477051],[114.55371093700002,35.847717285],[114.62792968700002,35.862915039],[114.65130615200002,35.813293457],[114.68969726600001,35.789489746],[114.71807861300002,35.760070801],[114.72711181600002,35.731689453],[114.72332763700001,35.699890137],[114.68792724600002,35.684082031],[114.64208984400001,35.673522949],[114.61547851600001,35.653686523],[114.58532714800002,35.621276855],[114.55029296900001,35.593078613],[114.50909423800002,35.580505371],[114.47589111300002,35.570495605],[114.44171142600001,35.555114746],[114.41088867200001,35.537902832],[114.38452148400002,35.510070801],[114.37390136700002,35.481689453],[114.41528320300002,35.426330566],[114.40087890600002,35.394470215],[114.39172363300001,35.362304687],[114.38372802700002,35.332885742],[114.37847900400001,35.301086426],[114.37890625000001,35.259521484],[114.42712402300002,35.236877441],[114.46392822300001,35.218322754],[114.50909423800002,35.216308594],[114.54028320300002,35.232116699],[114.58410644500002,35.259521484],[114.63610839800002,35.286315918],[114.66888427700002,35.307128906],[114.70251464800002,35.324279785],[114.74188232400002,35.335693359],[114.78851318400001,35.354125977],[114.82952880900001,35.371276855],[114.86547851600001,35.381896973],[114.93511962900001,35.383483887],[114.95227050800001,35.413696289],[114.94189453100002,35.448486328],[114.92089843700002,35.478881836],[114.92431640600002,35.513122559],[114.93292236300002,35.539672852],[114.92767334000001,35.569885254],[114.90991210900002,35.606872559],[114.90747070300002,35.623291016],[114.90332031200002,35.674682617],[114.89849853500002,35.701477051],[114.90649414100001,35.728881836],[114.93212890600002,35.758483887],[114.95709228500002,35.785522461],[114.97070312500001,35.810913086],[114.96990966800001,35.839477539],[114.96887207000002,35.867492676],[114.97070312500001,35.899475098],[114.98370361300002,35.93951416],[114.98730468700002,35.968688965],[114.972473145,35.999694824],[114.980285645,36.060119629],[114.93609619100002,36.038696289],[114.90332031200002,36.059875488],[114.88092041000002,36.131286621],[114.77429199200002,36.12487793],[114.73431396500001,36.115112305],[114.72387695300002,36.112487793],[114.66192627,36.139892578],[114.60791015600002,36.124694824],[114.54711914100001,36.105285645],[114.48492431600002,36.154907227],[114.43487548800002,36.176513672],[114.36828613300001,36.216918945],[114.25152587900001,36.232116699],[114.20727539100001,36.246276855],[114.16271972700001,36.255126953],[114.13171386700002,36.276306152],[114.08471679700001,36.297912598],[114.06848144500002,36.295898437],[114.05529785200001,36.288879395],[114.00512695300002,36.312927246],[113.95452880900001,36.332092285],[113.94152832000002,36.327514648],[113.93090820300002,36.310302734],[113.90832519500002,36.30847168],[113.89251709000001,36.314086914],[113.86730957000002,36.324890137],[113.83612060500002,36.343322754],[113.81628418000001,36.33392334],[113.79632568400001,36.319519043],[113.76367187500001,36.310302734],[113.70690918000001,36.332092285]]]}}
