{"type":"Feature","id":"bulk-99377448B93543146651776","bbox":[116.99072265600002,26.311096191,119.23870849600002,28.303100586],"properties":{"id":"bulk-99377448B93543146651776","name":"Nanping","nameEn":"Nanping","fullName":"Nanping","level":"city","boundaryRole":"administrative-extent","boundaryQuality":"generalized-source-2020","boundaryYearRepresented":"2020","bounds":[[116.99072265600002,26.311096191],[119.23870849600002,28.303100586]],"center":[118.11471557600001,27.307098388500002],"centerMethod":"bounding-box midpoint; camera framing only","license":"CC-BY-3.0-IGO","attribution":"geoBoundaries / HDX, China administrative boundaries (2020)","source":{"provider":"geoBoundaries gbHumanitarian / HDX","url":"https://github.com/wmgeolab/geoBoundaries/raw/9469f09/releaseData/gbHumanitarian/CHN/ADM2/geoBoundaries-CHN-ADM2.geojson","metadataUrl":"https://www.geoboundaries.org/api/current/gbHumanitarian/CHN/ADM2/","shapeID":"99377448B93543146651776","shapeName":"Nanping","boundaryID":"CHN-ADM2-99377448","commit":"9469f09"},"geometryCounts":{"coordinates":232,"components":1,"holes":0},"boundaryNotice":"geoBoundaries / HDX 2020 年行政区数据，海岸和边界经过源数据概化，并非当前测绘成果。"},"geometry":{"type":"Polygon","coordinates":[[[118.67492675800001,28.301696777],[118.67211914100001,28.303100586],[118.62988281200002,28.26751709],[118.60449218700002,28.260070801],[118.55987548800002,28.246276855],[118.56091308600001,28.268493652],[118.52130127,28.274719238],[118.46990966800001,28.251281738],[118.43988037100002,28.239074707],[118.40130615200002,28.243286133],[118.39892578100002,28.264099121],[118.39392089800002,28.267700195],[118.37371826200001,28.281921387],[118.33569335900002,28.271911621],[118.3125,28.241088867],[118.28930664100001,28.222106934],[118.30670166000002,28.196899414],[118.33367919900002,28.187927246],[118.35028076200001,28.142883301],[118.34167480500001,28.101318359],[118.288879395,28.083312988],[118.22888183600001,28.080871582],[118.21527099600002,28.077697754],[118.16607666000002,28.065307617],[118.15368652300002,28.059509277],[118.11151123000002,28.039306641],[118.08087158200001,28.005493164],[118.07910156200002,27.982299805],[118.06732177700002,27.97668457],[118.06268310500002,27.981506348],[118.04791259800001,27.989685059],[118.01751709000001,27.99407959],[117.96490478500002,27.991271973],[117.95251464800002,27.989685059],[117.91412353500002,27.98449707],[117.82989502,27.932495117],[117.80010986300002,27.905700684],[117.76452636700002,27.87109375],[117.74011230500001,27.845703125],[117.68847656200002,27.839904785],[117.66009521500001,27.842529297],[117.60711669900002,27.847473145],[117.58587646500001,27.878295898],[117.55670166000002,27.926513672],[117.54931640600002,27.977111816],[117.49609375000001,27.990905762],[117.45971679700001,27.959106445],[117.44451904300001,27.933105469],[117.42712402300002,27.927490234],[117.35308837900001,27.903503418],[117.33349609400001,27.873291016],[117.26751709000001,27.882324219],[117.25567627,27.858520508],[117.25329589800002,27.85369873],[117.27069091800001,27.79888916],[117.26068115200002,27.760925293],[117.20367431600002,27.720275879],[117.18328857400002,27.706115723],[117.13031005900001,27.695678711],[117.054504395,27.676696777],[117.09808349600002,27.644714355],[117.05328369100002,27.630126953],[117.01031494100002,27.644104004],[116.99072265600002,27.627319336],[117.00830078100002,27.570678711],[117.01312255900001,27.566711426],[117.02648925800001,27.555480957],[117.07110595700001,27.536682129],[117.08691406200002,27.498291016],[117.10467529300001,27.446289062],[117.07629394500002,27.391296387],[117.07672119100002,27.368103027],[117.11248779300001,27.356079102],[117.13690185500002,27.327087402],[117.13348388700001,27.303710937],[117.12927246100001,27.276306152],[117.09808349600002,27.251098633],[117.04870605500001,27.184875488],[117.01068115200002,27.133300781],[117.08349609400001,27.105285645],[117.11828613300001,27.111083984],[117.15710449200002,27.09552002],[117.18688964800002,27.06652832],[117.21789550800001,27.042297363],[117.24951171900001,27.061279297],[117.25708007800002,27.089111328],[117.25732421900001,27.118286133],[117.29327392600001,27.124511719],[117.32208252,27.114318848],[117.36029052700002,27.107727051],[117.36370849600002,27.079284668],[117.38153076200001,27.054321289],[117.42468261700002,27.013671875],[117.46252441400001,27.018920898],[117.49389648400002,27.024291992],[117.53009033200001,27.010498047],[117.50732421900001,26.964904785],[117.49371337900001,26.938903809],[117.52691650400001,26.92767334],[117.55969238300001,26.917480469],[117.58209228500002,26.885681152],[117.60308837900001,26.864501953],[117.62908935500002,26.838500977],[117.63153076200001,26.809692383],[117.62768554700001,26.774719238],[117.59509277300002,26.755126953],[117.56848144500002,26.731689453],[117.59051513700001,26.696472168],[117.60772705100001,26.674072266],[117.64410400400001,26.656311035],[117.67749023400002,26.66607666],[117.72009277300002,26.682922363],[117.77111816400001,26.683288574],[117.82867431600002,26.689086914],[117.83111572300001,26.642700195],[117.83190918000001,26.613891602],[117.84490966800001,26.588928223],[117.88952636700002,26.585876465],[117.93450927700002,26.585510254],[117.97991943400001,26.563476562],[118.00408935500002,26.537719727],[118.02227783200001,26.501281738],[118.02947998000002,26.47467041],[118.04547119100002,26.441101074],[118.070129395,26.416870117],[118.10308837900001,26.406677246],[118.13531494100002,26.397888184],[118.17327880900001,26.402893066],[118.18530273400002,26.42791748],[118.21130371100001,26.446899414],[118.24987793000001,26.4453125],[118.27648925800001,26.465881348],[118.29730224600002,26.436523437],[118.34729003900001,26.432128906],[118.38507080100001,26.439086914],[118.40509033200001,26.406311035],[118.42767334000001,26.378112793],[118.46392822300001,26.36932373],[118.50292968700002,26.366271973],[118.53387451200001,26.362915039],[118.56872558600001,26.348876953],[118.59490966800001,26.314697266],[118.64392089800002,26.311096191],[118.65112304700001,26.343688965],[118.64093017600001,26.370910645],[118.61169433600001,26.390930176],[118.57409668000001,26.406921387],[118.54492187500001,26.420471191],[118.53149414100001,26.452880859],[118.53668212900001,26.481323242],[118.56030273400002,26.516113281],[118.59448242200001,26.541320801],[118.60272216800001,26.571105957],[118.58508300800001,26.598510742],[118.56890869100002,26.632324219],[118.57128906200002,26.665283203],[118.57348632800002,26.694885254],[118.57470703100002,26.725097656],[118.59008789100001,26.751281738],[118.60449218700002,26.781494141],[118.61267089800002,26.816101074],[118.62207031200002,26.849304199],[118.65008544900002,26.872070312],[118.69952392600001,26.901489258],[118.67547607400002,26.94708252],[118.68969726600001,26.97668457],[118.72070312500001,26.968322754],[118.75347900400001,26.95892334],[118.78668212900001,26.985290527],[118.80950927700002,27.010498047],[118.83349609400001,27.032104492],[118.86529541000002,27.070678711],[118.88128662100002,27.108703613],[118.91070556600002,27.12890625],[118.92669677700002,27.153503418],[118.91967773400002,27.204101562],[118.95050048800002,27.193908691],[118.96972656200002,27.178527832],[118.97912597700001,27.168701172],[118.98052978500002,27.131530762],[118.99511718700002,27.121276855],[119.01428222700001,27.105895996],[119.04351806600002,27.085083008],[119.05810546900001,27.074707031],[119.07788085900002,27.063720703],[119.12109375000001,27.105712891],[119.15008544900002,27.127075195],[119.18127441400001,27.145324707],[119.15869140600002,27.172302246],[119.15789794900002,27.203918457],[119.20568847700001,27.265075684],[119.18109130900001,27.29510498],[119.22729492200001,27.346679687],[119.23870849600002,27.372314453],[119.22113037100002,27.411315918],[119.20367431600002,27.405273437],[119.15850830100001,27.401489258],[119.13970947300001,27.408081055],[119.12792968700002,27.434082031],[119.11108398400002,27.474121094],[119.06329345700001,27.484680176],[119.03247070300002,27.473510742],[118.99328613300001,27.480895996],[118.95208740200002,27.47668457],[118.89770507800002,27.471496582],[118.89788818400001,27.463500977],[118.88568115200002,27.475097656],[118.86968994100002,27.492675781],[118.86071777300002,27.502929687],[118.85992431600002,27.539672852],[118.87652587900001,27.55291748],[118.87988281200002,27.613708496],[118.86230468700002,27.65612793],[118.85412597700001,27.700683594],[118.82391357400002,27.78527832],[118.80090332000002,27.838684082],[118.796691895,27.848083496],[118.76892089800002,27.903930664],[118.72912597700001,27.951477051],[118.70892334000001,28.012878418],[118.69848632800002,28.069274902],[118.71630859400001,28.09387207],[118.75311279300001,28.114685059],[118.74871826200001,28.169677734],[118.75750732400002,28.197692871],[118.75628662100002,28.220275879],[118.76007080100001,28.228088379],[118.74011230500001,28.24432373],[118.73229980500001,28.250488281],[118.71667480500001,28.25970459],[118.70367431600002,28.287475586],[118.67492675800001,28.301696777]]]}}
