{"type":"Feature","id":"bulk-99377448B2380888172082","bbox":[82.295898437,43.547302246,87.35870361300002,47.19708252],"properties":{"id":"bulk-99377448B2380888172082","name":"Tarbaĝatay Prefecture","nameEn":"Tarbaĝatay Prefecture","fullName":"Tarbaĝatay Prefecture","level":"city","boundaryRole":"administrative-extent","boundaryQuality":"generalized-source-2020","boundaryYearRepresented":"2020","bounds":[[82.295898437,43.547302246],[87.35870361300002,47.19708252]],"center":[84.82730102500001,45.372192383],"centerMethod":"bounding-box midpoint; camera framing only","license":"CC-BY-3.0-IGO","attribution":"geoBoundaries / HDX, China administrative boundaries (2020)","source":{"provider":"geoBoundaries gbHumanitarian / HDX","url":"https://github.com/wmgeolab/geoBoundaries/raw/9469f09/releaseData/gbHumanitarian/CHN/ADM2/geoBoundaries-CHN-ADM2.geojson","metadataUrl":"https://www.geoboundaries.org/api/current/gbHumanitarian/CHN/ADM2/","shapeID":"99377448B2380888172082","shapeName":"Tarbaĝatay Prefecture","boundaryID":"CHN-ADM2-99377448","commit":"9469f09"},"geometryCounts":{"coordinates":520,"components":1,"holes":0},"boundaryNotice":"geoBoundaries / HDX 2020 年行政区数据，海岸和边界经过源数据概化，并非当前测绘成果。"},"geometry":{"type":"Polygon","coordinates":[[[85.520874023,47.058288574],[85.50311279300001,47.035522461],[85.43347168000001,47.033691406],[85.37292480500001,47.029724121],[85.34069824200002,47.020080566],[85.30108642600001,47.030273437],[85.29608154300001,47.010498047],[85.22448730500001,47.02130127],[85.169677734,46.993713379],[85.14929199200002,46.983520508],[85.14068603500002,46.984313965],[85.09051513700001,46.959899902],[85.08508300800001,46.955078125],[85.084106445,46.954101562],[85.07769775400001,46.939086914],[85.06988525400001,46.933288574],[85.053283691,46.926086426],[85.04248046900001,46.924072266],[85.01367187500001,46.924682617],[85.002502441,46.923706055],[85.00012207,46.923095703],[84.98229980500001,46.918884277],[84.97570800800001,46.914489746],[84.96868896500001,46.902893066],[84.966918945,46.884094238],[84.96630859400001,46.875671387],[84.96270752,46.871704102],[84.91748046900001,46.854309082],[84.90747070300002,46.852905273],[84.88311767600001,46.856323242],[84.871276855,46.854919434],[84.85949707,46.850524902],[84.826721191,46.832275391],[84.81787109400001,46.82989502],[84.80609130900001,46.826721191],[84.79791259800001,46.827514648],[84.79010009800001,46.837524414],[84.78552246100001,46.839477539],[84.76550293000001,46.836486816],[84.74072265600002,46.836914062],[84.703308105,46.834106445],[84.69848632800002,46.835876465],[84.69531250000001,46.839904785],[84.69873046900001,46.845275879],[84.72967529300001,46.855529785],[84.73150634800001,46.856506348],[84.737304687,46.859680176],[84.74127197300001,46.864685059],[84.74987793000001,46.882873535],[84.75653076200001,46.890930176],[84.780273437,46.902099609],[84.78588867200001,46.908508301],[84.77410888700001,46.914672852],[84.77148437500001,46.917724609],[84.77307128900001,46.926513672],[84.769714355,46.93371582],[84.761108398,46.936279297],[84.750915527,46.936889648],[84.74407959000001,46.941711426],[84.743530273,46.950927734],[84.743103027,46.956115723],[84.73510742200001,46.967102051],[84.72113037100002,46.975891113],[84.710327148,46.989318848],[84.64093017600001,46.974304199],[84.61352539100001,46.970275879],[84.54571533200001,46.963500977],[84.48229980500001,46.963317871],[84.43188476600001,46.996520996],[84.35687255900001,46.976074219],[84.29132080100001,46.981079102],[84.21990966800001,46.980285645],[84.18231201200001,46.97052002],[84.13067627,46.940124512],[84.03552246100001,46.953674316],[83.97772216800001,46.959899902],[83.935302734,46.958679199],[83.902526855,46.954284668],[83.85968017600001,46.968078613],[83.81829834000001,46.974487305],[83.78192138700001,46.985717773],[83.69708252,46.983093262],[83.655273437,47.014892578],[83.627075195,47.018920898],[83.56408691400001,47.027893066],[83.544677734,47.058288574],[83.52807617200001,47.058105469],[83.48852539100001,47.070495605],[83.45709228500002,47.082519531],[83.41168212900001,47.091918945],[83.39807128900001,47.097900391],[83.360290527,47.11907959],[83.32269287100002,47.143310547],[83.284912109,47.136901855],[83.261474609,47.142883301],[83.21392822300001,47.170898437],[83.184875488,47.190917969],[83.14227294900002,47.193115234],[83.04449462900001,47.19708252],[83.009887695,47.121520996],[83.00549316400001,47.097106934],[83.003295898,47.090881348],[83.00268554700001,47.090698242],[83.002075195,47.065490723],[82.92572021500001,46.925292969],[82.91571044900002,46.899719238],[82.89208984400001,46.883728027],[82.89007568400001,46.876525879],[82.87371826200001,46.852722168],[82.83508300800001,46.796691895],[82.818481445,46.765686035],[82.80731201200001,46.749694824],[82.802490234,46.737304687],[82.79010009800001,46.706298828],[82.77209472700001,46.614318848],[82.77172851600001,46.613708496],[82.76531982400002,46.601074219],[82.76452636700002,46.590698242],[82.75592041000002,46.565673828],[82.75152587900001,46.55871582],[82.751708984,46.554321289],[82.73907470700001,46.517700195],[82.725891113,46.492675781],[82.72308349600002,46.487121582],[82.71429443400001,46.47668457],[82.68072509800001,46.420898437],[82.66052246100001,46.391723633],[82.65008544900002,46.378479004],[82.64947509800001,46.377685547],[82.64910888700001,46.37689209],[82.62371826200001,46.335876465],[82.61529541000002,46.32989502],[82.60852050800001,46.319519043],[82.59411621100001,46.3046875],[82.57971191400001,46.283508301],[82.58227539100001,46.273498535],[82.56671142600001,46.248718262],[82.55627441400001,46.240905762],[82.55108642600001,46.231506348],[82.54870605500001,46.222473145],[82.52911377,46.184082031],[82.520507812,46.151489258],[82.519714355,46.145874023],[82.51330566400001,46.10748291],[82.51287841800001,46.073303223],[82.50689697300001,46.033081055],[82.50787353500002,46.020690918],[82.50927734400001,46.004882812],[82.50451660200001,45.983520508],[82.47308349600002,45.933288574],[82.44927978500002,45.90411377],[82.418884277,45.866516113],[82.409912109,45.850524902],[82.39648437500001,45.815124512],[82.38592529300001,45.793701172],[82.38287353500002,45.788085937],[82.37249755900001,45.769897461],[82.35491943400001,45.74987793],[82.33447265600002,45.709716797],[82.309509277,45.673706055],[82.30810546900001,45.671508789],[82.29907226600001,45.648925781],[82.29650878900001,45.644470215],[82.295898437,45.619506836],[82.30047607400002,45.582519531],[82.30310058600001,45.547119141],[82.30969238300001,45.524719238],[82.31707763700001,45.519287109],[82.33392334000001,45.510925293],[82.37951660200001,45.494689941],[82.40472412100002,45.477905273],[82.41052246100001,45.474914551],[82.41711425800001,45.471496582],[82.42968750000001,45.468688965],[82.58392334000001,45.446472168],[82.59008789100001,45.445678711],[82.59808349600002,45.440307617],[82.60369873,45.43170166],[82.62890625000001,45.376281738],[82.63092041000002,45.359680176],[82.61987304700001,45.331481934],[82.61871337900001,45.328308105],[82.59729003900001,45.260925293],[82.59490966800001,45.250671387],[82.602905273,45.208496094],[82.577880859,45.203491211],[82.57208252,45.203491211],[82.59912109400001,45.180114746],[82.63549804700001,45.171081543],[82.67547607400002,45.153686523],[82.71569824200002,45.13848877],[82.76531982400002,45.137512207],[82.81787109400001,45.113708496],[82.87231445300002,45.075317383],[82.91992187500001,45.054504395],[82.980285645,45.032104492],[83.04132080100001,45.006530762],[83.10571289100001,44.982116699],[83.14147949200002,44.972106934],[83.19970703100002,44.954711914],[83.23712158200001,44.945678711],[83.28790283200001,44.939880371],[83.33868408200001,44.940673828],[83.38751220700001,44.932922363],[83.509094238,44.94732666],[83.511901855,44.900085449],[83.56427002,44.891296387],[83.58972168000001,44.862487793],[83.62969970700001,44.843688965],[83.67388916000002,44.830505371],[83.703308105,44.8046875],[83.72888183600001,44.766723633],[83.760681152,44.743286133],[83.804870605,44.720275879],[83.84210205100001,44.695922852],[83.860290527,44.671875],[83.86090087900001,44.643310547],[83.84808349600002,44.612304687],[83.827880859,44.581726074],[83.801330566,44.546081543],[83.78692627,44.504272461],[83.77770996100001,44.470703125],[83.76232910200001,44.436523437],[83.71630859400001,44.420471191],[83.66571044900002,44.420471191],[83.61047363300001,44.43371582],[83.54052734400001,44.446105957],[83.51593017600001,44.406921387],[83.53192138700001,44.381530762],[83.52850341800001,44.349304199],[83.510314941,44.325683594],[83.50347900400001,44.296508789],[83.49291992200001,44.262512207],[83.45709228500002,44.236877441],[83.41210937500001,44.218078613],[83.39050293000001,44.178710937],[83.41168212900001,44.148925781],[83.436523437,44.122680664],[83.452514648,44.092285156],[83.45489502,44.051879883],[83.44708252,44.018493652],[83.487670898,44.01348877],[83.53088378900001,44.012084961],[83.58831787100002,44.002319336],[83.636108398,43.991882324],[83.67291259800001,43.983093262],[83.69830322300001,43.948486328],[83.73870849600002,43.923706055],[83.77508544900002,43.909301758],[83.86047363300001,43.920715332],[83.90008544900002,43.916320801],[83.92352294900002,43.891479492],[83.966918945,43.868530273],[84.004882812,43.864685059],[84.05090332,43.855102539],[84.09771728500002,43.833679199],[84.12249755900001,43.8046875],[84.14849853500002,43.783081055],[84.18109130900001,43.762695312],[84.22052002,43.747680664],[84.26171875000001,43.752502441],[84.29010009800001,43.725891113],[84.312683105,43.704101562],[84.36431884800001,43.714904785],[84.42547607400002,43.709472656],[84.510314941,43.727111816],[84.56628418000001,43.699279785],[84.58349609400001,43.667907715],[84.59729003900001,43.638305664],[84.66247558600001,43.635498047],[84.702514648,43.613708496],[84.74328613300001,43.61328125],[84.802124023,43.586303711],[84.82092285200001,43.557128906],[84.86132812500001,43.547302246],[84.93487548800002,43.594116211],[84.97869873,43.622680664],[84.99072265600002,43.65612793],[84.99670410200001,43.701293945],[84.995910645,43.730895996],[85.00347900400001,43.779724121],[85.00531005900001,43.818481445],[84.97509765600002,43.850891113],[84.96130371100001,43.87890625],[84.94970703100002,43.907897949],[84.953125,43.938903809],[84.95849609400001,43.966308594],[84.969299316,44.00012207],[84.99407959000001,44.035888672],[85.034912109,44.061096191],[85.06787109400001,44.082885742],[85.10668945300002,44.125305176],[85.127929687,44.152526855],[85.14831543000001,44.18371582],[85.16369628900001,44.212524414],[85.17547607400002,44.26171875],[85.18048095700001,44.295471191],[85.18109130900001,44.301696777],[85.09729003900001,44.282470703],[85.053283691,44.255310059],[85.034118652,44.219299316],[85.01727294900002,44.180297852],[84.99530029300001,44.153930664],[84.97229003900001,44.128112793],[84.936096191,44.109680176],[84.88909912100002,44.096130371],[84.83892822300001,44.09588623],[84.79248046900001,44.101318359],[84.76409912100002,44.119506836],[84.778686523,44.153076172],[84.79852294900002,44.192321777],[84.80828857400002,44.223693848],[84.80731201200001,44.254089355],[84.79730224600002,44.285705566],[84.79071044900002,44.323486328],[84.78869628900001,44.356689453],[84.81048584000001,44.399291992],[84.83947753900001,44.423278809],[84.869689941,44.445495605],[84.87249755900001,44.479675293],[84.862304687,44.509887695],[84.86590576200001,44.550720215],[84.84588623,44.59588623],[84.82067871100001,44.655883789],[84.76312255900001,44.652526855],[84.736083984,44.672119141],[84.69989013700001,44.704528809],[84.66650390600002,44.732116699],[84.64331054700001,44.765075684],[84.63867187500001,44.795715332],[84.64208984400001,44.852111816],[84.64227294900002,44.899719238],[84.64611816400001,44.92767334],[84.65747070300002,44.979309082],[84.663085937,45.010681152],[84.67370605500001,45.06451416],[84.67590332,45.093078613],[84.678710937,45.120300293],[84.68048095700001,45.169311523],[84.67968750000001,45.198730469],[84.68371582,45.25390625],[84.653320312,45.276123047],[84.65008544900002,45.323486328],[84.67791748,45.348083496],[84.70507812500001,45.386474609],[84.72192382800002,45.421875],[84.75970459000001,45.446289062],[84.74731445300002,45.475097656],[84.74670410200001,45.506286621],[84.77447509800001,45.537902832],[84.796691895,45.559875488],[84.83630371100001,45.583312988],[84.893493652,45.590515137],[84.934509277,45.606689453],[84.952087402,45.635925293],[84.99749755900001,45.653320312],[85.04791259800001,45.653686523],[85.09930419900002,45.665710449],[85.14093017600001,45.693115234],[85.16790771500001,45.71307373],[85.202514648,45.739685059],[85.23132324200002,45.766113281],[85.252075195,45.807678223],[85.27532959000001,45.857727051],[85.29052734400001,45.89050293],[85.30047607400002,45.918701172],[85.29888916000002,45.945678711],[85.28588867200001,45.97668457],[85.27392578100002,46.011901855],[85.27471923800002,46.054077148],[85.31127929700001,46.079284668],[85.41589355500001,46.139709473],[85.460327148,46.12310791],[85.511108398,46.138122559],[85.55609130900001,46.150085449],[85.59252929700001,46.16027832],[85.63830566400001,46.156311035],[85.68029785200001,46.149719238],[85.72888183600001,46.143127441],[85.78192138700001,46.141113281],[85.84252929700001,46.132873535],[85.90447998,46.113891602],[85.93988037100002,46.090515137],[85.96789550800001,46.065307617],[86.002075195,46.035705566],[86.01672363300001,46.001708984],[85.96948242200001,45.988098145],[85.93890380900001,45.958679199],[85.94488525400001,45.926086426],[85.91271972700001,45.899291992],[85.85949707,45.871887207],[85.79870605500001,45.835876465],[85.75549316400001,45.807128906],[85.72668457,45.785522461],[85.69989013700001,45.757324219],[85.66668701200001,45.721496582],[85.660705566,45.68170166],[85.645080566,45.637878418],[85.62768554700001,45.604309082],[85.602478027,45.578674316],[85.56072998,45.546325684],[85.52569580100001,45.522521973],[85.50128173800002,45.498901367],[85.45587158200001,45.471313477],[85.36590576200001,45.429870605],[85.30767822300001,45.400878906],[85.29211425800001,45.35748291],[85.28167724600002,45.328918457],[85.26989746100001,45.290527344],[85.33630371100001,45.298706055],[85.41131591800001,45.291320801],[85.45007324200002,45.290527344],[85.520874023,45.292480469],[85.56408691400001,45.293273926],[85.635681152,45.291503906],[85.67852783200001,45.288085937],[85.74249267600001,45.280883789],[85.78131103500002,45.281311035],[85.84729003900001,45.280090332],[85.91168212900001,45.280700684],[85.97027587900001,45.279907227],[86.01129150400001,45.278076172],[86.07171630900001,45.280883789],[86.12811279300001,45.281921387],[86.19750976600001,45.282287598],[86.27447509800001,45.283081055],[86.36907959000001,45.280883789],[86.41333007800002,45.280700684],[86.475524902,45.278320312],[86.535705566,45.279907227],[86.60589599600002,45.275695801],[86.65570068400001,45.274902344],[86.72027587900001,45.286315918],[86.79528808600001,45.277282715],[86.84490966800001,45.278686523],[86.90850830100001,45.278320312],[86.953308105,45.278320312],[87.01507568400001,45.278503418],[87.07849121100001,45.280273437],[87.12768554700001,45.275085449],[87.19891357400002,45.275512695],[87.24450683600001,45.276916504],[87.33172607400002,45.290527344],[87.32568359400001,45.317687988],[87.32110595700001,45.344482422],[87.31951904300001,45.371704102],[87.32373046900001,45.407714844],[87.33032226600001,45.436279297],[87.33447265600002,45.472106934],[87.33630371100001,45.501708984],[87.33850097700001,45.533691406],[87.33752441400001,45.561279297],[87.328308105,45.611083984],[87.33172607400002,45.658691406],[87.33331298800002,45.696105957],[87.33471679700001,45.741882324],[87.33868408200001,45.772888184],[87.34552002,45.8046875],[87.34790039100001,45.832702637],[87.35388183600001,45.866882324],[87.35870361300002,45.901306152],[87.34948730500001,45.931884766],[87.326293945,45.968078613],[87.30969238300001,45.994506836],[87.28112793000001,46.044128418],[87.27288818400001,46.073486328],[87.24407959000001,46.110290527],[87.21728515600002,46.152526855],[87.195129395,46.1953125],[87.170471191,46.242919922],[87.14727783200001,46.291687012],[87.12548828100002,46.333312988],[87.10491943400001,46.361083984],[87.07427978500002,46.408325195],[87.06207275400001,46.463928223],[87.08251953100002,46.499084473],[87.10510253900001,46.522277832],[87.14050293000001,46.547912598],[87.169311523,46.567321777],[87.20428466800001,46.589477539],[87.22387695300002,46.618103027],[87.234924316,46.652282715],[87.238098145,46.683288574],[87.24029541000002,46.711730957],[87.22668457,46.754272461],[87.19189453100002,46.782287598],[87.13427734400001,46.77947998],[87.09588623,46.798522949],[87.07550048800002,46.827514648],[87.06829834000001,46.860900879],[87.06048584000001,46.907714844],[87.06048584000001,46.942321777],[87.02587890600002,47.00567627],[86.928710937,46.983703613],[86.87469482400002,46.972473145],[86.83471679700001,46.964904785],[86.77191162100002,46.955505371],[86.730285645,46.952270508],[86.69110107400002,46.94909668],[86.62652587900001,46.934692383],[86.53192138700001,46.915710449],[86.45452880900001,46.914672852],[86.42327880900001,46.940917969],[86.37847900400001,46.94732666],[86.30548095700001,46.945129395],[86.23828125000001,46.940307617],[86.19488525400001,46.934692383],[86.15393066400001,46.924499512],[86.09967041000002,46.931884766],[86.05847168000001,46.957275391],[86.01989746100001,46.979492187],[85.97412109400001,47.000488281],[85.90631103500002,47.004089355],[85.83947753900001,46.99407959],[85.785705566,46.985717773],[85.73168945300002,46.98651123],[85.670471191,46.988891602],[85.60607910200001,46.988891602],[85.56091308600001,46.98651123],[85.520874023,47.058288574]]]}}
