{"type":"Feature","id":"bulk-99377448B60958433282994","bbox":[123.35247802700002,39.783508301,125.66308593700002,41.154296875],"properties":{"id":"bulk-99377448B60958433282994","name":"Dandong","nameEn":"Dandong","fullName":"Dandong","level":"city","boundaryRole":"administrative-extent","boundaryQuality":"generalized-source-2020","boundaryYearRepresented":"2020","bounds":[[123.35247802700002,39.783508301],[125.66308593700002,41.154296875]],"center":[124.50778198200001,40.468902588],"centerMethod":"bounding-box midpoint; camera framing only","license":"CC-BY-3.0-IGO","attribution":"geoBoundaries / HDX, China administrative boundaries (2020)","source":{"provider":"geoBoundaries gbHumanitarian / HDX","url":"https://github.com/wmgeolab/geoBoundaries/raw/9469f09/releaseData/gbHumanitarian/CHN/ADM2/geoBoundaries-CHN-ADM2.geojson","metadataUrl":"https://www.geoboundaries.org/api/current/gbHumanitarian/CHN/ADM2/","shapeID":"99377448B60958433282994","shapeName":"Dandong","boundaryID":"CHN-ADM2-99377448","commit":"9469f09"},"geometryCounts":{"coordinates":566,"components":2,"holes":0},"boundaryNotice":"geoBoundaries / HDX 2020 年行政区数据，海岸和边界经过源数据概化，并非当前测绘成果。"},"geometry":{"type":"MultiPolygon","coordinates":[[[[123.86547851600001,39.841491699],[123.87548828100002,39.842102051],[123.86828613300001,39.843688965],[123.86547851600001,39.841491699]]],[[[123.39367675800001,39.986083984],[123.35247802700002,39.944091797],[123.37072753900001,39.919494629],[123.41088867200001,39.912719727],[123.44110107400002,39.892089844],[123.44030761700002,39.862487793],[123.44647216800001,39.83190918],[123.47113037100002,39.805480957],[123.48229980500001,39.808288574],[123.495910645,39.80871582],[123.50268554700001,39.799926758],[123.51031494100002,39.783508301],[123.51330566400001,39.785888672],[123.52227783200001,39.789916992],[123.52270507800002,39.789306641],[123.53070068400001,39.806091309],[123.54272460900002,39.819519043],[123.55792236300002,39.829711914],[123.57269287100002,39.837280273],[123.58868408200001,39.858520508],[123.60211181600002,39.866088867],[123.63409423800002,39.860473633],[123.63269043000001,39.866271973],[123.63928222700001,39.881103516],[123.64068603500002,39.893127441],[123.64587402300002,39.90411377],[123.65509033200001,39.911499023],[123.65570068400001,39.906921387],[123.64990234400001,39.889709473],[123.65087890600002,39.88067627],[123.64447021500001,39.864074707],[123.64569091800001,39.861328125],[123.65252685500002,39.858886719],[123.65667724600002,39.855285645],[123.66790771500001,39.853271484],[123.67211914100001,39.848693848],[123.69012451200001,39.848510742],[123.70428466800001,39.838317871],[123.70812988300001,39.833679199],[123.70849609400001,39.831726074],[123.70330810500002,39.82611084],[123.72528076200001,39.826721191],[123.74847412100002,39.833496094],[123.77111816400001,39.843078613],[123.77111816400001,39.844909668],[123.77331543000001,39.84387207],[123.83148193400001,39.868530273],[123.83288574200002,39.843078613],[123.84832763700001,39.840515137],[123.85168457000002,39.840698242],[123.85650634800001,39.842102051],[123.86749267600001,39.851074219],[123.87927246100001,39.853088379],[123.87731933600001,39.850280762],[123.87768554700001,39.846923828],[123.88067627,39.846130371],[123.88250732400002,39.843505859],[123.88092041000002,39.842285156],[123.93432617200001,39.84552002],[123.96868896500001,39.806518555],[124.04187011700002,39.840698242],[124.07867431600002,39.836120605],[124.10430908200001,39.836120605],[124.11248779300001,39.845092773],[124.10968017600001,39.849121094],[124.113098145,39.851928711],[124.10827636700002,39.858520508],[124.10949707000002,39.86328125],[124.11468505900001,39.862915039],[124.11730957000002,39.860473633],[124.11853027300002,39.85168457],[124.12109375000001,39.854309082],[124.13568115200002,39.861877441],[124.13989257800002,39.867126465],[124.14672851600001,39.870483398],[124.14807128900001,39.868896484],[124.14752197300001,39.868103027],[124.15747070300002,39.873291016],[124.16528320300002,39.882507324],[124.16827392600001,39.898498535],[124.17327880900001,39.912475586],[124.17907714800002,39.924682617],[124.18511962900001,39.936706543],[124.203125,39.942077637],[124.21710205100001,39.945129395],[124.23413085900002,39.944274902],[124.24291992200001,39.95892334],[124.24871826200001,39.970092773],[124.26208496100001,39.97668457],[124.27947998000002,39.97869873],[124.29107666000002,39.981872559],[124.304504395,39.99407959],[124.30987548800002,40.003479004],[124.31408691400001,40.012512207],[124.31567382800002,40.015686035],[124.31408691400001,40.026672363],[124.30810546900001,40.039123535],[124.30407714800002,40.050476074],[124.29467773400002,40.059692383],[124.29748535200001,40.074707031],[124.31469726600001,40.087524414],[124.31848144500002,40.082885742],[124.33709716800001,40.110107422],[124.363098145,40.137329102],[124.40130615200002,40.171508789],[124.42968750000001,40.186706543],[124.44372558600001,40.194274902],[124.48187255900001,40.215698242],[124.52069091800001,40.238891602],[124.56152343700002,40.266296387],[124.60089111300002,40.292114258],[124.64990234400001,40.304870605],[124.66729736300002,40.318481445],[124.70050048800002,40.369506836],[124.74029541000002,40.391723633],[124.77947998000002,40.410095215],[124.82507324200002,40.435302734],[124.863098145,40.460083008],[124.88049316400001,40.460510254],[124.88092041000002,40.460876465],[124.88128662100002,40.461730957],[124.88189697300001,40.46270752],[124.88250732400002,40.463500977],[124.88287353500002,40.464294434],[124.88348388700001,40.465087891],[124.88391113300001,40.465698242],[124.88427734400001,40.466308594],[124.88488769500002,40.467285156],[124.88549804700001,40.468078613],[124.88610839800002,40.46887207],[124.88647460900002,40.469909668],[124.88690185500002,40.470703125],[124.88751220700001,40.471496582],[124.88787841800001,40.472106934],[124.88848877,40.472900391],[124.88891601600001,40.473510742],[124.88952636700002,40.474304199],[124.89007568400001,40.475097656],[124.89050293000001,40.475708008],[124.89111328100002,40.476318359],[124.89172363300001,40.476928711],[124.89227294900002,40.477478027],[124.89288330100001,40.477905273],[124.89349365200002,40.478271484],[124.89428710900002,40.478881836],[124.89489746100001,40.479309082],[124.89532470700001,40.479675293],[124.89587402300002,40.480102539],[124.89648437500001,40.480529785],[124.89709472700001,40.480712891],[124.89788818400001,40.481079102],[124.89849853500002,40.481079102],[124.89910888700001,40.481323242],[124.89990234400001,40.481506348],[124.90087890600002,40.481689453],[124.90148925800001,40.481689453],[124.90252685500002,40.481506348],[124.90350341800001,40.481323242],[124.90411377,40.481323242],[124.90472412100002,40.481079102],[124.90551757800002,40.480712891],[124.90612793000001,40.480102539],[124.90649414100001,40.479492187],[124.90692138700001,40.478881836],[124.90728759800001,40.478271484],[124.90747070300002,40.477722168],[124.90789794900002,40.477111816],[124.90808105500001,40.476318359],[124.90832519500002,40.475708008],[124.90850830100001,40.474914551],[124.90850830100001,40.474121094],[124.90850830100001,40.473327637],[124.90850830100001,40.472473145],[124.90832519500002,40.471679687],[124.90808105500001,40.47088623],[124.90771484400001,40.470275879],[124.90728759800001,40.469726562],[124.90692138700001,40.469116211],[124.90649414100001,40.468322754],[124.90612793000001,40.467529297],[124.90570068400001,40.466918945],[124.90527343700002,40.466308594],[124.90490722700001,40.465698242],[124.90472412100002,40.464904785],[124.90472412100002,40.463928223],[124.90509033200001,40.463317871],[124.90527343700002,40.46270752],[124.90570068400001,40.462280273],[124.90631103500002,40.461730957],[124.90692138700001,40.461120605],[124.90710449200002,40.460876465],[124.92108154300001,40.461120605],[124.95050048800002,40.467102051],[124.97113037100002,40.483886719],[124.98107910200001,40.521911621],[125.01831054700001,40.554077148],[125.06152343700002,40.567687988],[125.12951660200001,40.586486816],[125.19451904300001,40.60949707],[125.22131347700001,40.632873535],[125.26129150400001,40.641113281],[125.26629638700001,40.639892578],[125.26647949200002,40.640930176],[125.26672363300001,40.641723633],[125.26690673800002,40.642700195],[125.26708984400001,40.643127441],[125.26727294900002,40.644104004],[125.26770019500002,40.645080566],[125.26788330100001,40.645874023],[125.26831054700001,40.64630127],[125.26892089800002,40.647094727],[125.26947021500001,40.647888184],[125.27008056600002,40.648498535],[125.27069091800001,40.648925781],[125.27130127,40.649475098],[125.27209472700001,40.649902344],[125.27288818400001,40.650512695],[125.27392578100002,40.650878906],[125.27471923800002,40.651489258],[125.27587890600002,40.652099609],[125.27667236300002,40.652709961],[125.27789306600002,40.653076172],[125.27893066400001,40.653686523],[125.27990722700001,40.65411377],[125.28112793000001,40.654724121],[125.28192138700001,40.655090332],[125.28271484400001,40.655517578],[125.28387451200001,40.655700684],[125.28491210900002,40.655883789],[125.28588867200001,40.65612793],[125.28668212900001,40.656311035],[125.28771972700001,40.656494141],[125.28869628900001,40.656494141],[125.28967285200001,40.656677246],[125.29028320300002,40.656494141],[125.29107666000002,40.656494141],[125.29229736300002,40.656311035],[125.29327392600001,40.65612793],[125.29412841800001,40.655700684],[125.29510498000002,40.655273437],[125.29608154300001,40.654907227],[125.29711914100001,40.65447998],[125.29791259800001,40.653930664],[125.29827880900001,40.653686523],[125.29949951200001,40.653076172],[125.30029296900001,40.652282715],[125.30108642600001,40.651672363],[125.30187988300001,40.651123047],[125.30267334000001,40.650512695],[125.30352783200001,40.650085449],[125.30407714800002,40.649475098],[125.30529785200001,40.648681641],[125.30627441400001,40.647888184],[125.30731201200001,40.647277832],[125.30828857400002,40.646484375],[125.30932617200001,40.645874023],[125.31048584000001,40.645080566],[125.31170654300001,40.644287109],[125.3125,40.643920898],[125.31311035200001,40.643310547],[125.31408691400001,40.642883301],[125.31469726600001,40.642272949],[125.31567382800002,40.641479492],[125.31652832000002,40.640930176],[125.31732177700002,40.640319824],[125.31787109400001,40.639892578],[125.31848144500002,40.639526367],[125.31927490200002,40.638916016],[125.320129395,40.63848877],[125.32067871100001,40.638305664],[125.32128906200002,40.637878418],[125.32232666000002,40.637695312],[125.32330322300001,40.637512207],[125.32427978500002,40.637329102],[125.32531738300001,40.637084961],[125.32629394500002,40.637084961],[125.32708740200002,40.637084961],[125.32788085900002,40.637084961],[125.32867431600002,40.637084961],[125.32952880900001,40.637329102],[125.33032226600001,40.637329102],[125.33148193400001,40.637512207],[125.33227539100001,40.637695312],[125.33312988300001,40.637878418],[125.33410644500002,40.638305664],[125.33471679700001,40.63848877],[125.33587646500001,40.639099121],[125.33673095700001,40.639282227],[125.33752441400001,40.639709473],[125.33831787100002,40.640075684],[125.33929443400001,40.64050293],[125.34051513700001,40.640930176],[125.34149169900002,40.641479492],[125.34252929700001,40.641906738],[125.34350585900002,40.642272949],[125.34429931600002,40.642883301],[125.34552002,40.643493652],[125.34631347700001,40.643920898],[125.34729003900001,40.644287109],[125.34832763700001,40.644897461],[125.34930419900002,40.645324707],[125.35028076200001,40.645874023],[125.35107421900001,40.64630127],[125.35211181600002,40.646728516],[125.35308837900001,40.647277832],[125.35388183600001,40.647521973],[125.35491943400001,40.647888184],[125.35571289100001,40.648071289],[125.35668945300002,40.64831543],[125.35772705100001,40.648681641],[125.35870361300002,40.648681641],[125.35949707000002,40.649108887],[125.36047363300001,40.649108887],[125.36169433600001,40.649291992],[125.36267089800002,40.649291992],[125.36407470700001,40.649475098],[125.36450195300002,40.649475098],[125.36547851600001,40.649475098],[125.36627197300001,40.649291992],[125.36730957000002,40.649108887],[125.36828613300001,40.648681641],[125.36907959000001,40.64831543],[125.36968994100002,40.647888184],[125.37030029300001,40.647705078],[125.37109375000001,40.647094727],[125.37170410200001,40.646484375],[125.37249755900001,40.646118164],[125.37329101600001,40.645507812],[125.37390136700002,40.645080566],[125.37451171900001,40.644714355],[125.40509033200001,40.698730469],[125.46173095700001,40.707275391],[125.46191406200002,40.707275391],[125.46209716800001,40.707702637],[125.46270752,40.708496094],[125.46350097700001,40.709289551],[125.46411132800002,40.709899902],[125.46490478500002,40.710693359],[125.46551513700001,40.711303711],[125.46588134800001,40.711914062],[125.46649169900002,40.712524414],[125.46710205100001,40.71307373],[125.46752929700001,40.713500977],[125.46807861300002,40.713928223],[125.46868896500001,40.714477539],[125.46948242200001,40.714904785],[125.47009277300002,40.715270996],[125.47070312500001,40.715881348],[125.47149658200001,40.716125488],[125.47210693400001,40.716674805],[125.47290039100001,40.717102051],[125.47369384800001,40.717529297],[125.47448730500001,40.718078613],[125.47528076200001,40.718688965],[125.47607421900001,40.719116211],[125.47668457000002,40.719299316],[125.47711181600002,40.719482422],[125.47772216800001,40.719909668],[125.47851562500001,40.720092773],[125.47930908200001,40.720275879],[125.48010253900001,40.72052002],[125.48071289100001,40.720703125],[125.48150634800001,40.72088623],[125.48229980500001,40.721130371],[125.48327636700002,40.721130371],[125.48413085900002,40.721313477],[125.48510742200001,40.721313477],[125.48651123000002,40.721313477],[125.48767089800002,40.721313477],[125.48870849600002,40.721313477],[125.48907470700001,40.721313477],[125.50067138700001,40.738098145],[125.52789306600002,40.760925293],[125.54827880900001,40.760498047],[125.54852294900002,40.760498047],[125.54870605500001,40.760681152],[125.54907226600001,40.761474609],[125.54968261700002,40.761901855],[125.55010986300002,40.762512207],[125.55072021500001,40.763122559],[125.55133056600002,40.763916016],[125.55187988300001,40.764526367],[125.55249023400002,40.765075684],[125.55291748000002,40.76550293],[125.55328369100002,40.765930176],[125.55371093700002,40.766296387],[125.55432128900001,40.766723633],[125.55487060500002,40.767272949],[125.55548095700001,40.767883301],[125.55609130900001,40.768310547],[125.55688476600001,40.768920898],[125.55767822300001,40.769287109],[125.55828857400002,40.769714355],[125.55889892600001,40.770080566],[125.55950927700002,40.770690918],[125.56030273400002,40.771118164],[125.56127929700001,40.771484375],[125.56188964800002,40.772094727],[125.56292724600002,40.772521973],[125.56372070300002,40.772888184],[125.56469726600001,40.77331543],[125.56549072300001,40.773681641],[125.56652832000002,40.773925781],[125.56732177700002,40.774291992],[125.56829834000001,40.774475098],[125.56927490200002,40.774902344],[125.570129395,40.775085449],[125.57092285200001,40.775085449],[125.57208252,40.77532959],[125.57287597700001,40.775512695],[125.57373046900001,40.775512695],[125.57409668000001,40.775512695],[125.57507324200002,40.775512695],[125.57629394500002,40.775512695],[125.57727050800001,40.775512695],[125.578125,40.775512695],[125.57910156200002,40.77532959],[125.57989502,40.775085449],[125.58068847700001,40.774902344],[125.58172607400002,40.774719238],[125.58227539100001,40.774475098],[125.58312988300001,40.774108887],[125.58367919900002,40.773925781],[125.58428955100001,40.773498535],[125.58471679700001,40.772888184],[125.58532714800002,40.772277832],[125.58569335900002,40.771728516],[125.58612060500002,40.771118164],[125.58648681600002,40.770507812],[125.58709716800001,40.769714355],[125.58728027300002,40.769104004],[125.58770752,40.768493652],[125.58831787100002,40.767700195],[125.58868408200001,40.766906738],[125.58911132800002,40.766296387],[125.58947753900001,40.765686035],[125.58990478500002,40.765075684],[125.59051513700001,40.764282227],[125.59088134800001,40.763916016],[125.59130859400001,40.763305664],[125.59191894500002,40.762695312],[125.59228515600002,40.762084961],[125.59271240200002,40.761474609],[125.59307861300002,40.760925293],[125.59368896500001,40.760498047],[125.59411621100001,40.759887695],[125.59472656200002,40.759277344],[125.59527587900001,40.758483887],[125.59613037100002,40.758117676],[125.59692382800002,40.757507324],[125.597473145,40.757080078],[125.59832763700001,40.756713867],[125.59912109400001,40.756286621],[125.59991455100001,40.756286621],[125.60089111300002,40.756103516],[125.60168457000002,40.756103516],[125.60272216800001,40.756103516],[125.60369873000002,40.756103516],[125.60467529300001,40.756103516],[125.60571289100001,40.756103516],[125.60687255900001,40.756103516],[125.60748291000002,40.756286621],[125.60888671900001,40.756286621],[125.61010742200001,40.756286621],[125.61090087900001,40.756530762],[125.61431884800001,40.759277344],[125.61651611300002,40.768920898],[125.61029052700002,40.802124023],[125.61730957000002,40.81427002],[125.63928222700001,40.834472656],[125.66308593700002,40.847106934],[125.65252685500002,40.875488281],[125.61187744100002,40.912719727],[125.55389404300001,40.890075684],[125.54107666000002,40.891723633],[125.53552246100001,40.928100586],[125.46789550800001,40.922912598],[125.48510742200001,40.982910156],[125.47290039100001,40.987487793],[125.44628906200002,40.987304687],[125.41247558600001,40.974914551],[125.39910888700001,41.01550293],[125.38610839800002,41.017089844],[125.34112548800002,40.992919922],[125.31927490200002,40.999694824],[125.29907226600001,41.02532959],[125.27331543000001,41.052307129],[125.23107910200001,41.075073242],[125.17529296900001,41.068115234],[125.13647460900002,41.066894531],[125.08752441400001,41.069091797],[125.03668212900001,41.083679199],[124.99688720700001,41.080322266],[124.94348144500002,41.079284668],[124.90490722700001,41.087280273],[124.81451416000002,41.110290527],[124.75207519500002,41.130310059],[124.68432617200001,41.154296875],[124.66308593700002,41.105285645],[124.62030029300001,41.087524414],[124.58270263700001,41.080078125],[124.54107666000002,41.076477051],[124.503723145,41.061523437],[124.46228027300002,41.043273926],[124.41949462900001,41.040283203],[124.36932373000002,41.049072266],[124.31671142600001,41.035705566],[124.28649902300002,41.055114746],[124.25408935500002,41.070495605],[124.19470214800002,41.068908691],[124.17687988300001,41.038879395],[124.16430664100001,41.012695312],[124.12109375000001,41.018676758],[124.08007812500001,41.024108887],[124.097473145,40.962280273],[124.11151123000002,40.937683105],[124.12890625000001,40.891113281],[124.11572265600002,40.849914551],[124.08929443400001,40.830322266],[124.03668212900001,40.837280273],[124.00592041000002,40.851501465],[123.95629882800002,40.855712891],[123.92071533200001,40.829284668],[123.88287353500002,40.809875488],[123.84368896500001,40.815307617],[123.81610107400002,40.835693359],[123.77087402300002,40.837524414],[123.72528076200001,40.821899414],[123.67852783200001,40.803527832],[123.64208984400001,40.797302246],[123.60552978500002,40.811706543],[123.58068847700001,40.843688965],[123.54791259800001,40.825500488],[123.51770019500002,40.807495117],[123.56488037100002,40.75592041],[123.54290771500001,40.723693848],[123.53167724600002,40.69708252],[123.58410644500002,40.669921875],[123.63110351600001,40.655517578],[123.67449951200001,40.63848877],[123.70532226600001,40.603881836],[123.70648193400001,40.569091797],[123.71868896500001,40.529296875],[123.74908447300001,40.480102539],[123.74328613300001,40.444091797],[123.73150634800001,40.408325195],[123.72290039100001,40.373718262],[123.71649169900002,40.340698242],[123.70892334000001,40.304504395],[123.68988037100002,40.275085449],[123.64648437500001,40.247070312],[123.597473145,40.229919434],[123.56072998000002,40.217529297],[123.56030273400002,40.177307129],[123.57788085900002,40.172485352],[123.58068847700001,40.117492676],[123.55590820300002,40.091674805],[123.51531982400002,40.07409668],[123.46911621100001,40.055480957],[123.46032714800002,40.021911621],[123.46588134800001,39.991516113],[123.39367675800001,39.986083984]]]]}}
