{"type":"Feature","id":"bulk-99377448B45544429793780","bbox":[119.01892089800002,32.205078125,119.87689209000001,33.418884277],"properties":{"id":"bulk-99377448B45544429793780","name":"Yangzhou","nameEn":"Yangzhou","fullName":"Yangzhou","level":"city","boundaryRole":"administrative-extent","boundaryQuality":"generalized-source-2020","boundaryYearRepresented":"2020","bounds":[[119.01892089800002,32.205078125],[119.87689209000001,33.418884277]],"center":[119.44790649400002,32.811981200999995],"centerMethod":"bounding-box midpoint; camera framing only","license":"CC-BY-3.0-IGO","attribution":"geoBoundaries / HDX, China administrative boundaries (2020)","source":{"provider":"geoBoundaries gbHumanitarian / HDX","url":"https://github.com/wmgeolab/geoBoundaries/raw/9469f09/releaseData/gbHumanitarian/CHN/ADM2/geoBoundaries-CHN-ADM2.geojson","metadataUrl":"https://www.geoboundaries.org/api/current/gbHumanitarian/CHN/ADM2/","shapeID":"99377448B45544429793780","shapeName":"Yangzhou","boundaryID":"CHN-ADM2-99377448","commit":"9469f09"},"geometryCounts":{"coordinates":119,"components":1,"holes":0},"boundaryNotice":"geoBoundaries / HDX 2020 年行政区数据，海岸和边界经过源数据概化，并非当前测绘成果。"},"geometry":{"type":"Polygon","coordinates":[[[119.18292236300002,32.819885254],[119.203125,32.778686523],[119.19592285200001,32.740905762],[119.18212890600002,32.711730957],[119.17309570300002,32.687316895],[119.17871093700002,32.646118164],[119.17687988300001,32.594909668],[119.17633056600002,32.578674316],[119.14129638700001,32.555480957],[119.12969970700001,32.525878906],[119.12890625000001,32.486083984],[119.09729003900001,32.450927734],[119.05932617200001,32.440124512],[119.05187988300001,32.448120117],[119.02587890600002,32.430725098],[119.01892089800002,32.393493652],[119.02087402300002,32.365112305],[119.02410888700001,32.32611084],[119.02850341800001,32.294494629],[119.03930664100001,32.256530762],[119.06292724600002,32.228088379],[119.10107421900001,32.235107422],[119.14447021500001,32.240905762],[119.18951416000002,32.237915039],[119.22711181600002,32.225280762],[119.27868652300002,32.205078125],[119.31512451200001,32.233703613],[119.35272216800001,32.218688965],[119.38891601600001,32.234680176],[119.44232177700002,32.257873535],[119.47967529300001,32.238891602],[119.51507568400001,32.247680664],[119.58648681600002,32.250305176],[119.60028076200001,32.221313477],[119.63452148400002,32.205322266],[119.67669677700002,32.235900879],[119.71551513700001,32.266723633],[119.72271728500002,32.278076172],[119.72991943400001,32.289672852],[119.73651123000002,32.296325684],[119.74328613300001,32.303100586],[119.75830078100002,32.30670166],[119.77349853500002,32.310302734],[119.78131103500002,32.302307129],[119.78912353500002,32.294494629],[119.79467773400002,32.291687012],[119.80010986300002,32.288696289],[119.80828857400002,32.283325195],[119.81652832000002,32.277709961],[119.83270263700001,32.266723633],[119.85650634800001,32.366271973],[119.85870361300002,32.385498047],[119.83129882800002,32.411499023],[119.85107421900001,32.438720703],[119.83972168000001,32.46472168],[119.81549072300001,32.487304687],[119.81072998000002,32.523681641],[119.82232666000002,32.55871582],[119.79968261700002,32.585693359],[119.80432128900001,32.614685059],[119.86090087900001,32.618896484],[119.87689209000001,32.642272949],[119.87567138700001,32.671691895],[119.84252929700001,32.719299316],[119.84051513700001,32.750915527],[119.80487060500002,32.783081055],[119.79187011700002,32.809326172],[119.76147460900002,32.822692871],[119.76068115200002,32.851928711],[119.76690673800002,32.887695312],[119.74749755900001,32.910705566],[119.70349121100001,32.916687012],[119.68652343700002,32.942077637],[119.67852783200001,32.970092773],[119.67547607400002,33.00769043],[119.66632080100001,33.051086426],[119.63970947300001,33.10168457],[119.63592529300001,33.145080566],[119.64288330100001,33.171081543],[119.65948486300002,33.194519043],[119.69970703100002,33.208496094],[119.68011474600002,33.23651123],[119.66607666000002,33.299499512],[119.62951660200001,33.300476074],[119.61712646500001,33.327514648],[119.60272216800001,33.35369873],[119.55651855500001,33.414123535],[119.49792480500001,33.418884277],[119.46069335900002,33.411071777],[119.42907714800002,33.395080566],[119.39172363300001,33.371520996],[119.35107421900001,33.363098145],[119.30389404300001,33.363098145],[119.25769043000001,33.361083984],[119.22149658200001,33.356872559],[119.20111084000001,33.33392334],[119.21173095700001,33.303100586],[119.17968750000001,33.29107666],[119.13507080100001,33.290100098],[119.11853027300002,33.241882324],[119.13732910200001,33.211303711],[119.171875,33.208679199],[119.20330810500002,33.186706543],[119.21472168000001,33.149291992],[119.25469970700001,33.140686035],[119.29370117200001,33.12487793],[119.31311035200001,33.085876465],[119.33288574200002,33.063720703],[119.34967041000002,33.040100098],[119.32690429700001,33.010925293],[119.30310058600001,32.984313965],[119.304504395,32.95111084],[119.30828857400002,32.919311523],[119.30432128900001,32.891479492],[119.29809570300002,32.85748291],[119.28747558600001,32.824279785],[119.23687744100002,32.81451416],[119.19787597700001,32.817871094],[119.18292236300002,32.819885254]]]}}
