{"type":"Feature","id":"bulk-99377448B80112521079538","bbox":[109.74890136700002,18.37487793,110.17510986300002,18.804870605],"properties":{"id":"bulk-99377448B80112521079538","name":"Lingshui Li Autonomous County","nameEn":"Lingshui Li Autonomous County","fullName":"Lingshui Li Autonomous County","level":"city","boundaryRole":"administrative-extent","boundaryQuality":"generalized-source-2020","boundaryYearRepresented":"2020","bounds":[[109.74890136700002,18.37487793],[110.17510986300002,18.804870605]],"center":[109.96200561500001,18.5898742675],"centerMethod":"bounding-box midpoint; camera framing only","license":"CC-BY-3.0-IGO","attribution":"geoBoundaries / HDX, China administrative boundaries (2020)","source":{"provider":"geoBoundaries gbHumanitarian / HDX","url":"https://github.com/wmgeolab/geoBoundaries/raw/9469f09/releaseData/gbHumanitarian/CHN/ADM2/geoBoundaries-CHN-ADM2.geojson","metadataUrl":"https://www.geoboundaries.org/api/current/gbHumanitarian/CHN/ADM2/","shapeID":"99377448B80112521079538","shapeName":"Lingshui Li Autonomous County","boundaryID":"CHN-ADM2-99377448","commit":"9469f09"},"geometryCounts":{"coordinates":1233,"components":1,"holes":0},"boundaryNotice":"geoBoundaries / HDX 2020 年行政区数据，海岸和边界经过源数据概化，并非当前测绘成果。"},"geometry":{"type":"Polygon","coordinates":[[[109.77471923800002,18.507873535],[109.77331543000001,18.50390625],[109.77172851600001,18.50189209],[109.77069091800001,18.497314453],[109.77288818400001,18.489929199],[109.77728271500001,18.485290527],[109.78228759800001,18.483520508],[109.78790283200001,18.483520508],[109.79272460900002,18.48248291],[109.79571533200001,18.480285645],[109.79968261700002,18.474914551],[109.80151367200001,18.466125488],[109.80133056600002,18.456481934],[109.79888916000002,18.448486328],[109.796875,18.440490723],[109.79107666000002,18.434326172],[109.78808593700002,18.434509277],[109.78411865200002,18.436279297],[109.77630615200002,18.433288574],[109.77471923800002,18.426879883],[109.77752685500002,18.416503906],[109.78247070300002,18.405883789],[109.78369140600002,18.402526855],[109.78509521500001,18.403076172],[109.79449462900001,18.403686523],[109.79907226600001,18.402282715],[109.80108642600001,18.402282715],[109.80108642600001,18.402099609],[109.80212402300002,18.402099609],[109.80212402300002,18.401916504],[109.80328369100002,18.401916504],[109.80328369100002,18.401489258],[109.80432128900001,18.401489258],[109.80432128900001,18.401306152],[109.80572509800001,18.401306152],[109.80572509800001,18.401123047],[109.80688476600001,18.401123047],[109.80688476600001,18.400695801],[109.80792236300002,18.400695801],[109.80792236300002,18.400512695],[109.80908203100002,18.400512695],[109.80908203100002,18.400085449],[109.80969238300001,18.400085449],[109.80969238300001,18.399902344],[109.80987548800002,18.399902344],[109.80987548800002,18.399719238],[109.81048584000001,18.399719238],[109.81048584000001,18.399291992],[109.81109619100002,18.399291992],[109.81109619100002,18.399108887],[109.81127929700001,18.399108887],[109.81127929700001,18.398925781],[109.81127929700001,18.398681641],[109.81188964800002,18.398681641],[109.81188964800002,18.398498535],[109.8125,18.398498535],[109.8125,18.39831543],[109.81268310500002,18.39831543],[109.81268310500002,18.397888184],[109.81329345700001,18.397888184],[109.81329345700001,18.397705078],[109.81347656200002,18.397705078],[109.81347656200002,18.397094727],[109.81390380900001,18.397094727],[109.81390380900001,18.396911621],[109.81408691400001,18.396911621],[109.81408691400001,18.396484375],[109.81427002,18.396484375],[109.81427002,18.396118164],[109.81469726600001,18.396118164],[109.81469726600001,18.395690918],[109.81488037100002,18.395690918],[109.81488037100002,18.395080566],[109.81512451200001,18.395080566],[109.81512451200001,18.394897461],[109.81549072300001,18.394897461],[109.81549072300001,18.394714355],[109.81567382800002,18.394714355],[109.81567382800002,18.394104004],[109.81610107400002,18.394104004],[109.81610107400002,18.393676758],[109.81628418000001,18.393676758],[109.81628418000001,18.393493652],[109.81652832000002,18.393493652],[109.81652832000002,18.392883301],[109.81689453100002,18.392883301],[109.81689453100002,18.389282227],[109.81707763700001,18.389282227],[109.81707763700001,18.389099121],[109.81768798800002,18.389099121],[109.81768798800002,18.387695312],[109.81787109400001,18.387695312],[109.81787109400001,18.386901855],[109.81829834000001,18.386901855],[109.81829834000001,18.386108398],[109.81848144500002,18.386108398],[109.81848144500002,18.385681152],[109.81872558600001,18.385681152],[109.81872558600001,18.385498047],[109.81909179700001,18.385498047],[109.81909179700001,18.385070801],[109.81927490200002,18.385070801],[109.81927490200002,18.38470459],[109.81909179700001,18.38470459],[109.81909179700001,18.384277344],[109.81872558600001,18.384277344],[109.81872558600001,18.384094238],[109.81829834000001,18.384094238],[109.81829834000001,18.384277344],[109.81787109400001,18.384277344],[109.81787109400001,18.38470459],[109.81750488300001,18.38470459],[109.81750488300001,18.384277344],[109.81707763700001,18.384277344],[109.81707763700001,18.383728027],[109.81689453100002,18.383728027],[109.81689453100002,18.383483887],[109.81652832000002,18.383483887],[109.81652832000002,18.383300781],[109.81628418000001,18.383300781],[109.81628418000001,18.383117676],[109.81628418000001,18.382507324],[109.81689453100002,18.382507324],[109.81689453100002,18.381286621],[109.81707763700001,18.381286621],[109.81707763700001,18.38067627],[109.81927490200002,18.379272461],[109.81970214800002,18.379272461],[109.81970214800002,18.379089355],[109.81988525400001,18.379089355],[109.81988525400001,18.379272461],[109.82049560500002,18.379272461],[109.82049560500002,18.379089355],[109.82128906200002,18.379089355],[109.82128906200002,18.378479004],[109.82348632800002,18.37890625],[109.83331298800002,18.386474609],[109.84149169900002,18.386108398],[109.84649658200001,18.390319824],[109.85028076200001,18.389526367],[109.85028076200001,18.389709473],[109.85070800800001,18.389709473],[109.85070800800001,18.389892578],[109.85107421900001,18.389892578],[109.85107421900001,18.390075684],[109.85247802700002,18.390075684],[109.85247802700002,18.39050293],[109.85351562500001,18.39050293],[109.85351562500001,18.390686035],[109.85491943400001,18.390686035],[109.85491943400001,18.391113281],[109.85650634800001,18.391113281],[109.85650634800001,18.390686035],[109.85687255900001,18.390686035],[109.85687255900001,18.39050293],[109.85711669900002,18.39050293],[109.85711669900002,18.390075684],[109.85748291000002,18.390075684],[109.85748291000002,18.389709473],[109.85772705100001,18.389709473],[109.85772705100001,18.389526367],[109.85772705100001,18.389099121],[109.85791015600002,18.389099121],[109.85791015600002,18.38848877],[109.85992431600002,18.390319824],[109.85992431600002,18.391113281],[109.86010742200001,18.390930176],[109.86010742200001,18.391479492],[109.86047363300001,18.391479492],[109.86047363300001,18.391906738],[109.86047363300001,18.392089844],[109.86187744100002,18.396728516],[109.87109375000001,18.401489258],[109.87127685500002,18.401489258],[109.87127685500002,18.401916504],[109.87152099600002,18.401916504],[109.87152099600002,18.402099609],[109.87231445300002,18.402099609],[109.87249755900001,18.402282715],[109.87292480500001,18.402282715],[109.87329101600001,18.402709961],[109.88372802700002,18.408081055],[109.88970947300001,18.409912109],[109.88989257800002,18.409912109],[109.89007568400001,18.409912109],[109.89007568400001,18.41027832],[109.89093017600001,18.41027832],[109.89111328100002,18.410522461],[109.89147949200002,18.410522461],[109.89147949200002,18.410705566],[109.89251709000001,18.410705566],[109.89251709000001,18.410888672],[109.89288330100001,18.410888672],[109.89288330100001,18.411315918],[109.89367675800001,18.411315918],[109.89367675800001,18.411499023],[109.89489746100001,18.411499023],[109.89489746100001,18.41192627],[109.89569091800001,18.41192627],[109.89569091800001,18.412109375],[109.89691162100002,18.412109375],[109.89691162100002,18.412475586],[109.89770507800002,18.412475586],[109.89770507800002,18.412719727],[109.89868164100001,18.412719727],[109.89868164100001,18.412902832],[109.89971923800002,18.412902832],[109.89971923800002,18.413330078],[109.90069580100001,18.413330078],[109.90069580100001,18.413513184],[109.90148925800001,18.413513184],[109.90148925800001,18.413879395],[109.90228271500001,18.413879395],[109.90228271500001,18.414123535],[109.90350341800001,18.414123535],[109.90350341800001,18.414306641],[109.90429687500001,18.414306641],[109.90429687500001,18.414672852],[109.90551757800002,18.414672852],[109.90551757800002,18.414916992],[109.90631103500002,18.414916992],[109.90631103500002,18.415283203],[109.90728759800001,18.415100098],[109.90728759800001,18.415527344],[109.90832519500002,18.415527344],[109.90832519500002,18.415710449],[109.91088867200001,18.415710449],[109.91967773400002,18.418273926],[109.92529296900001,18.419677734],[109.93188476600001,18.419311523],[109.94012451200001,18.41607666],[109.94049072300001,18.41607666],[109.96807861300002,18.413879395],[109.97088623000002,18.416320801],[109.97229003900001,18.42388916],[109.98468017600001,18.436279297],[109.98931884800001,18.436889648],[110.00012207000002,18.43572998],[110.01147460900002,18.434082031],[110.01452636700002,18.4375],[110.01629638700001,18.442687988],[110.01452636700002,18.451293945],[110.01568603500002,18.454101562],[110.01910400400001,18.452697754],[110.02551269500002,18.449890137],[110.03149414100001,18.438476562],[110.03112793000001,18.43548584],[110.02148437500001,18.424499512],[110.02050781200002,18.415710449],[110.01812744100002,18.412475586],[110.01409912100002,18.41027832],[110.01129150400001,18.405517578],[110.00347900400001,18.398925781],[110.00012207000002,18.398925781],[109.99029541000002,18.398925781],[109.98370361300002,18.401489258],[109.97369384800001,18.410522461],[109.96972656200002,18.411682129],[109.96649169900002,18.411071777],[109.96630859400001,18.410705566],[109.96728515600002,18.410705566],[109.96728515600002,18.410522461],[109.96771240200002,18.410522461],[109.96771240200002,18.41027832],[109.96728515600002,18.41027832],[109.96728515600002,18.409912109],[109.96667480500001,18.409912109],[109.96667480500001,18.409301758],[109.96551513700001,18.409301758],[109.96551513700001,18.408874512],[109.96508789100001,18.408874512],[109.96508789100001,18.408508301],[109.96551513700001,18.408508301],[109.96551513700001,18.408325195],[109.96569824200002,18.408325195],[109.96569824200002,18.407714844],[109.96588134800001,18.407714844],[109.96588134800001,18.407287598],[109.96630859400001,18.407287598],[109.96630859400001,18.407104492],[109.96630859400001,18.406311035],[109.96667480500001,18.406311035],[109.96667480500001,18.405517578],[109.96691894500002,18.405517578],[109.96691894500002,18.405273437],[109.96771240200002,18.405273437],[109.96771240200002,18.404724121],[109.96789550800001,18.404724121],[109.96789550800001,18.40411377],[109.96832275400001,18.40411377],[109.96832275400001,18.403686523],[109.96789550800001,18.403686523],[109.96789550800001,18.403503418],[109.96771240200002,18.403503418],[109.96771240200002,18.402893066],[109.96728515600002,18.402893066],[109.96728515600002,18.402709961],[109.96771240200002,18.402709961],[109.96771240200002,18.401489258],[109.96789550800001,18.401123047],[109.96789550800001,18.400695801],[109.96807861300002,18.400085449],[109.96832275400001,18.400085449],[109.96832275400001,18.399902344],[109.96850585900002,18.399902344],[109.96850585900002,18.399291992],[109.96868896500001,18.399291992],[109.96868896500001,18.399108887],[109.96911621100001,18.399108887],[109.96911621100001,18.398498535],[109.96929931600002,18.398498535],[109.96929931600002,18.397705078],[109.96911621100001,18.397705078],[109.96911621100001,18.397094727],[109.96868896500001,18.397094727],[109.96868896500001,18.39630127],[109.96850585900002,18.395080566],[109.96771240200002,18.389709473],[109.96948242200001,18.387878418],[109.97027587900001,18.387878418],[109.97027587900001,18.387329102],[109.97070312500001,18.387512207],[109.97070312500001,18.387084961],[109.97088623000002,18.387084961],[109.97088623000002,18.386901855],[109.97210693400001,18.386901855],[109.97210693400001,18.386474609],[109.97271728500002,18.386474609],[109.97467041000002,18.386474609],[109.97491455100001,18.386474609],[109.99072265600002,18.387329102],[109.99511718700002,18.383911133],[109.99530029300001,18.383483887],[109.99548339800002,18.383483887],[109.99548339800002,18.383300781],[109.99572753900001,18.383300781],[109.99572753900001,18.382873535],[109.99652099600002,18.382873535],[109.99652099600002,18.38269043],[109.99707031200002,18.38269043],[109.99707031200002,18.382507324],[109.99768066400001,18.382507324],[109.99768066400001,18.382080078],[109.99792480500001,18.382080078],[109.99792480500001,18.381896973],[109.99847412100002,18.381896973],[109.99847412100002,18.381530762],[109.99871826200001,18.381530762],[109.99871826200001,18.381286621],[109.99908447300001,18.381286621],[109.99908447300001,18.379882812],[109.99871826200001,18.379882812],[109.99871826200001,18.379699707],[109.99847412100002,18.379699707],[109.99847412100002,18.379272461],[109.99829101600001,18.379272461],[109.99829101600001,18.379089355],[109.99768066400001,18.379089355],[109.99768066400001,18.378723145],[109.99749755900001,18.378723145],[109.99871826200001,18.375915527],[110.00012207000002,18.375488281],[110.00207519500002,18.37487793],[110.00207519500002,18.375488281],[110.00250244100002,18.375488281],[110.00250244100002,18.376098633],[110.00292968700002,18.376098633],[110.00292968700002,18.376525879],[110.00329589800002,18.376525879],[110.00329589800002,18.37689209],[110.00469970700001,18.37689209],[110.00469970700001,18.376525879],[110.00512695300002,18.376525879],[110.00512695300002,18.376281738],[110.00567627,18.376281738],[110.00567627,18.376098633],[110.00811767600001,18.377075195],[110.01531982400002,18.383728027],[110.02648925800001,18.387084961],[110.02972412100002,18.386291504],[110.03070068400001,18.386291504],[110.03070068400001,18.386108398],[110.03088378900001,18.386108398],[110.03149414100001,18.386108398],[110.03149414100001,18.385925293],[110.03192138700001,18.385681152],[110.03192138700001,18.386108398],[110.03210449200002,18.386108398],[110.03210449200002,18.385681152],[110.03228759800001,18.385681152],[110.03448486300002,18.385070801],[110.03472900400001,18.385070801],[110.03491210900002,18.385070801],[110.03509521500001,18.385070801],[110.04388427700002,18.387084961],[110.04467773400002,18.386474609],[110.04492187500001,18.386474609],[110.04492187500001,18.386901855],[110.04528808600001,18.386901855],[110.04528808600001,18.386474609],[110.04632568400001,18.386474609],[110.04632568400001,18.386291504],[110.04748535200001,18.386291504],[110.04748535200001,18.386108398],[110.04772949200002,18.386108398],[110.04772949200002,18.385681152],[110.04791259800001,18.385681152],[110.04791259800001,18.385070801],[110.04827880900001,18.385070801],[110.04827880900001,18.384521484],[110.04968261700002,18.383728027],[110.04968261700002,18.384094238],[110.04992675800001,18.384094238],[110.04992675800001,18.384277344],[110.05029296900001,18.384277344],[110.05029296900001,18.384887695],[110.05047607400002,18.384887695],[110.05047607400002,18.385498047],[110.05072021500001,18.385498047],[110.05072021500001,18.385925293],[110.05072021500001,18.386901855],[110.05108642600001,18.386901855],[110.05108642600001,18.387512207],[110.05133056600002,18.387329102],[110.05133056600002,18.387695312],[110.05151367200001,18.387695312],[110.05151367200001,18.387878418],[110.05212402300002,18.387878418],[110.05212402300002,18.388305664],[110.05230712900001,18.388305664],[110.05133056600002,18.393676758],[110.05627441400001,18.399108887],[110.05651855500001,18.399291992],[110.05651855500001,18.399719238],[110.05688476600001,18.399719238],[110.05688476600001,18.400512695],[110.05712890600002,18.400512695],[110.05712890600002,18.401123047],[110.05749511700002,18.401123047],[110.05749511700002,18.401489258],[110.05767822300001,18.401489258],[110.05767822300001,18.402099609],[110.05792236300002,18.402099609],[110.05792236300002,18.402709961],[110.05828857400002,18.402709961],[110.05828857400002,18.403320312],[110.05847168000001,18.403320312],[110.05847168000001,18.403503418],[110.05889892600001,18.403503418],[110.05889892600001,18.40411377],[110.05908203100002,18.40411377],[110.05908203100002,18.404296875],[110.05932617200001,18.404296875],[110.05932617200001,18.404724121],[110.05969238300001,18.404724121],[110.05969238300001,18.404907227],[110.05987548800002,18.404907227],[110.05987548800002,18.405517578],[110.06011962900001,18.405517578],[110.06011962900001,18.405883789],[110.06048584000001,18.405883789],[110.06048584000001,18.406311035],[110.06072998000002,18.406311035],[110.06072998000002,18.406677246],[110.06188964800002,18.406677246],[110.06188964800002,18.406921387],[110.0625,18.406921387],[110.0625,18.407104492],[110.06268310500002,18.407104492],[110.06268310500002,18.407287598],[110.06292724600002,18.407287598],[110.06292724600002,18.407714844],[110.0625,18.407714844],[110.0625,18.407897949],[110.06207275400001,18.407897949],[110.06207275400001,18.408325195],[110.05847168000001,18.408325195],[110.05847168000001,18.408508301],[110.05511474600002,18.408508301],[110.05511474600002,18.408325195],[110.05468750000001,18.408325195],[110.05468750000001,18.407897949],[110.05389404300001,18.407897949],[110.05389404300001,18.407714844],[110.05291748000002,18.407714844],[110.05291748000002,18.407287598],[110.05108642600001,18.407287598],[110.05108642600001,18.407104492],[110.05047607400002,18.407104492],[110.05047607400002,18.406921387],[110.05029296900001,18.406921387],[110.05029296900001,18.406677246],[110.04968261700002,18.406677246],[110.04968261700002,18.406311035],[110.04931640600002,18.406311035],[110.04931640600002,18.405883789],[110.04748535200001,18.405883789],[110.04748535200001,18.406311035],[110.046875,18.406311035],[110.046875,18.406677246],[110.04608154300001,18.406677246],[110.04608154300001,18.407104492],[110.04547119100002,18.407104492],[110.04547119100002,18.407287598],[110.04492187500001,18.407287598],[110.04492187500001,18.407714844],[110.04431152300002,18.407714844],[110.04431152300002,18.407897949],[110.04388427700002,18.407897949],[110.04388427700002,18.408325195],[110.04327392600001,18.408325195],[110.04327392600001,18.408508301],[110.04290771500001,18.408508301],[110.04290771500001,18.408874512],[110.04272460900002,18.408874512],[110.04272460900002,18.409118652],[110.04248046900001,18.409118652],[110.04248046900001,18.409301758],[110.04211425800001,18.409301758],[110.04211425800001,18.409729004],[110.04187011700002,18.409729004],[110.04187011700002,18.41027832],[110.04150390600002,18.41027832],[110.04150390600002,18.411315918],[110.04132080100001,18.411315918],[110.04132080100001,18.411499023],[110.04107666000002,18.411499023],[110.04107666000002,18.412109375],[110.04071044900002,18.412109375],[110.04071044900002,18.412475586],[110.04052734400001,18.412475586],[110.04052734400001,18.412902832],[110.04028320300002,18.412902832],[110.04028320300002,18.413330078],[110.03991699200002,18.413330078],[110.03991699200002,18.413513184],[110.03967285200001,18.413513184],[110.03967285200001,18.414672852],[110.03930664100001,18.414672852],[110.03930664100001,18.414916992],[110.03912353500002,18.414916992],[110.03912353500002,18.415527344],[110.038879395,18.415527344],[110.038879395,18.41607666],[110.03912353500002,18.41607666],[110.03912353500002,18.416320801],[110.04028320300002,18.416320801],[110.04028320300002,18.416503906],[110.04150390600002,18.416503906],[110.04150390600002,18.416870117],[110.04248046900001,18.416870117],[110.04248046900001,18.417114258],[110.04431152300002,18.417114258],[110.04431152300002,18.416870117],[110.04571533200001,18.416870117],[110.04650878900001,18.416870117],[110.04650878900001,18.417114258],[110.046875,18.417114258],[110.046875,18.417480469],[110.04748535200001,18.417480469],[110.04748535200001,18.417724609],[110.04772949200002,18.417724609],[110.04772949200002,18.417907715],[110.04791259800001,18.417907715],[110.04791259800001,18.418518066],[110.04827880900001,18.418518066],[110.04827880900001,18.419921875],[110.04931640600002,18.419921875],[110.04931640600002,18.420288086],[110.04992675800001,18.420288086],[110.04992675800001,18.420471191],[110.05029296900001,18.420471191],[110.05029296900001,18.421081543],[110.05047607400002,18.421081543],[110.05047607400002,18.421875],[110.04888916000002,18.421875],[110.04888916000002,18.422119141],[110.04632568400001,18.422119141],[110.04632568400001,18.422485352],[110.04467773400002,18.422485352],[110.04467773400002,18.422119141],[110.04412841800001,18.422119141],[110.04412841800001,18.421875],[110.04388427700002,18.421875],[110.04388427700002,18.421508789],[110.04327392600001,18.421508789],[110.04327392600001,18.421325684],[110.04248046900001,18.421325684],[110.04248046900001,18.421508789],[110.04187011700002,18.421508789],[110.04187011700002,18.421875],[110.04150390600002,18.421875],[110.04150390600002,18.422119141],[110.04132080100001,18.422119141],[110.04132080100001,18.422485352],[110.04107666000002,18.422485352],[110.04107666000002,18.422729492],[110.04071044900002,18.422729492],[110.04071044900002,18.422912598],[110.04028320300002,18.422912598],[110.04028320300002,18.423278809],[110.03991699200002,18.423278809],[110.03991699200002,18.423522949],[110.03967285200001,18.423522949],[110.03967285200001,18.42388916],[110.03930664100001,18.42388916],[110.03930664100001,18.424072266],[110.03912353500002,18.424072266],[110.03912353500002,18.424316406],[110.038879395,18.424316406],[110.038879395,18.426086426],[110.03851318400001,18.426086426],[110.03851318400001,18.426330566],[110.03833007800002,18.426330566],[110.03833007800002,18.426879883],[110.03790283200001,18.426879883],[110.03790283200001,18.427490234],[110.03833007800002,18.427490234],[110.03833007800002,18.42767334],[110.038879395,18.42767334],[110.038879395,18.42791748],[110.03851318400001,18.42791748],[110.03851318400001,18.428527832],[110.03833007800002,18.428527832],[110.03833007800002,18.429077148],[110.03833007800002,18.429870605],[110.03790283200001,18.429870605],[110.03790283200001,18.432128906],[110.03833007800002,18.432128906],[110.03833007800002,18.432495117],[110.03851318400001,18.432495117],[110.03851318400001,18.432922363],[110.038879395,18.432922363],[110.038879395,18.43347168],[110.03930664100001,18.43347168],[110.03930664100001,18.433898926],[110.03967285200001,18.433898926],[110.03967285200001,18.434082031],[110.04132080100001,18.434082031],[110.04132080100001,18.434326172],[110.04248046900001,18.434326172],[110.04248046900001,18.434692383],[110.04351806600002,18.434692383],[110.04351806600002,18.435119629],[110.04388427700002,18.435119629],[110.04388427700002,18.43572998],[110.04412841800001,18.43572998],[110.04412841800001,18.436279297],[110.04431152300002,18.436279297],[110.04431152300002,18.436706543],[110.04431152300002,18.436889648],[110.04449462900001,18.436889648],[110.04467773400002,18.436889648],[110.04467773400002,18.437072754],[110.04492187500001,18.437072754],[110.04492187500001,18.437316895],[110.04492187500001,18.437683105],[110.04510498000002,18.437683105],[110.04510498000002,18.438476562],[110.04547119100002,18.438476562],[110.04547119100002,18.439086914],[110.04571533200001,18.439086914],[110.04571533200001,18.43927002],[110.04608154300001,18.43927002],[110.04608154300001,18.439880371],[110.04632568400001,18.439880371],[110.04632568400001,18.440490723],[110.04650878900001,18.440490723],[110.04650878900001,18.440673828],[110.04711914100001,18.440673828],[110.04711914100001,18.441101074],[110.04748535200001,18.441101074],[110.04748535200001,18.44128418],[110.04772949200002,18.44128418],[110.04772949200002,18.44152832],[110.04791259800001,18.44152832],[110.04791259800001,18.442077637],[110.04827880900001,18.442077637],[110.04827880900001,18.442687988],[110.04852294900002,18.442687988],[110.04852294900002,18.44329834],[110.04888916000002,18.44329834],[110.04888916000002,18.443725586],[110.04931640600002,18.443725586],[110.04931640600002,18.444091797],[110.04968261700002,18.444091797],[110.04968261700002,18.444274902],[110.04992675800001,18.444274902],[110.04992675800001,18.444885254],[110.05029296900001,18.444885254],[110.05029296900001,18.445129395],[110.05047607400002,18.445129395],[110.05047607400002,18.445495605],[110.05072021500001,18.445495605],[110.05072021500001,18.445678711],[110.05151367200001,18.445678711],[110.05151367200001,18.446105957],[110.05487060500002,18.446105957],[110.05487060500002,18.445495605],[110.05511474600002,18.445495605],[110.05511474600002,18.445129395],[110.05548095700001,18.445129395],[110.05548095700001,18.444885254],[110.05572509800001,18.444885254],[110.05572509800001,18.444274902],[110.05609130900001,18.444274902],[110.05609130900001,18.444091797],[110.05627441400001,18.444091797],[110.05627441400001,18.443725586],[110.05651855500001,18.443725586],[110.05651855500001,18.443481445],[110.05688476600001,18.443481445],[110.05688476600001,18.44329834],[110.05749511700002,18.44329834],[110.05749511700002,18.442871094],[110.05767822300001,18.442871094],[110.05767822300001,18.442504883],[110.05828857400002,18.442504883],[110.05828857400002,18.442077637],[110.05847168000001,18.442077637],[110.05847168000001,18.44128418],[110.05889892600001,18.44128418],[110.05889892600001,18.441101074],[110.05847168000001,18.441101074],[110.05847168000001,18.440673828],[110.05889892600001,18.440673828],[110.05889892600001,18.440124512],[110.05908203100002,18.440124512],[110.05908203100002,18.439880371],[110.05932617200001,18.439880371],[110.05932617200001,18.439697266],[110.05969238300001,18.439697266],[110.05969238300001,18.43927002],[110.06011962900001,18.43927002],[110.06011962900001,18.439086914],[110.06048584000001,18.439086914],[110.06048584000001,18.438903809],[110.06072998000002,18.438903809],[110.06072998000002,18.438476562],[110.06109619100002,18.438476562],[110.06109619100002,18.438293457],[110.06152343700002,18.438293457],[110.06152343700002,18.437927246],[110.06188964800002,18.437927246],[110.06188964800002,18.4375],[110.06207275400001,18.4375],[110.06207275400001,18.437072754],[110.0625,18.437072754],[110.0625,18.436706543],[110.0625,18.436523437],[110.06268310500002,18.436523437],[110.06268310500002,18.436279297],[110.06268310500002,18.434692383],[110.06292724600002,18.434692383],[110.06292724600002,18.434082031],[110.06329345700001,18.434082031],[110.06329345700001,18.43347168],[110.06347656200002,18.43347168],[110.06347656200002,18.432678223],[110.06390380900001,18.432678223],[110.06390380900001,18.432128906],[110.06408691400001,18.432128906],[110.06408691400001,18.431518555],[110.06427002,18.431518555],[110.06427002,18.430725098],[110.06408691400001,18.430725098],[110.06408691400001,18.429870605],[110.06390380900001,18.429870605],[110.06390380900001,18.424072266],[110.06347656200002,18.424072266],[110.06347656200002,18.423278809],[110.06329345700001,18.423278809],[110.06329345700001,18.422729492],[110.06292724600002,18.422729492],[110.06292724600002,18.422119141],[110.06268310500002,18.422119141],[110.06268310500002,18.421508789],[110.0625,18.421508789],[110.0625,18.420715332],[110.06207275400001,18.420715332],[110.06207275400001,18.420288086],[110.06188964800002,18.420288086],[110.06188964800002,18.419677734],[110.06152343700002,18.419677734],[110.06152343700002,18.419311523],[110.06127929700001,18.419311523],[110.06127929700001,18.418884277],[110.06109619100002,18.418884277],[110.06109619100002,18.418518066],[110.06072998000002,18.418518066],[110.06072998000002,18.418273926],[110.06048584000001,18.418273926],[110.06048584000001,18.417724609],[110.06011962900001,18.417724609],[110.06011962900001,18.417114258],[110.05987548800002,18.417114258],[110.05987548800002,18.416320801],[110.05969238300001,18.416320801],[110.05969238300001,18.415527344],[110.05932617200001,18.415527344],[110.05932617200001,18.414672852],[110.05908203100002,18.414672852],[110.05908203100002,18.414123535],[110.05889892600001,18.414123535],[110.05889892600001,18.413879395],[110.05847168000001,18.413879395],[110.05847168000001,18.413513184],[110.05828857400002,18.413513184],[110.05828857400002,18.412902832],[110.05847168000001,18.412902832],[110.05847168000001,18.412475586],[110.05889892600001,18.412475586],[110.05889892600001,18.41192627],[110.05908203100002,18.41192627],[110.05908203100002,18.411315918],[110.05932617200001,18.411315918],[110.05932617200001,18.410888672],[110.05969238300001,18.410888672],[110.05969238300001,18.410705566],[110.06011962900001,18.410705566],[110.06011962900001,18.410522461],[110.06072998000002,18.410522461],[110.06072998000002,18.41027832],[110.06152343700002,18.41027832],[110.06152343700002,18.410522461],[110.0625,18.410522461],[110.0625,18.410705566],[110.06329345700001,18.410705566],[110.06347656200002,18.410705566],[110.06347656200002,18.41027832],[110.06390380900001,18.41027832],[110.06390380900001,18.409912109],[110.06408691400001,18.409912109],[110.06408691400001,18.409729004],[110.06469726600001,18.409729004],[110.06469726600001,18.409118652],[110.06488037100002,18.409118652],[110.06488037100002,18.408874512],[110.06469726600001,18.408874512],[110.06469726600001,18.408508301],[110.06427002,18.408508301],[110.06427002,18.408325195],[110.06408691400001,18.408325195],[110.06408691400001,18.407714844],[110.06390380900001,18.407714844],[110.06390380900001,18.405700684],[110.06408691400001,18.405700684],[110.06408691400001,18.405273437],[110.06768798800002,18.405517578],[110.06768798800002,18.405700684],[110.06768798800002,18.407104492],[110.06750488300001,18.407104492],[110.06750488300001,18.408325195],[110.06707763700001,18.408325195],[110.06707763700001,18.409118652],[110.06689453100002,18.409118652],[110.06689453100002,18.409912109],[110.06652832000002,18.409912109],[110.06652832000002,18.410888672],[110.06628418000001,18.410888672],[110.06628418000001,18.411682129],[110.06628418000001,18.41192627],[110.06610107400002,18.41192627],[110.06610107400002,18.412475586],[110.06567382800002,18.412475586],[110.06567382800002,18.413513184],[110.06610107400002,18.413513184],[110.06610107400002,18.414916992],[110.06628418000001,18.414916992],[110.06628418000001,18.416320801],[110.06652832000002,18.416320801],[110.06652832000002,18.418273926],[110.06689453100002,18.418273926],[110.06689453100002,18.418884277],[110.06707763700001,18.418884277],[110.06707763700001,18.419311523],[110.06750488300001,18.419311523],[110.06750488300001,18.422119141],[110.06768798800002,18.422119141],[110.06768798800002,18.422912598],[110.06787109400001,18.422912598],[110.06787109400001,18.42388916],[110.06829834000001,18.42388916],[110.06829834000001,18.424682617],[110.06848144500002,18.424682617],[110.06848144500002,18.425720215],[110.06872558600001,18.425720215],[110.06872558600001,18.426330566],[110.06909179700001,18.426330566],[110.06909179700001,18.426513672],[110.06927490200002,18.426513672],[110.06927490200002,18.426879883],[110.06970214800002,18.426879883],[110.06970214800002,18.427124023],[110.06988525400001,18.427124023],[110.06988525400001,18.42767334],[110.070129395,18.42767334],[110.070129395,18.428283691],[110.07049560500002,18.428283691],[110.07049560500002,18.429077148],[110.07067871100001,18.429077148],[110.07067871100001,18.429870605],[110.07110595700001,18.429870605],[110.07110595700001,18.431091309],[110.07128906200002,18.431091309],[110.07128906200002,18.431274414],[110.07147216800001,18.431274414],[110.07147216800001,18.431884766],[110.07189941400001,18.431884766],[110.07189941400001,18.432922363],[110.07208252,18.432922363],[110.07208252,18.43572998],[110.07250976600001,18.43572998],[110.07250976600001,18.437072754],[110.07269287100002,18.437072754],[110.07269287100002,18.438476562],[110.07287597700001,18.438476562],[110.07287597700001,18.439697266],[110.07330322300001,18.439697266],[110.07330322300001,18.441894531],[110.07348632800002,18.441894531],[110.07348632800002,18.444274902],[110.07373046900001,18.444274902],[110.07373046900001,18.445678711],[110.07409668000001,18.445678711],[110.07409668000001,18.44708252],[110.07427978500002,18.44708252],[110.07427978500002,18.448486328],[110.07470703100002,18.448486328],[110.07470703100002,18.449707031],[110.07489013700001,18.449707031],[110.07489013700001,18.450500488],[110.07507324200002,18.450500488],[110.07507324200002,18.451293945],[110.07550048800002,18.451293945],[110.07550048800002,18.452514648],[110.07568359400001,18.452270508],[110.07568359400001,18.454101562],[110.07611084000001,18.454101562],[110.07611084000001,18.455505371],[110.07629394500002,18.455505371],[110.07629394500002,18.456481934],[110.07647705100001,18.456481934],[110.07647705100001,18.457885742],[110.07690429700001,18.457885742],[110.07690429700001,18.459289551],[110.07708740200002,18.459289551],[110.07708740200002,18.460510254],[110.07751464800002,18.460510254],[110.07751464800002,18.461914062],[110.07769775400001,18.461914062],[110.07769775400001,18.46307373],[110.07788085900002,18.46307373],[110.07788085900002,18.464111328],[110.07830810500002,18.464111328],[110.07830810500002,18.465087891],[110.07849121100001,18.465087891],[110.07849121100001,18.466308594],[110.07867431600002,18.466308594],[110.07867431600002,18.467285156],[110.07910156200002,18.467285156],[110.07910156200002,18.468322754],[110.07928466800001,18.468322754],[110.07928466800001,18.469299316],[110.07971191400001,18.469299316],[110.07971191400001,18.469909668],[110.07989502,18.469909668],[110.07989502,18.47052002],[110.08007812500001,18.47052002],[110.08007812500001,18.47088623],[110.08050537100002,18.47088623],[110.08050537100002,18.472473145],[110.08068847700001,18.472473145],[110.08068847700001,18.473327637],[110.08111572300001,18.473327637],[110.08111572300001,18.47467041],[110.08129882800002,18.47467041],[110.08129882800002,18.476318359],[110.08148193400001,18.476318359],[110.08148193400001,18.477478027],[110.08190918000001,18.477478027],[110.08190918000001,18.478271484],[110.08209228500002,18.478271484],[110.08209228500002,18.479125977],[110.08227539100001,18.479125977],[110.08227539100001,18.479919434],[110.08270263700001,18.479919434],[110.08270263700001,18.480712891],[110.08288574200002,18.480712891],[110.08288574200002,18.481872559],[110.08331298800002,18.481872559],[110.08331298800002,18.482910156],[110.08349609400001,18.482910156],[110.08349609400001,18.483886719],[110.08367919900002,18.483886719],[110.08367919900002,18.484313965],[110.08410644500002,18.484313965],[110.08410644500002,18.485290527],[110.08428955100001,18.485290527],[110.08428955100001,18.485717773],[110.08471679700001,18.485717773],[110.08471679700001,18.486328125],[110.08489990200002,18.486328125],[110.08489990200002,18.487121582],[110.08508300800001,18.487121582],[110.08508300800001,18.48828125],[110.08551025400001,18.48828125],[110.08551025400001,18.489318848],[110.08569335900002,18.489318848],[110.08569335900002,18.489929199],[110.08612060500002,18.489929199],[110.08612060500002,18.492126465],[110.08349609400001,18.492126465],[110.08349609400001,18.491882324],[110.08288574200002,18.491882324],[110.08288574200002,18.491516113],[110.08227539100001,18.491516113],[110.08227539100001,18.490722656],[110.08190918000001,18.490722656],[110.08190918000001,18.490478516],[110.08129882800002,18.490478516],[110.08129882800002,18.490112305],[110.08068847700001,18.490112305],[110.08068847700001,18.489929199],[110.07928466800001,18.489929199],[110.07928466800001,18.490112305],[110.07867431600002,18.490112305],[110.07867431600002,18.490478516],[110.07788085900002,18.490478516],[110.07788085900002,18.490112305],[110.07751464800002,18.490112305],[110.07751464800002,18.490478516],[110.07690429700001,18.490478516],[110.07690429700001,18.490722656],[110.07568359400001,18.490722656],[110.07568359400001,18.491271973],[110.07550048800002,18.491271973],[110.07550048800002,18.491516113],[110.07507324200002,18.491516113],[110.07507324200002,18.491882324],[110.07470703100002,18.491882324],[110.07470703100002,18.493286133],[110.07489013700001,18.493286133],[110.07489013700001,18.493530273],[110.07208252,18.495117187],[110.07092285200001,18.498474121],[110.08807373000002,18.503723145],[110.09808349600002,18.522888184],[110.09832763700001,18.52331543],[110.09832763700001,18.524719238],[110.09851074200002,18.524719238],[110.09851074200002,18.525512695],[110.09912109400001,18.525512695],[110.09912109400001,18.525695801],[110.09930419900002,18.525695801],[110.09930419900002,18.526306152],[110.09967041000002,18.526306152],[110.09967041000002,18.527099609],[110.09991455100001,18.527099609],[110.09991455100001,18.528320312],[110.10028076200001,18.528320312],[110.10028076200001,18.52911377],[110.10052490200002,18.52911377],[110.10052490200002,18.529907227],[110.10070800800001,18.529907227],[110.10070800800001,18.530273437],[110.10107421900001,18.530273437],[110.10107421900001,18.530517578],[110.10150146500001,18.530517578],[110.10150146500001,18.530700684],[110.10192871100001,18.530700684],[110.10192871100001,18.530883789],[110.10211181600002,18.530883789],[110.10211181600002,18.531311035],[110.10229492200001,18.531311035],[110.10632324200002,18.539123535],[110.11932373000002,18.55267334],[110.12530517600001,18.555480957],[110.13610839800002,18.553710937],[110.13952636700002,18.556518555],[110.14331054700001,18.566711426],[110.15527343700002,18.582275391],[110.15728759800001,18.585083008],[110.163879395,18.590270996],[110.16632080100001,18.590881348],[110.17492675800001,18.58807373],[110.17510986300002,18.588317871],[110.16967773400002,18.590698242],[110.16571044900002,18.592895508],[110.16052246100001,18.596313477],[110.15332031200002,18.599304199],[110.14709472700001,18.602478027],[110.14007568400001,18.604309082],[110.13208007800002,18.603088379],[110.12432861300002,18.599121094],[110.11853027300002,18.594482422],[110.11407470700001,18.592529297],[110.10949707000002,18.593322754],[110.10772705100001,18.594299316],[110.10369873000002,18.599304199],[110.09771728500002,18.606323242],[110.09271240200002,18.608520508],[110.08251953100002,18.611083984],[110.08032226600001,18.611877441],[110.07330322300001,18.615905762],[110.07128906200002,18.619689941],[110.06848144500002,18.624694824],[110.06268310500002,18.63067627],[110.054504395,18.630493164],[110.04968261700002,18.629699707],[110.04107666000002,18.629882812],[110.03509521500001,18.631286621],[110.02752685500002,18.637084961],[110.02490234400001,18.642700195],[110.02227783200001,18.650085449],[110.01971435500002,18.656494141],[110.01812744100002,18.659912109],[110.01409912100002,18.668884277],[110.01110839800002,18.674926758],[110.00952148400002,18.682495117],[110.00891113300001,18.688293457],[110.00970459000001,18.696105957],[110.01007080100001,18.698303223],[110.01031494100002,18.702697754],[110.01007080100001,18.707519531],[110.00708007800002,18.712524414],[110.00427246100001,18.721923828],[110.00427246100001,18.724914551],[110.00628662100002,18.729675293],[110.00531005900001,18.731689453],[110.00427246100001,18.733276367],[109.99890136700002,18.737304687],[109.99230957000002,18.745727539],[109.98590087900001,18.752685547],[109.98168945300002,18.757873535],[109.97589111300002,18.763916016],[109.96612548800002,18.769104004],[109.95587158200001,18.77331543],[109.95007324200002,18.771118164],[109.94030761700002,18.768127441],[109.93072509800001,18.762512207],[109.92108154300001,18.75769043],[109.91107177700002,18.751281738],[109.90588378900001,18.747924805],[109.89691162100002,18.73828125],[109.89288330100001,18.737915039],[109.89093017600001,18.741516113],[109.88732910200001,18.748474121],[109.88372802700002,18.75189209],[109.87792968700002,18.751708984],[109.87127685500002,18.747497559],[109.86431884800001,18.739685059],[109.85931396500001,18.73449707],[109.85272216800001,18.729919434],[109.84552002,18.728088379],[109.83349609400001,18.726074219],[109.82592773400002,18.728271484],[109.81988525400001,18.731689453],[109.81652832000002,18.73651123],[109.812316895,18.739929199],[109.80889892600001,18.748901367],[109.80749511700002,18.758483887],[109.80712890600002,18.765930176],[109.80670166000002,18.770690918],[109.80468750000001,18.775878906],[109.80010986300002,18.781677246],[109.79492187500001,18.78527832],[109.78509521500001,18.790710449],[109.77972412100002,18.795898437],[109.77508544900002,18.802490234],[109.76593017600001,18.804870605],[109.76312255900001,18.801513672],[109.76208496100001,18.799499512],[109.75988769500002,18.795715332],[109.75170898400002,18.786499023],[109.74890136700002,18.778503418],[109.74951171900001,18.770874023],[109.75250244100002,18.758911133],[109.76007080100001,18.755493164],[109.76593017600001,18.754516602],[109.76812744100002,18.750305176],[109.76629638700001,18.743103027],[109.76391601600001,18.736083984],[109.76312255900001,18.733520508],[109.76330566400001,18.725524902],[109.76550293000001,18.72088623],[109.76892089800002,18.715881348],[109.77709960900002,18.710083008],[109.78430175800001,18.709716797],[109.79211425800001,18.711914062],[109.79748535200001,18.71307373],[109.80389404300001,18.713500977],[109.80871582000002,18.710327148],[109.81628418000001,18.701477051],[109.82171630900001,18.689697266],[109.82690429700001,18.683898926],[109.83087158200001,18.674499512],[109.82928466800001,18.666320801],[109.82330322300001,18.65447998],[109.82031250000001,18.644897461],[109.82110595700001,18.634887695],[109.81530761700002,18.627502441],[109.80670166000002,18.623718262],[109.80230712900001,18.620483398],[109.79949951200001,18.617919922],[109.79827880900001,18.614685059],[109.796691895,18.602905273],[109.79907226600001,18.591674805],[109.80133056600002,18.584716797],[109.80371093700002,18.579528809],[109.81048584000001,18.578125],[109.81512451200001,18.574523926],[109.81988525400001,18.56451416],[109.82611084000001,18.563903809],[109.83111572300001,18.565307617],[109.83648681600002,18.56628418],[109.84051513700001,18.563476562],[109.84448242200001,18.555114746],[109.84429931600002,18.545715332],[109.83728027300002,18.538085937],[109.82952880900001,18.532470703],[109.82867431600002,18.522888184],[109.82629394500002,18.512512207],[109.81488037100002,18.502502441],[109.80590820300002,18.500915527],[109.79992675800001,18.504699707],[109.79809570300002,18.506103516],[109.79528808600001,18.511474609],[109.79107666000002,18.514099121],[109.78692627,18.512878418],[109.78308105500001,18.509277344],[109.77752685500002,18.506713867],[109.77471923800002,18.507873535]]]}}
