{"type":"Feature","id":"bulk-99377448B93382567104369","bbox":[103.579101562,35.408691406,105.78967285200001,37.62310791],"properties":{"id":"bulk-99377448B93382567104369","name":"Baiyin","nameEn":"Baiyin","fullName":"Baiyin","level":"city","boundaryRole":"administrative-extent","boundaryQuality":"generalized-source-2020","boundaryYearRepresented":"2020","bounds":[[103.579101562,35.408691406],[105.78967285200001,37.62310791]],"center":[104.68438720700001,36.515899658],"centerMethod":"bounding-box midpoint; camera framing only","license":"CC-BY-3.0-IGO","attribution":"geoBoundaries / HDX, China administrative boundaries (2020)","source":{"provider":"geoBoundaries gbHumanitarian / HDX","url":"https://github.com/wmgeolab/geoBoundaries/raw/9469f09/releaseData/gbHumanitarian/CHN/ADM2/geoBoundaries-CHN-ADM2.geojson","metadataUrl":"https://www.geoboundaries.org/api/current/gbHumanitarian/CHN/ADM2/","shapeID":"99377448B93382567104369","shapeName":"Baiyin","boundaryID":"CHN-ADM2-99377448","commit":"9469f09"},"geometryCounts":{"coordinates":191,"components":1,"holes":0},"boundaryNotice":"geoBoundaries / HDX 2020 年行政区数据，海岸和边界经过源数据概化，并非当前测绘成果。"},"geometry":{"type":"Polygon","coordinates":[[[103.83270263700001,37.62310791],[103.79510498000002,37.577087402],[103.78930664100001,37.53527832],[103.78228759800001,37.49029541],[103.77929687500001,37.449279785],[103.76312255900001,37.416503906],[103.75750732400002,37.382873535],[103.77172851600001,37.356689453],[103.79248046900001,37.323730469],[103.795898437,37.293884277],[103.78729248000002,37.264526367],[103.75329589800002,37.25592041],[103.70849609400001,37.238891602],[103.69091796900001,37.205871582],[103.66772460900002,37.167480469],[103.64971923800002,37.141479492],[103.63012695300002,37.118896484],[103.60888671900001,37.090881348],[103.59271240200002,37.064086914],[103.58007812500001,37.035705566],[103.579101562,36.990905762],[103.58850097700001,36.942077637],[103.594726562,36.913696289],[103.60791015600002,36.852478027],[103.63848877,36.823303223],[103.66369628900001,36.799499512],[103.70349121100001,36.775085449],[103.73571777300002,36.79510498],[103.77288818400001,36.806884766],[103.81390380900001,36.811523437],[103.85748291000002,36.803894043],[103.90270996100001,36.784484863],[103.94451904300001,36.76348877],[103.97528076200001,36.749084473],[103.95709228500002,36.713317871],[103.94427490200002,36.687072754],[103.954101562,36.655517578],[103.97192382800002,36.615722656],[103.995910645,36.579101562],[104.01629638700001,36.552490234],[104.03271484400001,36.51751709],[104.04931640600002,36.480712891],[104.06372070300002,36.441101074],[104.06951904300001,36.403686523],[104.06689453100002,36.365112305],[104.08032226600001,36.335083008],[104.105285645,36.297119141],[104.13208007800002,36.27947998],[104.18151855500001,36.289916992],[104.19812011700002,36.33807373],[104.24047851600001,36.358520508],[104.26110839800002,36.354125977],[104.31347656200002,36.332702637],[104.36688232400002,36.387878418],[104.40447998000002,36.384277344],[104.41729736300002,36.395507812],[104.42492675800001,36.424072266],[104.46807861300002,36.399108887],[104.50292968700002,36.372680664],[104.51507568400001,36.343078613],[104.51947021500001,36.300109863],[104.53210449200002,36.25769043],[104.54071044900002,36.231689453],[104.55511474600002,36.202087402],[104.58850097700001,36.183105469],[104.59509277300002,36.147277832],[104.56768798800002,36.13092041],[104.53112793000001,36.110107422],[104.49987793000001,36.069274902],[104.49548339800002,36.021911621],[104.55847168000001,36.016296387],[104.59490966800001,36.027282715],[104.62969970700001,36.034729004],[104.65167236300002,36.009521484],[104.68408203100002,35.98248291],[104.71789550800001,35.965515137],[104.75408935500002,35.936279297],[104.76947021500001,35.903076172],[104.77551269500002,35.86932373],[104.82031250000001,35.853515625],[104.847473145,35.828125],[104.85772705100001,35.79309082],[104.86187744100002,35.761474609],[104.89849853500002,35.73828125],[104.94030761700002,35.730895996],[104.97412109400001,35.729492187],[105.00488281200002,35.705688477],[105.00512695300002,35.668518066],[104.99108886700002,35.641906738],[104.97747802700002,35.614685059],[104.96307373000002,35.584716797],[104.94909668000001,35.559692383],[104.94232177700002,35.531677246],[104.94769287100002,35.496520996],[104.97387695300002,35.471679687],[104.995910645,35.428894043],[105.062316895,35.430114746],[105.10028076200001,35.408691406],[105.13769531200002,35.41229248],[105.17309570300002,35.43927002],[105.20910644500002,35.455078125],[105.25488281200002,35.44329834],[105.28051757800002,35.476074219],[105.312316895,35.486083984],[105.36169433600001,35.492126465],[105.78967285200001,35.608520508],[105.74072265600002,35.648498535],[105.71307373000002,35.684082031],[105.70770263700001,35.698730469],[105.73309326200001,35.703125],[105.74188232400002,35.710876465],[105.73187255900001,35.721496582],[105.69909668000001,35.727722168],[105.65710449200002,35.729919434],[105.63153076200001,35.728881836],[105.62030029300001,35.721313477],[105.60467529300001,35.709716797],[105.58929443400001,35.694702148],[105.57031250000001,35.701293945],[105.54827880900001,35.718688965],[105.52947998000002,35.721679687],[105.51550293000001,35.732116699],[105.48571777300002,35.756896973],[105.44769287100002,35.770080566],[105.41027832000002,35.772277832],[105.37731933600001,35.778503418],[105.37127685500002,35.800292969],[105.38409423800002,35.822692871],[105.38330078100002,35.833679199],[105.33288574200002,35.859313965],[105.32330322300001,35.902709961],[105.33251953100002,35.94329834],[105.35748291000002,35.991882324],[105.41632080100001,36.02331543],[105.45532226600001,36.035705566],[105.49267578100002,36.073486328],[105.50689697300001,36.110473633],[105.503723145,36.165283203],[105.49707031200002,36.198120117],[105.48687744100002,36.252502441],[105.48669433600001,36.296508789],[105.46911621100001,36.326904297],[105.42767334000001,36.407287598],[105.39752197300001,36.476318359],[105.34948730500001,36.515319824],[105.25909423800002,36.527893066],[105.24829101600001,36.608886719],[105.22290039100001,36.668273926],[105.238098145,36.698913574],[105.32330322300001,36.741882324],[105.31970214800002,36.817077637],[105.29150390600002,36.867492676],[105.25970459000001,36.900878906],[105.18847656200002,36.872497559],[105.16131591800001,36.868896484],[105.16870117200001,36.948913574],[105.15368652300002,36.964904785],[105.11712646500001,37.003479004],[105.02032470700001,37.031677246],[104.95928955100001,37.056884766],[104.93072509800001,37.089477539],[104.89410400400001,37.122497559],[104.85607910200001,37.210510254],[104.74908447300001,37.226074219],[104.66912841800001,37.222717285],[104.64111328100002,37.242126465],[104.61767578100002,37.270080566],[104.64770507800002,37.300109863],[104.68292236300002,37.304077148],[104.70611572300001,37.30670166],[104.74688720700001,37.333129883],[104.76751709000001,37.346130371],[104.81329345700001,37.381103516],[104.82751464800002,37.406311035],[104.81610107400002,37.418273926],[104.79992675800001,37.417480469],[104.73150634800001,37.402282715],[104.66210937500001,37.399475098],[104.60009765600002,37.403076172],[104.52288818400001,37.423095703],[104.43127441400001,37.411315918],[104.36132812500001,37.42791748],[104.27990722700001,37.420715332],[104.22650146500001,37.418884277],[104.20172119100002,37.41809082],[104.10449218700002,37.441894531],[104.04229736300002,37.482727051],[103.980285645,37.521118164],[103.92150878900001,37.562927246],[103.85632324200002,37.591125488],[103.83270263700001,37.62310791]]]}}
