{"type":"Feature","id":"bulk-99377448B26990155877679","bbox":[101.80291748000002,22.449890137,104.28869628900001,24.800292969],"properties":{"id":"bulk-99377448B26990155877679","name":"Honghe Hani and Yi Autonomous Prefecture","nameEn":"Honghe Hani and Yi Autonomous Prefecture","fullName":"Honghe Hani and Yi Autonomous Prefecture","level":"city","boundaryRole":"administrative-extent","boundaryQuality":"generalized-source-2020","boundaryYearRepresented":"2020","bounds":[[101.80291748000002,22.449890137],[104.28869628900001,24.800292969]],"center":[103.04580688450002,23.625091553],"centerMethod":"bounding-box midpoint; camera framing only","license":"CC-BY-3.0-IGO","attribution":"geoBoundaries / HDX, China administrative boundaries (2020)","source":{"provider":"geoBoundaries gbHumanitarian / HDX","url":"https://github.com/wmgeolab/geoBoundaries/raw/9469f09/releaseData/gbHumanitarian/CHN/ADM2/geoBoundaries-CHN-ADM2.geojson","metadataUrl":"https://www.geoboundaries.org/api/current/gbHumanitarian/CHN/ADM2/","shapeID":"99377448B26990155877679","shapeName":"Honghe Hani and Yi Autonomous Prefecture","boundaryID":"CHN-ADM2-99377448","commit":"9469f09"},"geometryCounts":{"coordinates":531,"components":1,"holes":0},"boundaryNotice":"geoBoundaries / HDX 2020 年行政区数据，海岸和边界经过源数据概化，并非当前测绘成果。"},"geometry":{"type":"Polygon","coordinates":[[[104.27331543000001,22.835876465],[104.28869628900001,22.883911133],[104.26092529300001,22.903686523],[104.20727539100001,22.900512695],[104.17852783200001,22.896484375],[104.13952636700002,22.916870117],[104.11029052700002,22.924316406],[104.09967041000002,22.888916016],[104.09252929700001,22.847473145],[104.0625,22.807495117],[104.04211425800001,22.77911377],[104.01812744100002,22.754516602],[103.98571777300002,22.72467041],[103.94488525400001,22.716308594],[103.91607666000002,22.735473633],[103.89672851600001,22.764526367],[103.89050293000001,22.808288574],[103.90228271500001,22.841125488],[103.91888427700002,22.878723145],[103.91528320300002,22.914123535],[103.91271972700001,22.9453125],[103.92889404300001,22.971923828],[103.95172119100002,22.998291016],[103.95031738300001,23.031921387],[103.94348144500002,23.078674316],[103.94207763700001,23.144470215],[103.92370605500001,23.171325684],[103.90972900400001,23.205322266],[103.91851806600002,23.231506348],[103.92468261700002,23.261108398],[103.92828369100002,23.289123535],[103.91448974600002,23.32409668],[103.89111328100002,23.346679687],[103.85888671900001,23.364501953],[103.83050537100002,23.377319336],[103.82373046900001,23.409484863],[103.82409668000001,23.439086914],[103.81671142600001,23.489929199],[103.79992675800001,23.524475098],[103.76867675800001,23.525878906],[103.74749755900001,23.559509277],[103.70849609400001,23.56451416],[103.67047119100002,23.547912598],[103.622070312,23.548278809],[103.59570312500001,23.596679687],[103.59552002,23.632080078],[103.613098145,23.664489746],[103.63452148400002,23.69732666],[103.65148925800001,23.731872559],[103.65209960900002,23.774108887],[103.64508056600002,23.809509277],[103.63952636700002,23.837280273],[103.65490722700001,23.862915039],[103.67687988300001,23.884094238],[103.69830322300001,23.920715332],[103.663085937,23.978271484],[103.64508056600002,24.019714355],[103.62231445300002,24.069885254],[103.62170410200001,24.071105957],[103.61529541000002,24.100524902],[103.64050293000001,24.125488281],[103.66967773400002,24.155883789],[103.70129394500002,24.172302246],[103.73388671900001,24.197509766],[103.77130127,24.196289062],[103.80407714800002,24.210083008],[103.81488037100002,24.281921387],[103.84429931600002,24.319885254],[103.87249755900001,24.351501465],[103.91070556600002,24.371887207],[103.94708252,24.400512695],[103.95971679700001,24.429870605],[103.98449707000002,24.445678711],[104.05371093700002,24.460693359],[104.02349853500002,24.515075684],[104.02532959000001,24.555480957],[104.00128173800002,24.586914062],[103.98150634800001,24.615905762],[103.98327636700002,24.663085937],[103.95288085900002,24.677124023],[103.92547607400002,24.69152832],[103.88531494100002,24.688110352],[103.86291503900001,24.718078613],[103.85247802700002,24.750488281],[103.82348632800002,24.760498047],[103.77947998000002,24.754882812],[103.74029541000002,24.754699707],[103.72448730500001,24.800292969],[103.68267822300001,24.778930664],[103.67468261700002,24.741271973],[103.65130615200002,24.701477051],[103.63287353500002,24.668273926],[103.61047363300001,24.633117676],[103.58752441400001,24.608703613],[103.55548095700001,24.576477051],[103.52947998000002,24.548706055],[103.49328613300001,24.544921875],[103.47351074200002,24.571472168],[103.45867919900002,24.602111816],[103.43450927700002,24.61907959],[103.39831543000001,24.62487793],[103.35852050800001,24.642700195],[103.33752441400001,24.667297363],[103.31549072300001,24.690490723],[103.28747558600001,24.703674316],[103.26330566400001,24.620300293],[103.26208496100001,24.581298828],[103.24468994100002,24.551330566],[103.20550537100002,24.547729492],[103.12689209000001,24.544311523],[103.13012695300002,24.501098633],[103.13348388700001,24.457885742],[103.11108398400002,24.442077637],[103.08972168000001,24.411682129],[103.09088134800001,24.397277832],[103.09191894500002,24.382873535],[103.11651611300002,24.369873047],[103.11871337900001,24.341125488],[103.120910645,24.312316895],[103.12451171900001,24.221496582],[103.09210205100001,24.19128418],[103.078125,24.157897949],[103.05487060500002,24.128295898],[103.03247070300002,24.101074219],[103.00170898400002,24.089477539],[102.96752929700001,24.102111816],[102.93188476600001,24.083679199],[102.91168212900001,24.059875488],[102.90771484400001,24.030273437],[102.88031005900001,24.009887695],[102.83990478500002,24.064697266],[102.804504395,24.074523926],[102.77947998000002,24.050476074],[102.74987793000001,24.021728516],[102.72351074200002,23.996276855],[102.70428466800001,23.971923828],[102.63891601600001,23.982299805],[102.627929687,24.017700195],[102.62530517600001,24.049316406],[102.61291503900001,24.093078613],[102.58447265600002,24.058898926],[102.55828857400002,24.044921875],[102.52429199200002,24.065490723],[102.49249267600001,24.08770752],[102.45251464800002,24.094299316],[102.42028808600001,24.096923828],[102.37432861300002,24.118713379],[102.34307861300002,24.128723145],[102.33312988300001,24.102478027],[102.34912109400001,24.077514648],[102.30627441400001,24.054077148],[102.23547363300001,24.00970459],[102.24328613300001,23.961730957],[102.26489257800002,23.92590332],[102.30212402300002,23.907104492],[102.296691895,23.880126953],[102.25927734400001,23.87689209],[102.22808837900001,23.878112793],[102.19030761700002,23.869689941],[102.16027832000002,23.846679687],[102.15832519500002,23.833679199],[102.17431640600002,23.802307129],[102.19909668000001,23.782287598],[102.22967529300001,23.752319336],[102.23968505900001,23.726318359],[102.252929687,23.689880371],[102.28271484400001,23.66192627],[102.30548095700001,23.634887695],[102.32269287100002,23.606872559],[102.33990478500002,23.573730469],[102.35107421900001,23.542114258],[102.370117187,23.512878418],[102.37249755900001,23.485290527],[102.36029052700002,23.453125],[102.32629394500002,23.431884766],[102.29431152300002,23.43371582],[102.25347900400001,23.450927734],[102.22467041000002,23.464294434],[102.19787597700001,23.450927734],[102.17907714800002,23.428710937],[102.15289306600002,23.395324707],[102.13647460900002,23.371520996],[102.10192871100001,23.351501465],[102.06610107400002,23.344116211],[102.03192138700001,23.348327637],[101.995910645,23.362670898],[101.96032714800002,23.384094238],[101.93408203100002,23.397094727],[101.88330078100002,23.383483887],[101.87670898400002,23.326477051],[101.85247802700002,23.306884766],[101.83007812500001,23.284484863],[101.82287597700001,23.25769043],[101.82647705100001,23.228515625],[101.84527587900001,23.194274902],[101.88031005900001,23.181091309],[101.92272949200002,23.189697266],[101.96551513700001,23.196289062],[102.00311279300001,23.193908691],[102.02429199200002,23.164489746],[102.04608154300001,23.142700195],[102.04748535200001,23.080505371],[102.04089355500001,23.041503906],[102.00567627,23.015075684],[101.97009277300002,23.017089844],[101.9375,23.043701172],[101.90191650400001,23.054077148],[101.85992431600002,23.032287598],[101.85388183600001,23.002075195],[101.85687255900001,22.97088623],[101.83288574200002,22.950927734],[101.83227539100001,22.919921875],[101.80291748000002,22.851318359],[101.82568359400001,22.830688477],[101.85931396500001,22.801513672],[101.89288330100001,22.79510498],[101.92987060500002,22.804504395],[101.97668457000002,22.792480469],[101.99609375000001,22.765930176],[102.03448486300002,22.727478027],[102.06549072300001,22.701293945],[102.07452392600001,22.671081543],[102.08532714800002,22.640930176],[102.10888671900001,22.623901367],[102.14349365200002,22.609313965],[102.17327880900001,22.601074219],[102.21832275400001,22.600708008],[102.24951171900001,22.599914551],[102.29547119100002,22.574279785],[102.31610107400002,22.5546875],[102.32147216800001,22.5546875],[102.32067871100001,22.557312012],[102.34051513700001,22.561279297],[102.35791015600002,22.567321777],[102.34613037100002,22.582092285],[102.346679687,22.58972168],[102.35229492200001,22.590087891],[102.35711669900002,22.592895508],[102.36511230500001,22.592529297],[102.37371826200001,22.595275879],[102.37969970700001,22.60168457],[102.37628173800002,22.610290527],[102.38671875000001,22.62689209],[102.405273437,22.639282227],[102.40509033200001,22.639526367],[102.403320312,22.639526367],[102.40167236300002,22.645080566],[102.39251709000001,22.660705566],[102.38909912100002,22.666503906],[102.38812255900001,22.667114258],[102.38488769500002,22.672912598],[102.38189697300001,22.680114746],[102.38287353500002,22.685913086],[102.39031982400002,22.688903809],[102.40509033200001,22.686096191],[102.41430664100001,22.692871094],[102.42309570300002,22.693481445],[102.43572998000002,22.702697754],[102.43627929700001,22.707885742],[102.44012451200001,22.718078613],[102.44671630900001,22.734924316],[102.45452880900001,22.734924316],[102.45629882800002,22.736877441],[102.45227050800001,22.757080078],[102.45947265600002,22.766479492],[102.46508789100001,22.769287109],[102.46691894500002,22.777282715],[102.47070312500001,22.778076172],[102.47509765600002,22.78729248],[102.51312255900001,22.77911377],[102.54547119100002,22.768493652],[102.553710937,22.74407959],[102.55767822300001,22.740722656],[102.56549072300001,22.739074707],[102.57067871100001,22.730529785],[102.57891845700001,22.728271484],[102.57891845700001,22.728088379],[102.59729003900001,22.731689453],[102.59967041000002,22.733520508],[102.60589599600002,22.733703613],[102.60607910200001,22.733520508],[102.61151123000002,22.73449707],[102.62249755900001,22.73248291],[102.64093017600001,22.711730957],[102.66088867200001,22.694091797],[102.66967773400002,22.698303223],[102.678710937,22.698913574],[102.68768310500002,22.702880859],[102.70129394500002,22.69732666],[102.70367431600002,22.692077637],[102.74011230500001,22.667114258],[102.78051757800002,22.666320801],[102.788085937,22.634277344],[102.82708740200002,22.624084473],[102.86328125000001,22.614685059],[102.88531494100002,22.584899902],[102.90692138700001,22.526123047],[102.93249511700002,22.50012207],[102.96429443400001,22.495910645],[102.98413085900002,22.480285645],[102.98669433600001,22.480285645],[102.99310302700002,22.473327637],[102.99987793000001,22.467895508],[103.02569580100001,22.452087402],[103.05267334000001,22.449890137],[103.05627441400001,22.452087402],[103.05828857400002,22.45111084],[103.07971191400001,22.465515137],[103.079101562,22.470275879],[103.07067871100001,22.47668457],[103.07409668000001,22.485107422],[103.06652832000002,22.489318848],[103.07373046900001,22.493286133],[103.08251953100002,22.510681152],[103.09008789100001,22.511901855],[103.09869384800001,22.516296387],[103.11010742200001,22.516479492],[103.11529541000002,22.517700195],[103.12268066400001,22.522888184],[103.12268066400001,22.52532959],[103.13391113300001,22.532104492],[103.13812255900001,22.541503906],[103.14727783200001,22.542907715],[103.15570068400001,22.539916992],[103.15771484400001,22.540710449],[103.16070556600002,22.54510498],[103.16851806600002,22.548278809],[103.17108154300001,22.550476074],[103.16552734400001,22.56829834],[103.16888427700002,22.576477051],[103.16333007800002,22.580505371],[103.15930175800001,22.580871582],[103.15667724600002,22.588500977],[103.15789794900002,22.594299316],[103.16088867200001,22.597900391],[103.16247558600001,22.602905273],[103.16510009800001,22.610717773],[103.16827392600001,22.618713379],[103.17572021500001,22.626281738],[103.18127441400001,22.629272461],[103.18432617200001,22.631286621],[103.18267822300001,22.640075684],[103.18469238300001,22.644470215],[103.19549560500002,22.650878906],[103.20251464800002,22.647094727],[103.20849609400001,22.645874023],[103.21807861300002,22.645874023],[103.22491455100001,22.646728516],[103.23010253900001,22.651123047],[103.23187255900001,22.658874512],[103.24011230500001,22.663330078],[103.24987793000001,22.669311523],[103.25189209000001,22.672912598],[103.26232910200001,22.670898437],[103.26452636700002,22.672302246],[103.26867675800001,22.673706055],[103.27087402300002,22.674682617],[103.27667236300002,22.678283691],[103.28308105500001,22.684692383],[103.28350830100001,22.686279297],[103.28289794900002,22.691101074],[103.28112793000001,22.697692871],[103.28448486300002,22.705322266],[103.28869628900001,22.720092773],[103.28588867200001,22.72668457],[103.28527832000002,22.729309082],[103.28527832000002,22.737121582],[103.29467773400002,22.746704102],[103.29528808600001,22.751525879],[103.30169677700002,22.754882812],[103.304504395,22.757507324],[103.30688476600001,22.759887695],[103.30987548800002,22.763671875],[103.30871582000002,22.76751709],[103.30932617200001,22.770690918],[103.31549072300001,22.778930664],[103.320129395,22.780517578],[103.320129395,22.782714844],[103.31488037100002,22.791503906],[103.31567382800002,22.802307129],[103.32287597700001,22.81451416],[103.33447265600002,22.806274414],[103.36608886700002,22.800720215],[103.36932373000002,22.799499512],[103.37268066400001,22.799072266],[103.39611816400001,22.781311035],[103.39691162100002,22.781311035],[103.413085937,22.775512695],[103.41668701200001,22.768310547],[103.41528320300002,22.765319824],[103.42547607400002,22.764282227],[103.44152832000002,22.756530762],[103.44409179700001,22.75012207],[103.44329834000001,22.740905762],[103.43707275400001,22.738098145],[103.44427490200002,22.698303223],[103.44531250000001,22.69152832],[103.45172119100002,22.6875],[103.45831298800002,22.679870605],[103.45550537100002,22.67010498],[103.45532226600001,22.664672852],[103.47070312500001,22.649108887],[103.49572753900001,22.616088867],[103.50512695300002,22.611694336],[103.50891113300001,22.608276367],[103.504882812,22.604492187],[103.51208496100001,22.59967041],[103.51831054700001,22.597717285],[103.52990722700001,22.594726562],[103.53210449200002,22.596923828],[103.54571533200001,22.613525391],[103.55151367200001,22.626708984],[103.55291748000002,22.637084961],[103.56268310500002,22.639099121],[103.571289062,22.642089844],[103.57769775400001,22.656677246],[103.57891845700001,22.660705566],[103.57751464800002,22.668884277],[103.56530761700002,22.682922363],[103.56329345700001,22.686523437],[103.56488037100002,22.688720703],[103.56610107400002,22.68927002],[103.56628418000001,22.69329834],[103.56292724600002,22.698486328],[103.56427002,22.705871582],[103.56707763700001,22.708312988],[103.56988525400001,22.711120605],[103.57312011700002,22.716125488],[103.57751464800002,22.723876953],[103.58392334000001,22.732299805],[103.58972168000001,22.734313965],[103.60028076200001,22.754699707],[103.60827636700002,22.761901855],[103.60888671900001,22.763671875],[103.61511230500001,22.771484375],[103.62109375000001,22.774475098],[103.61767578100002,22.782714844],[103.61932373000002,22.785888672],[103.62310791000002,22.785522461],[103.63092041000002,22.79107666],[103.63189697300001,22.790893555],[103.63153076200001,22.787109375],[103.63287353500002,22.787109375],[103.63409423800002,22.788330078],[103.63549804700001,22.790100098],[103.63488769500002,22.790710449],[103.64031982400002,22.797729492],[103.64147949200002,22.797119141],[103.64428710900002,22.800109863],[103.65509033200001,22.790527344],[103.65911865200002,22.789672852],[103.66369628900001,22.785705566],[103.66467285200001,22.781921387],[103.76727294900002,22.690490723],[103.76849365200002,22.690673828],[103.76947021500001,22.688476562],[103.80712890600002,22.654907227],[103.88970947300001,22.583312988],[103.96728515600002,22.50970459],[103.96948242200001,22.51171875],[103.97167968700002,22.511474609],[103.97229003900001,22.507080078],[103.97528076200001,22.506286621],[103.98107910200001,22.508117676],[103.98931884800001,22.514526367],[103.99090576200001,22.519714355],[103.99688720700001,22.519714355],[103.99951171900001,22.530700684],[104.00408935500002,22.56072998],[104.01190185500002,22.571289062],[104.00988769500002,22.571899414],[104.00610351600001,22.575317383],[104.01110839800002,22.579284668],[104.01507568400001,22.578491211],[104.01489257800002,22.583129883],[104.01409912100002,22.58770752],[104.01550293000001,22.593078613],[104.02130127,22.604675293],[104.02410888700001,22.606872559],[104.02807617200001,22.621887207],[104.03088378900001,22.626708984],[104.03448486300002,22.638305664],[104.03430175800001,22.642883301],[104.03228759800001,22.651489258],[104.03472900400001,22.653320312],[104.02209472700001,22.665893555],[104.03131103500002,22.686279297],[104.02990722700001,22.694885254],[104.03448486300002,22.697875977],[104.03228759800001,22.708679199],[104.04248046900001,22.730529785],[104.04730224600002,22.733886719],[104.04772949200002,22.735473633],[104.05310058600001,22.739318848],[104.054504395,22.742126465],[104.06408691400001,22.746704102],[104.06707763700001,22.754089355],[104.07189941400001,22.759277344],[104.07708740200002,22.762878418],[104.08471679700001,22.773681641],[104.09490966800001,22.785095215],[104.09649658200001,22.789306641],[104.10131835900002,22.792907715],[104.10290527300002,22.797302246],[104.11132812500001,22.804077148],[104.11547851600001,22.810913086],[104.12750244100002,22.813476562],[104.13269043000001,22.811279297],[104.13372802700002,22.808898926],[104.15570068400001,22.81427002],[104.15588378900001,22.814880371],[104.15728759800001,22.814697266],[104.17651367200001,22.819702148],[104.17907714800002,22.822875977],[104.18487548800002,22.825683594],[104.19012451200001,22.823120117],[104.19592285200001,22.824523926],[104.19891357400002,22.82611084],[104.20208740200002,22.82611084],[104.20532226600001,22.826904297],[104.21752929700001,22.831298828],[104.21929931600002,22.830505371],[104.22827148400002,22.832702637],[104.22888183600001,22.833312988],[104.23010253900001,22.833312988],[104.23468017600001,22.834472656],[104.24407959000001,22.839111328],[104.25531005900001,22.835510254],[104.26348877,22.837097168],[104.26788330100001,22.83972168],[104.27331543000001,22.835876465]]]}}
