{"type":"Feature","id":"bulk-99377448B18664249439783","bbox":[100.195495605,26.062072754,103.89227294900002,29.304077148],"properties":{"id":"bulk-99377448B18664249439783","name":"Liangshan Yi Autonomous Prefecture","nameEn":"Liangshan Yi Autonomous Prefecture","fullName":"Liangshan Yi Autonomous Prefecture","level":"city","boundaryRole":"administrative-extent","boundaryQuality":"generalized-source-2020","boundaryYearRepresented":"2020","bounds":[[100.195495605,26.062072754],[103.89227294900002,29.304077148]],"center":[102.04388427700002,27.683074951000002],"centerMethod":"bounding-box midpoint; camera framing only","license":"CC-BY-3.0-IGO","attribution":"geoBoundaries / HDX, China administrative boundaries (2020)","source":{"provider":"geoBoundaries gbHumanitarian / HDX","url":"https://github.com/wmgeolab/geoBoundaries/raw/9469f09/releaseData/gbHumanitarian/CHN/ADM2/geoBoundaries-CHN-ADM2.geojson","metadataUrl":"https://www.geoboundaries.org/api/current/gbHumanitarian/CHN/ADM2/","shapeID":"99377448B18664249439783","shapeName":"Liangshan Yi Autonomous Prefecture","boundaryID":"CHN-ADM2-99377448","commit":"9469f09"},"geometryCounts":{"coordinates":436,"components":1,"holes":0},"boundaryNotice":"geoBoundaries / HDX 2020 年行政区数据，海岸和边界经过源数据概化，并非当前测绘成果。"},"geometry":{"type":"Polygon","coordinates":[[[100.20050048800002,27.943908691],[100.195495605,27.905090332],[100.22387695300002,27.882324219],[100.29107666000002,27.867492676],[100.32690429700001,27.841674805],[100.29809570300002,27.814880371],[100.33648681600002,27.747070312],[100.37231445300002,27.738525391],[100.39093017600001,27.752685547],[100.41967773400002,27.79107666],[100.436523437,27.842895508],[100.48571777300002,27.881286621],[100.53051757800002,27.810302734],[100.58868408200001,27.850280762],[100.63610839800002,27.886474609],[100.67712402300002,27.89630127],[100.71771240200002,27.861694336],[100.73632812500001,27.81048584],[100.738098145,27.805908203],[100.76068115200002,27.73828125],[100.81292724600002,27.680480957],[100.86267089800002,27.645080566],[100.86572265600002,27.627319336],[100.86987304700001,27.567321777],[100.88952636700002,27.518493652],[100.88732910200001,27.441711426],[100.97851562500001,27.457092285],[100.99548339800002,27.412475586],[101.01348877,27.366271973],[101.02709960900002,27.343078613],[101.04309082000002,27.31652832],[101.04791259800001,27.269897461],[101.07971191400001,27.228271484],[101.155273437,27.190673828],[101.20172119100002,27.193481445],[101.25091552700002,27.196899414],[101.29370117200001,27.205505371],[101.32507324200002,27.212097168],[101.37487793000001,27.223083496],[101.41088867200001,27.234130859],[101.44488525400001,27.242675781],[101.47607421900001,27.242919922],[101.50909423800002,27.24407959],[101.54510498000002,27.27532959],[101.56610107400002,27.3046875],[101.58612060500002,27.329101562],[101.61468505900001,27.346923828],[101.63488769500002,27.324890137],[101.64093017600001,27.291687012],[101.64807128900001,27.265319824],[101.65948486300002,27.228515625],[101.68371582000002,27.205505371],[101.71368408200001,27.174682617],[101.74890136700002,27.156311035],[101.77868652300002,27.144104004],[101.88189697300001,27.156311035],[101.89709472700001,27.189880371],[101.91229248000002,27.223327637],[101.90930175800001,27.25567627],[101.91351318400001,27.286499023],[101.92071533200001,27.241271973],[101.92572021500001,27.207092285],[101.95111084000001,27.185119629],[101.98168945300002,27.166687012],[102.00109863300001,27.140930176],[102.01928710900002,27.106079102],[102.061523437,27.106079102],[102.08947753900001,27.142272949],[102.11828613300001,27.166870117],[102.14752197300001,27.186523437],[102.18048095700001,27.173095703],[102.21112060500002,27.149475098],[102.23413085900002,27.129882812],[102.28308105500001,27.106079102],[102.25329589800002,27.071289062],[102.24792480500001,27.037902832],[102.24169921900001,26.971679687],[102.23168945300002,26.928710937],[102.22351074200002,26.890075684],[102.21667480500001,26.859924316],[102.19268798800002,26.838500977],[102.18127441400001,26.813110352],[102.20727539100001,26.789306641],[102.18829345700001,26.758728027],[102.18450927700002,26.729125977],[102.17071533200001,26.699523926],[102.15130615200002,26.66809082],[102.12292480500001,26.655700684],[102.09912109400001,26.682922363],[102.08508300800001,26.707519531],[102.07250976600001,26.735107422],[102.03790283200001,26.736694336],[102.01489257800002,26.764282227],[101.97027587900001,26.765319824],[101.95367431600002,26.740905762],[101.95050048800002,26.699279785],[101.94409179700001,26.665710449],[101.94012451200001,26.616088867],[101.94647216800001,26.577087402],[101.93988037100002,26.545898437],[101.90551757800002,26.524291992],[101.90948486300002,26.493103027],[101.93688964800002,26.465698242],[101.96051025400001,26.434875488],[101.97131347700001,26.402526855],[101.97607421900001,26.372680664],[101.96307373000002,26.327697754],[101.95288085900002,26.301513672],[101.94372558600001,26.275512695],[101.93707275400001,26.240112305],[101.93310546900001,26.208129883],[101.90808105500001,26.18548584],[101.88067627,26.163696289],[101.86889648400002,26.126525879],[101.87670898400002,26.08972168],[101.91967773400002,26.09552002],[101.96929931600002,26.114501953],[102.02551269500002,26.104125977],[102.03448486300002,26.103881836],[102.08050537100002,26.062072754],[102.11688232400002,26.070922852],[102.11932373000002,26.073730469],[102.15148925800001,26.110473633],[102.18572998000002,26.142700195],[102.21728515600002,26.16027832],[102.25152587900001,26.187683105],[102.29809570300002,26.225280762],[102.35729980500001,26.250305176],[102.40948486300002,26.286315918],[102.45428466800001,26.3046875],[102.50347900400001,26.305297852],[102.56091308600001,26.361694336],[102.56872558600001,26.36907959],[102.61029052700002,26.376525879],[102.65008544900002,26.344909668],[102.63488769500002,26.287109375],[102.63507080100001,26.237487793],[102.67810058600001,26.215087891],[102.73968505900001,26.249694824],[102.80169677700002,26.302490234],[102.80389404300001,26.301879883],[102.82531738300001,26.296875],[102.93249511700002,26.327087402],[103.01507568400001,26.376525879],[103.00653076200001,26.422729492],[103.01550293000001,26.435119629],[102.99267578100002,26.480529785],[103.00207519500002,26.515319824],[103.04132080100001,26.504272461],[103.05828857400002,26.509887695],[103.06988525400001,26.512329102],[103.05529785200001,26.543884277],[103.02270507800002,26.572509766],[103.02288818400001,26.579101562],[103.02288818400001,26.607727051],[102.99871826200001,26.658508301],[102.98071289100001,26.732116699],[102.97229003900001,26.774719238],[102.90972900400001,26.897277832],[102.90728759800001,26.902099609],[102.91247558600001,27.037475586],[102.92468261700002,27.075073242],[102.92572021500001,27.149902344],[102.92248535200001,27.201904297],[102.91650390600002,27.24987793],[102.920898437,27.283874512],[102.92272949200002,27.29888916],[102.94952392600001,27.370727539],[102.95751953100002,27.408325195],[102.96069335900002,27.408325195],[102.97552490200002,27.401123047],[103.01788330100001,27.368713379],[103.04907226600001,27.385070801],[103.06011962900001,27.395690918],[103.07647705100001,27.41192627],[103.13867187500001,27.424682617],[103.16192627,27.436279297],[103.17388916000002,27.469909668],[103.20947265600002,27.508911133],[103.22491455100001,27.547485352],[103.26092529300001,27.571289062],[103.26568603500002,27.574279785],[103.29711914100001,27.601318359],[103.33111572300001,27.650878906],[103.37890625000001,27.721923828],[103.43450927700002,27.74230957],[103.45367431600002,27.758911133],[103.495910645,27.795288086],[103.53552246100001,27.854919434],[103.571289062,27.937683105],[103.56427002,27.989318848],[103.51928710900002,28.013671875],[103.48089599600002,28.060913086],[103.48168945300002,28.117492676],[103.52270507800002,28.174499512],[103.59613037100002,28.250488281],[103.67132568400001,28.26348877],[103.711914062,28.212890625],[103.74389648400002,28.211120605],[103.79028320300002,28.238708496],[103.84448242200001,28.284729004],[103.87530517600001,28.299682617],[103.89227294900002,28.35168457],[103.86047363300001,28.407287598],[103.84167480500001,28.465515137],[103.83789062500001,28.476928711],[103.81951904300001,28.518676758],[103.75390625000001,28.477722168],[103.73870849600002,28.451293945],[103.70471191400001,28.428283691],[103.66992187500001,28.428100586],[103.65991210900002,28.454284668],[103.66851806600002,28.491271973],[103.679504395,28.525512695],[103.67132568400001,28.56072998],[103.63287353500002,28.565917969],[103.61950683600001,28.614685059],[103.56109619100002,28.602905273],[103.52807617200001,28.58190918],[103.49829101600001,28.566101074],[103.47271728500002,28.543884277],[103.45947265600002,28.516296387],[103.45672607400002,28.485473633],[103.453125,28.455688477],[103.43572998000002,28.426696777],[103.40692138700001,28.415527344],[103.37469482400002,28.419494629],[103.33111572300001,28.431091309],[103.26190185500002,28.4375],[103.23748779300001,28.470703125],[103.24072265600002,28.499511719],[103.24627685500002,28.526672363],[103.25189209000001,28.556518555],[103.25610351600001,28.588684082],[103.24932861300002,28.61730957],[103.26171875000001,28.65411377],[103.29052734400001,28.671691895],[103.29748535200001,28.703674316],[103.28869628900001,28.744689941],[103.26892089800002,28.77331543],[103.22149658200001,28.80670166],[103.14611816400001,28.805725098],[103.11248779300001,28.79510498],[103.09307861300002,28.762512207],[103.08251953100002,28.722473145],[103.06768798800002,28.690490723],[103.03308105500001,28.669494629],[103.00128173800002,28.664672852],[102.96868896500001,28.678527832],[102.94390869100002,28.702270508],[102.92810058600001,28.741699219],[102.92248535200001,28.778930664],[102.92510986300002,28.813293457],[102.93212890600002,28.841674805],[102.94030761700002,28.878479004],[102.94030761700002,28.926086426],[102.93688964800002,28.959472656],[102.91632080100001,29.001708984],[102.92272949200002,29.03112793],[102.95269775400001,29.047729492],[102.96112060500002,29.080505371],[102.94049072300001,29.111328125],[102.93688964800002,29.14630127],[102.94409179700001,29.174682617],[102.96051025400001,29.201477051],[102.98852539100001,29.226501465],[103.02252197300001,29.24609375],[103.03131103500002,29.272705078],[103.00207519500002,29.296325684],[102.95507812500001,29.304077148],[102.93048095700001,29.280090332],[102.91510009800001,29.243713379],[102.877929687,29.201721191],[102.83892822300001,29.212890625],[102.82373046900001,29.239685059],[102.78930664100001,29.252502441],[102.77368164100001,29.218078613],[102.77148437500001,29.187072754],[102.74371337900001,29.158508301],[102.71008300800001,29.158691406],[102.66711425800001,29.166870117],[102.63848877,29.187683105],[102.61328125000001,29.205322266],[102.59631347700001,29.18170166],[102.58789062500001,29.15032959],[102.563476562,29.119506836],[102.52087402300002,29.108276367],[102.53448486300002,29.083312988],[102.51208496100001,29.044494629],[102.49951171900001,29.01348877],[102.48248291000002,28.988891602],[102.47930908200001,28.949890137],[102.47912597700001,28.902709961],[102.44470214800002,28.849121094],[102.38732910200001,28.853088379],[102.34851074200002,28.843688965],[102.32788085900002,28.872070312],[102.29431152300002,28.889892578],[102.25787353500002,28.904724121],[102.24871826200001,28.931274414],[102.21649169900002,28.954101562],[102.20031738300001,28.985900879],[102.16748046900001,29.035888672],[102.13708496100001,29.01171875],[102.11169433600001,28.986083984],[102.08032226600001,28.959472656],[102.05108642600001,28.926330566],[102.01971435500002,28.911682129],[101.99530029300001,28.886291504],[101.979492187,28.85369873],[101.98010253900001,28.813903809],[102.00549316400001,28.774475098],[102.02148437500001,28.73449707],[101.99987793000001,28.707702637],[101.97668457000002,28.688293457],[101.94891357400002,28.656921387],[101.92132568400001,28.622924805],[101.87408447300001,28.613525391],[101.85687255900001,28.596130371],[101.82147216800001,28.577514648],[101.804504395,28.560119629],[101.78912353500002,28.526489258],[101.79992675800001,28.414123535],[101.76593017600001,28.379272461],[101.72912597700001,28.376708984],[101.69372558600001,28.357910156],[101.67889404300001,28.341674805],[101.63549804700001,28.345703125],[101.60107421900001,28.344726562],[101.57409668000001,28.331298828],[101.54650878900001,28.311096191],[101.51751709000001,28.300476074],[101.488098145,28.310119629],[101.47552490200002,28.336486816],[101.46569824200002,28.365905762],[101.45428466800001,28.400695801],[101.44110107400002,28.434875488],[101.40728759800001,28.477111816],[101.42047119100002,28.504089355],[101.45867919900002,28.512329102],[101.50012207000002,28.500305176],[101.53472900400001,28.482299805],[101.56848144500002,28.468078613],[101.60351562500001,28.471496582],[101.63153076200001,28.493103027],[101.61712646500001,28.527282715],[101.59411621100001,28.551086426],[101.57928466800001,28.575073242],[101.55212402300002,28.58972168],[101.52087402300002,28.595703125],[101.48950195300002,28.616882324],[101.45129394500002,28.625488281],[101.43988037100002,28.651916504],[101.40710449200002,28.641479492],[101.37231445300002,28.644104004],[101.34088134800001,28.658508301],[101.30151367200001,28.669128418],[101.25408935500002,28.666870117],[101.22210693400001,28.674682617],[101.22607421900001,28.715698242],[101.22552490200002,28.742492676],[101.20788574200002,28.767272949],[101.18408203100002,28.792907715],[101.18292236300002,28.826293945],[101.19848632800002,28.859313965],[101.20727539100001,28.900512695],[101.18707275400001,28.938903809],[101.15692138700001,28.965698242],[101.163085937,28.998474121],[101.16412353500002,29.031921387],[101.15087890600002,29.064880371],[101.12670898400002,29.088317871],[101.13110351600001,29.123291016],[101.11291503900001,29.148498535],[101.08471679700001,29.165527344],[101.02807617200001,29.14251709],[101.00427246100001,29.117675781],[100.97229003900001,29.083679199],[100.94067382800002,29.072509766],[100.93347168000001,29.102294922],[100.91607666000002,29.146728516],[100.87347412100002,29.132507324],[100.83630371100001,29.112121582],[100.79571533200001,29.105102539],[100.777526855,29.068481445],[100.8125,29.057678223],[100.84930419900002,29.036499023],[100.84228515600002,29.007324219],[100.81170654300001,29.002685547],[100.77770996100001,29.02130127],[100.71771240200002,29.033874512],[100.66729736300002,29.027282715],[100.64929199200002,29.002075195],[100.61853027300002,28.966308594],[100.58569335900002,28.954528809],[100.55090332000002,28.969299316],[100.519714355,28.956481934],[100.53332519500002,28.927124023],[100.55072021500001,28.892883301],[100.55828857400002,28.85949707],[100.57568359400001,28.819091797],[100.59027099600002,28.780883789],[100.57611084000001,28.746276855],[100.54071044900002,28.742675781],[100.52252197300001,28.716674805],[100.47991943400001,28.719116211],[100.48571777300002,28.688720703],[100.51910400400001,28.675720215],[100.53192138700001,28.649475098],[100.52368164100001,28.611877441],[100.55389404300001,28.586303711],[100.52807617200001,28.559326172],[100.51409912100002,28.529907227],[100.50830078100002,28.503112793],[100.48510742200001,28.480102539],[100.45989990200002,28.457885742],[100.44171142600001,28.430908203],[100.42388916000002,28.386291504],[100.40649414100001,28.35748291],[100.395507812,28.328918457],[100.42633056600002,28.307678223],[100.42633056600002,28.268127441],[100.39270019500002,28.250305176],[100.37890625000001,28.209472656],[100.38732910200001,28.17767334],[100.41088867200001,28.138671875],[100.42730712900001,28.096923828],[100.44348144500002,28.056884766],[100.44531250000001,28.025878906],[100.41333007800002,28.006896973],[100.36407470700001,28.009887695],[100.32690429700001,27.999328613],[100.29248046900001,27.974487305],[100.25787353500002,27.956115723],[100.21868896500001,27.952880859],[100.20050048800002,27.943908691]]]}}
