{"type":"Feature","id":"bulk-99377448B11772259934255","bbox":[110.12707519500002,19.215087891,110.54772949200002,19.731079102],"properties":{"id":"bulk-99377448B11772259934255","name":"Ding'an County","nameEn":"Ding'an County","fullName":"Ding'an County","level":"city","boundaryRole":"administrative-extent","boundaryQuality":"generalized-source-2020","boundaryYearRepresented":"2020","bounds":[[110.12707519500002,19.215087891],[110.54772949200002,19.731079102]],"center":[110.33740234350002,19.4730834965],"centerMethod":"bounding-box midpoint; camera framing only","license":"CC-BY-3.0-IGO","attribution":"geoBoundaries / HDX, China administrative boundaries (2020)","source":{"provider":"geoBoundaries gbHumanitarian / HDX","url":"https://github.com/wmgeolab/geoBoundaries/raw/9469f09/releaseData/gbHumanitarian/CHN/ADM2/geoBoundaries-CHN-ADM2.geojson","metadataUrl":"https://www.geoboundaries.org/api/current/gbHumanitarian/CHN/ADM2/","shapeID":"99377448B11772259934255","shapeName":"Ding'an County","boundaryID":"CHN-ADM2-99377448","commit":"9469f09"},"geometryCounts":{"coordinates":323,"components":1,"holes":0},"boundaryNotice":"geoBoundaries / HDX 2020 年行政区数据，海岸和边界经过源数据概化，并非当前测绘成果。"},"geometry":{"type":"Polygon","coordinates":[[[110.13232421900001,19.564086914],[110.14172363300001,19.571899414],[110.14410400400001,19.572509766],[110.15148925800001,19.577087402],[110.15527343700002,19.584899902],[110.15789794900002,19.591674805],[110.16271972700001,19.597106934],[110.16888427700002,19.601928711],[110.17547607400002,19.603271484],[110.18249511700002,19.59967041],[110.18872070300002,19.593322754],[110.19232177700002,19.584106445],[110.19287109400001,19.573303223],[110.19250488300001,19.566711426],[110.19427490200002,19.56072998],[110.19390869100002,19.55291748],[110.19470214800002,19.545288086],[110.19531250000001,19.537902832],[110.20269775400001,19.532714844],[110.21270752,19.530700684],[110.21911621100001,19.530090332],[110.22491455100001,19.529296875],[110.22949218700002,19.527526855],[110.23431396500001,19.524475098],[110.23748779300001,19.520874023],[110.24670410200001,19.511291504],[110.25067138700001,19.502075195],[110.25128173800002,19.496520996],[110.24511718700002,19.491516113],[110.23632812500001,19.492126465],[110.23010253900001,19.487915039],[110.22869873000002,19.481506348],[110.22869873000002,19.470275879],[110.22869873000002,19.461486816],[110.22351074200002,19.452514648],[110.21588134800001,19.450683594],[110.20648193400001,19.452087402],[110.19873046900001,19.456115723],[110.18988037100002,19.457702637],[110.18347168000001,19.453491211],[110.17852783200001,19.44708252],[110.17248535200001,19.442077637],[110.16632080100001,19.436279297],[110.16009521500001,19.42791748],[110.15948486300002,19.423278809],[110.15972900400001,19.408691406],[110.15887451200001,19.399902344],[110.15930175800001,19.394470215],[110.15991210900002,19.383117676],[110.163879395,19.368713379],[110.17028808600001,19.358886719],[110.18292236300002,19.356323242],[110.18988037100002,19.357727051],[110.19732666000002,19.355285645],[110.19873046900001,19.346496582],[110.19592285200001,19.341918945],[110.19311523400002,19.337280273],[110.19152832000002,19.328918457],[110.19110107400002,19.323303223],[110.19091796900001,19.31652832],[110.19488525400001,19.312072754],[110.20330810500002,19.312316895],[110.21209716800001,19.315490723],[110.22088623000002,19.316894531],[110.22967529300001,19.31628418],[110.23651123000002,19.311523437],[110.23791503900001,19.301086426],[110.23052978500002,19.292480469],[110.22668457000002,19.289123535],[110.22412109400001,19.282104492],[110.22387695300002,19.270690918],[110.22308349600002,19.260314941],[110.22070312500001,19.25012207],[110.22070312500001,19.247680664],[110.22308349600002,19.234924316],[110.22070312500001,19.223510742],[110.22552490200002,19.222900391],[110.23272705100001,19.224487305],[110.23791503900001,19.225708008],[110.24371337900001,19.224304199],[110.24871826200001,19.220703125],[110.25628662100002,19.215698242],[110.26232910200001,19.215087891],[110.26672363300001,19.216491699],[110.27148437500001,19.219909668],[110.27709960900002,19.222106934],[110.28167724600002,19.22052002],[110.28710937500001,19.217895508],[110.288879395,19.216918945],[110.29608154300001,19.217529297],[110.30529785200001,19.226501465],[110.31152343700002,19.231506348],[110.320129395,19.23248291],[110.32568359400001,19.229919434],[110.32788085900002,19.227111816],[110.33087158200001,19.225280762],[110.33612060500002,19.225524902],[110.34008789100001,19.229919434],[110.34167480500001,19.237304687],[110.34027099600002,19.242675781],[110.33612060500002,19.246887207],[110.33392334000001,19.25189209],[110.33367919900002,19.258300781],[110.33508300800001,19.263671875],[110.33648681600002,19.269104004],[110.33972168000001,19.274902344],[110.34167480500001,19.276123047],[110.34912109400001,19.277526855],[110.35412597700001,19.278686523],[110.35729980500001,19.283081055],[110.35748291000002,19.287719727],[110.35687255900001,19.293884277],[110.35491943400001,19.300292969],[110.35107421900001,19.303100586],[110.34088134800001,19.306518555],[110.33087158200001,19.311889648],[110.32690429700001,19.314880371],[110.32312011700002,19.316894531],[110.32110595700001,19.323913574],[110.32452392600001,19.328308105],[110.32751464800002,19.333129883],[110.32928466800001,19.341308594],[110.32891845700001,19.343322754],[110.33227539100001,19.354675293],[110.33850097700001,19.35949707],[110.34368896500001,19.359680176],[110.35052490200002,19.358886719],[110.35687255900001,19.35949707],[110.35992431600002,19.362487793],[110.36047363300001,19.368286133],[110.36010742200001,19.370483398],[110.35852050800001,19.376281738],[110.35852050800001,19.384094238],[110.36431884800001,19.393493652],[110.36791992200001,19.395690918],[110.37249755900001,19.397277832],[110.37951660200001,19.397705078],[110.38470459000001,19.398071289],[110.38891601600001,19.399902344],[110.39532470700001,19.405700684],[110.39691162100002,19.408874512],[110.40112304700001,19.417480469],[110.40527343700002,19.419677734],[110.40869140600002,19.419494629],[110.41229248000002,19.417297363],[110.41949462900001,19.415100098],[110.42388916000002,19.41809082],[110.42651367200001,19.422912598],[110.42852783200001,19.428527832],[110.43011474600002,19.432495117],[110.43310546900001,19.437316895],[110.4375,19.442077637],[110.43988037100002,19.444702148],[110.44592285200001,19.449279785],[110.45251464800002,19.450927734],[110.45867919900002,19.450073242],[110.47009277300002,19.445922852],[110.47570800800001,19.445922852],[110.48052978500002,19.444885254],[110.48449707000002,19.44708252],[110.48730468700002,19.449890137],[110.488098145,19.454528809],[110.48907470700001,19.458496094],[110.49389648400002,19.465698242],[110.50048828100002,19.470275879],[110.50469970700001,19.470703125],[110.51391601600001,19.469299316],[110.52368164100001,19.465881348],[110.53167724600002,19.468505859],[110.54211425800001,19.470275879],[110.54608154300001,19.473693848],[110.54711914100001,19.477478027],[110.54772949200002,19.484130859],[110.54711914100001,19.488708496],[110.54412841800001,19.492492676],[110.53930664100001,19.497314453],[110.53570556600002,19.49987793],[110.52532959000001,19.506713867],[110.51629638700001,19.511901855],[110.50988769500002,19.51348877],[110.503723145,19.51348877],[110.49829101600001,19.511474609],[110.48968505900001,19.507873535],[110.48150634800001,19.504089355],[110.47827148400002,19.50390625],[110.47448730500001,19.504089355],[110.47131347700001,19.50567627],[110.46868896500001,19.508483887],[110.46710205100001,19.512695312],[110.46667480500001,19.518676758],[110.46527099600002,19.527282715],[110.46551513700001,19.533081055],[110.46752929700001,19.535705566],[110.47052002,19.538330078],[110.47711181600002,19.541503906],[110.48309326200001,19.546325684],[110.48529052700002,19.549072266],[110.48791503900001,19.553527832],[110.49267578100002,19.556884766],[110.49810791000002,19.559082031],[110.50549316400001,19.56072998],[110.51092529300001,19.561096191],[110.51708984400001,19.561279297],[110.52008056600002,19.562072754],[110.52331543000001,19.565673828],[110.51788330100001,19.569702148],[110.51531982400002,19.573303223],[110.51171875000001,19.577087402],[110.50811767600001,19.581726074],[110.50408935500002,19.584716797],[110.49969482400002,19.587524414],[110.49468994100002,19.589294434],[110.48828125000001,19.591918945],[110.48388671900001,19.590087891],[110.47387695300002,19.585083008],[110.46752929700001,19.586486816],[110.45849609400001,19.589294434],[110.45208740200002,19.589111328],[110.44848632800002,19.586120605],[110.44451904300001,19.581481934],[110.43707275400001,19.579101562],[110.43011474600002,19.579284668],[110.42791748000002,19.57989502],[110.421691895,19.583496094],[110.41668701200001,19.591491699],[110.41668701200001,19.596496582],[110.41711425800001,19.602111816],[110.41632080100001,19.608886719],[110.413879395,19.614074707],[110.41168212900001,19.614074707],[110.40472412100002,19.613525391],[110.39611816400001,19.610900879],[110.39050293000001,19.609924316],[110.38610839800002,19.62109375],[110.38348388700001,19.631103516],[110.37988281200002,19.633483887],[110.37811279300001,19.643310547],[110.37408447300001,19.646728516],[110.37188720700001,19.652709961],[110.37152099600002,19.657104492],[110.37231445300002,19.661682129],[110.37249755900001,19.666870117],[110.37152099600002,19.676696777],[110.37011718700002,19.682678223],[110.37829589800002,19.690673828],[110.37908935500002,19.69708252],[110.37768554700001,19.703918457],[110.37792968700002,19.709899902],[110.38153076200001,19.715515137],[110.38488769500002,19.717895508],[110.38427734400001,19.719299316],[110.37988281200002,19.722106934],[110.38067627,19.727722168],[110.37908935500002,19.731079102],[110.37451171900001,19.727478027],[110.37469482400002,19.724304199],[110.37347412100002,19.72052002],[110.36889648400002,19.718505859],[110.36352539100001,19.718688965],[110.36047363300001,19.719726562],[110.35552978500002,19.71887207],[110.35009765600002,19.718322754],[110.34307861300002,19.718505859],[110.33349609400001,19.721130371],[110.32867431600002,19.719726562],[110.32391357400002,19.719299316],[110.31927490200002,19.716674805],[110.31768798800002,19.713500977],[110.31567382800002,19.70892334],[110.30908203100002,19.704284668],[110.30487060500002,19.703918457],[110.29992675800001,19.702880859],[110.29510498000002,19.703674316],[110.28607177700002,19.704528809],[110.28472900400001,19.705688477],[110.28009033200001,19.704101562],[110.27508544900002,19.704284668],[110.26568603500002,19.701904297],[110.26031494100002,19.696289062],[110.25408935500002,19.692687988],[110.25207519500002,19.689697266],[110.25048828100002,19.686523437],[110.24847412100002,19.681884766],[110.24572753900001,19.678283691],[110.24047851600001,19.672912598],[110.23468017600001,19.664916992],[110.23187255900001,19.658691406],[110.23168945300002,19.656494141],[110.22949218700002,19.651123047],[110.22412109400001,19.65032959],[110.21972656200002,19.647705078],[110.21649169900002,19.638916016],[110.21368408200001,19.632080078],[110.20928955100001,19.626281738],[110.203125,19.62487793],[110.19830322300001,19.631896973],[110.19207763700001,19.635314941],[110.18188476600001,19.634277344],[110.17431640600002,19.63470459],[110.16809082000002,19.638671875],[110.16290283200001,19.646118164],[110.16467285200001,19.654907227],[110.16748046900001,19.665893555],[110.16308593700002,19.669921875],[110.15649414100001,19.673278809],[110.14770507800002,19.670288086],[110.14410400400001,19.665527344],[110.14349365200002,19.66027832],[110.13952636700002,19.654907227],[110.13488769500002,19.653686523],[110.13031005900001,19.653320312],[110.12707519500002,19.649719238],[110.13049316400001,19.638305664],[110.13568115200002,19.627929687],[110.14007568400001,19.618713379],[110.13848877,19.608886719],[110.13409423800002,19.604309082],[110.13012695300002,19.597900391],[110.12829589800002,19.590270996],[110.13067627,19.579284668],[110.13110351600001,19.574523926],[110.13153076200001,19.569885254],[110.13232421900001,19.564086914]]]}}
