{"type":"Feature","id":"bulk-99377448B68120250453442","bbox":[109.25592041000002,18.619689941,109.74389648400002,19.046325684],"properties":{"id":"bulk-99377448B68120250453442","name":"Wuzhishan City","nameEn":"Wuzhishan City","fullName":"Wuzhishan City","level":"city","boundaryRole":"administrative-extent","boundaryQuality":"generalized-source-2020","boundaryYearRepresented":"2020","bounds":[[109.25592041000002,18.619689941],[109.74389648400002,19.046325684]],"center":[109.49990844700002,18.8330078125],"centerMethod":"bounding-box midpoint; camera framing only","license":"CC-BY-3.0-IGO","attribution":"geoBoundaries / HDX, China administrative boundaries (2020)","source":{"provider":"geoBoundaries gbHumanitarian / HDX","url":"https://github.com/wmgeolab/geoBoundaries/raw/9469f09/releaseData/gbHumanitarian/CHN/ADM2/geoBoundaries-CHN-ADM2.geojson","metadataUrl":"https://www.geoboundaries.org/api/current/gbHumanitarian/CHN/ADM2/","shapeID":"99377448B68120250453442","shapeName":"Wuzhishan City","boundaryID":"CHN-ADM2-99377448","commit":"9469f09"},"geometryCounts":{"coordinates":134,"components":1,"holes":0},"boundaryNotice":"geoBoundaries / HDX 2020 年行政区数据，海岸和边界经过源数据概化，并非当前测绘成果。"},"geometry":{"type":"Polygon","coordinates":[[[109.28948974600002,18.959106445],[109.28771972700001,18.950500488],[109.28607177700002,18.946716309],[109.28308105500001,18.946105957],[109.27893066400001,18.942077637],[109.27209472700001,18.936706543],[109.26507568400001,18.92767334],[109.25952148400002,18.92010498],[109.25927734400001,18.909118652],[109.25592041000002,18.903686523],[109.27429199200002,18.907287598],[109.28930664100001,18.910705566],[109.30651855500001,18.910095215],[109.31927490200002,18.907897949],[109.33032226600001,18.903076172],[109.33789062500001,18.893676758],[109.34051513700001,18.88470459],[109.34667968700002,18.873901367],[109.35412597700001,18.863708496],[109.363098145,18.84588623],[109.36572265600002,18.828125],[109.36169433600001,18.804321289],[109.35552978500002,18.783081055],[109.34948730500001,18.777099609],[109.34808349600002,18.77331543],[109.34649658200001,18.767272949],[109.34552002,18.764282227],[109.34710693400001,18.760681152],[109.35009765600002,18.755310059],[109.34991455100001,18.751098633],[109.34948730500001,18.745910645],[109.35052490200002,18.741088867],[109.35168457000002,18.736083984],[109.35192871100001,18.732299805],[109.35089111300002,18.728515625],[109.35009765600002,18.723876953],[109.35089111300002,18.717712402],[109.35150146500001,18.714477539],[109.35449218700002,18.706115723],[109.35809326200001,18.700317383],[109.35968017600001,18.697875977],[109.36450195300002,18.691894531],[109.36889648400002,18.687072754],[109.37188720700001,18.684326172],[109.37890625000001,18.679504395],[109.39093017600001,18.67010498],[109.39367675800001,18.664306641],[109.39367675800001,18.66027832],[109.39428710900002,18.656494141],[109.39392089800002,18.653686523],[109.39331054700001,18.649108887],[109.39312744100002,18.64251709],[109.39367675800001,18.637512207],[109.39630127,18.631530762],[109.39770507800002,18.627075195],[109.39727783200001,18.619689941],[109.54632568400001,18.695678711],[109.57849121100001,18.760925293],[109.61730957000002,18.78112793],[109.70788574200002,18.825683594],[109.71307373000002,18.837097168],[109.71447753900001,18.850708008],[109.71112060500002,18.879882812],[109.70709228500002,18.889526367],[109.70568847700001,18.899108887],[109.70849609400001,18.90447998],[109.71447753900001,18.908691406],[109.730285645,18.914123535],[109.74249267600001,18.919677734],[109.74389648400002,18.925720215],[109.73907470700001,18.929077148],[109.73370361300002,18.930480957],[109.70568847700001,18.928527832],[109.69207763700001,18.922912598],[109.67150878900001,18.922302246],[109.65850830100001,18.920898437],[109.64770507800002,18.922302246],[109.63531494100002,18.921691895],[109.62908935500002,18.919677734],[109.61547851600001,18.914123535],[109.60949707000002,18.910705566],[109.60192871100001,18.909301758],[109.59368896500001,18.914672852],[109.58489990200002,18.92767334],[109.56909179700001,18.942077637],[109.54187011700002,18.963928223],[109.53228759800001,18.979675293],[109.53167724600002,18.991271973],[109.52947998000002,19.002075195],[109.52691650400001,19.010314941],[109.52691650400001,19.015686035],[109.53228759800001,19.02130127],[109.53710937500001,19.028686523],[109.53710937500001,19.046325684],[109.53112793000001,19.038513184],[109.52490234400001,19.033874512],[109.51751709000001,19.031494141],[109.51068115200002,19.030090332],[109.50152587900001,19.030090332],[109.49432373000002,19.031677246],[109.48468017600001,19.029907227],[109.47631835900002,19.028320312],[109.47308349600002,19.030883789],[109.46850585900002,19.033508301],[109.46173095700001,19.032897949],[109.45947265600002,19.025085449],[109.46008300800001,19.015319824],[109.45727539100001,19.006103516],[109.45288085900002,18.99810791],[109.44628906200002,18.992126465],[109.43847656200002,18.991088867],[109.42108154300001,18.989074707],[109.41467285200001,18.986083984],[109.40991210900002,18.976501465],[109.39788818400001,18.95892334],[109.39489746100001,18.958496094],[109.39068603500002,18.957275391],[109.38592529300001,18.954711914],[109.38232421900001,18.952270508],[109.37371826200001,18.945922852],[109.36651611300002,18.940673828],[109.36291503900001,18.937683105],[109.35772705100001,18.937072754],[109.35388183600001,18.93927002],[109.35168457000002,18.94152832],[109.34771728500002,18.944885254],[109.33990478500002,18.948730469],[109.33392334000001,18.949707031],[109.32391357400002,18.951477051],[109.31750488300001,18.953125],[109.312316895,18.95489502],[109.30627441400001,18.958129883],[109.29791259800001,18.960327148],[109.28948974600002,18.959106445]]]}}
