{"type":"Feature","id":"bulk-99377448B57850105160121","bbox":[104.02087402300002,32.587097168,106.60308837900001,34.553710937],"properties":{"id":"bulk-99377448B57850105160121","name":"Longnan","nameEn":"Longnan","fullName":"Longnan","level":"city","boundaryRole":"administrative-extent","boundaryQuality":"generalized-source-2020","boundaryYearRepresented":"2020","bounds":[[104.02087402300002,32.587097168],[106.60308837900001,34.553710937]],"center":[105.31198120100001,33.570404052499995],"centerMethod":"bounding-box midpoint; camera framing only","license":"CC-BY-3.0-IGO","attribution":"geoBoundaries / HDX, China administrative boundaries (2020)","source":{"provider":"geoBoundaries gbHumanitarian / HDX","url":"https://github.com/wmgeolab/geoBoundaries/raw/9469f09/releaseData/gbHumanitarian/CHN/ADM2/geoBoundaries-CHN-ADM2.geojson","metadataUrl":"https://www.geoboundaries.org/api/current/gbHumanitarian/CHN/ADM2/","shapeID":"99377448B57850105160121","shapeName":"Longnan","boundaryID":"CHN-ADM2-99377448","commit":"9469f09"},"geometryCounts":{"coordinates":229,"components":1,"holes":0},"boundaryNotice":"geoBoundaries / HDX 2020 年行政区数据，海岸和边界经过源数据概化，并非当前测绘成果。"},"geometry":{"type":"Polygon","coordinates":[[[105.50427246100001,32.903930664],[105.58148193400001,32.876525879],[105.62847900400001,32.870300293],[105.65588378900001,32.876098633],[105.72308349600002,32.89050293],[105.83312988300001,32.923522949],[105.87847900400001,32.930480957],[105.93811035200001,32.996276855],[105.94787597700001,33.057922363],[105.94329834000001,33.149291992],[105.94952392600001,33.163085937],[105.96228027300002,33.168884277],[105.99530029300001,33.159301758],[106.01367187500001,33.178527832],[105.99969482400002,33.19909668],[105.95208740200002,33.239929199],[105.85748291000002,33.247314453],[105.79107666000002,33.274108887],[105.77130127,33.312072754],[105.74450683600001,33.366088867],[105.80407714800002,33.374511719],[105.85607910200001,33.404724121],[105.85192871100001,33.462280273],[105.87170410200001,33.503723145],[105.88891601600001,33.525085449],[105.91992187500001,33.553283691],[105.96051025400001,33.589111328],[106.04010009800001,33.613098145],[106.13311767600001,33.591125488],[106.16247558600001,33.548522949],[106.23907470700001,33.56628418],[106.29327392600001,33.591674805],[106.34271240200002,33.585083008],[106.37188720700001,33.591308594],[106.40270996100001,33.614318848],[106.40570068400001,33.61529541],[106.42687988300001,33.606079102],[106.44207763700001,33.540100098],[106.47729492200001,33.529724121],[106.50549316400001,33.52130127],[106.52209472700001,33.513671875],[106.54150390600002,33.516906738],[106.55072021500001,33.533081055],[106.56268310500002,33.554504395],[106.56689453100002,33.577697754],[106.57287597700001,33.620910645],[106.55090332000002,33.678283691],[106.48767089800002,33.703125],[106.46832275400001,33.771118164],[106.47448730500001,33.853271484],[106.45751953100002,33.865905762],[106.44030761700002,33.881286621],[106.43890380900001,33.915710449],[106.44750976600001,33.942321777],[106.44232177700002,33.981689453],[106.45269775400001,34.042907715],[106.51550293000001,34.107910156],[106.55169677700002,34.108886719],[106.59088134800001,34.11529541],[106.60308837900001,34.134277344],[106.59228515600002,34.155090332],[106.55792236300002,34.191101074],[106.50708007800002,34.22052002],[106.48870849600002,34.181884766],[106.47009277300002,34.149291992],[106.44812011700002,34.124084473],[106.39849853500002,34.105285645],[106.33349609400001,34.103088379],[106.32189941400001,34.140319824],[106.34252929700001,34.180725098],[106.33648681600002,34.207275391],[106.31469726600001,34.240722656],[106.28771972700001,34.22088623],[106.26092529300001,34.192871094],[106.24389648400002,34.169921875],[106.19567871100001,34.118530273],[106.16027832000002,34.126098633],[106.12231445300002,34.133728027],[106.08972168000001,34.142883301],[106.04431152300002,34.163085937],[106.00292968700002,34.162109375],[105.95629882800002,34.149108887],[105.91827392600001,34.13092041],[105.88128662100002,34.132873535],[105.83770752,34.144714355],[105.79528808600001,34.142883301],[105.76593017600001,34.156677246],[105.72570800800001,34.160888672],[105.69171142600001,34.14050293],[105.65789794900002,34.106323242],[105.63287353500002,34.082702637],[105.59613037100002,34.10748291],[105.55712890600002,34.106689453],[105.55932617200001,34.144470215],[105.55609130900001,34.178894043],[105.55407714800002,34.205871582],[105.55291748000002,34.254882812],[105.56512451200001,34.283081055],[105.59252929700001,34.303894043],[105.58428955100001,34.335510254],[105.56091308600001,34.354919434],[105.50250244100002,34.377319336],[105.46112060500002,34.403503418],[105.41809082000002,34.43572998],[105.36651611300002,34.442077637],[105.34350585900002,34.463500977],[105.32751464800002,34.496704102],[105.29949951200001,34.514709473],[105.23413085900002,34.54107666],[105.16571044900002,34.553710937],[105.16650390600002,34.517883301],[105.13427734400001,34.483886719],[105.10668945300002,34.459899902],[105.07708740200002,34.441101074],[105.04589843700002,34.423706055],[105.01593017600001,34.398071289],[104.98651123000002,34.380310059],[104.94787597700001,34.376708984],[104.90649414100001,34.37109375],[104.85931396500001,34.35748291],[104.85772705100001,34.327697754],[104.85229492200001,34.299682617],[104.83392334000001,34.259094238],[104.80230712900001,34.23828125],[104.75390625000001,34.233520508],[104.71069335900002,34.238891602],[104.68127441400001,34.223693848],[104.63708496100001,34.221679687],[104.60327148400002,34.209716797],[104.56909179700001,34.204101562],[104.51507568400001,34.206726074],[104.48107910200001,34.213928223],[104.45190429700001,34.234130859],[104.42871093700002,34.274475098],[104.41369628900001,34.31652832],[104.37750244100002,34.325500488],[104.35052490200002,34.343688965],[104.30090332000002,34.358886719],[104.26330566400001,34.35369873],[104.23468017600001,34.371887207],[104.20092773400002,34.37310791],[104.17108154300001,34.347717285],[104.14428710900002,34.31048584],[104.15527343700002,34.272705078],[104.17132568400001,34.237121582],[104.187316895,34.20489502],[104.15332031200002,34.193725586],[104.12030029300001,34.194274902],[104.09210205100001,34.17590332],[104.06750488300001,34.156677246],[104.02087402300002,34.143310547],[104.04290771500001,34.094726562],[104.04852294900002,34.05847168],[104.05828857400002,34.015686035],[104.12652587900001,33.979919434],[104.17791748000002,33.953308105],[104.22210693400001,33.930297852],[104.27227783200001,33.903686523],[104.31311035200001,33.882507324],[104.34930419900002,33.865722656],[104.39947509800001,33.840515137],[104.43328857400002,33.808105469],[104.45227050800001,33.777282715],[104.48968505900001,33.759887695],[104.52349853500002,33.743530273],[104.51452636700002,33.709899902],[104.503723145,33.684509277],[104.51910400400001,33.640319824],[104.53808593700002,33.605285645],[104.56628418000001,33.56072998],[104.57208252,33.520507812],[104.60748291000002,33.503479004],[104.64367675800001,33.483886719],[104.67327880900001,33.458679199],[104.70227050800001,33.430297852],[104.71667480500001,33.40612793],[104.72491455100001,33.379699707],[104.74267578100002,33.338684082],[104.72192382800002,33.298278809],[104.67309570300002,33.289672852],[104.65209960900002,33.256896973],[104.63470459000001,33.227111816],[104.60009765600002,33.221130371],[104.56091308600001,33.235107422],[104.52630615200002,33.245483398],[104.51031494100002,33.261474609],[104.50268554700001,33.275878906],[104.48651123000002,33.292480469],[104.46411132800002,33.303283691],[104.43627929700001,33.312072754],[104.42150878900001,33.289306641],[104.34448242200001,33.297912598],[104.32128906200002,33.284729004],[104.35571289100001,33.184082031],[104.38391113300001,33.109130859],[104.35467529300001,33.058898926],[104.370910645,33.045288086],[104.41467285200001,33.026916504],[104.42492675800001,32.989074707],[104.39147949200002,32.939697266],[104.36529541000002,32.955322266],[104.28729248000002,32.907287598],[104.29248046900001,32.892272949],[104.31311035200001,32.83392334],[104.41333007800002,32.782470703],[104.48748779300001,32.743286133],[104.58508300800001,32.726318359],[104.62792968700002,32.704101562],[104.65631103500002,32.676879883],[104.67407226600001,32.67590332],[104.74310302700002,32.633483887],[104.85150146500001,32.647094727],[104.92352294900002,32.587097168],[105.04571533200001,32.640930176],[105.05749511700002,32.624511719],[105.10870361300002,32.603515625],[105.20050048800002,32.651916504],[105.27227783200001,32.638671875],[105.29809570300002,32.639709473],[105.35687255900001,32.684326172],[105.45050048800002,32.743530273],[105.46868896500001,32.762695312],[105.43249511700002,32.774475098],[105.41632080100001,32.773925781],[105.40191650400001,32.837280273],[105.40289306600002,32.850524902],[105.43347168000001,32.903076172],[105.49291992200001,32.907897949],[105.50427246100001,32.903930664]]]}}
