{"type":"Feature","id":"bulk-99377448B39955777317808","bbox":[101.61468505900001,35.418884277,103.02990722700001,37.155273437],"properties":{"id":"bulk-99377448B39955777317808","name":"Haidong","nameEn":"Haidong","fullName":"Haidong","level":"city","boundaryRole":"administrative-extent","boundaryQuality":"generalized-source-2020","boundaryYearRepresented":"2020","bounds":[[101.61468505900001,35.418884277],[103.02990722700001,37.155273437]],"center":[102.32229614300002,36.287078857],"centerMethod":"bounding-box midpoint; camera framing only","license":"CC-BY-3.0-IGO","attribution":"geoBoundaries / HDX, China administrative boundaries (2020)","source":{"provider":"geoBoundaries gbHumanitarian / HDX","url":"https://github.com/wmgeolab/geoBoundaries/raw/9469f09/releaseData/gbHumanitarian/CHN/ADM2/geoBoundaries-CHN-ADM2.geojson","metadataUrl":"https://www.geoboundaries.org/api/current/gbHumanitarian/CHN/ADM2/","shapeID":"99377448B39955777317808","shapeName":"Haidong","boundaryID":"CHN-ADM2-99377448","commit":"9469f09"},"geometryCounts":{"coordinates":148,"components":1,"holes":0},"boundaryNotice":"geoBoundaries / HDX 2020 年行政区数据，海岸和边界经过源数据概化，并非当前测绘成果。"},"geometry":{"type":"Polygon","coordinates":[[[102.71508789100001,35.514099121],[102.75109863300001,35.545288086],[102.74890136700002,35.583496094],[102.74768066400001,35.60369873],[102.73828125000001,35.734680176],[102.70330810500002,35.801696777],[102.70751953100002,35.819519043],[102.72369384800001,35.81427002],[102.74353027300002,35.812316895],[102.77349853500002,35.826293945],[102.81072998000002,35.846923828],[102.82952880900001,35.857299805],[102.84429931600002,35.860290527],[102.89611816400001,35.857910156],[102.93548584000001,35.857116699],[102.95367431600002,35.870483398],[102.95489502,35.901306152],[102.93969726600001,36.023681641],[102.93811035200001,36.041870117],[102.91210937500001,36.06829834],[102.89031982400002,36.091674805],[102.89251709000001,36.110290527],[102.91510009800001,36.120727539],[102.9375,36.134277344],[102.95147705100001,36.153686523],[102.96911621100001,36.176086426],[102.99432373000002,36.202087402],[103.02990722700001,36.227722168],[103.00329589800002,36.233520508],[102.95349121100001,36.261474609],[102.93609619100002,36.278930664],[102.90032959000001,36.323303223],[102.88391113300001,36.331481934],[102.86791992200001,36.333679199],[102.85211181600002,36.332885742],[102.83331298800002,36.365722656],[102.79809570300002,36.403686523],[102.75671386700002,36.444885254],[102.75012207000002,36.493286133],[102.72772216800001,36.562927246],[102.69091796900001,36.616271973],[102.64788818400001,36.650695801],[102.60668945300002,36.666870117],[102.59771728500002,36.678710937],[102.61108398400002,36.704101562],[102.64727783200001,36.738708496],[102.69171142600001,36.77331543],[102.69848632800002,36.786071777],[102.68048095700001,36.80670166],[102.67669677700002,36.846496582],[102.65911865200002,36.863891602],[102.62628173800002,36.874328613],[102.60150146500001,36.885314941],[102.58288574200002,36.91192627],[102.56469726600001,36.93548584],[102.53192138700001,36.945922852],[102.49847412100002,36.962280273],[102.49688720700001,36.977722168],[102.51647949200002,37.021911621],[102.51489257800002,37.03729248],[102.49688720700001,37.057678223],[102.49572753900001,37.070129395],[102.51049804700001,37.083129883],[102.56427002,37.108703613],[102.43151855500001,37.104309082],[102.38189697300001,37.098083496],[102.33068847700001,37.091674805],[102.28332519500002,37.076904297],[102.24792480500001,37.06652832],[102.20111084000001,37.054504395],[102.12249755900001,37.045288086],[102.07067871100001,37.050292969],[102.04010009800001,37.073913574],[102.00427246100001,37.096496582],[101.95648193400001,37.13067627],[101.90728759800001,37.155273437],[101.905273437,37.09387207],[101.88452148400002,37.050476074],[101.86169433600001,37.003295898],[101.84051513700001,36.957092285],[101.83929443400001,36.914489746],[101.84167480500001,36.873291016],[101.84149169900002,36.83392334],[101.83111572300001,36.807312012],[101.81970214800002,36.780273437],[101.81329345700001,36.745300293],[101.8125,36.712280273],[101.81512451200001,36.672485352],[101.83612060500002,36.645690918],[101.87432861300002,36.627502441],[101.91088867200001,36.613708496],[101.93548584000001,36.584289551],[101.93890380900001,36.556884766],[101.91491699200002,36.531311035],[101.90911865200002,36.487121582],[101.90112304700001,36.459289551],[101.88372802700002,36.4296875],[101.86767578100002,36.404296875],[101.85668945300002,36.378295898],[101.84790039100001,36.345275879],[101.81787109400001,36.308288574],[101.77288818400001,36.291687012],[101.72570800800001,36.286682129],[101.68011474600002,36.280273437],[101.61468505900001,36.275878906],[101.63647460900002,36.245117187],[101.64471435500002,36.213317871],[101.64367675800001,36.177490234],[101.64508056600002,36.147705078],[101.70489502,36.162109375],[101.75030517600001,36.146484375],[101.79772949200002,36.149475098],[101.81109619100002,36.134887695],[101.83087158200001,36.098876953],[101.89587402300002,36.121520996],[101.90289306600002,36.094116211],[101.93792724600002,36.062072754],[101.97491455100001,36.04888916],[101.95391845700001,36.022705078],[101.94830322300001,36.000671387],[101.96112060500002,35.992126465],[102.03247070300002,35.990478516],[102.05352783200001,35.979309082],[102.06732177700002,35.883911133],[102.08270263700001,35.850708008],[102.09991455100001,35.836303711],[102.07110595700001,35.78729248],[102.05468750000001,35.752319336],[102.05908203100002,35.723510742],[102.08929443400001,35.707702637],[102.11828613300001,35.72467041],[102.15252685500002,35.736083984],[102.18487548800002,35.719726562],[102.20507812500001,35.69152832],[102.22772216800001,35.670288086],[102.25970459000001,35.641723633],[102.29028320300002,35.625305176],[102.32672119100002,35.610900879],[102.36828613300001,35.590270996],[102.39630127,35.560119629],[102.40850830100001,35.531677246],[102.40667724600002,35.502319336],[102.43908691400001,35.419494629],[102.44390869100002,35.418884277],[102.51251220700001,35.52331543],[102.58929443400001,35.531494141],[102.71350097700001,35.512878418],[102.71508789100001,35.514099121]]]}}
