{"type":"Feature","id":"bulk-99377448B70177138254095","bbox":[92.78869628900001,38.340087891,100.26867675800001,42.793518066],"properties":{"id":"bulk-99377448B70177138254095","name":"Jiuquan","nameEn":"Jiuquan","fullName":"Jiuquan","level":"city","boundaryRole":"administrative-extent","boundaryQuality":"generalized-source-2020","boundaryYearRepresented":"2020","bounds":[[92.78869628900001,38.340087891],[100.26867675800001,42.793518066]],"center":[96.52868652350001,40.5668029785],"centerMethod":"bounding-box midpoint; camera framing only","license":"CC-BY-3.0-IGO","attribution":"geoBoundaries / HDX, China administrative boundaries (2020)","source":{"provider":"geoBoundaries gbHumanitarian / HDX","url":"https://github.com/wmgeolab/geoBoundaries/raw/9469f09/releaseData/gbHumanitarian/CHN/ADM2/geoBoundaries-CHN-ADM2.geojson","metadataUrl":"https://www.geoboundaries.org/api/current/gbHumanitarian/CHN/ADM2/","shapeID":"99377448B70177138254095","shapeName":"Jiuquan","boundaryID":"CHN-ADM2-99377448","commit":"9469f09"},"geometryCounts":{"coordinates":328,"components":1,"holes":0},"boundaryNotice":"geoBoundaries / HDX 2020 年行政区数据，海岸和边界经过源数据概化，并非当前测绘成果。"},"geometry":{"type":"Polygon","coordinates":[[[97.17150878900001,42.793518066],[97.13049316400001,42.786071777],[97.09967041000002,42.778503418],[97.02191162100002,42.761901855],[96.97290039100001,42.752502441],[96.84069824200002,42.754882812],[96.778320312,42.749694824],[96.69311523400002,42.74407959],[96.58367919900002,42.733093262],[96.44390869100002,42.722473145],[96.39569091800001,42.718505859],[96.347473145,42.715881348],[96.28747558600001,42.68572998],[96.21667480500001,42.658874512],[96.10607910200001,42.631530762],[96.04089355500001,42.602478027],[96.05267334000001,42.486083984],[96.07373046900001,42.37890625],[96.086120605,42.30291748],[96.08508300800001,42.239074707],[96.07409668000001,42.142883301],[96.05590820300002,42.078308105],[96.05749511700002,42.006713867],[96.104492187,41.987304687],[96.086914062,41.963928223],[95.92028808600001,41.832092285],[95.79907226600001,41.834716797],[95.70947265600002,41.83972168],[95.59832763700001,41.848510742],[95.59307861300002,41.848876953],[95.53607177700002,41.850097656],[95.39129638700001,41.792297363],[95.280273437,41.792907715],[95.203125,41.784484863],[94.96331787100002,41.711486816],[94.88989257800002,41.686279297],[94.83111572300001,41.66192627],[94.78350830100001,41.642089844],[94.68548584000001,41.582519531],[94.621276855,41.555480957],[94.51251220700001,41.438903809],[94.444702148,41.371887207],[94.37188720700001,41.340087891],[94.20391845700001,41.206481934],[94.11108398400002,41.144287109],[94.02947998,41.087890625],[93.954101562,41.030517578],[93.944702148,40.979919434],[93.87628173800002,40.892700195],[93.82952880900001,40.856506348],[93.82550048800002,40.846923828],[93.81848144500002,40.835083008],[93.80969238300001,40.819885254],[93.76470947300001,40.721923828],[93.655273437,40.608093262],[93.57470703100002,40.566711426],[93.46508789100001,40.503723145],[93.362304687,40.470275879],[93.05889892600001,40.50012207],[92.90008544900002,40.50970459],[92.89068603500002,40.503112793],[92.89172363300001,40.46270752],[92.89727783200001,40.25390625],[92.95092773400002,40.179870605],[92.90191650400001,40.069274902],[92.78869628900001,39.935119629],[92.79528808600001,39.830688477],[92.81628418000001,39.695129395],[92.81951904300001,39.58392334],[92.85467529300001,39.523925781],[92.85571289100001,39.522277832],[92.885314941,39.508117676],[92.93127441400001,39.46472168],[92.97149658200001,39.389892578],[92.92767334000001,39.284484863],[92.92431640600002,39.172912598],[93.01287841800001,39.128479004],[93.043518066,39.166503906],[93.06750488300001,39.181274414],[93.11328125000001,39.158508301],[93.15710449200002,39.181091309],[93.203125,39.178100586],[93.29187011700002,39.185913086],[93.32788085900002,39.211120605],[93.36108398400002,39.196472168],[93.44207763700001,39.229125977],[93.453674316,39.272888184],[93.46392822300001,39.29107666],[93.62432861300002,39.273498535],[93.69171142600001,39.271118164],[93.80511474600002,39.276306152],[93.85430908200001,39.269714355],[93.99847412100002,39.271118164],[94.05767822300001,39.272094727],[94.08569335900002,39.280883789],[94.12371826200001,39.276489258],[94.13012695300002,39.307678223],[94.20672607400002,39.339477539],[94.304077148,39.319702148],[94.40270996100001,39.304504395],[94.44128418000001,39.30291748],[94.52490234400001,39.308288574],[94.59112548800002,39.305297852],[94.60772705100001,39.297119141],[94.63092041000002,39.285705566],[94.65509033200001,39.260681152],[94.69232177700002,39.24810791],[94.76947021500001,39.23828125],[94.81768798800002,39.234924316],[94.86090087900001,39.239929199],[94.89752197300001,39.252075195],[95.00311279300001,39.219482422],[95.02569580100001,39.213928223],[95.04827880900001,39.201293945],[95.11090087900001,39.180725098],[95.21789550800001,39.204284668],[95.26147460900002,39.218322754],[95.27111816400001,39.218505859],[95.34692382800002,39.130310059],[95.41247558600001,39.080322266],[95.48632812500001,39.049072266],[95.49871826200001,39.028076172],[95.54992675800001,39.015930176],[95.61468505900001,38.999694824],[95.67651367200001,38.925109863],[95.69671630900001,38.881713867],[95.72991943400001,38.845092773],[95.77227783200001,38.851501465],[95.87268066400001,38.809509277],[95.90667724600002,38.779296875],[95.99291992200001,38.754516602],[96.04327392600001,38.707275391],[96.16271972700001,38.628479004],[96.24652099600002,38.616088867],[96.261901855,38.616699219],[96.30511474600002,38.617919922],[96.36950683600001,38.581726074],[96.52893066400001,38.533874512],[96.52288818400001,38.517272949],[96.52490234400001,38.483276367],[96.53729248,38.459899902],[96.58508300800001,38.421508789],[96.63549804700001,38.414123535],[96.67468261700002,38.399475098],[96.712280273,38.372497559],[96.76171875000001,38.346496582],[96.81988525400001,38.340087891],[96.90112304700001,38.342102051],[96.97631835900002,38.355712891],[96.99108886700002,38.363525391],[96.99389648400002,38.394714355],[96.98712158200001,38.434326172],[96.98748779300001,38.508117676],[97.00128173800002,38.5703125],[96.96411132800002,38.629089355],[96.95147705100001,38.673278809],[97.00012207000002,38.712097168],[96.97070312500001,38.779724121],[96.995483398,38.87310791],[97.00567627,38.916870117],[96.99908447300001,38.967285156],[97.00891113300001,39.012878418],[96.929870605,39.084472656],[96.96392822300001,39.127075195],[96.987304687,39.18927002],[97.14630127,39.230712891],[97.18231201200001,39.221130371],[97.345092773,39.17767334],[97.38067627,39.154724121],[97.38092041000002,39.158691406],[97.40850830100001,39.1875],[97.44189453100002,39.206298828],[97.48291015600002,39.22052002],[97.52587890600002,39.219482422],[97.56512451200001,39.220703125],[97.60913085900002,39.230102539],[97.63250732400002,39.252319336],[97.61108398400002,39.279724121],[97.57189941400001,39.292480469],[97.54089355500001,39.307495117],[97.52410888700001,39.33190918],[97.52691650400001,39.370483398],[97.53350830100001,39.405700684],[97.51208496100001,39.434082031],[97.47192382800002,39.438720703],[97.45928955100001,39.465515137],[97.47869873,39.488708496],[97.51208496100001,39.519287109],[97.52807617200001,39.547302246],[97.50872802700002,39.603881836],[97.54449462900001,39.608520508],[97.58172607400002,39.622314453],[97.59588623,39.652099609],[97.62689209000001,39.670898437],[97.67828369100002,39.674682617],[97.75708007800002,39.655517578],[97.79388427700002,39.639526367],[97.84149169900002,39.654724121],[97.88708496100001,39.666503906],[97.91748046900001,39.686279297],[97.936523437,39.712097168],[97.95452880900001,39.745483398],[97.96771240200002,39.780700684],[97.97387695300002,39.823913574],[97.99127197300001,39.858276367],[98.00708007800002,39.891906738],[98.02008056600002,39.917480469],[98.036499023,39.945678711],[98.04968261700002,39.976074219],[98.06512451200001,40.008483887],[98.08972168000001,40.042114258],[98.12152099600002,40.061889648],[98.17291259800001,40.046508789],[98.21807861300002,40.038879395],[98.27209472700001,40.021484375],[98.320495605,40.009887695],[98.37591552700002,40.016906738],[98.41632080100001,40.028076172],[98.45251464800002,40.030273437],[98.49749755900001,40.024475098],[98.52709960900002,39.955322266],[98.52972412100002,39.926879883],[98.52630615200002,39.89831543],[98.51171875000001,39.851928711],[98.48651123,39.83190918],[98.43707275400001,39.825683594],[98.39447021500001,39.8125],[98.370483398,39.789306641],[98.36791992200001,39.758911133],[98.38092041000002,39.727905273],[98.39831543000001,39.700073242],[98.40869140600002,39.670288086],[98.41369628900001,39.636108398],[98.41809082000002,39.602294922],[98.41052246100001,39.573913574],[98.39251709000001,39.54888916],[98.372070312,39.513916016],[98.42852783200001,39.503295898],[98.47448730500001,39.499084473],[98.52172851600001,39.480895996],[98.56072998,39.47052002],[98.59350585900002,39.458679199],[98.62628173800002,39.444091797],[98.68927002,39.420288086],[98.73010253900001,39.40612793],[98.77331543000001,39.389282227],[98.80932617200001,39.37310791],[98.85150146500001,39.354919434],[98.89428710900002,39.341918945],[98.93310546900001,39.331726074],[98.97113037100002,39.320129395],[99.01367187500001,39.306884766],[99.04772949200002,39.293701172],[99.08868408200001,39.27947998],[99.11907959000001,39.241699219],[99.14947509800001,39.198913574],[99.19927978500002,39.164123535],[99.21948242200001,39.212097168],[99.24291992200001,39.232299805],[99.28472900400001,39.256530762],[99.31872558600001,39.272277832],[99.37329101600001,39.288879395],[99.39172363300001,39.342285156],[99.35211181600002,39.37109375],[99.30133056600002,39.370117187],[99.26428222700001,39.391479492],[99.246276855,39.418884277],[99.222473145,39.45489502],[99.20709228500002,39.490722656],[99.18371582000002,39.516479492],[99.15588378900001,39.538330078],[99.12567138700001,39.555480957],[99.08947753900001,39.568115234],[99.06207275400001,39.586486816],[99.01593017600001,39.596679687],[98.98352050800001,39.577270508],[98.94732666000002,39.565490723],[98.89270019500002,39.572509766],[98.85351562500001,39.578491211],[98.84387207000002,39.62890625],[98.88208007800002,39.643676758],[98.90612793000001,39.669677734],[98.91809082000002,39.697692871],[98.92468261700002,39.726928711],[98.95971679700001,39.755126953],[98.99407959000001,39.762695312],[99.03167724600002,39.785095215],[99.04870605500001,39.820922852],[99.08630371100001,39.791320801],[99.13250732400002,39.770080566],[99.17791748,39.774475098],[99.20910644500002,39.800109863],[99.24768066400001,39.819702148],[99.29571533200001,39.83392334],[99.35107421900001,39.850708008],[99.40087890600002,39.870910645],[99.44012451200001,39.890930176],[99.48388671900001,39.900085449],[99.54272460900002,39.897705078],[99.55847168000001,39.911071777],[99.59991455100001,40.008483887],[99.70971679700001,40.06451416],[99.98889160200001,40.200683594],[100.00189209000001,40.267089844],[100.01788330100001,40.347717285],[100.10211181600002,40.420715332],[100.23388671900001,40.55871582],[100.26867675800001,40.660095215],[100.187683105,40.810302734],[100.08032226600001,40.879272461],[99.97052002,40.883300781],[99.68231201200001,40.919677734],[99.59887695300002,40.829284668],[99.20568847700001,40.840698242],[98.88049316400001,40.72668457],[98.65789794900002,40.515319824],[98.28607177700002,40.520874023],[98.288879395,40.527526855],[98.40289306600002,40.807128906],[98.38208007800002,40.902282715],[98.24468994100002,40.926086426],[97.99829101600001,41.069091797],[97.61291503900001,41.481323242],[97.74609375000001,41.56652832],[97.85632324200002,41.643127441],[97.66430664100001,41.972900391],[97.41888427700002,42.359130859],[97.17150878900001,42.793518066]]]}}
