{"type":"Feature","id":"bulk-99377448B93800691220908","bbox":[86.79449462900001,43.026123047,88.95129394500002,44.073913574],"properties":{"id":"bulk-99377448B93800691220908","name":"Ürümqi","nameEn":"Ürümqi","fullName":"Ürümqi","level":"city","boundaryRole":"administrative-extent","boundaryQuality":"generalized-source-2020","boundaryYearRepresented":"2020","bounds":[[86.79449462900001,43.026123047],[88.95129394500002,44.073913574]],"center":[87.87289428700001,43.5500183105],"centerMethod":"bounding-box midpoint; camera framing only","license":"CC-BY-3.0-IGO","attribution":"geoBoundaries / HDX, China administrative boundaries (2020)","source":{"provider":"geoBoundaries gbHumanitarian / HDX","url":"https://github.com/wmgeolab/geoBoundaries/raw/9469f09/releaseData/gbHumanitarian/CHN/ADM2/geoBoundaries-CHN-ADM2.geojson","metadataUrl":"https://www.geoboundaries.org/api/current/gbHumanitarian/CHN/ADM2/","shapeID":"99377448B93800691220908","shapeName":"Ürümqi","boundaryID":"CHN-ADM2-99377448","commit":"9469f09"},"geometryCounts":{"coordinates":124,"components":1,"holes":0},"boundaryNotice":"geoBoundaries / HDX 2020 年行政区数据，海岸和边界经过源数据概化，并非当前测绘成果。"},"geometry":{"type":"Polygon","coordinates":[[[87.304077148,43.133728027],[87.344299316,43.153076172],[87.38049316400001,43.16192627],[87.38970947300001,43.1953125],[87.40667724600002,43.223083496],[87.41412353500002,43.252929687],[87.44091796900001,43.291503906],[87.49047851600001,43.293273926],[87.54327392600001,43.28527832],[87.586914062,43.272277832],[87.653320312,43.260070801],[87.69152832000002,43.259277344],[87.73388671900001,43.255310059],[87.77947998,43.253112793],[87.821289062,43.252502441],[87.89251709000001,43.250671387],[87.952087402,43.24987793],[88.004882812,43.251281738],[88.07489013700001,43.255126953],[88.11407470700001,43.255493164],[88.159912109,43.25567627],[88.20947265600002,43.252319336],[88.25689697300001,43.241271973],[88.29309082000002,43.226074219],[88.34130859400001,43.210876465],[88.38970947300001,43.199523926],[88.427124023,43.198486328],[88.46728515600002,43.193908691],[88.47692871100001,43.242492676],[88.49072265600002,43.272705078],[88.50628662100002,43.307678223],[88.53332519500002,43.333129883],[88.57690429700001,43.336303711],[88.635314941,43.333679199],[88.678283691,43.334716797],[88.73431396500001,43.355712891],[88.778320312,43.365905762],[88.81628418000001,43.36932373],[88.86291503900001,43.371704102],[88.89929199200002,43.403930664],[88.950927734,43.461120605],[88.95129394500002,43.60369873],[88.91729736300002,43.617919922],[88.89050293000001,43.641906738],[88.86431884800001,43.669677734],[88.83172607400002,43.683288574],[88.77368164100001,43.682128906],[88.71008300800001,43.682495117],[88.67370605500001,43.710327148],[88.64532470700001,43.730712891],[88.60272216800001,43.763671875],[88.56469726600001,43.780517578],[88.530273437,43.793518066],[88.49151611300002,43.806518555],[88.44610595700001,43.765319824],[88.402526855,43.760925293],[88.34088134800001,43.762084961],[88.29571533200001,43.764892578],[88.25689697300001,43.759277344],[88.226318359,43.740905762],[88.17730712900001,43.729675293],[88.11688232400002,43.751098633],[88.078308105,43.744689941],[88.03509521500001,43.735290527],[87.99267578100002,43.727478027],[87.94488525400001,43.736328125],[87.905273437,43.75970459],[87.87432861300002,43.786682129],[87.83587646500001,43.817077637],[87.80651855500001,43.847717285],[87.76770019500002,43.873474121],[87.73931884800001,43.905883789],[87.69671630900001,43.929077148],[87.65631103500002,43.913330078],[87.618103027,43.902099609],[87.576721191,43.910095215],[87.54992675800001,43.930297852],[87.55047607400002,43.963684082],[87.56091308600001,43.994689941],[87.54888916000002,44.024475098],[87.50531005900001,44.073913574],[87.461120605,44.06652832],[87.41247558600001,44.051330566],[87.37951660200001,44.029907227],[87.34967041000002,44.001098633],[87.32269287100002,43.973693848],[87.284912109,43.932312012],[87.26910400400001,43.892700195],[87.27392578100002,43.86151123],[87.28131103500002,43.814880371],[87.27368164100001,43.785888672],[87.24072265600002,43.727478027],[87.22851562500001,43.709716797],[87.19909668000001,43.673095703],[87.16412353500002,43.632080078],[87.12811279300001,43.596313477],[87.101318359,43.576293945],[87.06127929700001,43.556091309],[87.01568603500002,43.529724121],[86.98950195300002,43.500671387],[86.96649169900002,43.472900391],[86.92608642600001,43.444274902],[86.90008544900002,43.409484863],[86.91687011700002,43.379699707],[86.92852783200001,43.351074219],[86.920471191,43.318481445],[86.89770507800002,43.289672852],[86.87951660200001,43.247680664],[86.86212158200001,43.201293945],[86.845092773,43.168518066],[86.82189941400001,43.142883301],[86.79449462900001,43.10949707],[86.85729980500001,43.086730957],[86.89672851600001,43.07208252],[86.93572998,43.053283691],[86.99029541000002,43.033874512],[87.04028320300002,43.026123047],[87.08807373,43.044921875],[87.085693359,43.078491211],[87.13311767600001,43.0703125],[87.17407226600001,43.0625],[87.21588134800001,43.086120605],[87.26007080100001,43.108886719],[87.304077148,43.133728027]]]}}
