{"type":"Feature","id":"bulk-99377448B99705832286260","bbox":[104.24310302700002,29.184875488,105.43487548800002,30.040710449],"properties":{"id":"bulk-99377448B99705832286260","name":"Neijiang","nameEn":"Neijiang","fullName":"Neijiang","level":"city","boundaryRole":"administrative-extent","boundaryQuality":"generalized-source-2020","boundaryYearRepresented":"2020","bounds":[[104.24310302700002,29.184875488],[105.43487548800002,30.040710449]],"center":[104.83898925750002,29.6127929685],"centerMethod":"bounding-box midpoint; camera framing only","license":"CC-BY-3.0-IGO","attribution":"geoBoundaries / HDX, China administrative boundaries (2020)","source":{"provider":"geoBoundaries gbHumanitarian / HDX","url":"https://github.com/wmgeolab/geoBoundaries/raw/9469f09/releaseData/gbHumanitarian/CHN/ADM2/geoBoundaries-CHN-ADM2.geojson","metadataUrl":"https://www.geoboundaries.org/api/current/gbHumanitarian/CHN/ADM2/","shapeID":"99377448B99705832286260","shapeName":"Neijiang","boundaryID":"CHN-ADM2-99377448","commit":"9469f09"},"geometryCounts":{"coordinates":112,"components":1,"holes":0},"boundaryNotice":"geoBoundaries / HDX 2020 年行政区数据，海岸和边界经过源数据概化，并非当前测绘成果。"},"geometry":{"type":"Polygon","coordinates":[[[105.42150878900001,29.689880371],[105.41070556600002,29.720703125],[105.40307617200001,29.764099121],[105.39788818400001,29.805114746],[105.36169433600001,29.809326172],[105.32507324200002,29.8125],[105.28991699200002,29.792724609],[105.25012207000002,29.797485352],[105.21868896500001,29.820129395],[105.18371582000002,29.827880859],[105.14508056600002,29.820678711],[105.10931396500001,29.811096191],[105.09490966800001,29.842102051],[105.09289550800001,29.87109375],[105.09368896500001,29.905883789],[105.06671142600001,29.925292969],[105.03808593700002,29.944702148],[105.02227783200001,29.980529785],[105.01147460900002,30.018676758],[104.98309326200001,29.99987793],[104.95471191400001,29.975524902],[104.93347168000001,29.93170166],[104.90252685500002,29.914306641],[104.88330078100002,29.887084961],[104.85211181600002,29.877929687],[104.82629394500002,29.860473633],[104.79272460900002,29.859924316],[104.78790283200001,29.892700195],[104.76507568400001,29.920898437],[104.73791503900001,29.948730469],[104.70410156200002,29.957885742],[104.66290283200001,29.952514648],[104.59613037100002,29.943115234],[104.60992431600002,29.973693848],[104.58972168000001,30.009887695],[104.55487060500002,30.015319824],[104.52648925800001,30.038330078],[104.49047851600001,30.040710449],[104.47351074200002,30.003723145],[104.47790527300002,29.976074219],[104.50012207000002,29.94732666],[104.51190185500002,29.919921875],[104.51312255900001,29.891723633],[104.50292968700002,29.858886719],[104.49169921900001,29.825927734],[104.51867675800001,29.79309082],[104.46429443400001,29.757507324],[104.42327880900001,29.742492676],[104.39050293000001,29.740478516],[104.36047363300001,29.726928711],[104.33807373000002,29.701477051],[104.31689453100002,29.676086426],[104.24310302700002,29.651672363],[104.27532959000001,29.619873047],[104.31652832000002,29.598083496],[104.34112548800002,29.578674316],[104.37268066400001,29.566894531],[104.41528320300002,29.60748291],[104.46209716800001,29.597717285],[104.49792480500001,29.601501465],[104.49627685500002,29.565124512],[104.51428222700001,29.534484863],[104.54010009800001,29.503479004],[104.55529785200001,29.476928711],[104.53228759800001,29.455322266],[104.52111816400001,29.427490234],[104.56011962900001,29.428100586],[104.59130859400001,29.433288574],[104.62811279300001,29.436706543],[104.64227294900002,29.412475586],[104.67352294900002,29.392700195],[104.71771240200002,29.37310791],[104.74847412100002,29.390075684],[104.74291992200001,29.424316406],[104.77331543000001,29.443115234],[104.80871582000002,29.444274902],[104.84112548800002,29.464111328],[104.86187744100002,29.488525391],[104.90191650400001,29.44152832],[104.93371582000002,29.441894531],[104.96972656200002,29.415710449],[105.01031494100002,29.453125],[105.07647705100001,29.436889648],[105.08111572300001,29.408325195],[105.05249023400002,29.384521484],[105.06390380900001,29.355895996],[105.08209228500002,29.32989502],[105.11492919900002,29.29510498],[105.13470459000001,29.261291504],[105.16247558600001,29.248718262],[105.18530273400002,29.228515625],[105.19671630900001,29.194885254],[105.23309326200001,29.195922852],[105.27667236300002,29.184875488],[105.29187011700002,29.208679199],[105.31127929700001,29.24029541],[105.33532714800002,29.265075684],[105.36450195300002,29.283874512],[105.41290283200001,29.322692871],[105.43371582000002,29.354309082],[105.43487548800002,29.387512207],[105.41052246100001,29.412719727],[105.40850830100001,29.444885254],[105.41790771500001,29.47467041],[105.40649414100001,29.501281738],[105.37152099600002,29.506103516],[105.33947753900001,29.522277832],[105.30950927700002,29.538696289],[105.32629394500002,29.574890137],[105.35168457000002,29.612915039],[105.38769531200002,29.644714355],[105.42150878900001,29.689880371]]]}}
