{"type":"Feature","id":"bulk-99377448B25718229819105","bbox":[108.34509277300002,29.123474121,110.59710693400001,31.399108887],"properties":{"id":"bulk-99377448B25718229819105","name":"Enshi Tujia and Miao Autonomous Prefecture","nameEn":"Enshi Tujia and Miao Autonomous Prefecture","fullName":"Enshi Tujia and Miao Autonomous Prefecture","level":"city","boundaryRole":"administrative-extent","boundaryQuality":"generalized-source-2020","boundaryYearRepresented":"2020","bounds":[[108.34509277300002,29.123474121],[110.59710693400001,31.399108887]],"center":[109.47109985350002,30.261291504],"centerMethod":"bounding-box midpoint; camera framing only","license":"CC-BY-3.0-IGO","attribution":"geoBoundaries / HDX, China administrative boundaries (2020)","source":{"provider":"geoBoundaries gbHumanitarian / HDX","url":"https://github.com/wmgeolab/geoBoundaries/raw/9469f09/releaseData/gbHumanitarian/CHN/ADM2/geoBoundaries-CHN-ADM2.geojson","metadataUrl":"https://www.geoboundaries.org/api/current/gbHumanitarian/CHN/ADM2/","shapeID":"99377448B25718229819105","shapeName":"Enshi Tujia and Miao Autonomous Prefecture","boundaryID":"CHN-ADM2-99377448","commit":"9469f09"},"geometryCounts":{"coordinates":240,"components":1,"holes":0},"boundaryNotice":"geoBoundaries / HDX 2020 年行政区数据，海岸和边界经过源数据概化，并非当前测绘成果。"},"geometry":{"type":"Polygon","coordinates":[[[110.48590087900001,30.019104004],[110.42309570300002,29.979125977],[110.38372802700002,29.965515137],[110.34649658200001,29.96307373],[110.32110595700001,29.983703613],[110.30090332000002,30.024475098],[110.29071044900002,30.068725586],[110.29870605500001,30.106323242],[110.28448486300002,30.145874023],[110.26727294900002,30.193115234],[110.25207519500002,30.220275879],[110.24572753900001,30.254699707],[110.28649902300002,30.250671387],[110.33007812500001,30.248291016],[110.34112548800002,30.283081055],[110.33972168000001,30.313476562],[110.33551025400001,30.359924316],[110.32928466800001,30.401123047],[110.33032226600001,30.434326172],[110.34069824200002,30.47668457],[110.36407470700001,30.507507324],[110.40869140600002,30.511474609],[110.44848632800002,30.530090332],[110.44470214800002,30.562072754],[110.42889404300001,30.598510742],[110.41931152300002,30.642700195],[110.41967773400002,30.686889648],[110.42791748000002,30.76171875],[110.39630127,30.789916992],[110.34051513700001,30.782897949],[110.37908935500002,30.840270996],[110.39910888700001,30.874694824],[110.42010498000002,30.895080566],[110.40747070300002,30.932128906],[110.421875,30.967529297],[110.43768310500002,31.00012207],[110.44287109400001,31.032287598],[110.46289062500001,31.065307617],[110.50347900400001,31.102111816],[110.49810791000002,31.16027832],[110.48272705100001,31.206481934],[110.47070312500001,31.231689453],[110.44372558600001,31.260314941],[110.41790771500001,31.28692627],[110.44470214800002,31.330871582],[110.36968994100002,31.389282227],[110.33929443400001,31.399108887],[110.30328369100002,31.397277832],[110.26531982400002,31.379089355],[110.22967529300001,31.355895996],[110.19610595700001,31.330078125],[110.17010498000002,31.31072998],[110.11511230500001,31.304870605],[110.10888671900001,31.234680176],[110.15307617200001,31.16027832],[110.09289550800001,31.134277344],[110.08807373000002,31.090698242],[110.09912109400001,31.047302246],[110.14447021500001,30.952697754],[110.11352539100001,30.878723145],[110.09228515600002,30.844299316],[110.08227539100001,30.827880859],[110.04229736300002,30.803710937],[109.99230957000002,30.834472656],[109.97772216800001,30.901672363],[109.95751953100002,30.905090332],[109.91009521500001,30.890686035],[109.83392334000001,30.888122559],[109.74627685500002,30.865112305],[109.70129394500002,30.832885742],[109.64788818400001,30.787902832],[109.63690185500002,30.775695801],[109.60748291000002,30.743103027],[109.56530761700002,30.667907715],[109.52209472700001,30.665710449],[109.52008056600002,30.665527344],[109.47668457000002,30.660705566],[109.42248535200001,30.621887207],[109.39288330100001,30.571716309],[109.38427734400001,30.524475098],[109.34472656200002,30.49029541],[109.32507324200002,30.527282715],[109.33410644500002,30.549682617],[109.32409668000001,30.574523926],[109.29388427700002,30.614074707],[109.27972412100002,30.631530762],[109.25970459000001,30.627685547],[109.21411132800002,30.587097168],[109.17687988300001,30.553710937],[109.16131591800001,30.542907715],[109.12127685500002,30.543273926],[109.10870361300002,30.559692383],[109.07232666000002,30.607299805],[109.04510498000002,30.637878418],[108.99749755900001,30.64251709],[108.99530029300001,30.642272949],[108.94708252,30.635498047],[108.89947509800001,30.592102051],[108.88049316400001,30.575317383],[108.85510253900001,30.553100586],[108.82672119100002,30.50567627],[108.78070068400001,30.495910645],[108.68511962900001,30.559082031],[108.64971923800002,30.61529541],[108.61370849600002,30.621704102],[108.59228515600002,30.556274414],[108.58709716800001,30.513671875],[108.56567382800002,30.492675781],[108.48590087900001,30.481506348],[108.43572998000002,30.499084473],[108.40832519500002,30.496276855],[108.38952636700002,30.494506836],[108.38549804700001,30.416320801],[108.38812255900001,30.36907959],[108.429504395,30.354919434],[108.46948242200001,30.321105957],[108.52069091800001,30.262512207],[108.53607177700002,30.23449707],[108.53790283200001,30.209472656],[108.53668212900001,30.143676758],[108.51190185500002,30.094299316],[108.48907470700001,30.048522949],[108.49468994100002,30.037109375],[108.52947998000002,29.989685059],[108.49407959000001,29.94708252],[108.49890136700002,29.91027832],[108.49951171900001,29.90447998],[108.50250244100002,29.877075195],[108.49230957000002,29.870483398],[108.45050048800002,29.863525391],[108.44732666000002,29.864074707],[108.41467285200001,29.870727539],[108.37811279300001,29.869873047],[108.34527587900001,29.847900391],[108.34509277300002,29.824890137],[108.37170410200001,29.804077148],[108.37469482400002,29.79888916],[108.39709472700001,29.760925293],[108.44787597700001,29.710327148],[108.51611328100002,29.72088623],[108.52789306600002,29.722717285],[108.52490234400001,29.746887207],[108.52368164100001,29.755493164],[108.53527832000002,29.795898437],[108.55627441400001,29.826477051],[108.60809326200001,29.847106934],[108.62268066400001,29.825683594],[108.64727783200001,29.790100098],[108.65112304700001,29.764282227],[108.65991210900002,29.711120605],[108.66247558600001,29.69152832],[108.72369384800001,29.665893555],[108.76147460900002,29.655090332],[108.81011962900001,29.635498047],[108.84527587900001,29.604919434],[108.83648681600002,29.585083008],[108.85729980500001,29.581115723],[108.88348388700001,29.574279785],[108.85913085900002,29.548278809],[108.82910156200002,29.499511719],[108.83428955100001,29.460510254],[108.88348388700001,29.452514648],[108.90808105500001,29.420715332],[108.89788818400001,29.369873047],[108.88848877,29.333129883],[108.91772460900002,29.326477051],[108.93609619100002,29.332885742],[108.95587158200001,29.33972168],[108.99810791000002,29.354675293],[109.02972412100002,29.388122559],[109.03570556600002,29.391296387],[109.04809570300002,29.398071289],[109.08990478500002,29.348083496],[109.08569335900002,29.300720215],[109.09167480500001,29.26171875],[109.08551025400001,29.212524414],[109.09350585900002,29.183288574],[109.15631103500002,29.16192627],[109.18328857400002,29.161499023],[109.20471191400001,29.123474121],[109.20471191400001,29.139526367],[109.238098145,29.160888672],[109.23791503900001,29.174682617],[109.23767089800002,29.188293457],[109.23748779300001,29.215881348],[109.23730468700002,29.243286133],[109.25848388700001,29.257080078],[109.27990722700001,29.229675293],[109.32250976600001,29.230102539],[109.30090332000002,29.270874023],[109.34307861300002,29.298706055],[109.34228515600002,29.399108887],[109.38470459000001,29.426879883],[109.38452148400002,29.467895508],[109.42687988300001,29.495483398],[109.45928955100001,29.528503418],[109.46832275400001,29.532104492],[109.50012207000002,29.559326172],[109.50170898400002,29.59387207],[109.45349121100001,29.608520508],[109.52893066400001,29.646728516],[109.57171630900001,29.643676758],[109.63348388700001,29.631896973],[109.64367675800001,29.631713867],[109.65447998000002,29.631286621],[109.68652343700002,29.642272949],[109.73388671900001,29.689086914],[109.73968505900001,29.720275879],[109.78308105500001,29.750915527],[109.81347656200002,29.758483887],[109.84252929700001,29.765686035],[109.90209960900002,29.765319824],[109.99188232400002,29.780273437],[110.03051757800002,29.782287598],[110.09228515600002,29.772888184],[110.13928222700001,29.758117676],[110.18872070300002,29.736083984],[110.24230957000002,29.69909668],[110.25830078100002,29.666320801],[110.27807617200001,29.664489746],[110.34411621100001,29.639099121],[110.35028076200001,29.614929199],[110.37152099600002,29.619506836],[110.39288330100001,29.633117676],[110.41448974600002,29.664916992],[110.45727539100001,29.678527832],[110.50012207000002,29.692077637],[110.54309082000002,29.719299316],[110.58612060500002,29.759887695],[110.59710693400001,29.768920898],[110.58007812500001,29.830322266],[110.53192138700001,29.845275879],[110.51708984400001,29.871887207],[110.50128173800002,29.876281738],[110.47308349600002,29.89050293],[110.46771240200002,29.916320801],[110.48309326200001,29.97052002],[110.51330566400001,29.988525391],[110.51647949200002,29.992919922],[110.48590087900001,30.019104004]]]}}
