{"type":"Feature","id":"bulk-99377448B5932204217752","bbox":[113.50347900400001,37.501281738,115.46527099600002,38.76171875],"properties":{"id":"bulk-99377448B5932204217752","name":"Shijiazhuang","nameEn":"Shijiazhuang","fullName":"Shijiazhuang","level":"city","boundaryRole":"administrative-extent","boundaryQuality":"generalized-source-2020","boundaryYearRepresented":"2020","bounds":[[113.50347900400001,37.501281738],[115.46527099600002,38.76171875]],"center":[114.48437500000001,38.131500244],"centerMethod":"bounding-box midpoint; camera framing only","license":"CC-BY-3.0-IGO","attribution":"geoBoundaries / HDX, China administrative boundaries (2020)","source":{"provider":"geoBoundaries gbHumanitarian / HDX","url":"https://github.com/wmgeolab/geoBoundaries/raw/9469f09/releaseData/gbHumanitarian/CHN/ADM2/geoBoundaries-CHN-ADM2.geojson","metadataUrl":"https://www.geoboundaries.org/api/current/gbHumanitarian/CHN/ADM2/","shapeID":"99377448B5932204217752","shapeName":"Shijiazhuang","boundaryID":"CHN-ADM2-99377448","commit":"9469f09"},"geometryCounts":{"coordinates":144,"components":1,"holes":0},"boundaryNotice":"geoBoundaries / HDX 2020 年行政区数据，海岸和边界经过源数据概化，并非当前测绘成果。"},"geometry":{"type":"Polygon","coordinates":[[[113.80310058600001,38.76171875],[113.75848388700001,38.72467041],[113.68988037100002,38.673095703],[113.67352294900002,38.669921875],[113.66571044900002,38.649902344],[113.60327148400002,38.637878418],[113.57470703100002,38.621704102],[113.53112793000001,38.574890137],[113.52111816400001,38.523925781],[113.52209472700001,38.520080566],[113.53332519500002,38.472473145],[113.52392578100002,38.431884766],[113.50848388700001,38.389892578],[113.50347900400001,38.344116211],[113.51452636700002,38.294494629],[113.50811767600001,38.274291992],[113.51568603500002,38.258300781],[113.57092285200001,38.210327148],[113.64770507800002,38.21307373],[113.66070556600002,38.219909668],[113.71868896500001,38.182312012],[113.70587158200001,38.150878906],[113.78027343700002,38.150878906],[113.79608154300001,38.141723633],[113.78747558600001,38.096130371],[113.78790283200001,38.094726562],[113.80432128900001,38.051513672],[113.83569335900002,38.022521973],[113.82910156200002,37.969726562],[113.84448242200001,37.950927734],[113.86328125000001,37.924682617],[113.90270996100001,37.899108887],[113.92669677700002,37.860717773],[113.93389892600001,37.835693359],[113.96191406200002,37.812927246],[113.99371337900001,37.79888916],[114.00952148400002,37.792480469],[114.00988769500002,37.77130127],[113.99389648400002,37.747680664],[113.96148681600002,37.718505859],[113.98089599600002,37.710083008],[114.03308105500001,37.717712402],[114.08288574200002,37.719909668],[114.09991455100001,37.699890137],[114.11907959000001,37.676696777],[114.11389160200001,37.629882812],[114.09008789100001,37.586486816],[114.07348632800002,37.549682617],[114.04449462900001,37.513122559],[114.13171386700002,37.501281738],[114.17431640600002,37.522094727],[114.19567871100001,37.546325684],[114.23651123000002,37.536315918],[114.27648925800001,37.509277344],[114.31207275400001,37.505493164],[114.37548828100002,37.533081055],[114.41430664100001,37.544921875],[114.453125,37.561889648],[114.49029541000002,37.545715332],[114.53869628900001,37.53527832],[114.62670898400002,37.516113281],[114.66687011700002,37.558105469],[114.72052002,37.594726562],[114.77429199200002,37.608093262],[114.78649902300002,37.636291504],[114.81207275400001,37.671325684],[114.86431884800001,37.682495117],[114.91149902300002,37.697692871],[114.94348144500002,37.707885742],[114.99127197300001,37.713928223],[115.03808593700002,37.723510742],[115.06011962900001,37.756286621],[115.07672119100002,37.791687012],[115.15447998000002,37.793884277],[115.18249511700002,37.760681152],[115.20269775400001,37.728088379],[115.22772216800001,37.700317383],[115.25872802700002,37.67791748],[115.29309082000002,37.707519531],[115.30792236300002,37.737304687],[115.30908203100002,37.77532959],[115.31188964800002,37.804077148],[115.33911132800002,37.834716797],[115.36267089800002,37.863708496],[115.37951660200001,37.893493652],[115.39428710900002,37.936279297],[115.40429687500001,37.965881348],[115.42730712900001,37.994506836],[115.45050048800002,38.016723633],[115.46527099600002,38.050720215],[115.445129395,38.102478027],[115.41247558600001,38.086914062],[115.37329101600001,38.093078613],[115.34613037100002,38.117919922],[115.33831787100002,38.143920898],[115.33367919900002,38.190490723],[115.32891845700001,38.248901367],[115.27850341800001,38.245117187],[115.25891113300001,38.269897461],[115.21508789100001,38.293273926],[115.15771484400001,38.27130127],[115.12792968700002,38.255493164],[115.07592773400002,38.250671387],[115.02368164100001,38.245910645],[114.98571777300002,38.25189209],[114.93487548800002,38.256286621],[114.88311767600001,38.272888184],[114.88153076200001,38.327087402],[114.88092041000002,38.368286133],[114.86328125000001,38.408081055],[114.85607910200001,38.435913086],[114.82489013700001,38.498291016],[114.75067138700001,38.481689453],[114.71069335900002,38.47668457],[114.62847900400001,38.462890625],[114.62048339800002,38.469482422],[114.61267089800002,38.475891113],[114.605285645,38.488708496],[114.59790039100001,38.501525879],[114.59008789100001,38.511108398],[114.58251953100002,38.520690918],[114.57489013700001,38.530273437],[114.56707763700001,38.540100098],[114.56811523400002,38.555725098],[114.56188964800002,38.587097168],[114.51831054700001,38.630126953],[114.48687744100002,38.643493652],[114.44470214800002,38.660888672],[114.40472412100002,38.675476074],[114.36529541000002,38.689697266],[114.33331298800002,38.701293945],[114.29449462900001,38.705871582],[114.24572753900001,38.695922852],[114.20928955100001,38.682495117],[114.14831543000001,38.675109863],[114.11431884800001,38.657897949],[114.06848144500002,38.654724121],[114.02789306600002,38.653686523],[113.97790527300002,38.664672852],[113.94250488300001,38.686279297],[113.90527343700002,38.715881348],[113.87408447300001,38.731872559],[113.83807373000002,38.749328613],[113.80310058600001,38.76171875]]]}}
