{"type":"Feature","id":"bulk-99377448B68338528694075","bbox":[108.97711181600002,18.161315918,109.80151367200001,18.619689941],"properties":{"id":"bulk-99377448B68338528694075","name":"Sanya","nameEn":"Sanya","fullName":"Sanya","level":"city","boundaryRole":"administrative-extent","boundaryQuality":"generalized-source-2020","boundaryYearRepresented":"2020","bounds":[[108.97711181600002,18.161315918],[109.80151367200001,18.619689941]],"center":[109.38931274400002,18.390502929500002],"centerMethod":"bounding-box midpoint; camera framing only","license":"CC-BY-3.0-IGO","attribution":"geoBoundaries / HDX, China administrative boundaries (2020)","source":{"provider":"geoBoundaries gbHumanitarian / HDX","url":"https://github.com/wmgeolab/geoBoundaries/raw/9469f09/releaseData/gbHumanitarian/CHN/ADM2/geoBoundaries-CHN-ADM2.geojson","metadataUrl":"https://www.geoboundaries.org/api/current/gbHumanitarian/CHN/ADM2/","shapeID":"99377448B68338528694075","shapeName":"Sanya","boundaryID":"CHN-ADM2-99377448","commit":"9469f09"},"geometryCounts":{"coordinates":2315,"components":7,"holes":0},"boundaryNotice":"geoBoundaries / HDX 2020 年行政区数据，海岸和边界经过源数据概化，并非当前测绘成果。"},"geometry":{"type":"MultiPolygon","coordinates":[[[[109.56549072300001,18.241516113],[109.56530761700002,18.241271973],[109.56549072300001,18.241271973],[109.56549072300001,18.241516113]]],[[[109.56549072300001,18.241516113],[109.56567382800002,18.241516113],[109.56567382800002,18.241882324],[109.56610107400002,18.241882324],[109.56591796900001,18.242919922],[109.56549072300001,18.241516113]]],[[[109.76531982400002,18.312316895],[109.76867675800001,18.314086914],[109.76727294900002,18.31628418],[109.76507568400001,18.31628418],[109.76470947300001,18.31628418],[109.76470947300001,18.31652832],[109.76367187500001,18.31652832],[109.76367187500001,18.31628418],[109.76348877,18.31628418],[109.76348877,18.315490723],[109.76330566400001,18.315490723],[109.76330566400001,18.315124512],[109.76287841800001,18.315124512],[109.76287841800001,18.314880371],[109.76232910200001,18.314880371],[109.76232910200001,18.314697266],[109.76190185500002,18.314697266],[109.76190185500002,18.31427002],[109.76129150400001,18.31427002],[109.76129150400001,18.314086914],[109.76110839800002,18.314086914],[109.76110839800002,18.313903809],[109.75927734400001,18.313903809],[109.75927734400001,18.31427002],[109.75872802700002,18.31427002],[109.75872802700002,18.314697266],[109.75787353500002,18.314697266],[109.75787353500002,18.314880371],[109.75708007800002,18.314880371],[109.75708007800002,18.315124512],[109.75628662100002,18.315124512],[109.75628662100002,18.315490723],[109.75567627,18.315490723],[109.75549316400001,18.313903809],[109.75567627,18.313903809],[109.75567627,18.313293457],[109.76232910200001,18.306091309],[109.76232910200001,18.306274414],[109.76269531200002,18.306274414],[109.76269531200002,18.306518555],[109.76287841800001,18.306518555],[109.76287841800001,18.306884766],[109.76330566400001,18.306884766],[109.76330566400001,18.307495117],[109.76348877,18.307495117],[109.76348877,18.307678223],[109.76409912100002,18.307678223],[109.76409912100002,18.307922363],[109.76470947300001,18.308105469],[109.76470947300001,18.308288574],[109.76531982400002,18.312316895]]],[[[109.41467285200001,18.221679687],[109.41430664100001,18.221679687],[109.41430664100001,18.221923828],[109.41412353500002,18.221923828],[109.41412353500002,18.222106934],[109.41351318400001,18.222106934],[109.41412353500002,18.212890625],[109.41491699200002,18.21307373],[109.41491699200002,18.21270752],[109.41607666000002,18.21270752],[109.41607666000002,18.21307373],[109.41650390600002,18.212890625],[109.41650390600002,18.213317871],[109.41772460900002,18.213317871],[109.41772460900002,18.213500977],[109.41790771500001,18.213500977],[109.41790771500001,18.214904785],[109.41827392600001,18.214904785],[109.41827392600001,18.215087891],[109.41851806600002,18.215087891],[109.41851806600002,18.215515137],[109.41888427700002,18.215515137],[109.41888427700002,18.216674805],[109.41851806600002,18.216674805],[109.41851806600002,18.217102051],[109.41827392600001,18.217102051],[109.41827392600001,18.218322754],[109.41851806600002,18.218322754],[109.41851806600002,18.218505859],[109.41827392600001,18.218505859],[109.41827392600001,18.219116211],[109.41790771500001,18.219116211],[109.41790771500001,18.219299316],[109.41687011700002,18.219299316],[109.41687011700002,18.219726562],[109.41650390600002,18.219726562],[109.41650390600002,18.219909668],[109.41632080100001,18.219909668],[109.41632080100001,18.220275879],[109.41607666000002,18.220275879],[109.41607666000002,18.22052002],[109.41571044900002,18.22052002],[109.41571044900002,18.220703125],[109.41552734400001,18.220703125],[109.41552734400001,18.22088623],[109.41528320300002,18.22088623],[109.41528320300002,18.221313477],[109.41467285200001,18.221313477],[109.41467285200001,18.221679687]]],[[[109.37548828100002,18.229309082],[109.37567138700001,18.229309082],[109.37567138700001,18.229675293],[109.37591552700002,18.229675293],[109.37792968700002,18.233276367],[109.37652587900001,18.234924316],[109.37548828100002,18.236328125],[109.37188720700001,18.237304687],[109.36987304700001,18.236877441],[109.36853027300002,18.232727051],[109.36987304700001,18.229125977],[109.37268066400001,18.227294922],[109.37408447300001,18.227294922],[109.37408447300001,18.227478027],[109.37432861300002,18.227478027],[109.37432861300002,18.227905273],[109.37469482400002,18.227905273],[109.37469482400002,18.228515625],[109.37487793000001,18.228515625],[109.37487793000001,18.228881836],[109.37512207000002,18.228881836],[109.37512207000002,18.229125977],[109.37548828100002,18.229125977],[109.37548828100002,18.229309082]]],[[[109.55548095700001,18.233520508],[109.55548095700001,18.233703613],[109.55487060500002,18.233520508],[109.55487060500002,18.233276367],[109.55511474600002,18.233276367],[109.55511474600002,18.233520508],[109.55548095700001,18.233520508]]],[[[109.39727783200001,18.619689941],[109.38427734400001,18.612121582],[109.37567138700001,18.601318359],[109.36730957000002,18.593505859],[109.35949707000002,18.589111328],[109.35211181600002,18.585083008],[109.34387207000002,18.581115723],[109.33447265600002,18.578308105],[109.33007812500001,18.575683594],[109.32489013700001,18.568481445],[109.32110595700001,18.563720703],[109.31408691400001,18.558105469],[109.31091308600001,18.553283691],[109.31109619100002,18.546691895],[109.31188964800002,18.539306641],[109.31170654300001,18.531677246],[109.30847168000001,18.527709961],[109.30230712900001,18.522094727],[109.29528808600001,18.519104004],[109.29089355500001,18.521118164],[109.28808593700002,18.523681641],[109.28387451200001,18.528503418],[109.27728271500001,18.531494141],[109.27032470700001,18.535522461],[109.26251220700001,18.542297363],[109.25390625000001,18.553527832],[109.24951171900001,18.557495117],[109.24127197300001,18.55871582],[109.23413085900002,18.555908203],[109.22967529300001,18.553894043],[109.22308349600002,18.554321289],[109.21728515600002,18.556518555],[109.20849609400001,18.55847168],[109.19970703100002,18.556274414],[109.19671630900001,18.551879883],[109.195129395,18.546691895],[109.19409179700001,18.542480469],[109.19329834000001,18.540100098],[109.19049072300001,18.536071777],[109.18768310500002,18.532714844],[109.17968750000001,18.523925781],[109.17730712900001,18.516723633],[109.17810058600001,18.508300781],[109.18090820300002,18.49987793],[109.18347168000001,18.497070312],[109.18707275400001,18.488891602],[109.18768310500002,18.480285645],[109.18688964800002,18.471313477],[109.18487548800002,18.460876465],[109.18109130900001,18.454101562],[109.17730712900001,18.453308105],[109.16772460900002,18.454284668],[109.16369628900001,18.456115723],[109.15692138700001,18.461730957],[109.15032959000001,18.464904785],[109.14172363300001,18.464111328],[109.13488769500002,18.462890625],[109.12652587900001,18.460510254],[109.11730957000002,18.460876465],[109.10467529300001,18.463317871],[109.09588623000002,18.459899902],[109.08691406200002,18.452880859],[109.08428955100001,18.4453125],[109.08288574200002,18.43951416],[109.07592773400002,18.438903809],[109.07189941400001,18.441101074],[109.06848144500002,18.441101074],[109.05712890600002,18.437072754],[109.04949951200001,18.434692383],[109.04248046900001,18.435302734],[109.03991699200002,18.434875488],[109.02667236300002,18.428527832],[109.01550293000001,18.423522949],[109.00732421900001,18.416687012],[109.00311279300001,18.409484863],[108.99951171900001,18.402099609],[108.99468994100002,18.398071289],[108.99047851600001,18.395874023],[108.98632812500001,18.395324707],[108.97711181600002,18.382080078],[108.98248291000002,18.37689209],[109.00653076200001,18.364685059],[109.02508544900002,18.365478516],[109.06707763700001,18.372680664],[109.08447265600002,18.371520996],[109.10009765600002,18.368713379],[109.10827636700002,18.36529541],[109.12408447300001,18.350524902],[109.12469482400002,18.350280762],[109.12469482400002,18.350708008],[109.12487793000001,18.350708008],[109.12487793000001,18.351074219],[109.12512207000002,18.351074219],[109.12512207000002,18.351318359],[109.12689209000001,18.351318359],[109.12689209000001,18.351074219],[109.12707519500002,18.351074219],[109.12707519500002,18.350708008],[109.12927246100001,18.350708008],[109.12927246100001,18.351074219],[109.13128662100002,18.351074219],[109.13128662100002,18.350708008],[109.13067627,18.350708008],[109.13067627,18.350524902],[109.13049316400001,18.350524902],[109.13049316400001,18.350280762],[109.12988281200002,18.350280762],[109.12988281200002,18.349914551],[109.12969970700001,18.349914551],[109.12969970700001,18.34967041],[109.12908935500002,18.34967041],[109.12908935500002,18.349304199],[109.128723145,18.349304199],[109.128723145,18.349121094],[109.12847900400001,18.349121094],[109.12847900400001,18.348876953],[109.12829589800002,18.348876953],[109.13171386700002,18.347473145],[109.13189697300001,18.347473145],[109.13189697300001,18.347900391],[109.13208007800002,18.347900391],[109.13208007800002,18.348327637],[109.13250732400002,18.348327637],[109.13250732400002,18.348693848],[109.13250732400002,18.348876953],[109.13269043000001,18.348876953],[109.13269043000001,18.349121094],[109.13287353500002,18.349121094],[109.13287353500002,18.34967041],[109.13391113300001,18.34967041],[109.13409423800002,18.34967041],[109.13409423800002,18.349304199],[109.13470459000001,18.349304199],[109.13470459000001,18.348510742],[109.13427734400001,18.348510742],[109.13427734400001,18.346923828],[109.13409423800002,18.346923828],[109.13409423800002,18.346496582],[109.13952636700002,18.344299316],[109.14129638700001,18.342285156],[109.15393066400001,18.330505371],[109.15429687500001,18.327270508],[109.14971923800002,18.318725586],[109.14947509800001,18.318481445],[109.14929199200002,18.31829834],[109.14929199200002,18.317871094],[109.14788818400001,18.315673828],[109.14868164100001,18.312316895],[109.15332031200002,18.308105469],[109.15667724600002,18.29888916],[109.17248535200001,18.289672852],[109.17907714800002,18.288085937],[109.19567871100001,18.288330078],[109.19750976600001,18.288879395],[109.19750976600001,18.289123535],[109.19769287100002,18.289123535],[109.19769287100002,18.289306641],[109.19787597700001,18.289306641],[109.19787597700001,18.289672852],[109.19830322300001,18.289672852],[109.19830322300001,18.290283203],[109.19848632800002,18.290283203],[109.19848632800002,18.290710449],[109.19909668000001,18.290710449],[109.19909668000001,18.29107666],[109.19927978500002,18.29107666],[109.19927978500002,18.291320801],[109.19970703100002,18.291320801],[109.19970703100002,18.291503906],[109.19989013700001,18.291503906],[109.19989013700001,18.291870117],[109.20050048800002,18.291870117],[109.20050048800002,18.292114258],[109.20129394500002,18.292114258],[109.20129394500002,18.292480469],[109.20190429700001,18.292480469],[109.20190429700001,18.292724609],[109.20208740200002,18.292724609],[109.20208740200002,18.292907715],[109.20251464800002,18.292907715],[109.20251464800002,18.293273926],[109.20288085900002,18.293273926],[109.20288085900002,18.293518066],[109.20410156200002,18.293518066],[109.20410156200002,18.293884277],[109.20489502,18.293884277],[109.20489502,18.294128418],[109.20550537100002,18.294128418],[109.20550537100002,18.294311523],[109.20568847700001,18.294311523],[109.20568847700001,18.294677734],[109.20611572300001,18.294677734],[109.20611572300001,18.294921875],[109.20648193400001,18.294921875],[109.20648193400001,18.295288086],[109.20770263700001,18.295288086],[109.20770263700001,18.295471191],[109.20788574200002,18.295471191],[109.20788574200002,18.295715332],[109.20831298800002,18.295715332],[109.20831298800002,18.296081543],[109.20971679700001,18.296081543],[109.20971679700001,18.296325684],[109.21051025400001,18.296325684],[109.21051025400001,18.296508789],[109.21069335900002,18.296508789],[109.21069335900002,18.296875],[109.21130371100001,18.296875],[109.21130371100001,18.297119141],[109.21209716800001,18.297119141],[109.21209716800001,18.297485352],[109.21270752,18.297485352],[109.21270752,18.297729492],[109.21289062500001,18.297729492],[109.21289062500001,18.297912598],[109.21368408200001,18.297912598],[109.21789550800001,18.300720215],[109.22491455100001,18.303100586],[109.22692871100001,18.303100586],[109.24011230500001,18.30291748],[109.24511718700002,18.301696777],[109.25067138700001,18.297912598],[109.25189209000001,18.297912598],[109.25250244100002,18.297912598],[109.25329589800002,18.297912598],[109.25408935500002,18.297912598],[109.25408935500002,18.298278809],[109.25427246100001,18.298278809],[109.25427246100001,18.298522949],[109.25469970700001,18.298522949],[109.25469970700001,18.29888916],[109.25488281200002,18.29888916],[109.25488281200002,18.299072266],[109.25549316400001,18.299072266],[109.25549316400001,18.299316406],[109.25610351600001,18.299316406],[109.25610351600001,18.299926758],[109.25628662100002,18.299926758],[109.25628662100002,18.300476074],[109.25689697300001,18.300476074],[109.25689697300001,18.300720215],[109.25769043000001,18.300720215],[109.25769043000001,18.301086426],[109.25927734400001,18.301086426],[109.25927734400001,18.301330566],[109.25970459000001,18.301330566],[109.25970459000001,18.301086426],[109.25988769500002,18.301086426],[109.25988769500002,18.301330566],[109.26049804700001,18.301330566],[109.26049804700001,18.301086426],[109.26348877,18.303283691],[109.26788330100001,18.3046875],[109.30749511700002,18.307678223],[109.32427978500002,18.305725098],[109.33111572300001,18.304870605],[109.33728027300002,18.302124023],[109.33789062500001,18.301879883],[109.33947753900001,18.301086426],[109.35131835900002,18.292297363],[109.35351562500001,18.290710449],[109.35931396500001,18.292114258],[109.36688232400002,18.290283203],[109.36688232400002,18.290100098],[109.36791992200001,18.289916992],[109.37048339800002,18.289916992],[109.37048339800002,18.289672852],[109.37689209000001,18.289672852],[109.37689209000001,18.289306641],[109.37731933600001,18.289306641],[109.38128662100002,18.289306641],[109.38128662100002,18.289123535],[109.38153076200001,18.289123535],[109.38153076200001,18.289306641],[109.38549804700001,18.289306641],[109.38549804700001,18.289672852],[109.38629150400001,18.289672852],[109.38629150400001,18.289306641],[109.38647460900002,18.289306641],[109.38647460900002,18.289672852],[109.38970947300001,18.289672852],[109.40527343700002,18.292724609],[109.41772460900002,18.292724609],[109.42590332000002,18.291320801],[109.43029785200001,18.289306641],[109.43048095700001,18.289306641],[109.43090820300002,18.289123535],[109.43109130900001,18.289123535],[109.43109130900001,18.288879395],[109.43151855500001,18.288879395],[109.43328857400002,18.288879395],[109.43328857400002,18.288513184],[109.43347168000001,18.288513184],[109.43347168000001,18.288330078],[109.43432617200001,18.288330078],[109.43432617200001,18.288513184],[109.43469238300001,18.288513184],[109.43469238300001,18.288330078],[109.43572998000002,18.288330078],[109.43572998000002,18.287902832],[109.4375,18.287902832],[109.4375,18.287719727],[109.43969726600001,18.287719727],[109.43969726600001,18.287475586],[109.43988037100002,18.287475586],[109.43988037100002,18.287109375],[109.44110107400002,18.287109375],[109.44110107400002,18.28692627],[109.44152832000002,18.28692627],[109.44152832000002,18.286499023],[109.44268798800002,18.286499023],[109.44268798800002,18.286315918],[109.44372558600001,18.286315918],[109.44372558600001,18.285888672],[109.44470214800002,18.285888672],[109.44470214800002,18.285705566],[109.44628906200002,18.285705566],[109.44628906200002,18.285888672],[109.44750976600001,18.285888672],[109.44750976600001,18.285705566],[109.44830322300001,18.285705566],[109.44830322300001,18.285522461],[109.44848632800002,18.285522461],[109.44848632800002,18.28527832],[109.44909668000001,18.28527832],[109.44909668000001,18.284912109],[109.45068359400001,18.284912109],[109.45068359400001,18.284729004],[109.45129394500002,18.284729004],[109.45129394500002,18.284301758],[109.45251464800002,18.284301758],[109.45251464800002,18.284118652],[109.45288085900002,18.284118652],[109.45288085900002,18.283874512],[109.45330810500002,18.283874512],[109.45330810500002,18.283508301],[109.45489502,18.283508301],[109.45489502,18.283325195],[109.45507812500001,18.283325195],[109.45507812500001,18.282897949],[109.45611572300001,18.283081055],[109.45611572300001,18.282714844],[109.45727539100001,18.282714844],[109.45727539100001,18.282287598],[109.45788574200002,18.282287598],[109.45788574200002,18.282104492],[109.45831298800002,18.282104492],[109.45831298800002,18.281921387],[109.45910644500002,18.281921387],[109.45910644500002,18.281311035],[109.45989990200002,18.281311035],[109.45989990200002,18.280883789],[109.46051025400001,18.280883789],[109.46051025400001,18.280700684],[109.46112060500002,18.280700684],[109.46112060500002,18.280517578],[109.46191406200002,18.280517578],[109.46191406200002,18.280273437],[109.46270752,18.280273437],[109.46270752,18.279907227],[109.46368408200001,18.279907227],[109.46368408200001,18.279724121],[109.46411132800002,18.279724121],[109.46411132800002,18.279296875],[109.46429443400001,18.279296875],[109.46472168000001,18.279296875],[109.46630859400001,18.278686523],[109.46868896500001,18.277282715],[109.46948242200001,18.276916504],[109.46972656200002,18.276916504],[109.47009277300002,18.276489258],[109.47070312500001,18.276489258],[109.47070312500001,18.276306152],[109.47088623000002,18.276306152],[109.47113037100002,18.276123047],[109.47113037100002,18.275878906],[109.47131347700001,18.275878906],[109.47149658200001,18.275695801],[109.47192382800002,18.275695801],[109.47192382800002,18.275512695],[109.47210693400001,18.275512695],[109.47747802700002,18.272277832],[109.47772216800001,18.272277832],[109.47790527300002,18.272094727],[109.47827148400002,18.272094727],[109.47827148400002,18.271911621],[109.47888183600001,18.271484375],[109.48712158200001,18.264709473],[109.48889160200001,18.261901855],[109.48907470700001,18.261901855],[109.48907470700001,18.261474609],[109.48931884800001,18.261474609],[109.48931884800001,18.261291504],[109.48992919900002,18.261291504],[109.48992919900002,18.260681152],[109.49011230500001,18.260681152],[109.49011230500001,18.260498047],[109.49047851600001,18.260498047],[109.49047851600001,18.259887695],[109.49072265600002,18.259887695],[109.49072265600002,18.25970459],[109.49127197300001,18.25970459],[109.49127197300001,18.259277344],[109.49151611300002,18.259277344],[109.49151611300002,18.258911133],[109.49188232400002,18.258911133],[109.49188232400002,18.258483887],[109.49212646500001,18.258483887],[109.49212646500001,18.258300781],[109.49249267600001,18.258300781],[109.49249267600001,18.257873535],[109.49267578100002,18.257873535],[109.49267578100002,18.25769043],[109.49291992200001,18.25769043],[109.49291992200001,18.257507324],[109.49328613300001,18.257507324],[109.49328613300001,18.256896973],[109.49353027300002,18.256896973],[109.49353027300002,18.256530762],[109.49328613300001,18.256530762],[109.49328613300001,18.256103516],[109.49389648400002,18.256103516],[109.49389648400002,18.25567627],[109.49407959000001,18.25567627],[109.49407959000001,18.255493164],[109.49432373000002,18.255493164],[109.49432373000002,18.254882812],[109.49468994100002,18.254882812],[109.49468994100002,18.254089355],[109.49487304700001,18.254089355],[109.49487304700001,18.253479004],[109.49548339800002,18.253479004],[109.49548339800002,18.252929687],[109.49572753900001,18.252929687],[109.49572753900001,18.25189209],[109.49609375000001,18.25189209],[109.49609375000001,18.251281738],[109.49627685500002,18.251281738],[109.49627685500002,18.250488281],[109.49652099600002,18.250488281],[109.49652099600002,18.248291016],[109.49627685500002,18.248291016],[109.49627685500002,18.247680664],[109.49652099600002,18.247680664],[109.49652099600002,18.246520996],[109.49688720700001,18.246520996],[109.49688720700001,18.244689941],[109.49707031200002,18.244689941],[109.49707031200002,18.243286133],[109.49749755900001,18.243286133],[109.49749755900001,18.242675781],[109.49792480500001,18.242675781],[109.49792480500001,18.242492676],[109.49829101600001,18.242492676],[109.49829101600001,18.241516113],[109.49792480500001,18.241516113],[109.49792480500001,18.241271973],[109.49768066400001,18.241271973],[109.49768066400001,18.240478516],[109.49749755900001,18.240478516],[109.49749755900001,18.240112305],[109.49707031200002,18.240112305],[109.49707031200002,18.239929199],[109.49688720700001,18.239929199],[109.49688720700001,18.239685059],[109.49652099600002,18.239685059],[109.49890136700002,18.234680176],[109.49829101600001,18.231506348],[109.49353027300002,18.231079102],[109.49249267600001,18.229125977],[109.49450683600001,18.223510742],[109.49353027300002,18.22052002],[109.48992919900002,18.218322754],[109.48968505900001,18.218322754],[109.48968505900001,18.217712402],[109.48931884800001,18.217712402],[109.48931884800001,18.217285156],[109.48907470700001,18.217285156],[109.48907470700001,18.217102051],[109.48852539100001,18.217102051],[109.48852539100001,18.216674805],[109.48828125000001,18.216674805],[109.48828125000001,18.216308594],[109.48791503900001,18.216308594],[109.48791503900001,18.215881348],[109.48712158200001,18.215881348],[109.48712158200001,18.215515137],[109.48687744100002,18.215515137],[109.48687744100002,18.215087891],[109.48632812500001,18.215087891],[109.48632812500001,18.214904785],[109.48608398400002,18.214904785],[109.48608398400002,18.21472168],[109.48547363300001,18.21472168],[109.48547363300001,18.214294434],[109.48431396500001,18.214294434],[109.48431396500001,18.214111328],[109.48388671900001,18.214111328],[109.48388671900001,18.213684082],[109.48327636700002,18.213684082],[109.48327636700002,18.213500977],[109.48248291000002,18.213500977],[109.48248291000002,18.213317871],[109.48132324200002,18.213317871],[109.47088623000002,18.207092285],[109.47088623000002,18.206115723],[109.47131347700001,18.206115723],[109.47131347700001,18.205505371],[109.47088623000002,18.205505371],[109.47088623000002,18.204711914],[109.47088623000002,18.204284668],[109.47747802700002,18.198120117],[109.47729492200001,18.192077637],[109.47772216800001,18.192077637],[109.47772216800001,18.191894531],[109.47790527300002,18.191894531],[109.47790527300002,18.19152832],[109.47827148400002,18.19152832],[109.47827148400002,18.190673828],[109.47851562500001,18.190673828],[109.47851562500001,18.190124512],[109.47888183600001,18.190124512],[109.47888183600001,18.189880371],[109.47888183600001,18.189697266],[109.47912597700001,18.189697266],[109.47912597700001,18.18951416],[109.47930908200001,18.18927002],[109.47991943400001,18.18927002],[109.47991943400001,18.189086914],[109.480285645,18.189086914],[109.480285645,18.188903809],[109.48071289100001,18.188903809],[109.48071289100001,18.188476562],[109.48107910200001,18.188476562],[109.48327636700002,18.188720703],[109.48327636700002,18.18927002],[109.48352050800001,18.18927002],[109.48352050800001,18.189697266],[109.48413085900002,18.189697266],[109.48413085900002,18.189880371],[109.48510742200001,18.189880371],[109.48510742200001,18.190124512],[109.48571777300002,18.190124512],[109.48571777300002,18.189880371],[109.48608398400002,18.189880371],[109.49072265600002,18.193115234],[109.49371337900001,18.201721191],[109.49487304700001,18.202880859],[109.49487304700001,18.203308105],[109.49468994100002,18.203308105],[109.49468994100002,18.204284668],[109.49487304700001,18.204284668],[109.49487304700001,18.20489502],[109.49511718700002,18.20489502],[109.49511718700002,18.205688477],[109.49572753900001,18.205688477],[109.49572753900001,18.206115723],[109.49609375000001,18.206115723],[109.49609375000001,18.206298828],[109.49609375000001,18.206481934],[109.49627685500002,18.206481934],[109.49627685500002,18.207275391],[109.49652099600002,18.207275391],[109.49652099600002,18.209716797],[109.49688720700001,18.209716797],[109.49688720700001,18.211486816],[109.49707031200002,18.211486816],[109.49707031200002,18.211914062],[109.49768066400001,18.211914062],[109.49768066400001,18.212097168],[109.49829101600001,18.212097168],[109.49829101600001,18.211914062],[109.49871826200001,18.211914062],[109.49871826200001,18.211486816],[109.50048828100002,18.211486816],[109.50048828100002,18.211303711],[109.50067138700001,18.211303711],[109.50067138700001,18.211120605],[109.50152587900001,18.211120605],[109.50152587900001,18.210693359],[109.50189209000001,18.210693359],[109.50189209000001,18.210510254],[109.50250244100002,18.210510254],[109.50250244100002,18.210083008],[109.51049804700001,18.217895508],[109.51049804700001,18.218322754],[109.51007080100001,18.218322754],[109.51007080100001,18.218688965],[109.51068115200002,18.218688965],[109.51068115200002,18.219116211],[109.51129150400001,18.219116211],[109.51129150400001,18.219299316],[109.51190185500002,18.219299316],[109.51190185500002,18.220275879],[109.51208496100001,18.220275879],[109.51208496100001,18.22052002],[109.51232910200001,18.22052002],[109.51232910200001,18.22088623],[109.51287841800001,18.22088623],[109.51287841800001,18.221313477],[109.51330566400001,18.221313477],[109.51330566400001,18.221679687],[109.51507568400001,18.221679687],[109.51507568400001,18.221923828],[109.51647949200002,18.221923828],[109.51788330100001,18.222473145],[109.52429199200002,18.222106934],[109.53210449200002,18.215270996],[109.53692627,18.208129883],[109.53930664100001,18.207519531],[109.53967285200001,18.211486816],[109.53967285200001,18.212280273],[109.53930664100001,18.212280273],[109.53930664100001,18.213317871],[109.53967285200001,18.213317871],[109.53967285200001,18.213500977],[109.53930664100001,18.213500977],[109.53930664100001,18.213684082],[109.53967285200001,18.213684082],[109.53967285200001,18.214904785],[109.53991699200002,18.214904785],[109.53991699200002,18.215087891],[109.53967285200001,18.215087891],[109.53967285200001,18.215881348],[109.53991699200002,18.215881348],[109.53991699200002,18.216918945],[109.53967285200001,18.216918945],[109.53967285200001,18.217285156],[109.53710937500001,18.222106934],[109.53509521500001,18.222106934],[109.53448486300002,18.222106934],[109.53448486300002,18.222473145],[109.53430175800001,18.222473145],[109.53430175800001,18.222900391],[109.53430175800001,18.223327637],[109.53411865200002,18.223327637],[109.53411865200002,18.224121094],[109.53350830100001,18.224121094],[109.53332519500002,18.224121094],[109.53332519500002,18.224304199],[109.53289794900002,18.224304199],[109.53289794900002,18.22467041],[109.53228759800001,18.22467041],[109.53228759800001,18.224914551],[109.53210449200002,18.224914551],[109.53210449200002,18.225280762],[109.53149414100001,18.225280762],[109.53149414100001,18.225524902],[109.53131103500002,18.225524902],[109.53131103500002,18.226928711],[109.53192138700001,18.226928711],[109.53192138700001,18.227111816],[109.53228759800001,18.227111816],[109.53228759800001,18.227722168],[109.53289794900002,18.227722168],[109.53289794900002,18.228271484],[109.53332519500002,18.228271484],[109.53332519500002,18.228515625],[109.53350830100001,18.228515625],[109.53350830100001,18.229125977],[109.53387451200001,18.229125977],[109.53387451200001,18.229309082],[109.53430175800001,18.229309082],[109.53430175800001,18.229919434],[109.53448486300002,18.229919434],[109.53448486300002,18.230285645],[109.53527832000002,18.230285645],[109.53527832000002,18.230712891],[109.53570556600002,18.230712891],[109.53570556600002,18.231323242],[109.53588867200001,18.231323242],[109.53588867200001,18.231506348],[109.53631591800001,18.231506348],[109.53631591800001,18.231872559],[109.53649902300002,18.231872559],[109.53649902300002,18.232116699],[109.53692627,18.232116699],[109.53692627,18.23248291],[109.53747558600001,18.23248291],[109.53967285200001,18.233886719],[109.55590820300002,18.240112305],[109.56530761700002,18.246520996],[109.56512451200001,18.246520996],[109.56512451200001,18.247680664],[109.56488037100002,18.247680664],[109.56488037100002,18.249511719],[109.56488037100002,18.249694824],[109.56469726600001,18.249694824],[109.56469726600001,18.250671387],[109.56488037100002,18.250671387],[109.56488037100002,18.251098633],[109.56469726600001,18.251098633],[109.56469726600001,18.251281738],[109.56427002,18.251281738],[109.56427002,18.252685547],[109.56488037100002,18.252685547],[109.56488037100002,18.253295898],[109.56549072300001,18.253295898],[109.56549072300001,18.253479004],[109.56610107400002,18.253479004],[109.56610107400002,18.253723145],[109.56652832000002,18.253723145],[109.56652832000002,18.254089355],[109.56689453100002,18.254089355],[109.56689453100002,18.255126953],[109.56652832000002,18.255126953],[109.56652832000002,18.256103516],[109.56628418000001,18.256103516],[109.56628418000001,18.257080078],[109.56610107400002,18.257080078],[109.56610107400002,18.25769043],[109.56567382800002,18.25769043],[109.56567382800002,18.258300781],[109.56549072300001,18.258300781],[109.56549072300001,18.258911133],[109.56512451200001,18.258911133],[109.56512451200001,18.261291504],[109.56628418000001,18.261291504],[109.56628418000001,18.261474609],[109.56610107400002,18.261474609],[109.56610107400002,18.262512207],[109.56628418000001,18.262329102],[109.56628418000001,18.262878418],[109.56750488300001,18.262878418],[109.56750488300001,18.262695312],[109.56768798800002,18.262695312],[109.56768798800002,18.262329102],[109.56829834000001,18.262512207],[109.56829834000001,18.262084961],[109.56848144500002,18.262084961],[109.56848144500002,18.261901855],[109.56909179700001,18.261901855],[109.56909179700001,18.260681152],[109.56872558600001,18.260681152],[109.56872558600001,18.259887695],[109.56707763700001,18.259887695],[109.56707763700001,18.259094238],[109.56750488300001,18.259094238],[109.56750488300001,18.258911133],[109.56787109400001,18.258911133],[109.56787109400001,18.258483887],[109.56848144500002,18.258483887],[109.56848144500002,18.258300781],[109.56909179700001,18.258300781],[109.56909179700001,18.257873535],[109.56927490200002,18.257873535],[109.56927490200002,18.25769043],[109.56988525400001,18.25769043],[109.56988525400001,18.257324219],[109.56988525400001,18.256286621],[109.56970214800002,18.256286621],[109.56970214800002,18.25567627],[109.56927490200002,18.25567627],[109.56927490200002,18.255126953],[109.56988525400001,18.255126953],[109.56988525400001,18.252502441],[109.570129395,18.252502441],[109.570129395,18.251525879],[109.57049560500002,18.251525879],[109.57049560500002,18.251281738],[109.57067871100001,18.251281738],[109.57067871100001,18.251098633],[109.57110595700001,18.251098633],[109.57110595700001,18.250488281],[109.57128906200002,18.250488281],[109.57128906200002,18.24987793],[109.57189941400001,18.24987793],[109.57189941400001,18.249694824],[109.57250976600001,18.249694824],[109.57250976600001,18.247924805],[109.57269287100002,18.247924805],[109.57269287100002,18.247070312],[109.57287597700001,18.247070312],[109.57287597700001,18.244873047],[109.57330322300001,18.244873047],[109.57330322300001,18.242126465],[109.57373046900001,18.242126465],[109.57373046900001,18.241516113],[109.57409668000001,18.241516113],[109.57409668000001,18.240112305],[109.57348632800002,18.240112305],[109.57348632800002,18.239685059],[109.57147216800001,18.239685059],[109.57147216800001,18.239318848],[109.56988525400001,18.239318848],[109.56988525400001,18.239074707],[109.56927490200002,18.239074707],[109.56927490200002,18.23828125],[109.56909179700001,18.23828125],[109.56909179700001,18.237915039],[109.56872558600001,18.237915039],[109.56872558600001,18.237670898],[109.56848144500002,18.237670898],[109.56848144500002,18.237487793],[109.56787109400001,18.237487793],[109.56787109400001,18.237121582],[109.56750488300001,18.237121582],[109.56750488300001,18.236877441],[109.56549072300001,18.236877441],[109.56549072300001,18.23651123],[109.56469726600001,18.23651123],[109.56469726600001,18.236328125],[109.56427002,18.236328125],[109.56427002,18.236083984],[109.56390380900001,18.236083984],[109.56390380900001,18.235717773],[109.56329345700001,18.235717773],[109.56329345700001,18.235473633],[109.56268310500002,18.235473633],[109.56268310500002,18.235290527],[109.5625,18.235290527],[109.5625,18.234924316],[109.56188964800002,18.234924316],[109.56188964800002,18.234680176],[109.56127929700001,18.234680176],[109.56127929700001,18.234313965],[109.56011962900001,18.234313965],[109.55828857400002,18.234313965],[109.55828857400002,18.234130859],[109.55792236300002,18.234130859],[109.55792236300002,18.233886719],[109.55749511700002,18.233886719],[109.55749511700002,18.233520508],[109.55712890600002,18.233520508],[109.55712890600002,18.233276367],[109.55688476600001,18.233276367],[109.55688476600001,18.232910156],[109.55651855500001,18.232910156],[109.55651855500001,18.23248291],[109.55627441400001,18.23248291],[109.55627441400001,18.232116699],[109.55609130900001,18.232116699],[109.55609130900001,18.231872559],[109.55572509800001,18.231872559],[109.55572509800001,18.231323242],[109.55511474600002,18.231323242],[109.55511474600002,18.231506348],[109.55487060500002,18.231506348],[109.55487060500002,18.231872559],[109.55432128900001,18.231872559],[109.55432128900001,18.231323242],[109.55407714800002,18.231323242],[109.55407714800002,18.231079102],[109.55468750000001,18.231079102],[109.55468750000001,18.230712891],[109.55511474600002,18.230712891],[109.55511474600002,18.230529785],[109.55609130900001,18.230529785],[109.55609130900001,18.230712891],[109.55627441400001,18.230712891],[109.55627441400001,18.231079102],[109.55688476600001,18.231079102],[109.55688476600001,18.231323242],[109.55712890600002,18.231323242],[109.55712890600002,18.231506348],[109.55792236300002,18.231506348],[109.55792236300002,18.231079102],[109.55828857400002,18.231079102],[109.55828857400002,18.230712891],[109.55847168000001,18.230712891],[109.55847168000001,18.230529785],[109.55792236300002,18.230529785],[109.55792236300002,18.230285645],[109.55712890600002,18.230285645],[109.55712890600002,18.229919434],[109.55651855500001,18.229919434],[109.55651855500001,18.229309082],[109.55627441400001,18.229309082],[109.55627441400001,18.228881836],[109.55609130900001,18.228881836],[109.55609130900001,18.228271484],[109.55432128900001,18.228271484],[109.55432128900001,18.228515625],[109.55407714800002,18.228515625],[109.55407714800002,18.229125977],[109.55389404300001,18.229125977],[109.55389404300001,18.229309082],[109.55352783200001,18.229309082],[109.55352783200001,18.229675293],[109.55328369100002,18.229675293],[109.55291748000002,18.229675293],[109.55291748000002,18.229919434],[109.55267334000001,18.229919434],[109.55267334000001,18.230285645],[109.55249023400002,18.230285645],[109.55249023400002,18.229919434],[109.55187988300001,18.229919434],[109.55187988300001,18.229309082],[109.55151367200001,18.229309082],[109.55151367200001,18.228881836],[109.55133056600002,18.228881836],[109.55133056600002,18.22869873],[109.55133056600002,18.228271484],[109.55072021500001,18.228271484],[109.55072021500001,18.227905273],[109.55047607400002,18.227905273],[109.55047607400002,18.227722168],[109.55029296900001,18.227722168],[109.55029296900001,18.227478027],[109.54888916000002,18.227478027],[109.54827880900001,18.227478027],[109.54827880900001,18.227111816],[109.54791259800001,18.227111816],[109.54791259800001,18.22668457],[109.54791259800001,18.226501465],[109.54772949200002,18.226501465],[109.54772949200002,18.226318359],[109.54748535200001,18.226318359],[109.54748535200001,18.226074219],[109.546875,18.226074219],[109.546875,18.225708008],[109.54650878900001,18.225708008],[109.54650878900001,18.225524902],[109.54632568400001,18.225524902],[109.54632568400001,18.225280762],[109.54608154300001,18.225280762],[109.54608154300001,18.224914551],[109.54547119100002,18.224914551],[109.54547119100002,18.22467041],[109.54510498000002,18.22467041],[109.54510498000002,18.224304199],[109.54492187500001,18.224304199],[109.54467773400002,18.223693848],[109.54711914100001,18.22088623],[109.55090332000002,18.221313477],[109.55407714800002,18.219726562],[109.55529785200001,18.217102051],[109.55548095700001,18.217102051],[109.55548095700001,18.216918945],[109.55609130900001,18.216918945],[109.55609130900001,18.216491699],[109.55688476600001,18.216674805],[109.55688476600001,18.216308594],[109.55712890600002,18.216308594],[109.55712890600002,18.215881348],[109.55767822300001,18.215881348],[109.55767822300001,18.215515137],[109.55792236300002,18.215515137],[109.55792236300002,18.21472168],[109.55828857400002,18.21472168],[109.55828857400002,18.214111328],[109.55847168000001,18.214111328],[109.55847168000001,18.21307373],[109.55828857400002,18.21307373],[109.55828857400002,18.21270752],[109.55792236300002,18.21270752],[109.55792236300002,18.212280273],[109.55712890600002,18.212280273],[109.55749511700002,18.211303711],[109.55871582000002,18.210083008],[109.55908203100002,18.210083008],[109.55908203100002,18.209899902],[109.56072998000002,18.209899902],[109.56072998000002,18.209716797],[109.56127929700001,18.209716797],[109.56127929700001,18.209289551],[109.56188964800002,18.209289551],[109.56188964800002,18.209106445],[109.56292724600002,18.209106445],[109.57067871100001,18.208496094],[109.57110595700001,18.208496094],[109.57147216800001,18.208496094],[109.57208252,18.207885742],[109.57269287100002,18.207885742],[109.57269287100002,18.207702637],[109.57330322300001,18.207702637],[109.57330322300001,18.207275391],[109.57348632800002,18.207275391],[109.57348632800002,18.207092285],[109.57373046900001,18.207092285],[109.57373046900001,18.206726074],[109.57611084000001,18.20489502],[109.57330322300001,18.201904297],[109.57330322300001,18.20111084],[109.57287597700001,18.20111084],[109.57287597700001,18.200500488],[109.57269287100002,18.200500488],[109.57269287100002,18.200073242],[109.57250976600001,18.200073242],[109.57250976600001,18.199890137],[109.57208252,18.199890137],[109.57208252,18.199707031],[109.57189941400001,18.199707031],[109.57189941400001,18.199279785],[109.57147216800001,18.199279785],[109.57147216800001,18.19909668],[109.57110595700001,18.19909668],[109.57067871100001,18.19909668],[109.57067871100001,18.198486328],[109.57092285200001,18.198486328],[109.57110595700001,18.198486328],[109.57110595700001,18.197875977],[109.57067871100001,18.197875977],[109.57067871100001,18.197509766],[109.57049560500002,18.197509766],[109.57049560500002,18.19708252],[109.570129395,18.19708252],[109.570129395,18.196899414],[109.56970214800002,18.196899414],[109.56970214800002,18.196472168],[109.56927490200002,18.196472168],[109.56927490200002,18.196289062],[109.56909179700001,18.196289062],[109.56787109400001,18.193908691],[109.56988525400001,18.183898926],[109.56707763700001,18.175476074],[109.56732177700002,18.170288086],[109.56909179700001,18.164916992],[109.56927490200002,18.164916992],[109.56927490200002,18.164306641],[109.57250976600001,18.161499023],[109.57269287100002,18.161499023],[109.57287597700001,18.161499023],[109.57287597700001,18.161315918],[109.57348632800002,18.161499023],[109.57348632800002,18.161682129],[109.57348632800002,18.16192627],[109.57330322300001,18.16192627],[109.57330322300001,18.162109375],[109.57287597700001,18.162109375],[109.57287597700001,18.162475586],[109.57330322300001,18.162475586],[109.57330322300001,18.162902832],[109.57287597700001,18.162902832],[109.57287597700001,18.163330078],[109.57269287100002,18.163330078],[109.57269287100002,18.163513184],[109.57208252,18.163513184],[109.57208252,18.164672852],[109.57250976600001,18.164672852],[109.57250976600001,18.165527344],[109.57269287100002,18.165527344],[109.57269287100002,18.166503906],[109.57348632800002,18.166503906],[109.57348632800002,18.167114258],[109.57409668000001,18.167114258],[109.57409668000001,18.167480469],[109.57507324200002,18.167480469],[109.57550048800002,18.168273926],[109.58111572300001,18.169311523],[109.58111572300001,18.170471191],[109.58068847700001,18.170471191],[109.58068847700001,18.171691895],[109.58050537100002,18.171691895],[109.58050537100002,18.172912598],[109.58007812500001,18.172912598],[109.58007812500001,18.173522949],[109.57989502,18.173522949],[109.57989502,18.174316406],[109.57971191400001,18.174316406],[109.57971191400001,18.176330566],[109.57867431600002,18.178894043],[109.58087158200001,18.18170166],[109.58508300800001,18.181274414],[109.58648681600002,18.180114746],[109.58947753900001,18.177490234],[109.59051513700001,18.177490234],[109.59051513700001,18.177124023],[109.59088134800001,18.177124023],[109.59088134800001,18.176879883],[109.59130859400001,18.176879883],[109.59130859400001,18.176513672],[109.59167480500001,18.176513672],[109.59167480500001,18.176086426],[109.59271240200002,18.176086426],[109.59271240200002,18.175720215],[109.59411621100001,18.176330566],[109.59411621100001,18.176513672],[109.59368896500001,18.176513672],[109.59368896500001,18.176879883],[109.59411621100001,18.176879883],[109.59411621100001,18.177124023],[109.59490966800001,18.177124023],[109.59490966800001,18.176879883],[109.59552002,18.176879883],[109.59552002,18.177490234],[109.59631347700001,18.177490234],[109.59631347700001,18.176879883],[109.59667968700002,18.176879883],[109.59667968700002,18.177124023],[109.59832763700001,18.177124023],[109.59832763700001,18.176879883],[109.60369873000002,18.177307129],[109.60491943400001,18.183105469],[109.60772705100001,18.182312012],[109.61572265600002,18.174072266],[109.61950683600001,18.173522949],[109.62048339800002,18.175476074],[109.61968994100002,18.178527832],[109.61968994100002,18.178894043],[109.61950683600001,18.1796875],[109.61932373000002,18.1796875],[109.61932373000002,18.179870605],[109.61907959000001,18.179870605],[109.61907959000001,18.180114746],[109.61889648400002,18.180114746],[109.61889648400002,18.180480957],[109.61853027300002,18.180480957],[109.61853027300002,18.181091309],[109.61889648400002,18.181091309],[109.61889648400002,18.18170166],[109.61767578100002,18.184326172],[109.61730957000002,18.184326172],[109.61712646500001,18.184326172],[109.61712646500001,18.184082031],[109.61627197300001,18.184082031],[109.61627197300001,18.184326172],[109.61608886700002,18.184326172],[109.61608886700002,18.184692383],[109.61547851600001,18.184692383],[109.61547851600001,18.184326172],[109.61511230500001,18.184326172],[109.61511230500001,18.184692383],[109.61492919900002,18.184692383],[109.61492919900002,18.18548584],[109.61468505900001,18.18548584],[109.61468505900001,18.18572998],[109.61492919900002,18.18572998],[109.61492919900002,18.186279297],[109.61511230500001,18.186279297],[109.61511230500001,18.187927246],[109.61511230500001,18.188476562],[109.61492919900002,18.188476562],[109.61492919900002,18.189697266],[109.61468505900001,18.189697266],[109.61468505900001,18.189880371],[109.61431884800001,18.189880371],[109.61431884800001,18.190490723],[109.61407470700001,18.190490723],[109.61407470700001,18.190673828],[109.60913085900002,18.189697266],[109.60827636700002,18.192077637],[109.60827636700002,18.192504883],[109.60791015600002,18.192321777],[109.60791015600002,18.192687988],[109.60748291000002,18.192687988],[109.60748291000002,18.19329834],[109.60711669900002,18.19329834],[109.60711669900002,18.193725586],[109.60687255900001,18.193725586],[109.60687255900001,18.195495605],[109.60711669900002,18.195495605],[109.60711669900002,18.196289062],[109.60748291000002,18.196289062],[109.60748291000002,18.196472168],[109.60772705100001,18.196472168],[109.60772705100001,18.19708252],[109.60791015600002,18.19708252],[109.60791015600002,18.197509766],[109.60852050800001,18.197509766],[109.60852050800001,18.197875977],[109.60913085900002,18.197875977],[109.60913085900002,18.198120117],[109.60913085900002,18.198303223],[109.61248779300001,18.216918945],[109.61669921900001,18.221313477],[109.62390136700002,18.224914551],[109.62652587900001,18.225891113],[109.62689209000001,18.226074219],[109.62689209000001,18.226318359],[109.62768554700001,18.226318359],[109.62768554700001,18.226501465],[109.62792968700002,18.226501465],[109.62792968700002,18.226928711],[109.62829589800002,18.226928711],[109.62829589800002,18.227111816],[109.62847900400001,18.227111816],[109.62847900400001,18.227478027],[109.63049316400001,18.227478027],[109.63049316400001,18.227722168],[109.63128662100002,18.227722168],[109.63128662100002,18.228271484],[109.63153076200001,18.228271484],[109.63153076200001,18.228515625],[109.63250732400002,18.228515625],[109.63250732400002,18.228881836],[109.63269043000001,18.228881836],[109.63269043000001,18.228515625],[109.63330078100002,18.228515625],[109.63330078100002,18.228881836],[109.63348388700001,18.228881836],[109.63348388700001,18.229125977],[109.63488769500002,18.229125977],[109.63488769500002,18.229309082],[109.63549804700001,18.229309082],[109.63549804700001,18.229675293],[109.63629150400001,18.229675293],[109.63629150400001,18.229919434],[109.63732910200001,18.229919434],[109.63732910200001,18.230285645],[109.63830566400001,18.230285645],[109.63830566400001,18.230529785],[109.64007568400001,18.230529785],[109.64007568400001,18.230712891],[109.64129638700001,18.230712891],[109.64129638700001,18.231079102],[109.64251709000001,18.231079102],[109.64251709000001,18.230712891],[109.64270019500002,18.230712891],[109.64270019500002,18.231079102],[109.64288330100001,18.231079102],[109.64288330100001,18.231506348],[109.64331054700001,18.231506348],[109.64331054700001,18.231872559],[109.64349365200002,18.231872559],[109.64349365200002,18.232116699],[109.64471435500002,18.232116699],[109.64471435500002,18.231872559],[109.64508056600002,18.231872559],[109.64508056600002,18.232116699],[109.64569091800001,18.232116699],[109.64569091800001,18.23248291],[109.64770507800002,18.23248291],[109.64770507800002,18.232727051],[109.64831543000001,18.232727051],[109.64831543000001,18.23248291],[109.64971923800002,18.23248291],[109.64971923800002,18.232727051],[109.65051269500002,18.232727051],[109.65051269500002,18.23248291],[109.65069580100001,18.23248291],[109.65069580100001,18.232727051],[109.65191650400001,18.232727051],[109.65191650400001,18.23248291],[109.65332031200002,18.23248291],[109.65332031200002,18.232727051],[109.65368652300002,18.232727051],[109.65368652300002,18.232910156],[109.65527343700002,18.232910156],[109.65527343700002,18.232727051],[109.65832519500002,18.232727051],[109.65832519500002,18.232910156],[109.65930175800001,18.232910156],[109.65930175800001,18.233276367],[109.65972900400001,18.233276367],[109.65972900400001,18.233520508],[109.65991210900002,18.233520508],[109.65991210900002,18.233276367],[109.66027832000002,18.233276367],[109.66027832000002,18.233520508],[109.66070556600002,18.233520508],[109.66070556600002,18.233886719],[109.66131591800001,18.233886719],[109.66131591800001,18.234130859],[109.66149902300002,18.234130859],[109.66149902300002,18.234313965],[109.66210937500001,18.234313965],[109.66210937500001,18.234680176],[109.66271972700001,18.234680176],[109.66271972700001,18.234924316],[109.66351318400001,18.234924316],[109.66351318400001,18.235290527],[109.66412353500002,18.235290527],[109.66412353500002,18.235473633],[109.66491699200002,18.235473633],[109.66491699200002,18.235717773],[109.66571044900002,18.235717773],[109.66571044900002,18.236083984],[109.66888427700002,18.236083984],[109.66888427700002,18.236328125],[109.66931152300002,18.236328125],[109.66931152300002,18.23651123],[109.66992187500001,18.23651123],[109.66992187500001,18.236877441],[109.67150878900001,18.236877441],[109.67150878900001,18.237121582],[109.67291259800001,18.237121582],[109.67291259800001,18.237487793],[109.67327880900001,18.237487793],[109.67327880900001,18.237121582],[109.67407226600001,18.237121582],[109.67407226600001,18.237487793],[109.67608642600001,18.237487793],[109.67608642600001,18.237121582],[109.67889404300001,18.237121582],[109.67889404300001,18.236877441],[109.68011474600002,18.236877441],[109.68151855500001,18.23651123],[109.68212890600002,18.23651123],[109.68212890600002,18.236328125],[109.68328857400002,18.236328125],[109.68328857400002,18.236083984],[109.68432617200001,18.236083984],[109.68432617200001,18.235717773],[109.68469238300001,18.235717773],[109.68469238300001,18.235473633],[109.68487548800002,18.235473633],[109.68572998000002,18.235473633],[109.68572998000002,18.235290527],[109.68627929700001,18.235290527],[109.68627929700001,18.234680176],[109.68652343700002,18.234680176],[109.68652343700002,18.234313965],[109.68688964800002,18.234313965],[109.68688964800002,18.234130859],[109.68707275400001,18.234130859],[109.68707275400001,18.233520508],[109.68768310500002,18.233520508],[109.68768310500002,18.232910156],[109.68792724600002,18.232910156],[109.68792724600002,18.23248291],[109.68829345700001,18.23248291],[109.68829345700001,18.231872559],[109.68847656200002,18.231872559],[109.68847656200002,18.231689453],[109.68988037100002,18.229919434],[109.69012451200001,18.229675293],[109.69012451200001,18.229492187],[109.69128418000001,18.228271484],[109.69152832000002,18.228271484],[109.69152832000002,18.227905273],[109.69189453100002,18.227905273],[109.69189453100002,18.228271484],[109.69207763700001,18.228271484],[109.69207763700001,18.228515625],[109.69250488300001,18.228515625],[109.69250488300001,18.228271484],[109.69287109400001,18.228271484],[109.69287109400001,18.227905273],[109.69348144500002,18.227905273],[109.69348144500002,18.227722168],[109.69409179700001,18.227722168],[109.69409179700001,18.227111816],[109.69470214800002,18.227111816],[109.69470214800002,18.226928711],[109.69488525400001,18.226928711],[109.69488525400001,18.226318359],[109.695129395,18.226318359],[109.695129395,18.226074219],[109.69549560500002,18.226074219],[109.69549560500002,18.225524902],[109.69567871100001,18.225524902],[109.69567871100001,18.225280762],[109.69610595700001,18.225280762],[109.69610595700001,18.222900391],[109.69628906200002,18.222900391],[109.69628906200002,18.222473145],[109.69610595700001,18.222473145],[109.69610595700001,18.222290039],[109.69708252,18.221130371],[109.69427490200002,18.219116211],[109.69409179700001,18.219116211],[109.69409179700001,18.218688965],[109.69372558600001,18.218688965],[109.69372558600001,18.218505859],[109.69348144500002,18.218505859],[109.69348144500002,18.218688965],[109.69287109400001,18.218078613],[109.69067382800002,18.213317871],[109.69671630900001,18.203918457],[109.70068359400001,18.201721191],[109.70269775400001,18.196899414],[109.70288085900002,18.196899414],[109.71130371100001,18.198303223],[109.71130371100001,18.19909668],[109.71112060500002,18.19909668],[109.71112060500002,18.199890137],[109.71069335900002,18.199890137],[109.71069335900002,18.200500488],[109.71032714800002,18.200500488],[109.71008300800001,18.200500488],[109.71008300800001,18.20111084],[109.70989990200002,18.20111084],[109.70989990200002,18.201293945],[109.70971679700001,18.201293945],[109.70971679700001,18.201904297],[109.70928955100001,18.201904297],[109.70928955100001,18.202270508],[109.70910644500002,18.202270508],[109.70910644500002,18.202697754],[109.70867919900002,18.202697754],[109.70867919900002,18.203308105],[109.70867919900002,18.203674316],[109.70849609400001,18.203674316],[109.70849609400001,18.204101562],[109.70751953100002,18.205078125],[109.70672607400002,18.207702637],[109.70629882800002,18.207702637],[109.70629882800002,18.207885742],[109.70611572300001,18.207885742],[109.70611572300001,18.208312988],[109.70428466800001,18.208312988],[109.70410156200002,18.208312988],[109.70410156200002,18.208496094],[109.70288085900002,18.208496094],[109.70288085900002,18.208679199],[109.70251464800002,18.208679199],[109.70251464800002,18.209106445],[109.70208740200002,18.209106445],[109.70208740200002,18.211303711],[109.70251464800002,18.211303711],[109.70251464800002,18.212280273],[109.70269775400001,18.212280273],[109.70269775400001,18.21307373],[109.70288085900002,18.212890625],[109.70288085900002,18.213684082],[109.70349121100001,18.213684082],[109.70349121100001,18.214294434],[109.70367431600002,18.214294434],[109.70367431600002,18.21472168],[109.70410156200002,18.21472168],[109.70410156200002,18.214904785],[109.70428466800001,18.214904785],[109.70428466800001,18.215515137],[109.70471191400001,18.215515137],[109.70471191400001,18.215698242],[109.70489502,18.215698242],[109.70489502,18.215881348],[109.70507812500001,18.215881348],[109.70507812500001,18.216674805],[109.70550537100002,18.216674805],[109.70550537100002,18.217102051],[109.70611572300001,18.217102051],[109.70611572300001,18.217285156],[109.70629882800002,18.217285156],[109.70629882800002,18.217712402],[109.70690918000001,18.217712402],[109.70690918000001,18.217895508],[109.70727539100001,18.217895508],[109.70727539100001,18.218322754],[109.70788574200002,18.218322754],[109.70812988300001,18.219299316],[109.70910644500002,18.219909668],[109.71228027300002,18.222106934],[109.71667480500001,18.22088623],[109.72192382800002,18.21472168],[109.72210693400001,18.21472168],[109.72210693400001,18.214294434],[109.72229003900001,18.214111328],[109.722473145,18.214111328],[109.722473145,18.213928223],[109.722473145,18.213684082],[109.72290039100001,18.213684082],[109.72290039100001,18.213500977],[109.72332763700001,18.213500977],[109.72332763700001,18.21307373],[109.72332763700001,18.212890625],[109.72387695300002,18.21307373],[109.72387695300002,18.21270752],[109.72430419900002,18.21270752],[109.72430419900002,18.212280273],[109.72467041000002,18.212280273],[109.72467041000002,18.212097168],[109.72528076200001,18.212097168],[109.72528076200001,18.212280273],[109.72552490200002,18.212280273],[109.72552490200002,18.21270752],[109.72570800800001,18.21270752],[109.72570800800001,18.212280273],[109.72607421900001,18.212280273],[109.72607421900001,18.21270752],[109.72692871100001,18.21270752],[109.72772216800001,18.214477539],[109.72772216800001,18.214904785],[109.72747802700002,18.214904785],[109.72747802700002,18.215087891],[109.72772216800001,18.215087891],[109.72772216800001,18.215515137],[109.72790527300002,18.215515137],[109.72790527300002,18.215698242],[109.72827148400002,18.215698242],[109.72827148400002,18.215881348],[109.72851562500001,18.216308594],[109.72827148400002,18.216308594],[109.72827148400002,18.216918945],[109.72888183600001,18.216918945],[109.72888183600001,18.217102051],[109.72851562500001,18.217102051],[109.72851562500001,18.217285156],[109.72790527300002,18.217285156],[109.72790527300002,18.217712402],[109.72827148400002,18.217712402],[109.72827148400002,18.217895508],[109.72851562500001,18.217895508],[109.72851562500001,18.219116211],[109.72827148400002,18.219116211],[109.72827148400002,18.219909668],[109.72888183600001,18.219909668],[109.72888183600001,18.220275879],[109.72912597700001,18.220275879],[109.72912597700001,18.221679687],[109.72930908200001,18.221679687],[109.72930908200001,18.222106934],[109.72967529300001,18.222106934],[109.72967529300001,18.223327637],[109.73010253900001,18.223327637],[109.72967529300001,18.226074219],[109.72967529300001,18.226501465],[109.72888183600001,18.226501465],[109.72888183600001,18.226928711],[109.72912597700001,18.226928711],[109.72912597700001,18.227111816],[109.72888183600001,18.227111816],[109.72888183600001,18.227722168],[109.72851562500001,18.227722168],[109.72851562500001,18.229309082],[109.72772216800001,18.229309082],[109.72772216800001,18.229675293],[109.72747802700002,18.229675293],[109.72747802700002,18.229919434],[109.72729492200001,18.229919434],[109.72711181600002,18.229919434],[109.72711181600002,18.230285645],[109.72692871100001,18.230285645],[109.72692871100001,18.231323242],[109.72650146500001,18.231323242],[109.72650146500001,18.231506348],[109.72631835900002,18.231506348],[109.72631835900002,18.231872559],[109.72607421900001,18.231872559],[109.72607421900001,18.232116699],[109.72747802700002,18.232116699],[109.72747802700002,18.232727051],[109.72790527300002,18.232727051],[109.72790527300002,18.232910156],[109.72851562500001,18.232910156],[109.72851562500001,18.233276367],[109.72967529300001,18.233276367],[109.72967529300001,18.233520508],[109.72991943400001,18.233520508],[109.72991943400001,18.233886719],[109.73211669900002,18.233886719],[109.73211669900002,18.233520508],[109.73248291000002,18.233520508],[109.73272705100001,18.233520508],[109.73272705100001,18.233276367],[109.73327636700002,18.233276367],[109.73327636700002,18.233093262],[109.73388671900001,18.233520508],[109.73431396500001,18.233886719],[109.73767089800002,18.235717773],[109.73828125000001,18.236083984],[109.73828125000001,18.236328125],[109.73870849600002,18.236328125],[109.73907470700001,18.23651123],[109.73931884800001,18.236694336],[109.73931884800001,18.236877441],[109.73968505900001,18.236877441],[109.73968505900001,18.237121582],[109.73992919900002,18.237121582],[109.74188232400002,18.239318848],[109.74188232400002,18.240478516],[109.74151611300002,18.240478516],[109.74151611300002,18.240722656],[109.74188232400002,18.240722656],[109.74188232400002,18.241882324],[109.74212646500001,18.241882324],[109.74212646500001,18.242126465],[109.74267578100002,18.242126465],[109.74267578100002,18.242492676],[109.74328613300001,18.242492676],[109.74328613300001,18.242675781],[109.74353027300002,18.242675781],[109.74353027300002,18.242919922],[109.74389648400002,18.242919922],[109.74389648400002,18.243286133],[109.74407959000001,18.243286133],[109.74407959000001,18.243530273],[109.74432373000002,18.243530273],[109.74468994100002,18.246276855],[109.74188232400002,18.246276855],[109.74188232400002,18.247680664],[109.74151611300002,18.247680664],[109.74151611300002,18.247924805],[109.74188232400002,18.247924805],[109.74188232400002,18.248474121],[109.74212646500001,18.248474121],[109.74212646500001,18.248901367],[109.74353027300002,18.248901367],[109.74353027300002,18.248474121],[109.74407959000001,18.248474121],[109.74407959000001,18.248291016],[109.74468994100002,18.248291016],[109.74468994100002,18.248901367],[109.74487304700001,18.248901367],[109.74487304700001,18.249084473],[109.74487304700001,18.249694824],[109.74511718700002,18.251281738],[109.74487304700001,18.251281738],[109.74487304700001,18.25189209],[109.74468994100002,18.25189209],[109.74468994100002,18.252502441],[109.74432373000002,18.252502441],[109.74432373000002,18.252929687],[109.74468994100002,18.252929687],[109.74468994100002,18.253112793],[109.74328613300001,18.255310059],[109.73828125000001,18.25567627],[109.73748779300001,18.256530762],[109.73748779300001,18.256713867],[109.73730468700002,18.256896973],[109.73712158200001,18.256896973],[109.73687744100002,18.257080078],[109.73651123000002,18.257080078],[109.73651123000002,18.25769043],[109.73608398400002,18.25769043],[109.73608398400002,18.258117676],[109.73309326200001,18.261291504],[109.72991943400001,18.262084961],[109.72491455100001,18.257507324],[109.72070312500001,18.257080078],[109.71612548800002,18.25970459],[109.70751953100002,18.259277344],[109.70288085900002,18.264099121],[109.70147705100001,18.267700195],[109.70208740200002,18.270874023],[109.703125,18.274902344],[109.70208740200002,18.280517578],[109.70007324200002,18.279907227],[109.69189453100002,18.261474609],[109.68652343700002,18.25592041],[109.68328857400002,18.257324219],[109.67889404300001,18.262084961],[109.67492675800001,18.273681641],[109.67712402300002,18.277526855],[109.68170166000002,18.280090332],[109.69171142600001,18.278320312],[109.69152832000002,18.280700684],[109.69909668000001,18.288330078],[109.70208740200002,18.287719727],[109.70928955100001,18.279907227],[109.71252441400001,18.279296875],[109.71411132800002,18.281311035],[109.71173095700001,18.294921875],[109.71148681600002,18.295715332],[109.71569824200002,18.308288574],[109.71807861300002,18.309326172],[109.71887207000002,18.305908203],[109.71667480500001,18.296325684],[109.71771240200002,18.275878906],[109.71569824200002,18.272521973],[109.71008300800001,18.273071289],[109.70690918000001,18.269104004],[109.71008300800001,18.265686035],[109.71527099600002,18.263671875],[109.72149658200001,18.26348877],[109.72167968700002,18.26348877],[109.72167968700002,18.263671875],[109.72131347700001,18.263671875],[109.72131347700001,18.264892578],[109.72088623000002,18.264892578],[109.72088623000002,18.265075684],[109.72070312500001,18.265075684],[109.72070312500001,18.265686035],[109.72052002,18.265686035],[109.72052002,18.266296387],[109.72070312500001,18.266296387],[109.72070312500001,18.266479492],[109.72052002,18.266479492],[109.72052002,18.266723633],[109.72052002,18.267700195],[109.72070312500001,18.267700195],[109.72070312500001,18.268676758],[109.72088623000002,18.268676758],[109.72088623000002,18.269714355],[109.72131347700001,18.269714355],[109.72131347700001,18.270080566],[109.72192382800002,18.270080566],[109.72192382800002,18.270690918],[109.72210693400001,18.270690918],[109.72210693400001,18.27130127],[109.722473145,18.27130127],[109.722473145,18.271911621],[109.72290039100001,18.271911621],[109.72290039100001,18.272094727],[109.72351074200002,18.272094727],[109.72351074200002,18.272277832],[109.72467041000002,18.272277832],[109.72467041000002,18.272094727],[109.72528076200001,18.272094727],[109.72528076200001,18.272277832],[109.72570800800001,18.272277832],[109.72570800800001,18.272094727],[109.72650146500001,18.272094727],[109.72650146500001,18.271911621],[109.72711181600002,18.271728516],[109.73327636700002,18.271911621],[109.73547363300001,18.274902344],[109.73571777300002,18.275085449],[109.73547363300001,18.275085449],[109.73547363300001,18.275512695],[109.73510742200001,18.275512695],[109.73510742200001,18.275695801],[109.73492431600002,18.275695801],[109.73492431600002,18.276123047],[109.73468017600001,18.276123047],[109.73468017600001,18.277099609],[109.73291015600002,18.277099609],[109.73291015600002,18.276916504],[109.73248291000002,18.276916504],[109.73248291000002,18.276489258],[109.73211669900002,18.276489258],[109.73211669900002,18.276306152],[109.73150634800001,18.276306152],[109.73150634800001,18.276123047],[109.73107910200001,18.276123047],[109.73107910200001,18.275695801],[109.73071289100001,18.275695801],[109.73071289100001,18.276123047],[109.72930908200001,18.276123047],[109.72930908200001,18.275695801],[109.72851562500001,18.275695801],[109.72851562500001,18.275512695],[109.72711181600002,18.275512695],[109.72711181600002,18.275695801],[109.72692871100001,18.275695801],[109.72692871100001,18.275512695],[109.72631835900002,18.275512695],[109.72631835900002,18.275695801],[109.72552490200002,18.275695801],[109.72552490200002,18.275512695],[109.72528076200001,18.275512695],[109.72528076200001,18.275695801],[109.72467041000002,18.275695801],[109.72467041000002,18.275512695],[109.72412109400001,18.275512695],[109.72412109400001,18.275695801],[109.72351074200002,18.275695801],[109.72351074200002,18.276123047],[109.72290039100001,18.276123047],[109.72290039100001,18.276306152],[109.72271728500002,18.276306152],[109.72271728500002,18.276489258],[109.72210693400001,18.276489258],[109.72210693400001,18.276916504],[109.72167968700002,18.276916504],[109.72167968700002,18.277099609],[109.72070312500001,18.277099609],[109.72070312500001,18.277709961],[109.72052002,18.277709961],[109.72052002,18.277893066],[109.72070312500001,18.277893066],[109.72070312500001,18.278503418],[109.72052002,18.278503418],[109.72052002,18.278686523],[109.72070312500001,18.278686523],[109.72070312500001,18.279296875],[109.72052002,18.279296875],[109.72052002,18.279724121],[109.72027587900001,18.279724121],[109.72027587900001,18.279907227],[109.71990966800001,18.279907227],[109.71990966800001,18.284301758],[109.71990966800001,18.28527832],[109.71972656200002,18.28527832],[109.71972656200002,18.290283203],[109.71990966800001,18.290283203],[109.71990966800001,18.291870117],[109.72027587900001,18.291870117],[109.72027587900001,18.293273926],[109.72052002,18.293273926],[109.72052002,18.294921875],[109.72070312500001,18.294921875],[109.72070312500001,18.296508789],[109.72088623000002,18.296508789],[109.72088623000002,18.297912598],[109.72131347700001,18.297912598],[109.72131347700001,18.299682617],[109.72167968700002,18.299682617],[109.72167968700002,18.300720215],[109.72192382800002,18.300720215],[109.72192382800002,18.301330566],[109.72210693400001,18.301330566],[109.72210693400001,18.301879883],[109.722473145,18.301879883],[109.722473145,18.302490234],[109.72271728500002,18.302490234],[109.72271728500002,18.30291748],[109.72290039100001,18.30291748],[109.72290039100001,18.303527832],[109.72332763700001,18.303527832],[109.72332763700001,18.304321289],[109.72351074200002,18.304321289],[109.72351074200002,18.304870605],[109.72387695300002,18.304870605],[109.72387695300002,18.305480957],[109.72412109400001,18.305480957],[109.72412109400001,18.306091309],[109.72430419900002,18.306091309],[109.72430419900002,18.306518555],[109.72467041000002,18.306518555],[109.72467041000002,18.307128906],[109.72491455100001,18.307128906],[109.72491455100001,18.307922363],[109.72528076200001,18.307922363],[109.72528076200001,18.30847168],[109.72552490200002,18.30847168],[109.72552490200002,18.309082031],[109.72570800800001,18.309082031],[109.72570800800001,18.309692383],[109.72607421900001,18.309692383],[109.72607421900001,18.310119629],[109.72631835900002,18.310119629],[109.72631835900002,18.31072998],[109.72650146500001,18.31072998],[109.72650146500001,18.311523437],[109.72692871100001,18.311523437],[109.72692871100001,18.312072754],[109.72711181600002,18.312072754],[109.72711181600002,18.312683105],[109.72747802700002,18.312683105],[109.72747802700002,18.313293457],[109.72772216800001,18.313293457],[109.72772216800001,18.313903809],[109.72790527300002,18.313903809],[109.72790527300002,18.31427002],[109.72827148400002,18.31427002],[109.72827148400002,18.315124512],[109.72851562500001,18.315124512],[109.72851562500001,18.315673828],[109.72888183600001,18.315673828],[109.72888183600001,18.31628418],[109.72912597700001,18.31628418],[109.72912597700001,18.317077637],[109.72930908200001,18.317077637],[109.72930908200001,18.317687988],[109.72967529300001,18.317687988],[109.72967529300001,18.317871094],[109.72991943400001,18.317871094],[109.72991943400001,18.318725586],[109.730285645,18.318725586],[109.730285645,18.319091797],[109.73052978500002,18.319091797],[109.73052978500002,18.319885254],[109.73071289100001,18.319885254],[109.73071289100001,18.320129395],[109.73107910200001,18.320129395],[109.73107910200001,18.320678711],[109.73132324200002,18.320678711],[109.73132324200002,18.321472168],[109.73150634800001,18.321472168],[109.73150634800001,18.322692871],[109.73187255900001,18.322692871],[109.73187255900001,18.323303223],[109.73211669900002,18.323303223],[109.73211669900002,18.323486328],[109.73248291000002,18.323486328],[109.73248291000002,18.32409668],[109.73272705100001,18.32409668],[109.73272705100001,18.324707031],[109.73291015600002,18.324707031],[109.73291015600002,18.325073242],[109.73327636700002,18.325073242],[109.73327636700002,18.326904297],[109.73352050800001,18.326904297],[109.73352050800001,18.327697754],[109.73388671900001,18.327697754],[109.73388671900001,18.328674316],[109.73413085900002,18.328674316],[109.73413085900002,18.329711914],[109.73431396500001,18.329711914],[109.73431396500001,18.330505371],[109.73468017600001,18.330505371],[109.73468017600001,18.331298828],[109.73492431600002,18.331298828],[109.73492431600002,18.332092285],[109.73510742200001,18.332092285],[109.73510742200001,18.332885742],[109.73547363300001,18.332885742],[109.73547363300001,18.333679199],[109.73571777300002,18.333679199],[109.73571777300002,18.334899902],[109.73608398400002,18.334899902],[109.73608398400002,18.335693359],[109.73632812500001,18.335693359],[109.73632812500001,18.336486816],[109.73651123000002,18.336486816],[109.73651123000002,18.337280273],[109.73687744100002,18.337280273],[109.73687744100002,18.338317871],[109.73712158200001,18.338317871],[109.73712158200001,18.339111328],[109.73748779300001,18.339111328],[109.73748779300001,18.340087891],[109.73767089800002,18.340087891],[109.73767089800002,18.341125488],[109.73791503900001,18.340881348],[109.73791503900001,18.341918945],[109.73828125000001,18.341918945],[109.73828125000001,18.342712402],[109.73852539100001,18.342712402],[109.73852539100001,18.343505859],[109.73889160200001,18.343505859],[109.73889160200001,18.344299316],[109.73907470700001,18.344299316],[109.73907470700001,18.345275879],[109.73931884800001,18.345275879],[109.73931884800001,18.346313477],[109.73968505900001,18.346313477],[109.73968505900001,18.347106934],[109.73992919900002,18.347106934],[109.73992919900002,18.347900391],[109.74011230500001,18.347900391],[109.74011230500001,18.348876953],[109.74047851600001,18.348876953],[109.74047851600001,18.349304199],[109.74072265600002,18.349304199],[109.74072265600002,18.349914551],[109.74108886700002,18.349914551],[109.74108886700002,18.350708008],[109.74127197300001,18.350708008],[109.74127197300001,18.351318359],[109.74151611300002,18.351318359],[109.74151611300002,18.351928711],[109.74188232400002,18.351928711],[109.74188232400002,18.352478027],[109.74212646500001,18.352478027],[109.74212646500001,18.353271484],[109.74230957000002,18.353271484],[109.74291992200001,18.356506348],[109.74652099600002,18.36328125],[109.74670410200001,18.363525391],[109.74688720700001,18.363891602],[109.74688720700001,18.364074707],[109.74707031200002,18.364318848],[109.74707031200002,18.364501953],[109.74707031200002,18.364685059],[109.74731445300002,18.364685059],[109.74749755900001,18.364929199],[109.74749755900001,18.365112305],[109.74768066400001,18.36529541],[109.74768066400001,18.365478516],[109.74768066400001,18.365722656],[109.74792480500001,18.365905762],[109.74792480500001,18.366271973],[109.74829101600001,18.366271973],[109.74829101600001,18.366516113],[109.74847412100002,18.366882324],[109.74847412100002,18.367492676],[109.74871826200001,18.367492676],[109.74871826200001,18.368286133],[109.74908447300001,18.368286133],[109.74908447300001,18.368896484],[109.74932861300002,18.368896484],[109.74932861300002,18.36932373],[109.74969482400002,18.36932373],[109.74969482400002,18.369873047],[109.74987793000001,18.369873047],[109.74987793000001,18.370483398],[109.75012207000002,18.370483398],[109.75012207000002,18.37109375],[109.75048828100002,18.37109375],[109.75048828100002,18.371276855],[109.75067138700001,18.371276855],[109.75067138700001,18.371887207],[109.75109863300001,18.371887207],[109.75109863300001,18.372497559],[109.75128173800002,18.372497559],[109.75128173800002,18.372924805],[109.75152587900001,18.372924805],[109.75152587900001,18.373474121],[109.75189209000001,18.373474121],[109.75189209000001,18.373901367],[109.75207519500002,18.373901367],[109.75207519500002,18.374328613],[109.75250244100002,18.374328613],[109.75250244100002,18.37487793],[109.75268554700001,18.37487793],[109.75268554700001,18.375488281],[109.75292968700002,18.375488281],[109.75292968700002,18.376098633],[109.75329589800002,18.376098633],[109.75329589800002,18.376525879],[109.75347900400001,18.376525879],[109.75347900400001,18.37689209],[109.75408935500002,18.37689209],[109.75408935500002,18.377075195],[109.75427246100001,18.377075195],[109.75427246100001,18.377685547],[109.75469970700001,18.377685547],[109.75469970700001,18.377929687],[109.75488281200002,18.377929687],[109.75488281200002,18.378295898],[109.75512695300002,18.378295898],[109.75512695300002,18.378723145],[109.75549316400001,18.378723145],[109.75549316400001,18.379089355],[109.75567627,18.379089355],[109.75567627,18.379699707],[109.75610351600001,18.379699707],[109.75610351600001,18.379882812],[109.75628662100002,18.379882812],[109.75628662100002,18.380126953],[109.75653076200001,18.380126953],[109.75653076200001,18.38067627],[109.75689697300001,18.38067627],[109.75689697300001,18.381103516],[109.75708007800002,18.381103516],[109.75708007800002,18.381530762],[109.75750732400002,18.381530762],[109.75750732400002,18.381896973],[109.75769043000001,18.381896973],[109.75769043000001,18.382080078],[109.75787353500002,18.382080078],[109.75787353500002,18.38269043],[109.75830078100002,18.38269043],[109.75830078100002,18.382873535],[109.75848388700001,18.382873535],[109.75848388700001,18.383300781],[109.75848388700001,18.383483887],[109.75872802700002,18.383483887],[109.75848388700001,18.384887695],[109.75811767600001,18.385070801],[109.75769043000001,18.385070801],[109.75769043000001,18.385314941],[109.75750732400002,18.385498047],[109.75689697300001,18.385498047],[109.75689697300001,18.385681152],[109.75610351600001,18.385681152],[109.75610351600001,18.386108398],[109.75567627,18.386108398],[109.75512695300002,18.386108398],[109.75512695300002,18.386291504],[109.75549316400001,18.386291504],[109.75567627,18.386291504],[109.753723145,18.387329102],[109.75268554700001,18.39630127],[109.75030517600001,18.399902344],[109.74890136700002,18.403320312],[109.75109863300001,18.406311035],[109.76831054700001,18.394104004],[109.76867675800001,18.394104004],[109.76867675800001,18.394287109],[109.77111816400001,18.394287109],[109.77111816400001,18.394104004],[109.77130127,18.394104004],[109.77929687500001,18.400512695],[109.78369140600002,18.402526855],[109.78247070300002,18.405883789],[109.77752685500002,18.416503906],[109.77471923800002,18.426879883],[109.77630615200002,18.433288574],[109.78411865200002,18.436279297],[109.78808593700002,18.434509277],[109.79107666000002,18.434326172],[109.796875,18.440490723],[109.79888916000002,18.448486328],[109.80133056600002,18.456481934],[109.80151367200001,18.466125488],[109.79968261700002,18.474914551],[109.79571533200001,18.480285645],[109.79272460900002,18.48248291],[109.78790283200001,18.483520508],[109.78228759800001,18.483520508],[109.77728271500001,18.485290527],[109.77288818400001,18.489929199],[109.77069091800001,18.497314453],[109.77172851600001,18.50189209],[109.77331543000001,18.50390625],[109.77471923800002,18.507873535],[109.77349853500002,18.522888184],[109.77069091800001,18.52532959],[109.76708984400001,18.526306152],[109.76470947300001,18.52532959],[109.76171875000001,18.522521973],[109.75872802700002,18.518676758],[109.75787353500002,18.516906738],[109.75732421900001,18.514892578],[109.75610351600001,18.511108398],[109.75488281200002,18.508911133],[109.75347900400001,18.507324219],[109.75189209000001,18.506103516],[109.74707031200002,18.505126953],[109.74249267600001,18.505493164],[109.73590087900001,18.50567627],[109.72991943400001,18.50390625],[109.72668457000002,18.501708984],[109.72528076200001,18.500305176],[109.72290039100001,18.497497559],[109.71948242200001,18.492492676],[109.71807861300002,18.489318848],[109.71710205100001,18.484680176],[109.71752929700001,18.481872559],[109.72052002,18.480895996],[109.72448730500001,18.478881836],[109.72631835900002,18.47467041],[109.72528076200001,18.47052002],[109.71929931600002,18.466125488],[109.71588134800001,18.464477539],[109.71392822300001,18.463500977],[109.71051025400001,18.460327148],[109.70892334000001,18.45892334],[109.70751953100002,18.457092285],[109.70568847700001,18.454284668],[109.70391845700001,18.450683594],[109.703125,18.447509766],[109.70269775400001,18.444885254],[109.70410156200002,18.441711426],[109.70550537100002,18.440124512],[109.70709228500002,18.438720703],[109.70770263700001,18.436279297],[109.70532226600001,18.435119629],[109.70111084000001,18.43572998],[109.69628906200002,18.436279297],[109.69427490200002,18.435302734],[109.69152832000002,18.432128906],[109.69049072300001,18.428283691],[109.69012451200001,18.425720215],[109.68951416000002,18.422729492],[109.68908691400001,18.417724609],[109.68908691400001,18.414672852],[109.68811035200001,18.409118652],[109.68670654300001,18.403076172],[109.68151855500001,18.396911621],[109.67730712900001,18.394714355],[109.67108154300001,18.394714355],[109.66650390600002,18.393920898],[109.66229248000002,18.391479492],[109.65447998000002,18.387695312],[109.64550781200002,18.387695312],[109.64031982400002,18.391723633],[109.63208007800002,18.396728516],[109.62329101600001,18.395324707],[109.61669921900001,18.390930176],[109.60491943400001,18.38470459],[109.59771728500002,18.386291504],[109.59368896500001,18.39050293],[109.58691406200002,18.394287109],[109.58032226600001,18.392700195],[109.56768798800002,18.39050293],[109.55932617200001,18.39251709],[109.54791259800001,18.392700195],[109.54309082000002,18.394287109],[109.53472900400001,18.398681641],[109.53210449200002,18.40447998],[109.52893066400001,18.414672852],[109.52508544900002,18.419677734],[109.51568603500002,18.424316406],[109.51190185500002,18.429504395],[109.51312255900001,18.436889648],[109.51550293000001,18.438476562],[109.52227783200001,18.43927002],[109.52447509800001,18.445922852],[109.52307128900001,18.451293945],[109.51947021500001,18.457519531],[109.51812744100002,18.466674805],[109.51947021500001,18.471679687],[109.52471923800002,18.477722168],[109.53051757800002,18.486083984],[109.53210449200002,18.492126465],[109.53228759800001,18.502319336],[109.53149414100001,18.511474609],[109.53070068400001,18.521484375],[109.52728271500001,18.530517578],[109.52172851600001,18.534729004],[109.51428222700001,18.535095215],[109.50848388700001,18.536499023],[109.50653076200001,18.542907715],[109.50268554700001,18.549499512],[109.50152587900001,18.551086426],[109.49932861300002,18.55267334],[109.49548339800002,18.552307129],[109.48828125000001,18.551879883],[109.48571777300002,18.5546875],[109.48107910200001,18.556274414],[109.47528076200001,18.557312012],[109.46691894500002,18.556884766],[109.46130371100001,18.554870605],[109.45471191400001,18.554077148],[109.44750976600001,18.555908203],[109.44329834000001,18.559875488],[109.43688964800002,18.563110352],[109.42968750000001,18.564697266],[109.42687988300001,18.564697266],[109.42248535200001,18.562316895],[109.41931152300002,18.563903809],[109.41748046900001,18.570678711],[109.41491699200002,18.579711914],[109.41247558600001,18.585693359],[109.40887451200001,18.593505859],[109.40649414100001,18.600708008],[109.40307617200001,18.610290527],[109.40069580100001,18.618103027],[109.39727783200001,18.619689941]]]]}}
