{"type":"Feature","id":"bulk-99377448B66413486239488","bbox":[79.91088867200001,43.980529785,83.86090087900001,45.350891113],"properties":{"id":"bulk-99377448B66413486239488","name":"Bortala Mongol Autonomous Prefecture","nameEn":"Bortala Mongol Autonomous Prefecture","fullName":"Bortala Mongol Autonomous Prefecture","level":"city","boundaryRole":"administrative-extent","boundaryQuality":"generalized-source-2020","boundaryYearRepresented":"2020","bounds":[[79.91088867200001,43.980529785],[83.86090087900001,45.350891113]],"center":[81.88589477550002,44.665710449],"centerMethod":"bounding-box midpoint; camera framing only","license":"CC-BY-3.0-IGO","attribution":"geoBoundaries / HDX, China administrative boundaries (2020)","source":{"provider":"geoBoundaries gbHumanitarian / HDX","url":"https://github.com/wmgeolab/geoBoundaries/raw/9469f09/releaseData/gbHumanitarian/CHN/ADM2/geoBoundaries-CHN-ADM2.geojson","metadataUrl":"https://www.geoboundaries.org/api/current/gbHumanitarian/CHN/ADM2/","shapeID":"99377448B66413486239488","shapeName":"Bortala Mongol Autonomous Prefecture","boundaryID":"CHN-ADM2-99377448","commit":"9469f09"},"geometryCounts":{"coordinates":308,"components":1,"holes":0},"boundaryNotice":"geoBoundaries / HDX 2020 年行政区数据，海岸和边界经过源数据概化，并非当前测绘成果。"},"geometry":{"type":"Polygon","coordinates":[[[83.44708252,44.018493652],[83.45489502,44.051879883],[83.452514648,44.092285156],[83.436523437,44.122680664],[83.41168212900001,44.148925781],[83.39050293000001,44.178710937],[83.41210937500001,44.218078613],[83.45709228500002,44.236877441],[83.49291992200001,44.262512207],[83.50347900400001,44.296508789],[83.510314941,44.325683594],[83.52850341800001,44.349304199],[83.53192138700001,44.381530762],[83.51593017600001,44.406921387],[83.54052734400001,44.446105957],[83.61047363300001,44.43371582],[83.66571044900002,44.420471191],[83.71630859400001,44.420471191],[83.76232910200001,44.436523437],[83.77770996100001,44.470703125],[83.78692627,44.504272461],[83.801330566,44.546081543],[83.827880859,44.581726074],[83.84808349600002,44.612304687],[83.86090087900001,44.643310547],[83.860290527,44.671875],[83.84210205100001,44.695922852],[83.804870605,44.720275879],[83.760681152,44.743286133],[83.72888183600001,44.766723633],[83.703308105,44.8046875],[83.67388916000002,44.830505371],[83.62969970700001,44.843688965],[83.58972168000001,44.862487793],[83.56427002,44.891296387],[83.511901855,44.900085449],[83.509094238,44.94732666],[83.38751220700001,44.932922363],[83.33868408200001,44.940673828],[83.28790283200001,44.939880371],[83.23712158200001,44.945678711],[83.19970703100002,44.954711914],[83.14147949200002,44.972106934],[83.10571289100001,44.982116699],[83.04132080100001,45.006530762],[82.980285645,45.032104492],[82.91992187500001,45.054504395],[82.87231445300002,45.075317383],[82.81787109400001,45.113708496],[82.76531982400002,45.137512207],[82.71569824200002,45.13848877],[82.67547607400002,45.153686523],[82.63549804700001,45.171081543],[82.59912109400001,45.180114746],[82.57208252,45.203491211],[82.569702148,45.203491211],[82.48632812500001,45.120727539],[82.47808837900001,45.122070312],[82.46789550800001,45.128479004],[82.460327148,45.133117676],[82.43310546900001,45.146728516],[82.35412597700001,45.195678711],[82.33367919900002,45.210693359],[82.32690429700001,45.215881348],[82.30627441400001,45.226501465],[82.28631591800001,45.231872559],[82.25451660200001,45.235900879],[82.252075195,45.236083984],[82.24090576200001,45.235473633],[82.21630859400001,45.231506348],[82.179504395,45.223876953],[82.15789794900002,45.220275879],[82.11450195300002,45.207885742],[82.08990478500002,45.198120117],[82.06671142600001,45.186523437],[82.03051757800002,45.165100098],[82.02111816400001,45.165283203],[82.02032470700001,45.161682129],[82.01867675800001,45.161315918],[82.00830078100002,45.158508301],[81.986877441,45.158325195],[81.98071289100001,45.155883789],[81.96252441400001,45.157470703],[81.95452880900001,45.156921387],[81.93328857400002,45.163696289],[81.925109863,45.168884277],[81.90728759800001,45.205688477],[81.89770507800002,45.209289551],[81.886901855,45.209899902],[81.886108398,45.209716797],[81.86511230500001,45.202514648],[81.844299316,45.199279785],[81.827880859,45.200073242],[81.818481445,45.20489502],[81.81372070300002,45.215270996],[81.81408691400001,45.235290527],[81.81170654300001,45.245300293],[81.80047607400002,45.260681152],[81.800109863,45.274291992],[81.79827880900001,45.276489258],[81.79772949200002,45.277099609],[81.788085937,45.306884766],[81.78112793000001,45.312927246],[81.75708007800002,45.32232666],[81.75109863300001,45.326721191],[81.74188232400002,45.342712402],[81.73168945300002,45.350280762],[81.72369384800001,45.350891113],[81.669311523,45.350891113],[81.66369628900001,45.34967041],[81.65930175800001,45.348510742],[81.65887451200001,45.348510742],[81.61468505900001,45.338684082],[81.59167480500001,45.322875977],[81.58850097700001,45.320922852],[81.58111572300001,45.303283691],[81.546875,45.294128418],[81.53051757800002,45.275512695],[81.50567627,45.257080078],[81.459106445,45.261474609],[81.39147949200002,45.251281738],[81.318481445,45.228271484],[81.28430175800001,45.22869873],[81.22772216800001,45.230895996],[81.182128906,45.201477051],[81.12030029300001,45.187316895],[81.08789062500001,45.180480957],[81.05572509800001,45.151672363],[81.01232910200001,45.14831543],[80.976318359,45.137695312],[80.918884277,45.122680664],[80.87731933600001,45.13092041],[80.876281738,45.131103516],[80.871276855,45.131286621],[80.86090087900001,45.127929687],[80.85412597700001,45.127929687],[80.84368896500001,45.133728027],[80.834472656,45.138916016],[80.816894531,45.144714355],[80.77429199200002,45.151489258],[80.75152587900001,45.157714844],[80.74731445300002,45.160888672],[80.73931884800001,45.144897461],[80.76489257800002,45.123718262],[80.709899902,45.122314453],[80.63732910200001,45.101928711],[80.58172607400002,45.098510742],[80.53588867200001,45.106689453],[80.518493652,45.109680176],[80.51312255900001,45.109924316],[80.510681152,45.111083984],[80.49768066400001,45.113525391],[80.47210693400001,45.094726562],[80.457519531,45.072509766],[80.453674316,45.050720215],[80.44128418000001,45.035705566],[80.39367675800001,45.035888672],[80.37188720700001,45.043273926],[80.363098145,45.042114258],[80.35107421900001,45.042114258],[80.34167480500001,45.044677734],[80.33752441400001,45.047729492],[80.32330322300001,45.047119141],[80.288879395,45.032897949],[80.26348877,45.019714355],[80.22528076200001,45.017089844],[80.18908691400001,45.022277832],[80.13427734400001,45.046325684],[80.126281738,45.04510498],[80.11468505900001,45.02130127],[80.09570312500001,45.030273437],[80.08148193400001,45.025695801],[80.086120605,45.019287109],[80.08312988300001,45.010314941],[80.068115234,45.016296387],[80.05969238300001,45.016906738],[80.05310058600001,45.013916016],[80.043518066,45.004272461],[80.03790283200001,45.002685547],[80.034484863,45.00012207],[80.02429199200002,44.991882324],[80.00012207,44.972900391],[79.99749755900001,44.97088623],[79.99047851600001,44.962280273],[79.96551513700001,44.927307129],[79.93109130900001,44.907287598],[79.91088867200001,44.895324707],[79.938476562,44.881103516],[79.96051025400001,44.879089355],[79.961914062,44.877502441],[79.98132324200002,44.874694824],[80.002502441,44.872680664],[79.97912597700001,44.844909668],[79.97967529300001,44.843688965],[79.98388671900001,44.832519531],[79.99810791000002,44.816711426],[80.01452636700002,44.805114746],[80.030273437,44.801330566],[80.04028320300002,44.800476074],[80.05548095700001,44.801696777],[80.08288574200002,44.809875488],[80.10589599600002,44.808898926],[80.111083984,44.810119629],[80.12469482400002,44.817321777],[80.143493652,44.830505371],[80.15667724600002,44.830688477],[80.15747070300002,44.830688477],[80.16632080100001,44.829284668],[80.17590332,44.827087402],[80.18627929700001,44.841125488],[80.19567871100001,44.823730469],[80.218505859,44.822692871],[80.234130859,44.828125],[80.24670410200001,44.83972168],[80.25427246100001,44.842102051],[80.26788330100001,44.842285156],[80.27947998,44.83972168],[80.29071044900002,44.834716797],[80.29492187500001,44.827087402],[80.28833007800002,44.817687988],[80.288879395,44.815673828],[80.28930664100001,44.814880371],[80.29772949200002,44.811523437],[80.309082031,44.813110352],[80.33007812500001,44.821105957],[80.34069824200002,44.8203125],[80.34967041000002,44.810302734],[80.354492187,44.799072266],[80.36450195300002,44.78692627],[80.375488281,44.780273437],[80.39910888700001,44.772277832],[80.40307617200001,44.769470215],[80.42291259800001,44.765319824],[80.428283691,44.764099121],[80.44708252,44.757507324],[80.46447753900001,44.747314453],[80.48248291000002,44.732910156],[80.48968505900001,44.711486816],[80.48931884800001,44.710693359],[80.509094238,44.70489502],[80.568115234,44.700927734],[80.60668945300002,44.702697754],[80.64947509800001,44.685302734],[80.678283691,44.665893555],[80.693481445,44.637512207],[80.684875488,44.607299805],[80.68872070300002,44.575073242],[80.743530273,44.569702148],[80.79968261700002,44.55847168],[80.85687255900001,44.53692627],[80.902893066,44.515686035],[80.946289062,44.504089355],[80.99127197300001,44.502929687],[81.03289794900002,44.482116699],[81.07427978500002,44.47088623],[81.11749267600001,44.467712402],[81.155273437,44.458129883],[81.18829345700001,44.440124512],[81.261901855,44.421875],[81.31091308600001,44.410888672],[81.352478027,44.408081055],[81.39447021500001,44.418884277],[81.450500488,44.416870117],[81.486083984,44.407714844],[81.52227783200001,44.391296387],[81.56872558600001,44.389709473],[81.615722656,44.380126953],[81.64788818400001,44.364929199],[81.71588134800001,44.367675781],[81.72491455100001,44.337890625],[81.79907226600001,44.306091309],[81.86407470700001,44.288330078],[81.929077148,44.274902344],[81.96789550800001,44.265686035],[82.02368164100001,44.25769043],[82.10748291000002,44.251281738],[82.15411377,44.240905762],[82.220092773,44.226318359],[82.260681152,44.220703125],[82.30932617200001,44.230102539],[82.35668945300002,44.21887207],[82.39031982400002,44.188720703],[82.428710937,44.161499023],[82.46887207,44.138671875],[82.51727294900002,44.128112793],[82.56390380900001,44.112121582],[82.57989502,44.076721191],[82.59869384800001,44.050109863],[82.63787841800001,44.064880371],[82.68231201200001,44.055297852],[82.725524902,44.047485352],[82.766906738,44.04888916],[82.81469726600001,44.050476074],[82.85009765600002,44.037902832],[82.892700195,44.032714844],[82.927490234,44.04510498],[82.961486816,44.059875488],[83.009887695,44.063293457],[83.05670166000002,44.069091797],[83.10729980500001,44.075317383],[83.15447998,44.065124512],[83.19152832,44.059326172],[83.23150634800001,44.047729492],[83.254882812,44.018676758],[83.27191162100002,43.994506836],[83.34069824200002,43.98248291],[83.39569091800001,43.980529785],[83.44708252,44.018493652]]]}}
