{"type":"Feature","id":"bulk-99377448B45985027374667","bbox":[113.62969970700001,30.003112793,115.05950927700002,31.373718262],"properties":{"id":"bulk-99377448B45985027374667","name":"Wuhan","nameEn":"Wuhan","fullName":"Wuhan","level":"city","boundaryRole":"administrative-extent","boundaryQuality":"generalized-source-2020","boundaryYearRepresented":"2020","bounds":[[113.62969970700001,30.003112793],[115.05950927700002,31.373718262]],"center":[114.34460449200002,30.6884155275],"centerMethod":"bounding-box midpoint; camera framing only","license":"CC-BY-3.0-IGO","attribution":"geoBoundaries / HDX, China administrative boundaries (2020)","source":{"provider":"geoBoundaries gbHumanitarian / HDX","url":"https://github.com/wmgeolab/geoBoundaries/raw/9469f09/releaseData/gbHumanitarian/CHN/ADM2/geoBoundaries-CHN-ADM2.geojson","metadataUrl":"https://www.geoboundaries.org/api/current/gbHumanitarian/CHN/ADM2/","shapeID":"99377448B45985027374667","shapeName":"Wuhan","boundaryID":"CHN-ADM2-99377448","commit":"9469f09"},"geometryCounts":{"coordinates":145,"components":1,"holes":0},"boundaryNotice":"geoBoundaries / HDX 2020 年行政区数据，海岸和边界经过源数据概化，并非当前测绘成果。"},"geometry":{"type":"Polygon","coordinates":[[[114.80847168000001,30.618103027],[114.81152343700002,30.66809082],[114.78833007800002,30.696105957],[114.78210449200002,30.723083496],[114.79748535200001,30.747070312],[114.83770752,30.757080078],[114.863098145,30.789306641],[114.87847900400001,30.81427002],[114.91229248000002,30.812072754],[114.95111084000001,30.821472168],[114.96051025400001,30.854125977],[114.99328613300001,30.860717773],[115.02270507800002,30.848510742],[115.05950927700002,30.858886719],[115.05590820300002,30.891906738],[115.03009033200001,30.910888672],[115.00390625000001,30.948120117],[114.99090576200001,30.99407959],[114.96649169900002,31.026123047],[114.94128418000001,31.005493164],[114.90771484400001,31.012695312],[114.87347412100002,31.017700195],[114.86370849600002,30.988891602],[114.85449218700002,30.960327148],[114.81970214800002,30.957519531],[114.79992675800001,30.980529785],[114.76770019500002,31.009094238],[114.73907470700001,30.982910156],[114.69091796900001,30.99407959],[114.69451904300001,30.957092285],[114.66271972700001,30.942077637],[114.62591552700002,30.938903809],[114.58209228500002,30.952087402],[114.56292724600002,30.976074219],[114.53509521500001,30.999694824],[114.51251220700001,31.029296875],[114.51269531200002,31.061096191],[114.51068115200002,31.089294434],[114.49670410200001,31.131286621],[114.48309326200001,31.171691895],[114.45690918000001,31.203308105],[114.41992187500001,31.218078613],[114.40667724600002,31.244873047],[114.41052246100001,31.276916504],[114.43969726600001,31.319274902],[114.38330078100002,31.319274902],[114.34350585900002,31.332092285],[114.31109619100002,31.352478027],[114.28607177700002,31.37310791],[114.24450683600001,31.373718262],[114.22332763700001,31.347473145],[114.20672607400002,31.309082031],[114.20147705100001,31.281311035],[114.18432617200001,31.249084473],[114.18927002,31.215087891],[114.21612548800002,31.189880371],[114.20190429700001,31.163879395],[114.18389892600001,31.138122559],[114.17468261700002,31.107727051],[114.16888427700002,31.077087402],[114.15869140600002,31.037475586],[114.16192627,31.008911133],[114.16430664100001,30.966308594],[114.15887451200001,30.934326172],[114.16571044900002,30.897705078],[114.16430664100001,30.852722168],[114.16967773400002,30.823913574],[114.14050293000001,30.755310059],[114.10772705100001,30.747314453],[114.02111816400001,30.750305176],[113.97772216800001,30.75189209],[113.95611572300001,30.752502441],[113.93450927700002,30.753295898],[113.91351318400001,30.767700195],[113.89947509800001,30.792297363],[113.90112304700001,30.764282227],[113.87792968700002,30.743286133],[113.87390136700002,30.708679199],[113.90368652300002,30.672302246],[113.89569091800001,30.649719238],[113.89447021500001,30.620727539],[113.88812255900001,30.589294434],[113.86291503900001,30.555114746],[113.83868408200001,30.534729004],[113.80712890600002,30.517089844],[113.77789306600002,30.486877441],[113.74249267600001,30.465881348],[113.70471191400001,30.457275391],[113.62969970700001,30.435302734],[113.68487548800002,30.389282227],[113.71551513700001,30.361694336],[113.72631835900002,30.332519531],[113.74487304700001,30.303283691],[113.76489257800002,30.278930664],[113.745910645,30.253112793],[113.74029541000002,30.224914551],[113.78088378900001,30.221679687],[113.83148193400001,30.15447998],[113.85009765600002,30.208679199],[113.87292480500001,30.235290527],[113.89569091800001,30.261901855],[113.91772460900002,30.274902344],[113.93872070300002,30.260498047],[113.980285645,30.231689453],[114.01947021500001,30.204711914],[114.01672363300001,30.203125],[114.05908203100002,30.187927246],[114.07928466800001,30.159912109],[114.09948730500001,30.131713867],[114.12030029300001,30.11730957],[114.16192627,30.088500977],[114.18267822300001,30.073913574],[114.18267822300001,30.006713867],[114.23870849600002,30.007507324],[114.28851318400001,30.034729004],[114.31610107400002,30.04888916],[114.35510253900001,30.061279297],[114.38549804700001,30.051086426],[114.41949462900001,30.029724121],[114.45367431600002,30.012329102],[114.49090576200001,30.003479004],[114.53448486300002,30.003112793],[114.53167724600002,30.035095215],[114.51611328100002,30.094482422],[114.51031494100002,30.12890625],[114.50592041000002,30.178894043],[114.50048828100002,30.219299316],[114.51251220700001,30.256103516],[114.53991699200002,30.272705078],[114.57391357400002,30.278686523],[114.60229492200001,30.293884277],[114.57910156200002,30.320129395],[114.57647705100001,30.347473145],[114.57830810500002,30.37689209],[114.58392334000001,30.411071777],[114.58612060500002,30.448303223],[114.58587646500001,30.480102539],[114.57427978500002,30.515319824],[114.56628418000001,30.546081543],[114.61712646500001,30.550476074],[114.66107177700002,30.5625],[114.70507812500001,30.574279785],[114.74890136700002,30.586303711],[114.77130127,30.599121094],[114.80847168000001,30.618103027]]]}}
