{"type":"Feature","id":"bulk-99377448B63428653907945","bbox":[116.67810058600001,30.968322754,117.93908691400001,32.619873047],"properties":{"id":"bulk-99377448B63428653907945","name":"Hefei","nameEn":"Hefei","fullName":"Hefei","level":"city","boundaryRole":"administrative-extent","boundaryQuality":"generalized-source-2020","boundaryYearRepresented":"2020","bounds":[[116.67810058600001,30.968322754],[117.93908691400001,32.619873047]],"center":[117.30859375000001,31.7940979005],"centerMethod":"bounding-box midpoint; camera framing only","license":"CC-BY-3.0-IGO","attribution":"geoBoundaries / HDX, China administrative boundaries (2020)","source":{"provider":"geoBoundaries gbHumanitarian / HDX","url":"https://github.com/wmgeolab/geoBoundaries/raw/9469f09/releaseData/gbHumanitarian/CHN/ADM2/geoBoundaries-CHN-ADM2.geojson","metadataUrl":"https://www.geoboundaries.org/api/current/gbHumanitarian/CHN/ADM2/","shapeID":"99377448B63428653907945","shapeName":"Hefei","boundaryID":"CHN-ADM2-99377448","commit":"9469f09"},"geometryCounts":{"coordinates":139,"components":1,"holes":0},"boundaryNotice":"geoBoundaries / HDX 2020 年行政区数据，海岸和边界经过源数据概化，并非当前测绘成果。"},"geometry":{"type":"Polygon","coordinates":[[[117.49371337900001,30.995300293],[117.55187988300001,31.1953125],[117.57067871100001,31.256530762],[117.64971923800002,31.346313477],[117.70190429700001,31.426330566],[117.72851562500001,31.467102051],[117.83447265600002,31.491516113],[117.89947509800001,31.506286621],[117.93469238300001,31.492492676],[117.91467285200001,31.555297852],[117.92272949200002,31.627075195],[117.92932128900001,31.684692383],[117.91632080100001,31.737670898],[117.92327880900001,31.803527832],[117.92968750000001,31.835876465],[117.93908691400001,31.88092041],[117.88952636700002,31.91027832],[117.84613037100002,31.917724609],[117.83691406200002,31.936523437],[117.81707763700001,31.960693359],[117.78729248000002,31.994506836],[117.89611816400001,32.217285156],[117.870910645,32.243713379],[117.77893066400001,32.247497559],[117.74530029300001,32.246887207],[117.70690918000001,32.24609375],[117.65911865200002,32.243286133],[117.62628173800002,32.239318848],[117.58630371100001,32.23248291],[117.54748535200001,32.217895508],[117.51110839800002,32.209472656],[117.46832275400001,32.213684082],[117.43048095700001,32.236083984],[117.41912841800001,32.270080566],[117.39147949200002,32.297485352],[117.39831543000001,32.334899902],[117.421875,32.364929199],[117.38647460900002,32.36932373],[117.34692382800002,32.384094238],[117.35607910200001,32.413330078],[117.38012695300002,32.448120117],[117.36669921900001,32.478881836],[117.32330322300001,32.477905273],[117.288879395,32.463317871],[117.24688720700001,32.453918457],[117.21270752,32.481689453],[117.19927978500002,32.506713867],[117.19232177700002,32.536071777],[117.18231201200001,32.578674316],[117.17791748000002,32.619873047],[117.10968017600001,32.614685059],[117.05908203100002,32.612304687],[117.01489257800002,32.609313965],[116.98107910200001,32.606689453],[116.94250488300001,32.582885742],[116.91027832000002,32.567687988],[116.83972168000001,32.572875977],[116.86889648400002,32.517272949],[116.87951660200001,32.473083496],[116.88012695300002,32.438720703],[116.88250732400002,32.410888672],[116.91168212900001,32.393127441],[116.94787597700001,32.396728516],[116.98669433600001,32.395874023],[117.01910400400001,32.383483887],[117.03332519500002,32.356689453],[117.03668212900001,32.321899414],[117.038879395,32.287719727],[117.05828857400002,32.261901855],[117.06652832000002,32.229125977],[117.05627441400001,32.199890137],[117.03491210900002,32.172485352],[117.00592041000002,32.155883789],[116.96929931600002,32.167724609],[116.96630859400001,32.123718262],[116.98632812500001,32.100280762],[117.01208496100001,32.058898926],[117.02911377,32.032287598],[117.05828857400002,31.991088867],[116.99749755900001,31.992126465],[116.94207763700001,31.993713379],[116.90270996100001,31.984924316],[116.86749267600001,31.970703125],[116.83209228500002,31.959899902],[116.79272460900002,31.939880371],[116.73071289100001,31.888916016],[116.75128173800002,31.865905762],[116.74127197300001,31.837890625],[116.70111084000001,31.837890625],[116.67810058600001,31.815917969],[116.69171142600001,31.785522461],[116.72949218700002,31.775695801],[116.74328613300001,31.744689941],[116.74353027300002,31.70892334],[116.74847412100002,31.673522949],[116.745910645,31.645080566],[116.74511718700002,31.611877441],[116.76348877,31.576477051],[116.79589843700002,31.548522949],[116.82031250000001,31.528930664],[116.86029052700002,31.526123047],[116.88830566400001,31.525512695],[116.92132568400001,31.528076172],[116.96612548800002,31.539123535],[117.00891113300001,31.527526855],[117.00091552700002,31.520690918],[117.03747558600001,31.530700684],[117.078125,31.537902832],[117.11627197300001,31.540283203],[117.15069580100001,31.540527344],[117.19128418000001,31.528930664],[117.26190185500002,31.518493652],[117.24810791000002,31.502502441],[117.20587158200001,31.49029541],[117.16607666000002,31.493103027],[117.13507080100001,31.48248291],[117.10668945300002,31.453491211],[117.09411621100001,31.42590332],[117.07312011700002,31.389526367],[117.07189941400001,31.352722168],[117.06689453100002,31.320922852],[117.05010986300002,31.288879395],[117.02532959000001,31.263305664],[117.05249023400002,31.24432373],[117.07391357400002,31.222473145],[117.09869384800001,31.195922852],[117.11291503900001,31.164916992],[117.11511230500001,31.124084473],[117.12652587900001,31.074523926],[117.18011474600002,31.060913086],[117.19812011700002,31.03692627],[117.22332763700001,31.003295898],[117.26348877,30.983703613],[117.29852294900002,30.982116699],[117.34350585900002,30.986694336],[117.37329101600001,30.970092773],[117.41149902300002,30.968322754],[117.45172119100002,30.983276367],[117.49371337900001,30.995300293]]]}}
