{"type":"Feature","id":"bulk-99377448B9294784224243","bbox":[110.96728515600002,32.260681152,113.77429199200002,33.799926758],"properties":{"id":"bulk-99377448B9294784224243","name":"Nanyang","nameEn":"Nanyang","fullName":"Nanyang","level":"city","boundaryRole":"administrative-extent","boundaryQuality":"generalized-source-2020","boundaryYearRepresented":"2020","bounds":[[110.96728515600002,32.260681152],[113.77429199200002,33.799926758]],"center":[112.37078857400002,33.030303954999994],"centerMethod":"bounding-box midpoint; camera framing only","license":"CC-BY-3.0-IGO","attribution":"geoBoundaries / HDX, China administrative boundaries (2020)","source":{"provider":"geoBoundaries gbHumanitarian / HDX","url":"https://github.com/wmgeolab/geoBoundaries/raw/9469f09/releaseData/gbHumanitarian/CHN/ADM2/geoBoundaries-CHN-ADM2.geojson","metadataUrl":"https://www.geoboundaries.org/api/current/gbHumanitarian/CHN/ADM2/","shapeID":"99377448B9294784224243","shapeName":"Nanyang","boundaryID":"CHN-ADM2-99377448","commit":"9469f09"},"geometryCounts":{"coordinates":211,"components":1,"holes":0},"boundaryNotice":"geoBoundaries / HDX 2020 年行政区数据，海岸和边界经过源数据概化，并非当前测绘成果。"},"geometry":{"type":"Polygon","coordinates":[[[111.23449707000002,33.799926758],[111.18969726600001,33.784912109],[111.17871093700002,33.756896973],[111.18292236300002,33.720275879],[111.17529296900001,33.68927002],[111.13287353500002,33.684326172],[111.13232421900001,33.651489258],[111.13812255900001,33.615905762],[111.120910645,33.592102051],[111.09613037100002,33.568481445],[111.04589843700002,33.556884766],[110.97967529300001,33.552307129],[111.00109863300001,33.533874512],[111.01092529300001,33.495727539],[111.01531982400002,33.457702637],[111.01971435500002,33.408081055],[111.01312255900001,33.347106934],[111.00769043000001,33.333679199],[110.99890136700002,33.311889648],[110.98687744100002,33.28527832],[110.96728515600002,33.264892578],[111.00653076200001,33.264099121],[111.02612304700001,33.204711914],[111.04571533200001,33.189697266],[111.08587646500001,33.158691406],[111.10650634800001,33.12310791],[111.12829589800002,33.098327637],[111.16088867200001,33.075317383],[111.18347168000001,33.046875],[111.19873046900001,33.023925781],[111.22027587900001,32.981323242],[111.22229003900001,32.937072754],[111.22167968700002,32.932678223],[111.21789550800001,32.905273437],[111.25030517600001,32.851928711],[111.28710937500001,32.838500977],[111.34448242200001,32.803894043],[111.38970947300001,32.766479492],[111.42291259800001,32.703491211],[111.47448730500001,32.625305176],[111.49932861300002,32.606506348],[111.52728271500001,32.596679687],[111.54370117200001,32.598327637],[111.55328369100002,32.599121094],[111.58270263700001,32.62109375],[111.61291503900001,32.629882812],[111.64910888700001,32.621704102],[111.66589355500001,32.617919922],[111.69812011700002,32.588500977],[111.72790527300002,32.549316406],[111.75250244100002,32.511901855],[111.76947021500001,32.490478516],[111.81567382800002,32.471679687],[111.85150146500001,32.473083496],[111.93530273400002,32.448486328],[111.95129394500002,32.435119629],[111.96929931600002,32.429321289],[111.97387695300002,32.42767334],[111.98590087900001,32.429504395],[112.01312255900001,32.450500488],[112.04748535200001,32.450927734],[112.07208252,32.426879883],[112.08789062500001,32.390319824],[112.13928222700001,32.377502441],[112.16088867200001,32.382507324],[112.19409179700001,32.365112305],[112.20391845700001,32.359924316],[112.24212646500001,32.32409668],[112.31768798800002,32.340881348],[112.36010742200001,32.357116699],[112.39788818400001,32.362915039],[112.44812011700002,32.35748291],[112.46368408200001,32.355895996],[112.49072265600002,32.362121582],[112.52429199200002,32.370117187],[112.55792236300002,32.379272461],[112.61468505900001,32.359924316],[112.67669677700002,32.339477539],[112.75671386700002,32.343688965],[112.85131835900002,32.380126953],[112.92248535200001,32.381713867],[112.980285645,32.366516113],[113.003723145,32.397888184],[113.05047607400002,32.400512695],[113.05249023400002,32.400695801],[113.08331298800002,32.38671875],[113.10552978500002,32.372070312],[113.16168212900001,32.409301758],[113.25390625000001,32.392272949],[113.26568603500002,32.346130371],[113.29528808600001,32.290527344],[113.36547851600001,32.260681152],[113.39990234400001,32.260925293],[113.43310546900001,32.288513184],[113.45947265600002,32.306518555],[113.48791503900001,32.319274902],[113.53631591800001,32.315490723],[113.57452392600001,32.331481934],[113.66192627,32.399475098],[113.68371582000002,32.39831543],[113.70367431600002,32.456726074],[113.72607421900001,32.489318848],[113.72631835900002,32.527893066],[113.73150634800001,32.560913086],[113.75787353500002,32.590515137],[113.77429199200002,32.613891602],[113.74707031200002,32.645324707],[113.73510742200001,32.671325684],[113.69427490200002,32.693908691],[113.63092041000002,32.722473145],[113.59368896500001,32.705871582],[113.57250976600001,32.683105469],[113.53967285200001,32.636901855],[113.51489257800002,32.602722168],[113.49029541000002,32.580688477],[113.45251464800002,32.578125],[113.41931152300002,32.602478027],[113.38067627,32.620910645],[113.35632324200002,32.596496582],[113.31707763700001,32.583496094],[113.28350830100001,32.598876953],[113.24108886700002,32.60748291],[113.20269775400001,32.602722168],[113.15570068400001,32.637878418],[113.16271972700001,32.67010498],[113.21752929700001,32.712524414],[113.18572998000002,32.730712891],[113.16687011700002,32.775085449],[113.15832519500002,32.81072998],[113.13867187500001,32.862915039],[113.16571044900002,32.878479004],[113.16192627,32.916320801],[113.13348388700001,32.932922363],[113.09851074200002,32.965698242],[113.08288574200002,33.007324219],[113.08569335900002,33.043273926],[113.10687255900001,33.073486328],[113.15252685500002,33.113525391],[113.17529296900001,33.083679199],[113.22271728500002,33.088928223],[113.27587890600002,33.083129883],[113.31689453100002,33.073120117],[113.35992431600002,33.114929199],[113.35748291000002,33.171325684],[113.34771728500002,33.203918457],[113.34851074200002,33.231872559],[113.36547851600001,33.265075684],[113.36669921900001,33.293884277],[113.36132812500001,33.321472168],[113.36108398400002,33.353271484],[113.32373046900001,33.34967041],[113.27850341800001,33.350708008],[113.23327636700002,33.357299805],[113.20092773400002,33.381530762],[113.18310546900001,33.40447998],[113.14489746100001,33.418884277],[113.11932373000002,33.400085449],[113.09350585900002,33.426330566],[113.09552002,33.452880859],[113.09350585900002,33.483886719],[113.06628418000001,33.51348877],[113.03833007800002,33.528686523],[113.01611328100002,33.567321777],[112.97332763700001,33.581481934],[112.94287109400001,33.605285645],[112.89831543000001,33.622314453],[112.84509277300002,33.623291016],[112.81610107400002,33.596313477],[112.76507568400001,33.590270996],[112.72888183600001,33.585083008],[112.66107177700002,33.598327637],[112.60272216800001,33.614501953],[112.55792236300002,33.616088867],[112.53228759800001,33.588928223],[112.49792480500001,33.590881348],[112.46429443400001,33.61932373],[112.43530273400002,33.650512695],[112.40710449200002,33.671691895],[112.36767578100002,33.676330566],[112.32312011700002,33.682312012],[112.27349853500002,33.695678711],[112.24108886700002,33.719299316],[112.20812988300001,33.72668457],[112.17492675800001,33.723083496],[112.11987304700001,33.72869873],[112.08148193400001,33.726074219],[112.06347656200002,33.702697754],[112.04608154300001,33.673095703],[112.05090332000002,33.640319824],[112.05749511700002,33.606872559],[112.02392578100002,33.596923828],[111.995910645,33.614318848],[111.96008300800001,33.598510742],[111.91412353500002,33.583496094],[111.86853027300002,33.589294434],[111.80828857400002,33.593505859],[111.78588867200001,33.644104004],[111.74871826200001,33.66809082],[111.71069335900002,33.672912598],[111.67492675800001,33.686706543],[111.64648437500001,33.702880859],[111.60888671900001,33.714904785],[111.56689453100002,33.728515625],[111.53430175800001,33.734924316],[111.50012207000002,33.729675293],[111.45812988300001,33.717712402],[111.42132568400001,33.726928711],[111.38848877,33.750488281],[111.34667968700002,33.769104004],[111.31292724600002,33.776489258],[111.23449707000002,33.799926758]]]}}
