{"type":"Feature","id":"bulk-99377448B69214011550145","bbox":[97.17150878900001,37.41809082,106.83990478500002,42.796691895],"properties":{"id":"bulk-99377448B69214011550145","name":"Alxa League","nameEn":"Alxa League","fullName":"Alxa League","level":"city","boundaryRole":"administrative-extent","boundaryQuality":"generalized-source-2020","boundaryYearRepresented":"2020","bounds":[[97.17150878900001,37.41809082],[106.83990478500002,42.796691895]],"center":[102.00570678700001,40.107391357500006],"centerMethod":"bounding-box midpoint; camera framing only","license":"CC-BY-3.0-IGO","attribution":"geoBoundaries / HDX, China administrative boundaries (2020)","source":{"provider":"geoBoundaries gbHumanitarian / HDX","url":"https://github.com/wmgeolab/geoBoundaries/raw/9469f09/releaseData/gbHumanitarian/CHN/ADM2/geoBoundaries-CHN-ADM2.geojson","metadataUrl":"https://www.geoboundaries.org/api/current/gbHumanitarian/CHN/ADM2/","shapeID":"99377448B69214011550145","shapeName":"Alxa League","boundaryID":"CHN-ADM2-99377448","commit":"9469f09"},"geometryCounts":{"coordinates":356,"components":1,"holes":0},"boundaryNotice":"geoBoundaries / HDX 2020 年行政区数据，海岸和边界经过源数据概化，并非当前测绘成果。"},"geometry":{"type":"Polygon","coordinates":[[[106.83990478500002,40.152282715],[106.76770019500002,40.214111328],[106.72772216800001,40.233886719],[106.68011474600002,40.256896973],[106.64288330100001,40.283874512],[106.60650634800001,40.299926758],[106.57672119100002,40.337097168],[106.54547119100002,40.361328125],[106.52331543000001,40.386474609],[106.51312255900001,40.426086426],[106.50531005900001,40.453491211],[106.49127197300001,40.487915039],[106.47229003900001,40.511291504],[106.44268798800002,40.537902832],[106.39227294900002,40.565307617],[106.35931396500001,40.594482422],[106.32910156200002,40.626708984],[106.30487060500002,40.649475098],[106.27429199200002,40.67791748],[106.22369384800001,40.720092773],[106.18572998000002,40.712890625],[106.13470459000001,40.713684082],[106.08770752,40.711303711],[106.04870605500001,40.70690918],[106.00970459000001,40.712280273],[105.96569824200002,40.722717285],[105.89691162100002,40.740722656],[105.86547851600001,40.762878418],[105.83508300800001,40.787475586],[105.80670166000002,40.8046875],[105.77087402300002,40.823486328],[105.73168945300002,40.830871582],[105.68768310500002,40.83392334],[105.64031982400002,40.831726074],[105.58489990200002,40.826293945],[105.54467773400002,40.81628418],[105.49511718700002,40.805725098],[105.44873046900001,40.80871582],[105.38830566400001,40.817321777],[105.35308837900001,40.832885742],[105.33148193400001,40.861694336],[105.31848144500002,40.886901855],[105.30407714800002,40.918273926],[105.29071044900002,40.949890137],[105.28491210900002,41.001708984],[105.28747558600001,41.033874512],[105.29351806600002,41.063293457],[105.29608154300001,41.090270996],[105.29730224600002,41.122497559],[105.29589843700002,41.161071777],[105.29528808600001,41.189880371],[105.28668212900001,41.230712891],[105.27288818400001,41.25769043],[105.25592041000002,41.289672852],[105.23291015600002,41.324707031],[105.20349121100001,41.370483398],[105.19927978500002,41.398681641],[105.20471191400001,41.428710937],[105.21868896500001,41.461914062],[105.23309326200001,41.496520996],[105.24230957000002,41.526489258],[105.24829101600001,41.558288574],[105.24908447300001,41.587097168],[105.25207519500002,41.619873047],[105.25128173800002,41.655700684],[105.24847412100002,41.703308105],[105.26312255900001,41.735473633],[105.17327880900001,41.679504395],[105.14068603500002,41.667480469],[105.05212402300002,41.593505859],[105.03967285200001,41.578674316],[105.00030517600001,41.560913086],[104.99468994100002,41.585083008],[104.98889160200001,41.589477539],[104.98492431600002,41.586486816],[104.96588134800001,41.607116699],[104.92889404300001,41.635681152],[104.87670898400002,41.637878418],[104.80987548800002,41.621704102],[104.54589843700002,41.625915527],[104.54492187500001,41.663085937],[104.51788330100001,41.667724609],[104.51690673800002,41.853271484],[104.45147705100001,41.851074219],[104.35327148400002,41.835876465],[104.24169921900001,41.805725098],[104.15789794900002,41.799072266],[104.08587646500001,41.785888672],[104.02770996100001,41.769714355],[103.86767578100002,41.769287109],[103.64288330100001,41.808105469],[103.59332275400001,41.819885254],[103.42028808600001,41.860900879],[103.39672851600001,41.864685059],[103.36853027300002,41.86907959],[103.26092529300001,41.924926758],[103.20751953100002,41.949279785],[103.17651367200001,41.947692871],[103.06329345700001,41.995910645],[103.00848388700001,42.019104004],[102.99627685500002,42.023071289],[102.90771484400001,42.052490234],[102.85009765600002,42.078125],[102.83709716800001,42.08392334],[102.78967285200001,42.10748291],[102.72113037100002,42.12890625],[102.63531494100002,42.137695312],[102.56652832000002,42.137329102],[102.52288818400001,42.149291992],[102.49151611300002,42.127502441],[102.45428466800001,42.137084961],[102.41510009800001,42.140319824],[102.36767578100002,42.141113281],[102.30432128900001,42.14831543],[102.23327636700002,42.178527832],[102.18591308600001,42.188293457],[102.15270996100001,42.184509277],[102.10211181600002,42.199523926],[102.07427978500002,42.224121094],[102.02587890600002,42.273498535],[102.00250244100002,42.301696777],[101.80712890600002,42.497924805],[101.76110839800002,42.50970459],[101.58569335900002,42.52331543],[101.58068847700001,42.524291992],[101.55987548800002,42.525878906],[101.39587402300002,42.549682617],[101.33129882800002,42.56451416],[100.96807861300002,42.636901855],[100.86492919900002,42.663330078],[100.813476562,42.671691895],[100.72192382800002,42.668884277],[100.61853027300002,42.659729004],[100.51727294900002,42.672302246],[100.34228515600002,42.669677734],[100.26568603500002,42.623291016],[100.05328369100002,42.637329102],[99.96087646500001,42.62310791],[99.82232666000002,42.614318848],[99.69329834000001,42.583496094],[99.60687255900001,42.563903809],[99.54248046900001,42.556091309],[99.43707275400001,42.553283691],[99.120910645,42.576721191],[98.62829589800002,42.61151123],[98.23889160200001,42.63671875],[97.98431396500001,42.676696777],[97.71771240200002,42.721679687],[97.18890380900001,42.796691895],[97.17150878900001,42.793518066],[97.41888427700002,42.359130859],[97.66430664100001,41.972900391],[97.85632324200002,41.643127441],[97.74609375000001,41.56652832],[97.61291503900001,41.481323242],[97.99829101600001,41.069091797],[98.24468994100002,40.926086426],[98.38208007800002,40.902282715],[98.40289306600002,40.807128906],[98.288879395,40.527526855],[98.28607177700002,40.520874023],[98.65789794900002,40.515319824],[98.88049316400001,40.72668457],[99.20568847700001,40.840698242],[99.59887695300002,40.829284668],[99.68231201200001,40.919677734],[99.97052002,40.883300781],[100.08032226600001,40.879272461],[100.187683105,40.810302734],[100.26867675800001,40.660095215],[100.23388671900001,40.55871582],[100.10211181600002,40.420715332],[100.01788330100001,40.347717285],[100.00189209000001,40.267089844],[99.98889160200001,40.200683594],[99.70971679700001,40.06451416],[99.59991455100001,40.008483887],[99.55847168000001,39.911071777],[99.54272460900002,39.897705078],[99.48931884800001,39.852294922],[99.79370117200001,39.841125488],[100.13049316400001,39.714111328],[100.14788818400001,39.711914062],[100.28112793000001,39.696289062],[100.33673095700001,39.631286621],[100.33911132800002,39.523498535],[100.54089355500001,39.453674316],[100.53070068400001,39.36932373],[100.54852294900002,39.368713379],[100.89532470700001,39.355712891],[100.87567138700001,39.152099609],[100.91748046900001,39.085083008],[100.85791015600002,39.048278809],[100.85888671900001,38.973876953],[100.85888671900001,38.969299316],[100.95709228500002,39.014526367],[100.97967529300001,38.934875488],[100.99871826200001,38.93927002],[101.07409668000001,38.942504883],[101.12951660200001,38.949279785],[101.171875,38.967102051],[101.21771240200002,38.995910645],[101.25628662100002,39.003723145],[101.26550293000001,38.99609375],[101.25451660200001,38.975708008],[101.22888183600001,38.957092285],[101.219726562,38.943115234],[101.238098145,38.92791748],[101.24731445300002,38.930297852],[101.26647949200002,38.930480957],[101.27532959000001,38.901306152],[101.25970459000001,38.88067627],[101.26531982400002,38.861083984],[101.30108642600001,38.848083496],[101.33752441400001,38.830322266],[101.34509277300002,38.80291748],[101.33068847700001,38.782287598],[101.33410644500002,38.759887695],[101.34051513700001,38.753112793],[101.46551513700001,38.727905273],[101.53912353500002,38.719116211],[101.56848144500002,38.69732666],[101.64410400400001,38.641113281],[101.73870849600002,38.672912598],[101.76531982400002,38.658874512],[101.80010986300002,38.64050293],[101.86010742200001,38.640075684],[101.88629150400001,38.649902344],[101.90209960900002,38.704528809],[101.94970703100002,38.769470215],[102.012695312,38.805480957],[102.09869384800001,38.873474121],[101.98931884800001,38.984313965],[101.86090087900001,39.113708496],[102.08807373000002,39.103271484],[102.17932128900001,39.142883301],[102.33850097700001,39.184509277],[102.52447509800001,39.226318359],[102.63928222700001,39.15411377],[102.75408935500002,39.12512207],[102.90148925800001,39.093688965],[103.03009033200001,39.085510254],[103.18090820300002,39.166320801],[103.280273437,39.214294434],[103.37451171900001,39.290893555],[103.51367187500001,39.357299805],[103.66851806600002,39.394470215],[103.84210205100001,39.43927002],[104.09350585900002,39.39831543],[104.09613037100002,39.392272949],[104.07928466800001,39.273071289],[104.20709228500002,39.073486328],[104.17968750000001,38.936096191],[104.09387207000002,38.877502441],[104.02288818400001,38.847290039],[103.97430419900002,38.749511719],[103.89648437500001,38.605712891],[103.80609130900001,38.569274902],[103.68890380900001,38.511108398],[103.55627441400001,38.452270508],[103.42431640600002,38.388671875],[103.50567627,38.324523926],[103.53747558600001,38.240478516],[103.53308105500001,38.110900879],[103.43072509800001,38.106872559],[103.37707519500002,38.063476562],[103.37548828100002,38.053710937],[103.36828613300001,38.00567627],[103.41912841800001,37.835083008],[103.42028808600001,37.830688477],[103.56872558600001,37.791687012],[103.71270752,37.748474121],[103.77392578100002,37.707702637],[103.80651855500001,37.658508301],[103.83270263700001,37.62310791],[103.85632324200002,37.591125488],[103.92150878900001,37.562927246],[103.980285645,37.521118164],[104.04229736300002,37.482727051],[104.10449218700002,37.441894531],[104.20172119100002,37.41809082],[104.22650146500001,37.418884277],[104.28930664100001,37.483093262],[104.39007568400001,37.455688477],[104.44708252,37.507873535],[104.53332519500002,37.512329102],[104.62127685500002,37.556274414],[104.77612304700001,37.528503418],[104.89331054700001,37.524719238],[104.96368408200001,37.547302246],[105.07031250000001,37.594116211],[105.13110351600001,37.622680664],[105.29089355500001,37.694885254],[105.41632080100001,37.723083496],[105.44128418000001,37.715881348],[105.53869628900001,37.688293457],[105.61907959000001,37.703491211],[105.63067627,37.705688477],[105.61029052700002,37.776123047],[105.69812011700002,37.781494141],[105.80432128900001,37.831481934],[105.82171630900001,37.855102539],[105.86907959000001,37.919677734],[105.87170410200001,37.980895996],[105.85247802700002,38.054077148],[105.79132080100001,38.112915039],[105.75408935500002,38.160705566],[105.80133056600002,38.263305664],[105.85888671900001,38.329711914],[105.83551025400001,38.384887695],[105.84490966800001,38.412902832],[105.85687255900001,38.448120117],[105.85852050800001,38.531677246],[105.86187744100002,38.603515625],[105.89508056600002,38.689086914],[105.89990234400001,38.701293945],[105.92987060500002,38.821289062],[105.95391845700001,38.883728027],[105.99151611300002,38.906677246],[106.07189941400001,38.955871582],[106.08471679700001,39.030700684],[106.22027587900001,39.127929687],[106.26928710900002,39.122680664],[106.28070068400001,39.253479004],[106.355285645,39.28729248],[106.46551513700001,39.274902344],[106.53552246100001,39.348876953],[106.63732910200001,39.364929199],[106.73431396500001,39.380126953],[106.72552490200002,39.388305664],[106.71667480500001,39.40032959],[106.71588134800001,39.418701172],[106.70751953100002,39.424682617],[106.67047119100002,39.426696777],[106.62530517600001,39.43170166],[106.60009765600002,39.443481445],[106.58673095700001,39.467712402],[106.58111572300001,39.501281738],[106.59252929700001,39.519897461],[106.63311767600001,39.527099609],[106.69848632800002,39.534912109],[106.70611572300001,39.547302246],[106.71649169900002,39.587524414],[106.73492431600002,39.637084961],[106.76593017600001,39.67767334],[106.73150634800001,39.713684082],[106.73272705100001,39.775085449],[106.72509765600002,39.797912598],[106.70910644500002,39.845092773],[106.67791748000002,39.896484375],[106.72509765600002,39.946899414],[106.71868896500001,39.998901367],[106.70489502,40.026123047],[106.71228027300002,40.044677734],[106.75988769500002,40.091918945],[106.83990478500002,40.152282715]]]}}
