{"type":"Feature","id":"bulk-99377448B89163044726769","bbox":[98.11370849600002,36.700073242,102.594726562,39.085083008],"properties":{"id":"bulk-99377448B89163044726769","name":"Haibei Tibetan Autonomous Prefecture","nameEn":"Haibei Tibetan Autonomous Prefecture","fullName":"Haibei Tibetan Autonomous Prefecture","level":"city","boundaryRole":"administrative-extent","boundaryQuality":"generalized-source-2020","boundaryYearRepresented":"2020","bounds":[[98.11370849600002,36.700073242],[102.594726562,39.085083008]],"center":[100.35421752900001,37.892578125],"centerMethod":"bounding-box midpoint; camera framing only","license":"CC-BY-3.0-IGO","attribution":"geoBoundaries / HDX, China administrative boundaries (2020)","source":{"provider":"geoBoundaries gbHumanitarian / HDX","url":"https://github.com/wmgeolab/geoBoundaries/raw/9469f09/releaseData/gbHumanitarian/CHN/ADM2/geoBoundaries-CHN-ADM2.geojson","metadataUrl":"https://www.geoboundaries.org/api/current/gbHumanitarian/CHN/ADM2/","shapeID":"99377448B89163044726769","shapeName":"Haibei Tibetan Autonomous Prefecture","boundaryID":"CHN-ADM2-99377448","commit":"9469f09"},"geometryCounts":{"coordinates":279,"components":1,"holes":0},"boundaryNotice":"geoBoundaries / HDX 2020 年行政区数据，海岸和边界经过源数据概化，并非当前测绘成果。"},"geometry":{"type":"Polygon","coordinates":[[[102.05548095700001,37.659729004],[101.995910645,37.689880371],[101.97491455100001,37.697875977],[101.971679687,37.728515625],[101.96948242200001,37.74987793],[101.95129394500002,37.757873535],[101.91467285200001,37.741516113],[101.91772460900002,37.714111328],[101.86547851600001,37.650512695],[101.83789062500001,37.575073242],[101.86712646500001,37.51751709],[101.79052734400001,37.510681152],[101.74951171900001,37.580078125],[101.64312744100002,37.62310791],[101.53411865200002,37.678100586],[101.46990966800001,37.75390625],[101.29528808600001,37.831115723],[101.25012207000002,37.857727051],[101.20452880900001,37.88470459],[101.15209960900002,37.915527344],[101.01110839800002,37.987487793],[100.95147705100001,37.990478516],[100.90191650400001,37.996887207],[100.80731201200001,38.049926758],[100.75952148400002,38.076477051],[100.63031005900001,38.077087402],[100.63891601600001,38.147888184],[100.60888671900001,38.227478027],[100.60388183600001,38.240478516],[100.39190673800002,38.292724609],[100.29412841800001,38.38067627],[100.22448730500001,38.466125488],[100.163085937,38.497070312],[100.12268066400001,38.48248291],[100.122070312,38.452087402],[100.105285645,38.415893555],[100.11767578100002,38.363098145],[100.18572998,38.302124023],[100.18347168000001,38.277099609],[100.20068359400001,38.228881836],[100.18188476600001,38.206726074],[100.14752197300001,38.220703125],[100.04949951200001,38.262878418],[99.92248535200001,38.334716797],[99.76147460900002,38.393310547],[99.62707519500002,38.484130859],[99.57287597700001,38.578674316],[99.51232910200001,38.608520508],[99.27111816400001,38.791870117],[99.06811523400002,38.900695801],[99.07568359400001,38.925476074],[99.04870605500001,38.943481445],[98.83752441400001,39.053283691],[98.81927490200002,39.077087402],[98.80572509800001,39.085083008],[98.77728271500001,39.082702637],[98.75390625000001,39.074523926],[98.73492431600002,39.063720703],[98.722473145,39.037902832],[98.70947265600002,39.015075684],[98.60748291000002,38.93548584],[98.56011962900001,38.928710937],[98.51409912100002,38.929077148],[98.43829345700001,38.931518555],[98.45910644500002,38.956481934],[98.36749267600001,39.014282227],[98.29388427700002,39.015686035],[98.28991699200002,38.944091797],[98.24432373,38.889282227],[98.13909912100002,38.838684082],[98.11370849600002,38.808105469],[98.12432861300002,38.760314941],[98.15270996100001,38.716125488],[98.16607666000002,38.690917969],[98.19049072300001,38.663513184],[98.22412109400001,38.650512695],[98.26312255900001,38.653686523],[98.30590820300002,38.653320312],[98.335327148,38.631286621],[98.36108398400002,38.610473633],[98.40191650400001,38.596923828],[98.44592285200001,38.59588623],[98.48571777300002,38.591125488],[98.519714355,38.574279785],[98.54608154300001,38.552490234],[98.60589599600002,38.52947998],[98.65747070300002,38.51751709],[98.69030761700002,38.506713867],[98.73968505900001,38.492675781],[98.80230712900001,38.477111816],[98.84887695300002,38.467895508],[98.89410400400001,38.460510254],[98.94329834000001,38.440917969],[98.97192382800002,38.419677734],[98.98327636700002,38.388122559],[98.95672607400002,38.36730957],[98.92572021500001,38.346130371],[98.91888427700002,38.31451416],[98.89349365200002,38.289672852],[98.894714355,38.261291504],[98.90411377,38.226318359],[98.92633056600002,38.19128418],[98.97149658200001,38.159729004],[99.00970459000001,38.151672363],[99.04852294900002,38.153503418],[99.10491943400001,38.15411377],[99.13189697300001,38.134094238],[99.14251709000001,38.096923828],[99.18170166000002,38.065673828],[99.22869873,38.038085937],[99.26367187500001,38.018127441],[99.28131103500002,37.981323242],[99.28851318400001,37.954711914],[99.304504395,37.928100586],[99.33410644500002,37.896728516],[99.37072753900001,37.878112793],[99.42449951200001,37.862121582],[99.46649169900002,37.847106934],[99.51287841800001,37.84588623],[99.55749511700002,37.841491699],[99.59710693400001,37.832275391],[99.63507080100001,37.809875488],[99.65148925800001,37.771728516],[99.66149902300002,37.736877441],[99.67132568400001,37.699279785],[99.68450927700002,37.664306641],[99.66369628900001,37.637512207],[99.62329101600001,37.618286133],[99.55627441400001,37.588928223],[99.52111816400001,37.549316406],[99.49389648400002,37.519897461],[99.48132324200002,37.48828125],[99.46911621100001,37.440490723],[99.45727539100001,37.399475098],[99.44091796900001,37.354919434],[99.42651367200001,37.323730469],[99.41491699200002,37.294677734],[99.41247558600001,37.258728027],[99.41632080100001,37.225891113],[99.42510986300002,37.192687988],[99.43969726600001,37.16607666],[99.45031738300001,37.13848877],[99.46728515600002,37.127319336],[99.49609375000001,37.118530273],[99.52490234400001,37.117675781],[99.56372070300002,37.111328125],[99.58172607400002,37.100097656],[99.61590576200001,37.082275391],[99.66992187500001,37.054321289],[99.69891357400002,37.037475586],[99.70709228500002,37.015319824],[99.72967529300001,36.99810791],[99.76770019500002,36.997924805],[99.80108642600001,36.993530273],[99.81787109400001,36.982116699],[99.82208252,36.978088379],[99.83410644500002,36.959716797],[99.83471679700001,36.959472656],[99.836914062,36.954284668],[99.84948730500001,36.944274902],[99.84948730500001,36.952087402],[99.86187744100002,36.946472168],[99.88671875000001,36.950317383],[99.92108154300001,36.951721191],[99.96850585900002,36.942687988],[99.98388671900001,36.924682617],[100.00030517600001,36.902526855],[100.01110839800002,36.893310547],[100.02789306600002,36.891113281],[100.04711914100001,36.889709473],[100.06451416000002,36.890319824],[100.07189941400001,36.894714355],[100.10607910200001,36.900085449],[100.11749267600001,36.89831543],[100.12768554700001,36.896911621],[100.15270996100001,36.881103516],[100.17150878900001,36.864318848],[100.18347168000001,36.855895996],[100.23229980500001,36.846679687],[100.245117187,36.844299316],[100.28430175800001,36.84588623],[100.31610107400002,36.844116211],[100.36431884800001,36.843688965],[100.38848877,36.838928223],[100.41027832000002,36.832885742],[100.43389892600001,36.826721191],[100.52307128900001,36.770874023],[100.55987548800002,36.748474121],[100.60852050800001,36.736694336],[100.66949462900001,36.730895996],[100.70050048800002,36.742675781],[100.73889160200001,36.74432373],[100.730285645,36.730285645],[100.76049804700001,36.700073242],[100.82849121100001,36.748474121],[100.85467529300001,36.766723633],[100.90447998,36.785888672],[100.94329834000001,36.80267334],[100.98309326200001,36.814086914],[101.02532959000001,36.821899414],[101.07287597700001,36.842285156],[101.11090087900001,36.863708496],[101.15832519500002,36.864318848],[101.20629882800002,36.848510742],[101.24871826200001,36.838684082],[101.29571533200001,36.828491211],[101.32348632800002,36.848327637],[101.321289062,36.878479004],[101.30529785200001,36.91229248],[101.28967285200001,36.938293457],[101.32867431600002,36.960083008],[101.31829834000001,37.004089355],[101.28570556600002,37.029296875],[101.24969482400002,37.060302734],[101.22888183600001,37.086120605],[101.20269775400001,37.115722656],[101.18151855500001,37.14831543],[101.14770507800002,37.179870605],[101.11090087900001,37.202087402],[101.05731201200001,37.21307373],[101.00653076200001,37.226074219],[100.97290039100001,37.237915039],[100.94671630900001,37.25567627],[100.91412353500002,37.284912109],[100.89788818400001,37.310302734],[100.88348388700001,37.362915039],[100.89990234400001,37.406311035],[100.945495605,37.42010498],[101.00909423800002,37.409301758],[101.04248046900001,37.399719238],[101.094726562,37.387084961],[101.16210937500001,37.37689209],[101.22027587900001,37.362304687],[101.25909423800002,37.356079102],[101.29968261700002,37.35369873],[101.34228515600002,37.351318359],[101.38671875000001,37.349914551],[101.42431640600002,37.347290039],[101.46667480500001,37.340270996],[101.50128173800002,37.321899414],[101.52429199200002,37.297485352],[101.54571533200001,37.269104004],[101.57971191400001,37.250305176],[101.61907959000001,37.246276855],[101.68487548800002,37.247924805],[101.73107910200001,37.237304687],[101.77410888700001,37.219726562],[101.80511474600002,37.20111084],[101.83508300800001,37.179321289],[101.86328125000001,37.159301758],[101.90728759800001,37.155273437],[101.95648193400001,37.13067627],[102.00427246100001,37.096496582],[102.04010009800001,37.073913574],[102.07067871100001,37.050292969],[102.12249755900001,37.045288086],[102.20111084000001,37.054504395],[102.24792480500001,37.06652832],[102.28332519500002,37.076904297],[102.33068847700001,37.091674805],[102.38189697300001,37.098083496],[102.43151855500001,37.104309082],[102.56427002,37.108703613],[102.594726562,37.122680664],[102.57568359400001,37.15447998],[102.51068115200002,37.195129395],[102.49011230500001,37.240905762],[102.42529296900001,37.280700684],[102.40228271500001,37.292480469],[102.344726562,37.304321289],[102.26428222700001,37.370483398],[102.19470214800002,37.408874512],[102.16290283200001,37.403503418],[102.09167480500001,37.4453125],[102.03289794900002,37.455871582],[102.07891845700001,37.523498535],[102.07928466800001,37.580688477],[102.07952880900001,37.606079102],[102.05548095700001,37.659729004]]]}}
