{"type":"Feature","id":"bulk-99377448B52979013965427","bbox":[113.46649169900002,29.02947998,114.94091796900001,30.274902344],"properties":{"id":"bulk-99377448B52979013965427","name":"Xianning","nameEn":"Xianning","fullName":"Xianning","level":"city","boundaryRole":"administrative-extent","boundaryQuality":"generalized-source-2020","boundaryYearRepresented":"2020","bounds":[[113.46649169900002,29.02947998],[114.94091796900001,30.274902344]],"center":[114.203704834,29.652191162],"centerMethod":"bounding-box midpoint; camera framing only","license":"CC-BY-3.0-IGO","attribution":"geoBoundaries / HDX, China administrative boundaries (2020)","source":{"provider":"geoBoundaries gbHumanitarian / HDX","url":"https://github.com/wmgeolab/geoBoundaries/raw/9469f09/releaseData/gbHumanitarian/CHN/ADM2/geoBoundaries-CHN-ADM2.geojson","metadataUrl":"https://www.geoboundaries.org/api/current/gbHumanitarian/CHN/ADM2/","shapeID":"99377448B52979013965427","shapeName":"Xianning","boundaryID":"CHN-ADM2-99377448","commit":"9469f09"},"geometryCounts":{"coordinates":156,"components":1,"holes":0},"boundaryNotice":"geoBoundaries / HDX 2020 年行政区数据，海岸和边界经过源数据概化，并非当前测绘成果。"},"geometry":{"type":"Polygon","coordinates":[[[114.94012451200001,29.56072998],[114.92248535200001,29.578918457],[114.90472412100002,29.61907959],[114.89648437500001,29.655090332],[114.88110351600001,29.692077637],[114.855285645,29.708129883],[114.82312011700002,29.718688965],[114.79492187500001,29.737670898],[114.76171875000001,29.750488281],[114.73272705100001,29.770507812],[114.72167968700002,29.798706055],[114.71789550800001,29.837280273],[114.72570800800001,29.87109375],[114.69787597700001,29.923278809],[114.66210937500001,29.935302734],[114.62512207000002,29.941711426],[114.58990478500002,29.94732666],[114.54809570300002,29.951293945],[114.53448486300002,30.003112793],[114.49090576200001,30.003479004],[114.45367431600002,30.012329102],[114.41949462900001,30.029724121],[114.38549804700001,30.051086426],[114.35510253900001,30.061279297],[114.31610107400002,30.04888916],[114.28851318400001,30.034729004],[114.23870849600002,30.007507324],[114.18267822300001,30.006713867],[114.18267822300001,30.073913574],[114.16192627,30.088500977],[114.12030029300001,30.11730957],[114.09948730500001,30.131713867],[114.07928466800001,30.159912109],[114.05908203100002,30.187927246],[114.01672363300001,30.203125],[114.01947021500001,30.204711914],[113.980285645,30.231689453],[113.93872070300002,30.260498047],[113.91772460900002,30.274902344],[113.89569091800001,30.261901855],[113.87292480500001,30.235290527],[113.85009765600002,30.208679199],[113.83148193400001,30.15447998],[113.87451171900001,30.153076172],[113.96112060500002,30.163879395],[113.98187255900001,30.149475098],[114.02368164100001,30.120727539],[114.06530761700002,30.091918945],[114.06469726600001,30.078125],[114.02050781200002,30.052307129],[113.97692871100001,30.040100098],[113.93328857400002,30.027893066],[113.88909912100002,30.002075195],[113.86712646500001,29.989074707],[113.79907226600001,29.909118652],[113.73431396500001,29.897521973],[113.66931152300002,29.885925293],[113.62652587900001,29.887084961],[113.58251953100002,29.861083984],[113.56048584000001,29.848083496],[113.51647949200002,29.82208252],[113.46649169900002,29.777893066],[113.47229003900001,29.770507812],[113.50250244100002,29.731323242],[113.51593017600001,29.689086914],[113.53271484400001,29.695922852],[113.55267334000001,29.700683594],[113.59631347700001,29.689880371],[113.63427734400001,29.667724609],[113.66467285200001,29.605529785],[113.66912841800001,29.581298828],[113.60290527300002,29.532287598],[113.59509277300002,29.517272949],[113.64147949200002,29.499084473],[113.66748046900001,29.495910645],[113.70227050800001,29.482299805],[113.72290039100001,29.474121094],[113.71270752,29.445922852],[113.68408203100002,29.409118652],[113.67468261700002,29.396911621],[113.65447998000002,29.385681152],[113.63067627,29.356079102],[113.60571289100001,29.322875977],[113.56988525400001,29.276489258],[113.56152343700002,29.270874023],[113.57427978500002,29.276489258],[113.61987304700001,29.243103027],[113.64630127,29.225524902],[113.65710449200002,29.206481934],[113.64831543000001,29.188110352],[113.61767578100002,29.172912598],[113.60229492200001,29.146484375],[113.64831543000001,29.123901367],[113.63208007800002,29.104675293],[113.66052246100001,29.081726074],[113.67352294900002,29.101928711],[113.70452880900001,29.099487305],[113.70788574200002,29.069885254],[113.71649169900002,29.072509766],[113.72772216800001,29.075683594],[113.73730468700002,29.081726074],[113.74932861300002,29.102722168],[113.75311279300001,29.120483398],[113.78051757800002,29.105529785],[113.78649902300002,29.099121094],[113.78790283200001,29.07409668],[113.80688476600001,29.054077148],[113.83312988300001,29.032897949],[113.85992431600002,29.02947998],[113.88372802700002,29.056518555],[113.89050293000001,29.07409668],[113.921875,29.073730469],[113.92529296900001,29.091125488],[113.93792724600002,29.125488281],[113.96588134800001,29.122924805],[114.00170898400002,29.141479492],[114.03710937500001,29.173706055],[114.03411865200002,29.20489502],[114.06750488300001,29.209289551],[114.07952880900001,29.208679199],[114.13171386700002,29.205688477],[114.18371582000002,29.23449707],[114.20709228500002,29.247314453],[114.22308349600002,29.259277344],[114.23150634800001,29.287475586],[114.22912597700001,29.332275391],[114.27111816400001,29.342529297],[114.296875,29.339111328],[114.31427002,29.336914062],[114.35089111300002,29.332092285],[114.38287353500002,29.329284668],[114.41992187500001,29.316711426],[114.45550537100002,29.324523926],[114.49572753900001,29.339294434],[114.49969482400002,29.344299316],[114.51330566400001,29.361877441],[114.55389404300001,29.385498047],[114.60070800800001,29.410705566],[114.63690185500002,29.405090332],[114.68969726600001,29.39630127],[114.73608398400002,29.385925293],[114.84613037100002,29.404296875],[114.88128662100002,29.418273926],[114.90771484400001,29.452087402],[114.90350341800001,29.47088623],[114.89831543000001,29.473876953],[114.86328125000001,29.459899902],[114.85552978500002,29.473510742],[114.86212158200001,29.50012207],[114.87329101600001,29.51751709],[114.92687988300001,29.504882812],[114.94091796900001,29.514282227],[114.93829345700001,29.526672363],[114.92907714800002,29.550292969],[114.93792724600002,29.559875488],[114.94012451200001,29.56072998]]]}}
