{"type":"Feature","id":"bulk-99377448B92634474190171","bbox":[106.51312255900001,37.620117187,111.43487548800002,40.860473633],"properties":{"id":"bulk-99377448B92634474190171","name":"Ordos","nameEn":"Ordos","fullName":"Ordos","level":"city","boundaryRole":"administrative-extent","boundaryQuality":"generalized-source-2020","boundaryYearRepresented":"2020","bounds":[[106.51312255900001,37.620117187],[111.43487548800002,40.860473633]],"center":[108.97399902350001,39.24029541],"centerMethod":"bounding-box midpoint; camera framing only","license":"CC-BY-3.0-IGO","attribution":"geoBoundaries / HDX, China administrative boundaries (2020)","source":{"provider":"geoBoundaries gbHumanitarian / HDX","url":"https://github.com/wmgeolab/geoBoundaries/raw/9469f09/releaseData/gbHumanitarian/CHN/ADM2/geoBoundaries-CHN-ADM2.geojson","metadataUrl":"https://www.geoboundaries.org/api/current/gbHumanitarian/CHN/ADM2/","shapeID":"99377448B92634474190171","shapeName":"Ordos","boundaryID":"CHN-ADM2-99377448","commit":"9469f09"},"geometryCounts":{"coordinates":299,"components":1,"holes":0},"boundaryNotice":"geoBoundaries / HDX 2020 年行政区数据，海岸和边界经过源数据概化，并非当前测绘成果。"},"geometry":{"type":"Polygon","coordinates":[[[111.43487548800002,39.644104004],[111.42687988300001,39.656494141],[111.40252685500002,39.66607666],[111.37408447300001,39.684692383],[111.33770752,39.715698242],[111.32592773400002,39.743530273],[111.35913085900002,39.770874023],[111.38848877,39.801086426],[111.41888427700002,39.883728027],[111.40808105500001,39.963500977],[111.39227294900002,40.003723145],[111.34350585900002,40.050109863],[111.31927490200002,40.081115723],[111.33691406200002,40.103515625],[111.296691895,40.121276855],[111.26531982400002,40.14251709],[111.21807861300002,40.154296875],[111.17431640600002,40.169128418],[111.15447998000002,40.196899414],[111.13092041000002,40.221130371],[111.09790039100001,40.23651123],[111.04907226600001,40.250915527],[111.02868652300002,40.283081055],[110.96209716800001,40.253112793],[110.88732910200001,40.219726562],[110.87487793000001,40.222900391],[110.87109375000001,40.256713867],[110.85491943400001,40.287475586],[110.83850097700001,40.293701172],[110.81347656200002,40.284729004],[110.78851318400001,40.263305664],[110.76348877,40.254272461],[110.74291992200001,40.272888184],[110.70172119100002,40.279296875],[110.69787597700001,40.328308105],[110.67730712900001,40.33770752],[110.61090087900001,40.313476562],[110.56951904300001,40.322875977],[110.47052002,40.399902344],[110.39990234400001,40.391113281],[110.35028076200001,40.440307617],[110.29650878900001,40.449707031],[110.27587890600002,40.480285645],[110.23010253900001,40.471313477],[110.21368408200001,40.517272949],[110.13470459000001,40.551086426],[110.13470459000001,40.499084473],[110.11389160200001,40.492919922],[110.08489990200002,40.502075195],[110.03088378900001,40.532897949],[110.00592041000002,40.535888672],[109.93127441400001,40.49609375],[109.90228271500001,40.49609375],[109.88549804700001,40.520507812],[109.86889648400002,40.529724121],[109.77770996100001,40.492919922],[109.71551513700001,40.462097168],[109.67810058600001,40.455688477],[109.66149902300002,40.471130371],[109.65307617200001,40.492492676],[109.63629150400001,40.507873535],[109.60308837900001,40.520080566],[109.57391357400002,40.523071289],[109.44952392600001,40.510314941],[109.42028808600001,40.519470215],[109.38708496100001,40.519287109],[109.39129638700001,40.510070801],[109.44152832000002,40.473510742],[109.37927246100001,40.454711914],[109.33789062500001,40.457702637],[109.30029296900001,40.475891113],[109.27130127,40.478881836],[109.24609375000001,40.506286621],[109.18829345700001,40.475280762],[109.17108154300001,40.524291992],[109.10467529300001,40.517700195],[109.05432128900001,40.56048584],[109.02929687500001,40.56628418],[108.97552490200002,40.547485352],[108.94647216800001,40.535095215],[108.85827636700002,40.595703125],[108.796875,40.533874512],[108.77630615200002,40.530517578],[108.74291992200001,40.542480469],[108.73431396500001,40.5546875],[108.72088623000002,40.606689453],[108.70410156200002,40.618896484],[108.65411377,40.618530273],[108.62011718700002,40.651916504],[108.56207275400001,40.642089844],[108.56109619100002,40.694274902],[108.55249023400002,40.709472656],[108.53131103500002,40.721679687],[108.48950195300002,40.727294922],[108.43511962900001,40.738891602],[108.37109375000001,40.808898926],[108.33807373000002,40.78692627],[108.30511474600002,40.774291992],[108.25848388700001,40.801330566],[108.22509765600002,40.806884766],[108.18347168000001,40.803283691],[108.15747070300002,40.843078613],[108.13629150400001,40.851928711],[108.06988525400001,40.838684082],[108.00671386700002,40.859313965],[107.92791748000002,40.842712402],[107.88989257800002,40.860473633],[107.78192138700001,40.843505859],[107.71508789100001,40.84552002],[107.67492675800001,40.795715332],[107.62951660200001,40.77947998],[107.54309082000002,40.750305176],[107.50207519500002,40.728088379],[107.46990966800001,40.696716309],[107.41192627,40.68951416],[107.36352539100001,40.645690918],[107.31768798800002,40.644714355],[107.27990722700001,40.656311035],[107.25109863300001,40.643310547],[107.22930908200001,40.563110352],[107.19628906200002,40.553283691],[107.18408203100002,40.549926758],[107.19067382800002,40.488525391],[107.14251709000001,40.447692871],[107.16967773400002,40.38671875],[107.14172363300001,40.361694336],[107.03991699200002,40.313476562],[106.98413085900002,40.259887695],[106.89190673800002,40.19329834],[106.83990478500002,40.152282715],[106.75988769500002,40.091918945],[106.71228027300002,40.044677734],[106.70489502,40.026123047],[106.71868896500001,39.998901367],[106.72509765600002,39.946899414],[106.67791748000002,39.896484375],[106.70910644500002,39.845092773],[106.72509765600002,39.797912598],[106.75207519500002,39.81048584],[106.77850341800001,39.800720215],[106.79388427700002,39.799499512],[106.80828857400002,39.810913086],[106.85449218700002,39.825683594],[106.92272949200002,39.850524902],[106.945129395,39.862915039],[106.97528076200001,39.861328125],[106.99652099600002,39.842285156],[107.01507568400001,39.82208252],[107.02130127,39.776306152],[107.03271484400001,39.729309082],[107.05651855500001,39.61529541],[107.06848144500002,39.590270996],[107.09552002,39.555725098],[107.10247802700002,39.538330078],[107.10089111300002,39.532287598],[107.09472656200002,39.523071289],[107.08172607400002,39.509094238],[107.07287597700001,39.483276367],[107.06927490200002,39.462280273],[107.04791259800001,39.427490234],[106.99810791000002,39.365112305],[106.972473145,39.340881348],[106.96728515600002,39.331481934],[106.95947265600002,39.32232666],[106.92492675800001,39.319274902],[106.92230224600002,39.319274902],[106.91790771500001,39.309082031],[106.89367675800001,39.280700684],[106.855285645,39.267089844],[106.78228759800001,39.229492187],[106.80651855500001,39.186279297],[106.84307861300002,39.12109375],[106.84509277300002,39.073730469],[106.93371582000002,39.046508789],[106.96691894500002,39.007080078],[106.97351074200002,38.961486816],[106.95068359400001,38.926086426],[106.81970214800002,38.875488281],[106.76770019500002,38.845092773],[106.72991943400001,38.817871094],[106.69549560500002,38.775512695],[106.64508056600002,38.698120117],[106.61029052700002,38.56451416],[106.60870361300002,38.445129395],[106.58911132800002,38.390686035],[106.51312255900001,38.343505859],[106.51831054700001,38.301086426],[106.58410644500002,38.259094238],[106.80712890600002,38.156677246],[107.01092529300001,38.101318359],[107.04510498000002,38.102111816],[107.07629394500002,38.122070312],[107.15270996100001,38.155700684],[107.23669433600001,38.149475098],[107.28747558600001,38.126708984],[107.30651855500001,38.113098145],[107.37188720700001,38.036499023],[107.41748046900001,37.99407959],[107.44128418000001,37.942504883],[107.45867919900002,37.904724121],[107.50567627,37.881896973],[107.554504395,37.880126953],[107.59027099600002,37.88067627],[107.63372802700002,37.876708984],[107.67608642600001,37.872680664],[107.79370117200001,37.854309082],[107.92547607400002,37.815917969],[107.98510742200001,37.792907715],[108.00909423800002,37.711120605],[108.05169677700002,37.633911133],[108.08532714800002,37.625671387],[108.17047119100002,37.628723145],[108.22308349600002,37.651489258],[108.28930664100001,37.631713867],[108.32647705100001,37.620117187],[108.42492675800001,37.647888184],[108.50067138700001,37.663879395],[108.52990722700001,37.662475586],[108.69128418000001,37.65447998],[108.78210449200002,37.67388916],[108.74328613300001,37.791870117],[108.74108886700002,37.843322754],[108.73547363300001,37.903320312],[108.76947021500001,37.948730469],[108.76409912100002,37.992919922],[108.80187988300001,38.020690918],[108.88287353500002,37.948913574],[108.93389892600001,37.895324707],[108.97631835900002,37.949707031],[109.01971435500002,38.002075195],[109.01049804700001,38.087890625],[108.95068359400001,38.143920898],[108.86389160200001,38.204101562],[108.89312744100002,38.276123047],[108.89770507800002,38.349487305],[108.93927002,38.375488281],[109.00952148400002,38.434326172],[109.06530761700002,38.447875977],[109.12152099600002,38.523498535],[109.16052246100001,38.570678711],[109.22912597700001,38.602111816],[109.25811767600001,38.616271973],[109.33068847700001,38.614074707],[109.30548095700001,38.684692383],[109.35552978500002,38.707885742],[109.39331054700001,38.792907715],[109.46569824200002,38.817077637],[109.54309082000002,38.81652832],[109.58312988300001,38.873718262],[109.58831787100002,38.881286621],[109.61248779300001,38.940673828],[109.63452148400002,38.995483398],[109.671875,39.068908691],[109.76348877,39.091308594],[109.84332275400001,39.12512207],[109.89849853500002,39.18347168],[109.95849609400001,39.216125488],[110.06207275400001,39.240905762],[110.11987304700001,39.275512695],[110.16192627,39.296081543],[110.12927246100001,39.360717773],[110.113098145,39.382080078],[110.07629394500002,39.406677246],[110.08032226600001,39.437316895],[110.09667968700002,39.461914062],[110.16632080100001,39.443481445],[110.21527099600002,39.440307617],[110.27252197300001,39.381896973],[110.33367919900002,39.329528809],[110.37109375000001,39.301330566],[110.38391113300001,39.292724609],[110.43591308600001,39.336730957],[110.48510742200001,39.341125488],[110.49267578100002,39.341674805],[110.52069091800001,39.309875488],[110.66308593700002,39.256286621],[110.71411132800002,39.315124512],[110.72790527300002,39.397277832],[110.81488037100002,39.469482422],[110.89068603500002,39.49987793],[110.93847656200002,39.523498535],[110.97668457000002,39.554870605],[111.09167480500001,39.580688477],[111.12707519500002,39.571472168],[111.10168457000002,39.538879395],[111.07507324200002,39.481689453],[111.13592529300001,39.401672363],[111.18890380900001,39.385925293],[111.22967529300001,39.382507324],[111.328125,39.399902344],[111.33673095700001,39.427490234],[111.34552002,39.451904297],[111.36212158200001,39.473083496],[111.39929199200002,39.485107422],[111.43328857400002,39.549072266],[111.43371582000002,39.579711914],[111.39727783200001,39.60168457],[111.37707519500002,39.623291016],[111.43487548800002,39.644104004]]]}}
