{"type":"Feature","id":"bulk-99377448B38853406883205","bbox":[115.83551025400001,34.423095703,117.58587646500001,36.126708984],"properties":{"id":"bulk-99377448B38853406883205","name":"Jining","nameEn":"Jining","fullName":"Jining","level":"city","boundaryRole":"administrative-extent","boundaryQuality":"generalized-source-2020","boundaryYearRepresented":"2020","bounds":[[115.83551025400001,34.423095703],[117.58587646500001,36.126708984]],"center":[116.71069335950001,35.2749023435],"centerMethod":"bounding-box midpoint; camera framing only","license":"CC-BY-3.0-IGO","attribution":"geoBoundaries / HDX, China administrative boundaries (2020)","source":{"provider":"geoBoundaries gbHumanitarian / HDX","url":"https://github.com/wmgeolab/geoBoundaries/raw/9469f09/releaseData/gbHumanitarian/CHN/ADM2/geoBoundaries-CHN-ADM2.geojson","metadataUrl":"https://www.geoboundaries.org/api/current/gbHumanitarian/CHN/ADM2/","shapeID":"99377448B38853406883205","shapeName":"Jining","boundaryID":"CHN-ADM2-99377448","commit":"9469f09"},"geometryCounts":{"coordinates":199,"components":1,"holes":0},"boundaryNotice":"geoBoundaries / HDX 2020 年行政区数据，海岸和边界经过源数据概化，并非当前测绘成果。"},"geometry":{"type":"Polygon","coordinates":[[[117.37109375000001,34.572509766],[117.39068603500002,34.601074219],[117.39392089800002,34.634521484],[117.37890625000001,34.675109863],[117.31768798800002,34.702270508],[117.25170898400002,34.729675293],[117.22210693400001,34.746276855],[117.19427490200002,34.781311035],[117.18811035200001,34.825683594],[117.18212890600002,34.853881836],[117.14770507800002,34.887084961],[117.08648681600002,34.918884277],[117.00811767600001,34.930908203],[116.97131347700001,34.955322266],[116.94769287100002,34.988891602],[116.90747070300002,35.02947998],[116.88610839800002,35.071472168],[116.85748291000002,35.10168457],[116.82189941400001,35.123474121],[116.78167724600002,35.16229248],[116.83172607400002,35.17010498],[116.87152099600002,35.176696777],[116.90631103500002,35.171081543],[116.94128418000001,35.178894043],[116.98510742200001,35.198486328],[117.02368164100001,35.211486816],[117.06610107400002,35.215087891],[117.10711669900002,35.215515137],[117.15631103500002,35.220275879],[117.18927002,35.231506348],[117.23388671900001,35.252685547],[117.28271484400001,35.269104004],[117.30407714800002,35.29888916],[117.33471679700001,35.319274902],[117.36987304700001,35.299316406],[117.39312744100002,35.274719238],[117.44689941400001,35.266906738],[117.46447753900001,35.291320801],[117.44189453100002,35.313476562],[117.44268798800002,35.349304199],[117.44207763700001,35.381103516],[117.42651367200001,35.406494141],[117.41827392600001,35.44708252],[117.45867919900002,35.463500977],[117.50610351600001,35.487304687],[117.49371337900001,35.52532959],[117.52770996100001,35.528320312],[117.56292724600002,35.530517578],[117.57647705100001,35.558898926],[117.57470703100002,35.592102051],[117.58587646500001,35.629882812],[117.54492187500001,35.646118164],[117.52130127,35.668884277],[117.48748779300001,35.697875977],[117.44531250000001,35.715087891],[117.413879395,35.734313965],[117.37768554700001,35.756103516],[117.33728027300002,35.770324707],[117.26708984400001,35.761291504],[117.21630859400001,35.749694824],[117.17608642600001,35.748718262],[117.13848877,35.754882812],[117.09631347700001,35.762329102],[117.05627441400001,35.775085449],[117.00909423800002,35.782470703],[116.96527099600002,35.77947998],[116.93548584000001,35.751098633],[116.90930175800001,35.718322754],[116.88372802700002,35.692504883],[116.83612060500002,35.673095703],[116.77069091800001,35.670471191],[116.73907470700001,35.682678223],[116.69891357400002,35.68572998],[116.67431640600002,35.70690918],[116.63708496100001,35.700073242],[116.59729003900001,35.715087891],[116.61071777300002,35.745483398],[116.62188720700001,35.776916504],[116.63488769500002,35.80670166],[116.61151123000002,35.829284668],[116.63250732400002,35.867492676],[116.64868164100001,35.90411377],[116.62988281200002,35.93371582],[116.59948730500001,35.915893555],[116.56707763700001,35.893676758],[116.53692627,35.873474121],[116.52447509800001,35.846313477],[116.51049804700001,35.81628418],[116.45349121100001,35.810302734],[116.41308593700002,35.793518066],[116.37908935500002,35.780090332],[116.33007812500001,35.786315918],[116.28192138700001,35.770874023],[116.26007080100001,35.806518555],[116.22650146500001,35.847473145],[116.21032714800002,35.877075195],[116.19769287100002,35.876281738],[116.19189453100002,35.877929687],[116.18572998000002,35.893310547],[116.17272949200002,35.896728516],[116.13830566400001,35.87689209],[116.11151123000002,35.87487793],[116.09552002,35.893310547],[116.06011962900001,35.922729492],[116.04132080100001,35.952697754],[116.03948974600002,35.979125977],[116.05529785200001,36.009521484],[116.06048584000001,36.036315918],[116.08349609400001,36.053710937],[116.097473145,36.069519043],[116.10327148400002,36.081481934],[116.09472656200002,36.112121582],[116.08831787100002,36.126708984],[116.06488037100002,36.110473633],[116.06109619100002,36.103088379],[116.02148437500001,36.004516602],[116.01568603500002,35.972106934],[115.87652587900001,35.953491211],[115.83551025400001,35.920288086],[115.84112548800002,35.864685059],[115.92352294900002,35.787109375],[115.96032714800002,35.769287109],[115.99432373000002,35.756713867],[116.02490234400001,35.744506836],[116.05548095700001,35.712890625],[116.07208252,35.68927002],[116.09552002,35.659118652],[116.10931396500001,35.628479004],[116.09808349600002,35.563110352],[116.09808349600002,35.536499023],[116.097473145,35.50769043],[116.13952636700002,35.459716797],[116.18450927700002,35.439086914],[116.20489502,35.414672852],[116.21527099600002,35.385925293],[116.20410156200002,35.35369873],[116.18572998000002,35.327087402],[116.19732666000002,35.279296875],[116.20892334000001,35.25012207],[116.20648193400001,35.200683594],[116.18292236300002,35.153930664],[116.15588378900001,35.120727539],[116.14288330100001,35.092102051],[116.11749267600001,35.047302246],[116.08929443400001,35.016906738],[116.09967041000002,34.982299805],[116.11108398400002,34.950927734],[116.14190673800002,34.931274414],[116.18072509800001,34.922912598],[116.21667480500001,34.907287598],[116.25048828100002,34.890686035],[116.28851318400001,34.870910645],[116.32830810500002,34.855712891],[116.36669921900001,34.841308594],[116.38171386700002,34.837524414],[116.38208007800002,34.841125488],[116.38208007800002,34.857116699],[116.43548584000001,34.872314453],[116.46429443400001,34.876708984],[116.48052978500002,34.879089355],[116.53271484400001,34.893676758],[116.55572509800001,34.903076172],[116.59130859400001,34.917480469],[116.62408447300001,34.908081055],[116.64971923800002,34.907714844],[116.69329834000001,34.909301758],[116.71527099600002,34.902099609],[116.72808837900001,34.897888184],[116.76470947300001,34.896118164],[116.76672363300001,34.896484375],[116.82427978500002,34.879089355],[116.87451171900001,34.86529541],[116.92431640600002,34.847473145],[116.93530273400002,34.805480957],[116.96368408200001,34.768676758],[116.98968505900001,34.742126465],[117.01312255900001,34.72052002],[117.02368164100001,34.69732666],[117.02148437500001,34.672302246],[117.02868652300002,34.646728516],[117.05548095700001,34.630126953],[117.08691406200002,34.628295898],[117.09692382800002,34.597473145],[117.10748291000002,34.576721191],[117.11572265600002,34.54888916],[117.12152099600002,34.473083496],[117.12609863300001,34.456726074],[117.12432861300002,34.43572998],[117.14788818400001,34.423095703],[117.17449951200001,34.425292969],[117.21447753900001,34.437927246],[117.22747802700002,34.444519043],[117.23510742200001,34.460327148],[117.23132324200002,34.487670898],[117.26068115200002,34.53692627],[117.23669433600001,34.546875],[117.31127929700001,34.566101074],[117.33447265600002,34.579711914],[117.37109375000001,34.572509766]]]}}
