{"type":"Feature","id":"bulk-99377448B49465794387151","bbox":[110.31750488300001,21.416687012,111.66888427700002,22.723510742],"properties":{"id":"bulk-99377448B49465794387151","name":"Maoming","nameEn":"Maoming","fullName":"Maoming","level":"city","boundaryRole":"administrative-extent","boundaryQuality":"generalized-source-2020","boundaryYearRepresented":"2020","bounds":[[110.31750488300001,21.416687012],[111.66888427700002,22.723510742]],"center":[110.99319458000002,22.070098877],"centerMethod":"bounding-box midpoint; camera framing only","license":"CC-BY-3.0-IGO","attribution":"geoBoundaries / HDX, China administrative boundaries (2020)","source":{"provider":"geoBoundaries gbHumanitarian / HDX","url":"https://github.com/wmgeolab/geoBoundaries/raw/9469f09/releaseData/gbHumanitarian/CHN/ADM2/geoBoundaries-CHN-ADM2.geojson","metadataUrl":"https://www.geoboundaries.org/api/current/gbHumanitarian/CHN/ADM2/","shapeID":"99377448B49465794387151","shapeName":"Maoming","boundaryID":"CHN-ADM2-99377448","commit":"9469f09"},"geometryCounts":{"coordinates":317,"components":3,"holes":0},"boundaryNotice":"geoBoundaries / HDX 2020 年行政区数据，海岸和边界经过源数据概化，并非当前测绘成果。"},"geometry":{"type":"MultiPolygon","coordinates":[[[[110.93768310500002,21.416687012],[110.93908691400001,21.416687012],[110.93908691400001,21.417480469],[110.93267822300001,21.420288086],[110.93011474600002,21.420288086],[110.93768310500002,21.416687012]]],[[[111.25732421900001,21.428283691],[111.26971435500002,21.436706543],[111.26867675800001,21.436889648],[111.25427246100001,21.44732666],[111.24847412100002,21.446472168],[111.25732421900001,21.43170166],[111.25732421900001,21.428283691]]],[[[111.66888427700002,22.519287109],[111.62530517600001,22.516479492],[111.60107421900001,22.541503906],[111.56927490200002,22.549926758],[111.52893066400001,22.516296387],[111.49047851600001,22.498901367],[111.45947265600002,22.530517578],[111.45111084000001,22.49407959],[111.44830322300001,22.466491699],[111.42388916000002,22.451293945],[111.38830566400001,22.468078613],[111.38427734400001,22.504272461],[111.35888671900001,22.530700684],[111.32147216800001,22.524475098],[111.27191162100002,22.515686035],[111.30010986300002,22.56451416],[111.28588867200001,22.598510742],[111.23907470700001,22.605102539],[111.19287109400001,22.610290527],[111.15332031200002,22.616882324],[111.12231445300002,22.640319824],[111.11853027300002,22.672912598],[111.10290527300002,22.705078125],[111.08007812500001,22.723510742],[111.08728027300002,22.715698242],[111.09210205100001,22.701293945],[111.08728027300002,22.686706543],[111.07751464800002,22.67590332],[111.04870605500001,22.672302246],[111.03808593700002,22.671325684],[111.01287841800001,22.661499023],[110.99267578100002,22.656921387],[110.95507812500001,22.646118164],[110.92712402300002,22.643310547],[110.90667724600002,22.641479492],[110.89611816400001,22.629699707],[110.87811279300001,22.615112305],[110.86907959000001,22.607910156],[110.85668945300002,22.600708008],[110.83831787100002,22.609680176],[110.80169677700002,22.603515625],[110.78430175800001,22.603515625],[110.76989746100001,22.600708008],[110.75750732400002,22.582519531],[110.74487304700001,22.571472168],[110.73150634800001,22.550720215],[110.73449707000002,22.523498535],[110.74108886700002,22.502502441],[110.74511718700002,22.492675781],[110.72589111300002,22.489929199],[110.70172119100002,22.495300293],[110.68048095700001,22.48248291],[110.6875,22.465881348],[110.69232177700002,22.454284668],[110.71728515600002,22.434509277],[110.72412109400001,22.425292969],[110.70788574200002,22.355285645],[110.73010253900001,22.333496094],[110.75610351600001,22.31628418],[110.76770019500002,22.298095703],[110.76867675800001,22.293701172],[110.76568603500002,22.281677246],[110.745910645,22.279724121],[110.722473145,22.277282715],[110.68127441400001,22.284484863],[110.65612793000001,22.296081543],[110.64752197300001,22.269897461],[110.63427734400001,22.257080078],[110.64093017600001,22.240722656],[110.63909912100002,22.227905273],[110.620910645,22.194274902],[110.59027099600002,22.19329834],[110.58251953100002,22.210510254],[110.56127929700001,22.225097656],[110.546875,22.222290039],[110.52770996100001,22.216674805],[110.52209472700001,22.196716309],[110.50592041000002,22.183898926],[110.50109863300001,22.178527832],[110.48187255900001,22.175720215],[110.46173095700001,22.190124512],[110.44329834000001,22.202880859],[110.42889404300001,22.210083008],[110.39331054700001,22.209899902],[110.38189697300001,22.203491211],[110.37030029300001,22.205322266],[110.36169433600001,22.205078125],[110.34527587900001,22.205078125],[110.31750488300001,22.208679199],[110.31872558600001,22.187683105],[110.33129882800002,22.155090332],[110.33532714800002,22.141479492],[110.33251953100002,22.114929199],[110.33190918000001,22.066711426],[110.33789062500001,22.02947998],[110.33911132800002,22.009521484],[110.35150146500001,21.994873047],[110.36212158200001,21.980529785],[110.36407470700001,21.975891113],[110.36151123000002,21.951293945],[110.36090087900001,21.950073242],[110.43811035200001,21.930480957],[110.44287109400001,21.89831543],[110.40930175800001,21.876281738],[110.37609863300001,21.856689453],[110.36608886700002,21.825073242],[110.37249755900001,21.784301758],[110.37548828100002,21.756103516],[110.37127685500002,21.70892334],[110.36547851600001,21.668273926],[110.35870361300002,21.637695312],[110.36932373000002,21.604492187],[110.40393066400001,21.589904785],[110.40289306600002,21.562072754],[110.42669677700002,21.53692627],[110.44372558600001,21.513671875],[110.45788574200002,21.489685059],[110.50469970700001,21.479492187],[110.53808593700002,21.493103027],[110.57189941400001,21.495727539],[110.60888671900001,21.480285645],[110.64367675800001,21.471496582],[110.67211914100001,21.484130859],[110.68450927700002,21.519897461],[110.70947265600002,21.546081543],[110.72570800800001,21.582885742],[110.70770263700001,21.640075684],[110.76049804700001,21.620117187],[110.78771972700001,21.569885254],[110.81048584000001,21.538513184],[110.84228515600002,21.502685547],[110.87329101600001,21.508483887],[110.86968994100002,21.437683105],[110.90447998000002,21.433105469],[110.92248535200001,21.424072266],[110.92327880900001,21.425720215],[110.92828369100002,21.426330566],[110.94232177700002,21.422302246],[110.94488525400001,21.417297363],[110.95867919900002,21.418518066],[110.96508789100001,21.420898437],[110.98052978500002,21.428283691],[110.98931884800001,21.42590332],[110.99328613300001,21.42767334],[110.99847412100002,21.432128906],[111.00610351600001,21.434509277],[111.01531982400002,21.441894531],[111.03607177700002,21.451477051],[111.04589843700002,21.456115723],[111.06170654300001,21.467102051],[111.05688476600001,21.475524902],[111.02392578100002,21.470092773],[111.01110839800002,21.462280273],[111.00549316400001,21.453125],[111.00628662100002,21.459289551],[111.00152587900001,21.456298828],[110.97351074200002,21.446289062],[110.97827148400002,21.460083008],[110.97930908200001,21.475891113],[110.97650146500001,21.496276855],[110.96008300800001,21.512084961],[111.00292968700002,21.522277832],[111.01550293000001,21.539672852],[111.02911377,21.527893066],[111.03009033200001,21.531494141],[111.03088378900001,21.535095215],[111.03289794900002,21.535888672],[111.03747558600001,21.521118164],[111.05688476600001,21.518920898],[111.07788085900002,21.511901855],[111.08569335900002,21.516296387],[111.09008789100001,21.512512207],[111.08911132800002,21.511901855],[111.08569335900002,21.510070801],[111.08612060500002,21.504699707],[111.07849121100001,21.50189209],[111.07507324200002,21.491882324],[111.07550048800002,21.490905762],[111.08447265600002,21.49029541],[111.08471679700001,21.490722656],[111.08532714800002,21.490112305],[111.10571289100001,21.488708496],[111.10687255900001,21.49230957],[111.11248779300001,21.49029541],[111.11907959000001,21.49230957],[111.12408447300001,21.495117187],[111.12591552700002,21.506103516],[111.12768554700001,21.506286621],[111.13049316400001,21.504272461],[111.12908935500002,21.496520996],[111.13989257800002,21.50012207],[111.14208984400001,21.49987793],[111.14331054700001,21.499694824],[111.14648437500001,21.496887207],[111.14471435500002,21.494689941],[111.13610839800002,21.493713379],[111.12988281200002,21.487670898],[111.12048339800002,21.487121582],[111.11212158200001,21.480285645],[111.10589599600002,21.477294922],[111.09307861300002,21.476074219],[111.08691406200002,21.473876953],[111.08789062500001,21.471130371],[111.09887695300002,21.463684082],[111.10308837900001,21.463500977],[111.11352539100001,21.465881348],[111.12451171900001,21.472106934],[111.13989257800002,21.464477539],[111.14392089800002,21.46472168],[111.15472412100002,21.467895508],[111.17871093700002,21.478088379],[111.20489502,21.483886719],[111.21051025400001,21.483703613],[111.21087646500001,21.483703613],[111.18847656200002,21.494506836],[111.18591308600001,21.493530273],[111.17767334000001,21.493286133],[111.17028808600001,21.495910645],[111.17388916000002,21.498474121],[111.17791748000002,21.499511719],[111.14031982400002,21.517700195],[111.21588134800001,21.525512695],[111.22448730500001,21.512084961],[111.22467041000002,21.512084961],[111.23291015600002,21.523681641],[111.23468017600001,21.520874023],[111.23107910200001,21.50390625],[111.23187255900001,21.502075195],[111.23687744100002,21.502502441],[111.24572753900001,21.509521484],[111.25811767600001,21.514282227],[111.26232910200001,21.506103516],[111.25488281200002,21.50592041],[111.25048828100002,21.503112793],[111.24847412100002,21.499084473],[111.25091552700002,21.494689941],[111.25769043000001,21.492675781],[111.26947021500001,21.496887207],[111.28631591800001,21.492675781],[111.29168701200001,21.497924805],[111.29449462900001,21.498474121],[111.29370117200001,21.490722656],[111.29608154300001,21.48828125],[111.30792236300002,21.484924316],[111.31072998000002,21.481689453],[111.30749511700002,21.480102539],[111.29748535200001,21.481323242],[111.29467773400002,21.47668457],[111.29528808600001,21.473327637],[111.29028320300002,21.469482422],[111.28747558600001,21.464904785],[111.28588867200001,21.461914062],[111.28247070300002,21.460327148],[111.28167724600002,21.458129883],[111.28387451200001,21.452514648],[111.28747558600001,21.448730469],[111.37847900400001,21.510070801],[111.35449218700002,21.524902344],[111.35229492200001,21.524475098],[111.35168457000002,21.525085449],[111.33007812500001,21.500488281],[111.30969238300001,21.49407959],[111.31292724600002,21.532104492],[111.36047363300001,21.565917969],[111.37591552700002,21.542724609],[111.40008544900002,21.535095215],[111.41290283200001,21.531494141],[111.41448974600002,21.531921387],[111.41528320300002,21.530883789],[111.42510986300002,21.528320312],[111.39752197300001,21.571289062],[111.41552734400001,21.58392334],[111.39190673800002,21.649291992],[111.40112304700001,21.687683105],[111.37567138700001,21.723876953],[111.35968017600001,21.752075195],[111.37487793000001,21.790100098],[111.39093017600001,21.815673828],[111.38031005900001,21.847473145],[111.35430908200001,21.86151123],[111.32373046900001,21.873718262],[111.28833007800002,21.889526367],[111.26507568400001,21.922729492],[111.26049804700001,21.952697754],[111.24450683600001,21.994873047],[111.26971435500002,22.017883301],[111.27368164100001,22.052124023],[111.27587890600002,22.087524414],[111.29187011700002,22.121276855],[111.312316895,22.15612793],[111.32690429700001,22.199890137],[111.33630371100001,22.232116699],[111.34808349600002,22.264526367],[111.38128662100002,22.269714355],[111.40948486300002,22.275695801],[111.44049072300001,22.302307129],[111.46051025400001,22.335510254],[111.48352050800001,22.35748291],[111.51647949200002,22.36932373],[111.55792236300002,22.384521484],[111.59667968700002,22.409484863],[111.62969970700001,22.449279785],[111.64367675800001,22.477478027],[111.66888427700002,22.519287109]]]]}}
