{"type":"Feature","id":"bulk-99377448B83083692966875","bbox":[119.49908447300001,44.246276855,123.57708740200002,47.591308594],"properties":{"id":"bulk-99377448B83083692966875","name":"Hinggan League","nameEn":"Hinggan League","fullName":"Hinggan League","level":"city","boundaryRole":"administrative-extent","boundaryQuality":"generalized-source-2020","boundaryYearRepresented":"2020","bounds":[[119.49908447300001,44.246276855],[123.57708740200002,47.591308594]],"center":[121.53808593750001,45.918792724499994],"centerMethod":"bounding-box midpoint; camera framing only","license":"CC-BY-3.0-IGO","attribution":"geoBoundaries / HDX, China administrative boundaries (2020)","source":{"provider":"geoBoundaries gbHumanitarian / HDX","url":"https://github.com/wmgeolab/geoBoundaries/raw/9469f09/releaseData/gbHumanitarian/CHN/ADM2/geoBoundaries-CHN-ADM2.geojson","metadataUrl":"https://www.geoboundaries.org/api/current/gbHumanitarian/CHN/ADM2/","shapeID":"99377448B83083692966875","shapeName":"Hinggan League","boundaryID":"CHN-ADM2-99377448","commit":"9469f09"},"geometryCounts":{"coordinates":358,"components":1,"holes":0},"boundaryNotice":"geoBoundaries / HDX 2020 年行政区数据，海岸和边界经过源数据概化，并非当前测绘成果。"},"geometry":{"type":"Polygon","coordinates":[[[123.09368896500001,46.248718262],[123.04547119100002,46.345092773],[122.99353027300002,46.422119141],[122.96691894500002,46.483703613],[122.94787597700001,46.508483887],[122.94427490200002,46.515319824],[122.96752929700001,46.536315918],[122.99108886700002,46.56048584],[123.00988769500002,46.608093262],[123.02050781200002,46.613708496],[123.06091308600001,46.600097656],[123.10028076200001,46.606323242],[123.15270996100001,46.604919434],[123.19708252,46.587524414],[123.23132324200002,46.591125488],[123.25708007800002,46.62487793],[123.30688476600001,46.659729004],[123.34771728500002,46.672302246],[123.41552734400001,46.67590332],[123.48327636700002,46.679504395],[123.51068115200002,46.696716309],[123.54589843700002,46.729492187],[123.56311035200001,46.767272949],[123.570129395,46.80291748],[123.57708740200002,46.86151123],[123.55468750000001,46.870300293],[123.53991699200002,46.868286133],[123.52893066400001,46.836486816],[123.49267578100002,46.823486328],[123.45971679700001,46.826477051],[123.437316895,46.835083008],[123.43847656200002,46.864685059],[123.46472168000001,46.924682617],[123.47930908200001,46.949890137],[123.43109130900001,46.964477539],[123.38287353500002,46.961730957],[123.31427002,46.989929199],[123.29571533200001,46.960083008],[123.320129395,46.938476562],[123.33728027300002,46.918884277],[123.33050537100002,46.883300781],[123.31591796900001,46.862915039],[123.25909423800002,46.842895508],[123.17687988300001,46.853881836],[123.15771484400001,46.83770752],[123.14508056600002,46.79888916],[123.09112548800002,46.738708496],[123.00927734400001,46.724487305],[122.94989013700001,46.74432373],[122.92327880900001,46.743103027],[122.90008544900002,46.75970459],[122.88549804700001,46.793518066],[122.87011718700002,46.823913574],[122.88427734400001,46.898681641],[122.87207031200002,46.917724609],[122.84667968700002,46.923706055],[122.78631591800001,46.910888672],[122.73889160200001,46.911499023],[122.72650146500001,46.930725098],[122.72808837900001,46.995727539],[122.74127197300001,47.009094238],[122.80249023400002,47.02532959],[122.81689453100002,47.045898437],[122.68627929700001,47.082702637],[122.54888916000002,47.141906738],[122.45971679700001,47.203918457],[122.40551757800002,47.313720703],[122.39172363300001,47.325683594],[122.31488037100002,47.271484375],[122.27471923800002,47.261901855],[122.24688720700001,47.236083984],[122.22290039100001,47.202514648],[122.17633056600002,47.181518555],[122.128723145,47.168701172],[122.08551025400001,47.150878906],[122.03869628900001,47.134094238],[121.98571777300002,47.151123047],[121.93249511700002,47.166870117],[121.88031005900001,47.178283691],[121.82727050800001,47.1796875],[121.79571533200001,47.196899414],[121.73590087900001,47.207519531],[121.68292236300002,47.202697754],[121.64709472700001,47.187683105],[121.62109375000001,47.149902344],[121.60308837900001,47.11529541],[121.55987548800002,47.111694336],[121.50872802700002,47.118713379],[121.46710205100001,47.123474121],[121.39868164100001,47.11151123],[121.37432861300002,47.086914062],[121.34167480500001,47.070678711],[121.29431152300002,47.079284668],[121.26232910200001,47.046081543],[121.19970703100002,47.084899902],[121.13848877,47.090881348],[121.09191894500002,47.096679687],[121.03509521500001,47.089294434],[120.988098145,47.083312988],[120.94531250000001,47.088500977],[120.89611816400001,47.108886719],[120.86370849600002,47.125488281],[120.79107666000002,47.144897461],[120.73767089800002,47.164306641],[120.70428466800001,47.180114746],[120.63891601600001,47.186706543],[120.59667968700002,47.1953125],[120.58508300800001,47.237304687],[120.62347412100002,47.26348877],[120.66369628900001,47.278320312],[120.69671630900001,47.317504883],[120.68670654300001,47.344299316],[120.65112304700001,47.370483398],[120.61511230500001,47.390319824],[120.57208252,47.426086426],[120.56268310500002,47.454284668],[120.57250976600001,47.482910156],[120.53149414100001,47.489074707],[120.47467041000002,47.495300293],[120.39587402300002,47.509094238],[120.35467529300001,47.524475098],[120.31390380900001,47.541503906],[120.27911377,47.569885254],[120.24249267600001,47.591308594],[120.20989990200002,47.567871094],[120.17028808600001,47.556091309],[120.12170410200001,47.56048584],[120.09332275400001,47.527099609],[120.03808593700002,47.504272461],[119.98327636700002,47.486083984],[119.92547607400002,47.476501465],[119.86529541000002,47.480102539],[119.81567382800002,47.464294434],[119.78912353500002,47.44329834],[119.74609375000001,47.404724121],[119.71490478500002,47.387084961],[119.67669677700002,47.375488281],[119.63031005900001,47.358093262],[119.56390380900001,47.319519043],[119.49908447300001,47.316101074],[119.49951171900001,47.315917969],[119.54272460900002,47.301879883],[119.56127929700001,47.278686523],[119.55047607400002,47.247924805],[119.55670166000002,47.24029541],[119.61230468700002,47.246276855],[119.65087890600002,47.217102051],[119.70928955100001,47.184509277],[119.71752929700001,47.165893555],[119.72869873000002,47.152282715],[119.76727294900002,47.112121582],[119.78411865200002,47.059692383],[119.77807617200001,47.004089355],[119.83508300800001,46.968688965],[119.88452148400002,46.957885742],[119.85052490200002,46.940917969],[119.85827636700002,46.922302246],[119.91851806600002,46.910095215],[119.90447998000002,46.88067627],[119.93072509800001,46.800476074],[119.90307617200001,46.766479492],[119.93231201200001,46.717102051],[119.90771484400001,46.68927002],[119.88287353500002,46.688476562],[119.88189697300001,46.682678223],[119.86590576200001,46.662719727],[119.83367919900002,46.671325684],[119.80029296900001,46.672119141],[119.79351806600002,46.658508301],[119.78430175800001,46.649902344],[119.86730957000002,46.598510742],[119.87548828100002,46.567077637],[119.87310791000002,46.537109375],[119.86791992200001,46.504699707],[119.86230468700002,46.474121094],[119.85968017600001,46.446899414],[119.85467529300001,46.415100098],[119.84869384800001,46.38671875],[119.84790039100001,46.354309082],[119.84307861300002,46.313293457],[119.83807373000002,46.286315918],[119.83227539100001,46.255310059],[119.82989502,46.217529297],[119.81768798800002,46.173095703],[119.8125,46.126708984],[119.80712890600002,46.094299316],[119.80511474600002,46.055297852],[119.80249023400002,46.016723633],[119.80047607400002,45.98449707],[119.83349609400001,45.955688477],[119.83728027300002,45.922912598],[119.82647705100001,45.879272461],[119.81707763700001,45.856689453],[119.81170654300001,45.831726074],[119.79150390600002,45.809326172],[119.76190185500002,45.745300293],[119.70031738300001,45.670898437],[119.65631103500002,45.63067627],[119.63952636700002,45.600524902],[119.65710449200002,45.594482422],[119.70452880900001,45.58392334],[119.76251220700001,45.591918945],[119.82269287100002,45.609313965],[119.91687011700002,45.605285645],[119.96612548800002,45.600524902],[120.00750732400002,45.599121094],[120.05889892600001,45.595703125],[120.12432861300002,45.582885742],[120.16369628900001,45.577697754],[120.21191406200002,45.568115234],[120.26428222700001,45.545471191],[120.30688476600001,45.516906738],[120.34228515600002,45.490478516],[120.37072753900001,45.468505859],[120.40911865200002,45.458679199],[120.44549560500002,45.445495605],[120.48168945300002,45.42791748],[120.51770019500002,45.398925781],[120.55169677700002,45.36907959],[120.58331298800002,45.35168457],[120.61688232400002,45.33392334],[120.64251709000001,45.309326172],[120.66729736300002,45.286499023],[120.71667480500001,45.264099121],[120.75708007800002,45.255493164],[120.81347656200002,45.25567627],[120.85552978500002,45.24609375],[120.88250732400002,45.221923828],[120.89947509800001,45.195678711],[120.91412353500002,45.164672852],[120.92907714800002,45.12890625],[120.93969726600001,45.096679687],[120.96148681600002,45.069885254],[121.00109863300001,45.041320801],[121.03192138700001,45.024475098],[121.07470703100002,44.999084473],[121.11651611300002,44.973327637],[121.15612793000001,44.948303223],[121.20489502,44.918701172],[121.24230957000002,44.900085449],[121.28747558600001,44.874328613],[121.32867431600002,44.843688965],[121.35412597700001,44.819091797],[121.37908935500002,44.793884277],[121.40832519500002,44.763305664],[121.43988037100002,44.731689453],[121.45947265600002,44.708312988],[121.49047851600001,44.680725098],[121.53710937500001,44.661071777],[121.57147216800001,44.643920898],[121.59332275400001,44.619689941],[121.62347412100002,44.591918945],[121.65032959000001,44.566101074],[121.68847656200002,44.534484863],[121.71832275400001,44.505310059],[121.72790527300002,44.47467041],[121.75152587900001,44.450683594],[121.79028320300002,44.437072754],[121.84368896500001,44.424072266],[121.89007568400001,44.41027832],[121.92608642600001,44.389892578],[121.94329834000001,44.365478516],[121.95770263700001,44.288879395],[122.03692627,44.265686035],[122.09948730500001,44.248901367],[122.15051269500002,44.246276855],[122.22167968700002,44.251708984],[122.22607421900001,44.300720215],[122.24371337900001,44.348083496],[122.26251220700001,44.375671387],[122.26507568400001,44.417907715],[122.25207519500002,44.448486328],[122.22692871100001,44.463684082],[122.18688964800002,44.473693848],[122.16290283200001,44.495483398],[122.13708496100001,44.533508301],[122.11529541000002,44.568115234],[122.06909179700001,44.568725586],[122.03369140600002,44.578308105],[122.03387451200001,44.633911133],[122.02172851600001,44.670715332],[122.04547119100002,44.701293945],[122.05047607400002,44.730285645],[122.06591796900001,44.764892578],[122.01672363300001,44.749511719],[122.01129150400001,44.79888916],[122.01049804700001,44.848083496],[121.99871826200001,44.888305664],[122.00952148400002,44.923278809],[122.05529785200001,44.945495605],[122.04187011700002,44.976074219],[122.04907226600001,45.017883301],[122.06848144500002,45.075073242],[122.07452392600001,45.110473633],[122.10992431600002,45.179321289],[122.14849853500002,45.185913086],[122.16687011700002,45.210510254],[122.17730712900001,45.247314453],[122.17871093700002,45.251708984],[122.16992187500001,45.275085449],[122.13330078100002,45.294494629],[122.11151123000002,45.311523437],[122.09472656200002,45.324707031],[122.07708740200002,45.342285156],[122.13732910200001,45.39050293],[122.10028076200001,45.437683105],[122.03192138700001,45.475097656],[121.96307373000002,45.511474609],[121.90069580100001,45.554504395],[121.93347168000001,45.586914062],[121.93109130900001,45.677307129],[121.91308593700002,45.700317383],[121.81988525400001,45.718078613],[121.72271728500002,45.681091309],[121.66607666000002,45.700073242],[121.60791015600002,45.747070312],[121.64111328100002,45.758911133],[121.71429443400001,45.785095215],[121.71868896500001,45.786682129],[121.77447509800001,45.846130371],[121.75872802700002,45.921325684],[121.70867919900002,45.986877441],[121.76068115200002,46.015930176],[121.82830810500002,45.997680664],[121.84790039100001,45.992492676],[121.91687011700002,46.013916016],[121.94348144500002,45.994506836],[121.98968505900001,45.946289062],[122.02911377,45.910095215],[122.03808593700002,45.901672363],[122.08587646500001,45.856079102],[122.16668701200001,45.841308594],[122.22271728500002,45.797729492],[122.28527832000002,45.834716797],[122.35491943400001,45.910705566],[122.42712402300002,45.906311035],[122.43469238300001,45.819091797],[122.49291992200001,45.759887695],[122.56207275400001,45.768127441],[122.61047363300001,45.72052002],[122.628723145,45.663879395],[122.64770507800002,45.65411377],[122.65887451200001,45.658325195],[122.69232177700002,45.670898437],[122.73992919900002,45.717285156],[122.75750732400002,45.73449707],[122.76330566400001,45.855895996],[122.73968505900001,45.931884766],[122.72991943400001,46.026672363],[122.71447753900001,46.056091309],[122.74987793000001,46.067321777],[122.81732177700002,46.088500977],[122.92590332000002,46.067871094],[122.99871826200001,46.073120117],[123.05712890600002,46.125488281],[123.05847168000001,46.194091797],[123.08508300800001,46.24407959],[123.09368896500001,46.248718262]]]}}
