{"type":"Feature","id":"bulk-99377448B87985118281465","bbox":[116.95269775400001,28.735900879,117.73388671900001,29.932678223],"properties":{"id":"bulk-99377448B87985118281465","name":"Jingdezhen","nameEn":"Jingdezhen","fullName":"Jingdezhen","level":"city","boundaryRole":"administrative-extent","boundaryQuality":"generalized-source-2020","boundaryYearRepresented":"2020","bounds":[[116.95269775400001,28.735900879],[117.73388671900001,29.932678223]],"center":[117.34329223650002,29.334289550999998],"centerMethod":"bounding-box midpoint; camera framing only","license":"CC-BY-3.0-IGO","attribution":"geoBoundaries / HDX, China administrative boundaries (2020)","source":{"provider":"geoBoundaries gbHumanitarian / HDX","url":"https://github.com/wmgeolab/geoBoundaries/raw/9469f09/releaseData/gbHumanitarian/CHN/ADM2/geoBoundaries-CHN-ADM2.geojson","metadataUrl":"https://www.geoboundaries.org/api/current/gbHumanitarian/CHN/ADM2/","shapeID":"99377448B87985118281465","shapeName":"Jingdezhen","boundaryID":"CHN-ADM2-99377448","commit":"9469f09"},"geometryCounts":{"coordinates":118,"components":1,"holes":0},"boundaryNotice":"geoBoundaries / HDX 2020 年行政区数据，海岸和边界经过源数据概化，并非当前测绘成果。"},"geometry":{"type":"Polygon","coordinates":[[[117.06347656200002,29.685913086],[117.06927490200002,29.663879395],[117.04608154300001,29.637878418],[117.03747558600001,29.582885742],[117.03588867200001,29.547485352],[117.04150390600002,29.497497559],[117.05749511700002,29.44909668],[117.05651855500001,29.413513184],[117.04772949200002,29.378479004],[117.04791259800001,29.339294434],[117.05847168000001,29.318115234],[117.05187988300001,29.31829834],[117.04650878900001,29.314880371],[117.03948974600002,29.308898926],[117.03472900400001,29.295898437],[117.02911377,29.27911377],[117.02587890600002,29.274902344],[117.01367187500001,29.270080566],[117.00067138700001,29.259521484],[116.99890136700002,29.252929687],[117.01031494100002,29.222290039],[117.01507568400001,29.198486328],[117.02008056600002,29.179077148],[117.01989746100001,29.165710449],[117.02032470700001,29.156677246],[117.02130127,29.151916504],[117.04327392600001,29.144287109],[117.05908203100002,29.127502441],[117.07049560500002,29.109313965],[117.06732177700002,29.104309082],[117.06207275400001,29.098693848],[117.05969238300001,29.09387207],[117.04467773400002,29.090881348],[117.03308105500001,29.06427002],[117.02947998000002,29.018310547],[117.01849365200002,28.985717773],[116.99847412100002,28.948303223],[116.97772216800001,28.922912598],[116.95269775400001,28.89831543],[116.96051025400001,28.869506836],[116.99688720700001,28.858520508],[117.02130127,28.840515137],[117.03192138700001,28.807312012],[117.06408691400001,28.791503906],[117.10668945300002,28.785705566],[117.14532470700001,28.772521973],[117.17572021500001,28.741088867],[117.20892334000001,28.736328125],[117.25189209000001,28.735900879],[117.28808593700002,28.746704102],[117.32830810500002,28.749694824],[117.38348388700001,28.770874023],[117.40490722700001,28.799926758],[117.42089843700002,28.827880859],[117.44628906200002,28.844482422],[117.47949218700002,28.827514648],[117.50891113300001,28.803527832],[117.53790283200001,28.821105957],[117.53771972700001,28.857299805],[117.52227783200001,28.90447998],[117.49871826200001,28.934082031],[117.45770263700001,28.950683594],[117.45727539100001,28.979492187],[117.47949218700002,29.012512207],[117.48767089800002,29.039123535],[117.49328613300001,29.076293945],[117.49169921900001,29.116088867],[117.49249267600001,29.14630127],[117.45831298800002,29.154907227],[117.43188476600001,29.134277344],[117.38891601600001,29.129699707],[117.36608886700002,29.152282715],[117.35467529300001,29.182312012],[117.38232421900001,29.216674805],[117.41192627,29.243103027],[117.43151855500001,29.280517578],[117.44268798800002,29.316711426],[117.47332763700001,29.33807373],[117.48010253900001,29.365722656],[117.50732421900001,29.410888672],[117.53210449200002,29.430725098],[117.56170654300001,29.451721191],[117.60369873000002,29.481323242],[117.64190673800002,29.507873535],[117.73388671900001,29.570922852],[117.70007324200002,29.569885254],[117.66210937500001,29.564086914],[117.65948486300002,29.57208252],[117.65368652300002,29.590270996],[117.63372802700002,29.591918945],[117.60687255900001,29.59387207],[117.55889892600001,29.580688477],[117.52630615200002,29.592285156],[117.50109863300001,29.617919922],[117.50329589800002,29.658874512],[117.44848632800002,29.682495117],[117.41491699200002,29.667480469],[117.38708496100001,29.686889648],[117.39868164100001,29.727294922],[117.40612793000001,29.742919922],[117.39648437500001,29.810302734],[117.36370849600002,29.832702637],[117.33172607400002,29.812072754],[117.30749511700002,29.838500977],[117.27111816400001,29.828918457],[117.25152587900001,29.846923828],[117.21148681600002,29.914123535],[117.18609619100002,29.924072266],[117.16448974600002,29.932678223],[117.11791992200001,29.912109375],[117.10571289100001,29.902893066],[117.07427978500002,29.844909668],[117.04809570300002,29.830078125],[117.07128906200002,29.805725098],[117.08068847700001,29.788330078],[117.08349609400001,29.740112305],[117.06591796900001,29.686523437],[117.06347656200002,29.685913086]]]}}
