{"type":"Feature","id":"bulk-99377448B46265734595159","bbox":[105.22827148400002,25.403930664,106.55267334000001,26.573486328],"properties":{"id":"bulk-99377448B46265734595159","name":"Anshun","nameEn":"Anshun","fullName":"Anshun","level":"city","boundaryRole":"administrative-extent","boundaryQuality":"generalized-source-2020","boundaryYearRepresented":"2020","bounds":[[105.22827148400002,25.403930664],[106.55267334000001,26.573486328]],"center":[105.89047241200001,25.988708496],"centerMethod":"bounding-box midpoint; camera framing only","license":"CC-BY-3.0-IGO","attribution":"geoBoundaries / HDX, China administrative boundaries (2020)","source":{"provider":"geoBoundaries gbHumanitarian / HDX","url":"https://github.com/wmgeolab/geoBoundaries/raw/9469f09/releaseData/gbHumanitarian/CHN/ADM2/geoBoundaries-CHN-ADM2.geojson","metadataUrl":"https://www.geoboundaries.org/api/current/gbHumanitarian/CHN/ADM2/","shapeID":"99377448B46265734595159","shapeName":"Anshun","boundaryID":"CHN-ADM2-99377448","commit":"9469f09"},"geometryCounts":{"coordinates":153,"components":1,"holes":0},"boundaryNotice":"geoBoundaries / HDX 2020 年行政区数据，海岸和边界经过源数据概化，并非当前测绘成果。"},"geometry":{"type":"Polygon","coordinates":[[[106.38372802700002,25.439086914],[106.39508056600002,25.503723145],[106.40747070300002,25.536499023],[106.42968750000001,25.58807373],[106.44390869100002,25.615722656],[106.46209716800001,25.645507812],[106.47711181600002,25.669677734],[106.48608398400002,25.699523926],[106.45349121100001,25.70489502],[106.42529296900001,25.684082031],[106.37908935500002,25.672119141],[106.34088134800001,25.68548584],[106.32092285200001,25.708312988],[106.29791259800001,25.735107422],[106.26593017600001,25.751525879],[106.24249267600001,25.783325195],[106.22991943400001,25.81451416],[106.23010253900001,25.842529297],[106.25170898400002,25.865722656],[106.27490234400001,25.885681152],[106.29290771500001,25.908691406],[106.288879395,25.94128418],[106.28070068400001,25.97467041],[106.30328369100002,26.006530762],[106.29632568400001,26.038879395],[106.26428222700001,26.054504395],[106.22509765600002,26.071472168],[106.24310302700002,26.09387207],[106.26147460900002,26.130493164],[106.28833007800002,26.149291992],[106.27008056600002,26.17590332],[106.27148437500001,26.208679199],[106.25872802700002,26.234313965],[106.23828125000001,26.263305664],[106.26391601600001,26.278686523],[106.29809570300002,26.272277832],[106.33508300800001,26.258728027],[106.34368896500001,26.306274414],[106.37768554700001,26.307678223],[106.40972900400001,26.309082031],[106.46588134800001,26.313293457],[106.50952148400002,26.336914062],[106.55267334000001,26.370483398],[106.54211425800001,26.403686523],[106.51110839800002,26.401306152],[106.48132324200002,26.421508789],[106.47711181600002,26.457275391],[106.42309570300002,26.476074219],[106.37127685500002,26.466491699],[106.32629394500002,26.487121582],[106.30627441400001,26.523071289],[106.28771972700001,26.561279297],[106.24749755900001,26.559692383],[106.21392822300001,26.541320801],[106.18792724600002,26.562072754],[106.17529296900001,26.573486328],[106.16748046900001,26.565917969],[106.16851806600002,26.544494629],[106.16107177700002,26.529907227],[106.13891601600001,26.486083984],[106.12310791000002,26.478271484],[106.10809326200001,26.456298828],[106.09991455100001,26.455871582],[106.08428955100001,26.448303223],[106.02807617200001,26.446289062],[105.96691894500002,26.527099609],[105.92529296900001,26.538696289],[105.88153076200001,26.516723633],[105.83270263700001,26.493286133],[105.79229736300002,26.481689453],[105.76208496100001,26.453125],[105.73431396500001,26.468688965],[105.69268798800002,26.479919434],[105.65411377,26.47088623],[105.62487793000001,26.461303711],[105.59472656200002,26.447509766],[105.56890869100002,26.421691895],[105.53308105500001,26.38671875],[105.50469970700001,26.350891113],[105.48449707000002,26.32409668],[105.47692871100001,26.290893555],[105.49829101600001,26.266479492],[105.52612304700001,26.255493164],[105.56707763700001,26.246520996],[105.60870361300002,26.245727539],[105.64532470700001,26.240478516],[105.67608642600001,26.217529297],[105.66772460900002,26.184509277],[105.62591552700002,26.181884766],[105.59851074200002,26.163085937],[105.59130859400001,26.131286621],[105.57629394500002,26.102111816],[105.54107666000002,26.088317871],[105.52148437500001,26.063293457],[105.45971679700001,26.03692627],[105.413879395,26.039123535],[105.36651611300002,26.03692627],[105.32287597700001,26.030273437],[105.28527832000002,26.02947998],[105.22827148400002,26.069885254],[105.23132324200002,26.012329102],[105.23291015600002,25.983703613],[105.24169921900001,25.969726562],[105.27551269500002,25.935119629],[105.30212402300002,25.885925293],[105.33447265600002,25.880126953],[105.36627197300001,25.881286621],[105.38269043000001,25.87487793],[105.39172363300001,25.85369873],[105.37731933600001,25.824279785],[105.39508056600002,25.789123535],[105.40393066400001,25.775085449],[105.43572998000002,25.776306152],[105.46069335900002,25.75567627],[105.47851562500001,25.72052002],[105.49468994100002,25.713928223],[105.53588867200001,25.686889648],[105.53710937500001,25.687316895],[105.56707763700001,25.702514648],[105.59088134800001,25.703491211],[105.65649414100001,25.67010498],[105.67230224600002,25.670715332],[105.69769287100002,25.642883301],[105.70690918000001,25.614501953],[105.72430419900002,25.586303711],[105.74090576200001,25.572509766],[105.77130127,25.553283691],[105.76428222700001,25.550292969],[105.79492187500001,25.511291504],[105.82427978500002,25.475524902],[105.85290527300002,25.450500488],[105.89270019500002,25.443481445],[105.92291259800001,25.458312988],[105.91528320300002,25.489929199],[105.91070556600002,25.530700684],[105.93151855500001,25.555297852],[105.96307373000002,25.566894531],[105.98431396500001,25.593688965],[105.97888183600001,25.624328613],[106.00732421900001,25.635498047],[106.03668212900001,25.607299805],[106.05950927700002,25.586730957],[106.08892822300001,25.594116211],[106.13049316400001,25.591491699],[106.13549804700001,25.550109863],[106.14770507800002,25.516479492],[106.18267822300001,25.489074707],[106.21868896500001,25.479675293],[106.25048828100002,25.467712402],[106.28491210900002,25.440124512],[106.30511474600002,25.413085937],[106.34490966800001,25.403930664],[106.38372802700002,25.439086914]]]}}
