{"type":"Feature","id":"bulk-99377448B44420780804516","bbox":[129.63708496100003,47.014099121,132.46148681600002,48.31628418],"properties":{"id":"bulk-99377448B44420780804516","name":"Hegang","nameEn":"Hegang","fullName":"Hegang","level":"city","boundaryRole":"administrative-extent","boundaryQuality":"generalized-source-2020","boundaryYearRepresented":"2020","bounds":[[129.63708496100003,47.014099121],[132.46148681600002,48.31628418]],"center":[131.04928588850004,47.6651916505],"centerMethod":"bounding-box midpoint; camera framing only","license":"CC-BY-3.0-IGO","attribution":"geoBoundaries / HDX, China administrative boundaries (2020)","source":{"provider":"geoBoundaries gbHumanitarian / HDX","url":"https://github.com/wmgeolab/geoBoundaries/raw/9469f09/releaseData/gbHumanitarian/CHN/ADM2/geoBoundaries-CHN-ADM2.geojson","metadataUrl":"https://www.geoboundaries.org/api/current/gbHumanitarian/CHN/ADM2/","shapeID":"99377448B44420780804516","shapeName":"Hegang","boundaryID":"CHN-ADM2-99377448","commit":"9469f09"},"geometryCounts":{"coordinates":182,"components":1,"holes":0},"boundaryNotice":"geoBoundaries / HDX 2020 年行政区数据，海岸和边界经过源数据概化，并非当前测绘成果。"},"geometry":{"type":"Polygon","coordinates":[[[129.85070800800003,47.248474121],[129.89312744100002,47.231506348],[129.93188476600002,47.214294434],[129.970275879,47.201721191],[130.024475098,47.19152832],[130.076477051,47.177307129],[130.10168457,47.154296875],[130.125488281,47.114685059],[130.12487793000003,47.087097168],[130.152282715,47.05847168],[130.207519531,47.032287598],[130.25451660200002,47.023071289],[130.29528808600003,47.014099121],[130.334289551,47.021728516],[130.34271240200002,47.057678223],[130.345275879,47.091308594],[130.38867187500003,47.091308594],[130.438903809,47.101074219],[130.49230957,47.087280273],[130.54370117200003,47.095275879],[130.577697754,47.114929199],[130.61651611300002,47.145080566],[130.658874512,47.159484863],[130.66607666000002,47.204284668],[130.59271240200002,47.241516113],[130.536315918,47.288330078],[130.485900879,47.331726074],[130.48071289100002,47.345092773],[130.58367919900002,47.327270508],[130.699890137,47.325073242],[130.78967285200002,47.329101562],[130.88110351600002,47.315673828],[130.91888427700002,47.300476074],[130.92687988300003,47.258300781],[130.96472168000003,47.243103027],[131.005310059,47.237304687],[131.07690429700003,47.217102051],[131.09613037100002,47.199707031],[131.136291504,47.203491211],[131.248901367,47.179504395],[131.30987548800002,47.170288086],[131.357727051,47.1875],[131.43811035200002,47.22869873],[131.532287598,47.224121094],[131.609680176,47.222106934],[131.65411377,47.227478027],[131.77111816400003,47.260681152],[131.911499023,47.234313965],[131.943481445,47.234313965],[131.98370361300002,47.25970459],[132.00592041000002,47.294921875],[132.02270507800003,47.345703125],[132.062316895,47.368713379],[132.12072753900003,47.383911133],[132.20892334,47.413879395],[132.25567627,47.432128906],[132.25787353500002,47.432922363],[132.27508544900002,47.452087402],[132.288879395,47.493713379],[132.32391357400002,47.534301758],[132.389526367,47.5703125],[132.41070556600002,47.600891113],[132.403503418,47.611694336],[132.42687988300003,47.649475098],[132.46148681600002,47.67791748],[132.441711426,47.676879883],[132.39727783200001,47.696899414],[132.335510254,47.727905273],[132.27911377,47.736328125],[132.277099609,47.733276367],[132.27270507800003,47.725280762],[132.266296387,47.718688965],[132.258483887,47.71307373],[132.25268554700003,47.710327148],[132.24468994100002,47.707702637],[132.24169921900003,47.707702637],[132.23992919900002,47.705688477],[132.19110107400002,47.683105469],[132.10888671900003,47.681518555],[132.05688476600002,47.686523437],[131.99450683600003,47.673278809],[131.92669677700002,47.655273437],[131.889526367,47.651489258],[131.853088379,47.662719727],[131.807128906,47.661071777],[131.762695312,47.660095215],[131.69110107400002,47.673522949],[131.634521484,47.66192627],[131.631713867,47.66027832],[131.623718262,47.658081055],[131.61529541000002,47.658081055],[131.55828857400002,47.64630127],[131.55548095700001,47.645874023],[131.49188232400002,47.693481445],[131.446289062,47.723693848],[131.403320312,47.731689453],[131.35668945300003,47.719726562],[131.29748535200002,47.719909668],[131.26208496100003,47.716674805],[131.21667480500003,47.712890625],[131.16748046900003,47.696716309],[131.110717773,47.672912598],[131.06787109400003,47.664123535],[131.03948974600002,47.665283203],[130.99450683600003,47.671875],[130.95349121100003,47.676879883],[130.919494629,47.696472168],[130.86291503900003,47.871276855],[130.709106445,47.982910156],[130.67211914100002,48.016113281],[130.64208984400003,48.039916992],[130.63708496100003,48.073486328],[130.661499023,48.118896484],[130.66229248000002,48.12109375],[130.669311523,48.129272461],[130.682495117,48.140319824],[130.69873046900003,48.152099609],[130.702880859,48.175720215],[130.71612548800002,48.205688477],[130.73492431600002,48.239685059],[130.745483398,48.265319824],[130.74951171900003,48.291870117],[130.74731445300003,48.296081543],[130.736083984,48.31628418],[130.679077148,48.313476562],[130.617492676,48.300476074],[130.49792480500003,48.285888672],[130.45367431600002,48.282470703],[130.42407226600002,48.291503906],[130.40490722700002,48.299072266],[130.353271484,48.306274414],[130.30627441400003,48.293518066],[130.22888183600003,48.263122559],[130.199707031,48.238098145],[130.18829345700001,48.200927734],[130.18951416000002,48.169311523],[130.16992187500003,48.14050293],[130.09149169900002,48.141723633],[130.06610107400002,48.128295898],[130.01727294900002,48.144897461],[130.00231933600003,48.166320801],[129.96368408200001,48.181274414],[129.90667724600002,48.218078613],[129.86968994100002,48.237670898],[129.82427978500002,48.247680664],[129.80267334,48.214477539],[129.763122559,48.200927734],[129.74047851600002,48.172912598],[129.760925293,48.146118164],[129.75732421900003,48.116882324],[129.72271728500002,48.097473145],[129.701293945,48.072875977],[129.698303223,48.045715332],[129.70068359400003,48.010314941],[129.71807861300002,47.977111816],[129.71472168000003,47.946289062],[129.66729736300002,47.925476074],[129.63708496100003,47.902709961],[129.663879395,47.870483398],[129.67669677700002,47.844116211],[129.68048095700001,47.81451416],[129.680725098,47.787109375],[129.712280273,47.756896973],[129.73352050800003,47.732727051],[129.783325195,47.707092285],[129.844909668,47.68548584],[129.88427734400003,47.664672852],[129.867492676,47.637512207],[129.86907959,47.610107422],[129.88092041000002,47.578674316],[129.862487793,47.552490234],[129.858276367,47.51348877],[129.83331298800002,47.486328125],[129.83032226600002,47.45690918],[129.852905273,47.415710449],[129.83990478500002,47.386901855],[129.80169677700002,47.368103027],[129.812316895,47.335510254],[129.848327637,47.323303223],[129.86132812500003,47.291687012],[129.82373046900003,47.268920898],[129.85070800800003,47.248474121]]]}}
