{"type":"Feature","id":"bulk-99377448B12249018262672","bbox":[105.07751464800002,30.195129395,106.00671386700002,31.15411377],"properties":{"id":"bulk-99377448B12249018262672","name":"Suining","nameEn":"Suining","fullName":"Suining","level":"city","boundaryRole":"administrative-extent","boundaryQuality":"generalized-source-2020","boundaryYearRepresented":"2020","bounds":[[105.07751464800002,30.195129395],[106.00671386700002,31.15411377]],"center":[105.54211425750002,30.6746215825],"centerMethod":"bounding-box midpoint; camera framing only","license":"CC-BY-3.0-IGO","attribution":"geoBoundaries / HDX, China administrative boundaries (2020)","source":{"provider":"geoBoundaries gbHumanitarian / HDX","url":"https://github.com/wmgeolab/geoBoundaries/raw/9469f09/releaseData/gbHumanitarian/CHN/ADM2/geoBoundaries-CHN-ADM2.geojson","metadataUrl":"https://www.geoboundaries.org/api/current/gbHumanitarian/CHN/ADM2/","shapeID":"99377448B12249018262672","shapeName":"Suining","boundaryID":"CHN-ADM2-99377448","commit":"9469f09"},"geometryCounts":{"coordinates":98,"components":1,"holes":0},"boundaryNotice":"geoBoundaries / HDX 2020 年行政区数据，海岸和边界经过源数据概化，并非当前测绘成果。"},"geometry":{"type":"Polygon","coordinates":[[[106.00671386700002,30.38269043],[105.98651123000002,30.41192627],[105.95507812500001,30.43572998],[105.97509765600002,30.456726074],[106.00671386700002,30.491882324],[105.96008300800001,30.488891602],[105.92468261700002,30.485473633],[105.85729980500001,30.478088379],[105.86328125000001,30.507080078],[105.87731933600001,30.541320801],[105.85791015600002,30.573486328],[105.87249755900001,30.60168457],[105.84790039100001,30.627685547],[105.81628418000001,30.632080078],[105.81072998000002,30.663879395],[105.80548095700001,30.692871094],[105.79992675800001,30.725708008],[105.79272460900002,30.763305664],[105.78808593700002,30.791870117],[105.76928710900002,30.824523926],[105.74987793000001,30.851501465],[105.74731445300002,30.899902344],[105.65551757800002,30.915283203],[105.64990234400001,30.943725586],[105.62628173800002,30.966125488],[105.64868164100001,30.993896484],[105.61407470700001,30.999694824],[105.57489013700001,31.006286621],[105.54211425800001,31.029907227],[105.51208496100001,31.050292969],[105.48107910200001,31.065307617],[105.43969726600001,31.074523926],[105.41107177700002,31.098083496],[105.39532470700001,31.126525879],[105.38012695300002,31.151672363],[105.33752441400001,31.15411377],[105.29528808600001,31.139282227],[105.29730224600002,31.10748291],[105.24810791000002,31.09967041],[105.21429443400001,31.085876465],[105.19427490200002,31.05291748],[105.19268798800002,31.021118164],[105.20288085900002,30.983886719],[105.20709228500002,30.951293945],[105.20227050800001,30.897277832],[105.22290039100001,30.872680664],[105.24389648400002,30.848083496],[105.26287841800001,30.819885254],[105.28051757800002,30.783081055],[105.28308105500001,30.752319336],[105.25268554700001,30.730285645],[105.21850585900002,30.72668457],[105.18450927700002,30.73449707],[105.17932128900001,30.702270508],[105.17449951200001,30.673706055],[105.15948486300002,30.649475098],[105.13049316400001,30.622497559],[105.120910645,30.59588623],[105.10668945300002,30.565917969],[105.07751464800002,30.55267334],[105.078125,30.520324707],[105.07910156200002,30.467285156],[105.08032226600001,30.42767334],[105.08410644500002,30.396911621],[105.10449218700002,30.376281738],[105.12567138700001,30.340698242],[105.16687011700002,30.332885742],[105.19348144500002,30.313476562],[105.22589111300002,30.294494629],[105.27508544900002,30.303283691],[105.34991455100001,30.304077148],[105.38012695300002,30.286499023],[105.41271972700001,30.286682129],[105.44830322300001,30.265075684],[105.48309326200001,30.256530762],[105.48547363300001,30.228881836],[105.51831054700001,30.212280273],[105.55047607400002,30.20690918],[105.59167480500001,30.1953125],[105.62408447300001,30.195129395],[105.65771484400001,30.203674316],[105.63171386700002,30.231079102],[105.62347412100002,30.259277344],[105.65887451200001,30.271484375],[105.69592285200001,30.258483887],[105.72991943400001,30.270690918],[105.71490478500002,30.300476074],[105.72607421900001,30.327880859],[105.75329589800002,30.351074219],[105.76727294900002,30.378479004],[105.77893066400001,30.407897949],[105.79968261700002,30.431091309],[105.83691406200002,30.410705566],[105.86828613300001,30.387329102],[105.90612793000001,30.391723633],[105.93768310500002,30.383117676],[105.97308349600002,30.363098145],[106.00671386700002,30.38269043]]]}}
