{"type":"Feature","id":"bulk-99377448B54321068408701","bbox":[102.70330810500002,34.955505371,103.84191894500002,36.227722168],"properties":{"id":"bulk-99377448B54321068408701","name":"Linxia Hui Autonomous Prefecture","nameEn":"Linxia Hui Autonomous Prefecture","fullName":"Linxia Hui Autonomous Prefecture","level":"city","boundaryRole":"administrative-extent","boundaryQuality":"generalized-source-2020","boundaryYearRepresented":"2020","bounds":[[102.70330810500002,34.955505371],[103.84191894500002,36.227722168]],"center":[103.27261352500003,35.5916137695],"centerMethod":"bounding-box midpoint; camera framing only","license":"CC-BY-3.0-IGO","attribution":"geoBoundaries / HDX, China administrative boundaries (2020)","source":{"provider":"geoBoundaries gbHumanitarian / HDX","url":"https://github.com/wmgeolab/geoBoundaries/raw/9469f09/releaseData/gbHumanitarian/CHN/ADM2/geoBoundaries-CHN-ADM2.geojson","metadataUrl":"https://www.geoboundaries.org/api/current/gbHumanitarian/CHN/ADM2/","shapeID":"99377448B54321068408701","shapeName":"Linxia Hui Autonomous Prefecture","boundaryID":"CHN-ADM2-99377448","commit":"9469f09"},"geometryCounts":{"coordinates":156,"components":1,"holes":0},"boundaryNotice":"geoBoundaries / HDX 2020 年行政区数据，海岸和边界经过源数据概化，并非当前测绘成果。"},"geometry":{"type":"Polygon","coordinates":[[[103.59036888000001,35.909578923],[103.604492187,35.914306641],[103.61029052700002,35.919921875],[103.61328125000001,35.928283691],[103.61767578100002,35.94152832],[103.61169433600001,35.953918457],[103.60827636700002,35.961486816],[103.60809326200001,35.966918945],[103.60870361300002,35.969299316],[103.61132812500001,35.97088623],[103.61529541000002,35.980285645],[103.61749267600001,35.989929199],[103.61267089800002,35.99810791],[103.61029052700002,36.002319336],[103.60949707000002,36.005310059],[103.61132812500001,36.005310059],[103.61669921900001,36.006286621],[103.62432861300002,36.012329102],[103.62628173800002,36.017272949],[103.62408447300001,36.023925781],[103.61547851600001,36.032714844],[103.60748291000002,36.035522461],[103.60412597700001,36.045288086],[103.60589599600002,36.051086426],[103.60168457000002,36.06652832],[103.59710693400001,36.069519043],[103.58569335900002,36.075073242],[103.56671142600001,36.078491211],[103.55407714800002,36.08392334],[103.54089355500001,36.089477539],[103.52752685500002,36.095275879],[103.51507568400001,36.100280762],[103.51110839800002,36.102478027],[103.50689697300001,36.106079102],[103.48327636700002,36.114929199],[103.47210693400001,36.114685059],[103.46411132800002,36.113708496],[103.45709228500002,36.107910156],[103.45452880900001,36.098693848],[103.44952392600001,36.088317871],[103.44708252,36.084716797],[103.44250488300001,36.081115723],[103.43328857400002,36.076904297],[103.429504395,36.075073242],[103.42291259800001,36.075073242],[103.41748046900001,36.076721191],[103.41168212900001,36.077087402],[103.40228271500001,36.085510254],[103.39227294900002,36.10949707],[103.37609863300001,36.114929199],[103.33190918000001,36.12487793],[103.28771972700001,36.134887695],[103.26208496100001,36.158081055],[103.24188232400002,36.163085937],[103.17852783200001,36.169128418],[103.12670898400002,36.218688965],[103.07110595700001,36.224914551],[103.02990722700001,36.227722168],[102.99432373000002,36.202087402],[102.96911621100001,36.176086426],[102.95147705100001,36.153686523],[102.9375,36.134277344],[102.91510009800001,36.120727539],[102.89251709000001,36.110290527],[102.89031982400002,36.091674805],[102.91210937500001,36.06829834],[102.93811035200001,36.041870117],[102.93969726600001,36.023681641],[102.95489502,35.901306152],[102.95367431600002,35.870483398],[102.93548584000001,35.857116699],[102.89611816400001,35.857910156],[102.84429931600002,35.860290527],[102.82952880900001,35.857299805],[102.81072998000002,35.846923828],[102.77349853500002,35.826293945],[102.74353027300002,35.812316895],[102.72369384800001,35.81427002],[102.70751953100002,35.819519043],[102.70330810500002,35.801696777],[102.73828125000001,35.734680176],[102.74768066400001,35.60369873],[102.74890136700002,35.583496094],[102.75109863300001,35.545288086],[102.71508789100001,35.514099121],[102.76507568400001,35.477111816],[102.81127929700001,35.493530273],[102.87048339800002,35.487487793],[102.89929199200002,35.46270752],[102.93267822300001,35.443115234],[102.95709228500002,35.401489258],[102.95910644500002,35.372680664],[102.96289062500001,35.338928223],[102.96612548800002,35.3046875],[102.96331787100002,35.267883301],[102.96868896500001,35.239074707],[103.00329589800002,35.253112793],[103.03332519500002,35.269470215],[103.09088134800001,35.254516602],[103.14093017600001,35.228515625],[103.17987060500002,35.229492187],[103.22747802700002,35.230895996],[103.278320312,35.218078613],[103.30810546900001,35.186706543],[103.33111572300001,35.146484375],[103.38330078100002,35.11932373],[103.45129394500002,35.116088867],[103.49908447300001,35.121520996],[103.52990722700001,35.135498047],[103.56390380900001,35.107910156],[103.60650634800001,35.088684082],[103.66851806600002,35.074707031],[103.71252441400001,35.03112793],[103.729492187,34.992675781],[103.73309326200001,34.955505371],[103.79089355500001,34.977111816],[103.81707763700001,34.959716797],[103.829101562,34.992126465],[103.79528808600001,34.998291016],[103.78112793000001,35.010681152],[103.75347900400001,35.064880371],[103.75592041000002,35.075683594],[103.72552490200002,35.112670898],[103.71472168000001,35.148681641],[103.70330810500002,35.185913086],[103.70532226600001,35.222290039],[103.71752929700001,35.25592041],[103.73590087900001,35.287109375],[103.75628662100002,35.326904297],[103.77911377,35.360900879],[103.80047607400002,35.399902344],[103.81311035200001,35.424926758],[103.84191894500002,35.46307373],[103.83929443400001,35.494689941],[103.82049560500002,35.520080566],[103.78491210900002,35.547485352],[103.77508544900002,35.586486816],[103.76928710900002,35.61529541],[103.754882812,35.627685547],[103.75128173800002,35.632873535],[103.730285645,35.64251709],[103.65692138700001,35.678283691],[103.64929199200002,35.688476562],[103.65051269500002,35.715087891],[103.64208984400001,35.735717773],[103.596679687,35.757324219],[103.58190918000001,35.772277832],[103.57330322300001,35.795715332],[103.55871582000002,35.808288574],[103.52471923800002,35.81427002],[103.46252441400001,35.898498535],[103.49291992200001,35.917114258],[103.54028320300002,35.945678711],[103.56970214800002,35.912109375],[103.58270263700001,35.910522461],[103.59036888000001,35.909578923]]]}}
