{"type":"Feature","id":"bulk-99377448B89050268548917","bbox":[113.81890869100002,25.989074707,115.921875,27.926086426],"properties":{"id":"bulk-99377448B89050268548917","name":"Ji'an","nameEn":"Ji'an","fullName":"Ji'an","level":"city","boundaryRole":"administrative-extent","boundaryQuality":"generalized-source-2020","boundaryYearRepresented":"2020","bounds":[[113.81890869100002,25.989074707],[115.921875,27.926086426]],"center":[114.87039184550001,26.9575805665],"centerMethod":"bounding-box midpoint; camera framing only","license":"CC-BY-3.0-IGO","attribution":"geoBoundaries / HDX, China administrative boundaries (2020)","source":{"provider":"geoBoundaries gbHumanitarian / HDX","url":"https://github.com/wmgeolab/geoBoundaries/raw/9469f09/releaseData/gbHumanitarian/CHN/ADM2/geoBoundaries-CHN-ADM2.geojson","metadataUrl":"https://www.geoboundaries.org/api/current/gbHumanitarian/CHN/ADM2/","shapeID":"99377448B89050268548917","shapeName":"Ji'an","boundaryID":"CHN-ADM2-99377448","commit":"9469f09"},"geometryCounts":{"coordinates":230,"components":1,"holes":0},"boundaryNotice":"geoBoundaries / HDX 2020 年行政区数据，海岸和边界经过源数据概化，并非当前测绘成果。"},"geometry":{"type":"Polygon","coordinates":[[[115.73712158200001,27.722900391],[115.70989990200002,27.743896484],[115.68389892600001,27.767883301],[115.65771484400001,27.789123535],[115.62969970700001,27.805480957],[115.60052490200002,27.817077637],[115.56512451200001,27.83807373],[115.53991699200002,27.857116699],[115.51489257800002,27.873901367],[115.51727294900002,27.906677246],[115.49353027300002,27.926086426],[115.46771240200002,27.909484863],[115.43969726600001,27.891723633],[115.39312744100002,27.912475586],[115.37652587900001,27.853088379],[115.347473145,27.807495117],[115.32672119100002,27.786071777],[115.30407714800002,27.766906738],[115.27630615200002,27.748291016],[115.25012207000002,27.733093262],[115.21411132800002,27.723876953],[115.17810058600001,27.709716797],[115.13891601600001,27.692504883],[115.09613037100002,27.687927246],[115.06408691400001,27.686889648],[115.03308105500001,27.664672852],[114.99871826200001,27.655700684],[114.96411132800002,27.650085449],[114.91967773400002,27.626281738],[114.89672851600001,27.605285645],[114.87988281200002,27.567077637],[114.82067871100001,27.579528809],[114.79107666000002,27.598083496],[114.75689697300001,27.596923828],[114.74688720700001,27.571105957],[114.69287109400001,27.57232666],[114.65930175800001,27.553283691],[114.63708496100001,27.532897949],[114.60107421900001,27.515075684],[114.57928466800001,27.538330078],[114.55010986300002,27.566101074],[114.52087402300002,27.575073242],[114.48547363300001,27.557495117],[114.44769287100002,27.538879395],[114.41369628900001,27.515319824],[114.38348388700001,27.52532959],[114.36010742200001,27.549682617],[114.32373046900001,27.54309082],[114.28271484400001,27.546875],[114.25030517600001,27.561706543],[114.22747802700002,27.534484863],[114.20269775400001,27.512084961],[114.18872070300002,27.485107422],[114.17669677700002,27.453674316],[114.14752197300001,27.427124023],[114.10607910200001,27.413696289],[114.07250976600001,27.408691406],[114.04248046900001,27.401672363],[114.02490234400001,27.36932373],[114.04711914100001,27.341308594],[114.08551025400001,27.313476562],[114.12152099600002,27.292114258],[114.13732910200001,27.264892578],[114.13769531200002,27.235717773],[114.105285645,27.172119141],[114.09008789100001,27.175720215],[114.04431152300002,27.150878906],[114.01452636700002,27.11730957],[114.00268554700001,27.091918945],[113.98010253900001,27.055908203],[113.94488525400001,27.018676758],[113.92633056600002,26.99230957],[113.91149902300002,26.958679199],[113.88348388700001,26.94708252],[113.88989257800002,26.93371582],[113.88409423800002,26.909729004],[113.86791992200001,26.882324219],[113.85650634800001,26.840515137],[113.84710693400001,26.833679199],[113.83648681600002,26.820495605],[113.828125,26.777709961],[113.82708740200002,26.773498535],[113.81890869100002,26.743896484],[113.82128906200002,26.692687988],[113.81970214800002,26.672119141],[113.82568359400001,26.639526367],[113.83172607400002,26.63671875],[113.847473145,26.629089355],[113.88690185500002,26.632507324],[113.91790771500001,26.625488281],[113.97351074200002,26.630126953],[114.02392578100002,26.598327637],[114.06451416000002,26.579101562],[114.06909179700001,26.570678711],[114.08807373000002,26.534484863],[114.09948730500001,26.487487793],[114.06787109400001,26.444519043],[114.05230712900001,26.431518555],[114.04431152300002,26.422729492],[114.03570556600002,26.413085937],[114.03332519500002,26.344909668],[114.02508544900002,26.313720703],[113.99792480500001,26.281311035],[113.98529052700002,26.267272949],[113.95532226600001,26.24029541],[113.94232177700002,26.210083008],[113.93627929700001,26.178894043],[113.93951416000002,26.177307129],[113.96087646500001,26.166503906],[114.00927734400001,26.170471191],[114.06872558600001,26.182312012],[114.10168457000002,26.203918457],[114.15911865200002,26.212097168],[114.21447753900001,26.218505859],[114.22552490200002,26.1875],[114.21191406200002,26.147521973],[114.16491699200002,26.123901367],[114.10449218700002,26.112121582],[114.05548095700001,26.089294434],[114.03192138700001,26.072875977],[113.99072265600002,26.041687012],[114.00311279300001,26.021728516],[114.01110839800002,25.989074707],[114.07147216800001,25.997680664],[114.10168457000002,26.009887695],[114.14007568400001,26.026306152],[114.17572021500001,26.034301758],[114.21771240200002,26.028503418],[114.25152587900001,26.038330078],[114.27667236300002,26.068908691],[114.30328369100002,26.086303711],[114.34051513700001,26.103088379],[114.378723145,26.109130859],[114.40447998000002,26.131896973],[114.413879395,26.161315918],[114.44610595700001,26.178710937],[114.47808837900001,26.171508789],[114.49731445300002,26.195922852],[114.52270507800002,26.231079102],[114.56011962900001,26.241088867],[114.59649658200001,26.224304199],[114.64929199200002,26.205871582],[114.70288085900002,26.171508789],[114.73669433600001,26.17791748],[114.77807617200001,26.188110352],[114.80792236300002,26.196472168],[114.83709716800001,26.204101562],[114.88751220700001,26.211120605],[114.93029785200001,26.211120605],[114.97412109400001,26.202514648],[115.00170898400002,26.183898926],[115.02551269500002,26.163696289],[115.05310058600001,26.147705078],[115.08251953100002,26.170471191],[115.05871582000002,26.188903809],[115.03747558600001,26.214477539],[115.05627441400001,26.24987793],[115.05352783200001,26.284301758],[115.03948974600002,26.316101074],[115.03308105500001,26.35168457],[115.02648925800001,26.381530762],[115.03070068400001,26.41192627],[115.04589843700002,26.442504883],[115.06127929700001,26.473327637],[115.08648681600002,26.488525391],[115.12188720700001,26.51171875],[115.15167236300002,26.519104004],[115.18609619100002,26.521118164],[115.21472168000001,26.533508301],[115.23468017600001,26.557678223],[115.25549316400001,26.586730957],[115.26928710900002,26.616271973],[115.28668212900001,26.643676758],[115.31030273400002,26.681274414],[115.35388183600001,26.659118652],[115.38787841800001,26.654296875],[115.40887451200001,26.674499512],[115.44189453100002,26.69152832],[115.47967529300001,26.701721191],[115.53247070300002,26.672485352],[115.55548095700001,26.647888184],[115.58929443400001,26.649902344],[115.62329101600001,26.659484863],[115.65509033200001,26.649291992],[115.68267822300001,26.671508789],[115.695129395,26.696289062],[115.69628906200002,26.738098145],[115.67749023400002,26.781677246],[115.67327880900001,26.817321777],[115.70269775400001,26.833312988],[115.72991943400001,26.819519043],[115.76031494100002,26.808288574],[115.78448486300002,26.832092285],[115.81127929700001,26.869873047],[115.84350585900002,26.890075684],[115.86987304700001,26.914489746],[115.89208984400001,26.938110352],[115.921875,26.960327148],[115.87750244100002,26.990722656],[115.85827636700002,27.014099121],[115.83947753900001,27.039672852],[115.82049560500002,27.078491211],[115.79467773400002,27.104125977],[115.75488281200002,27.098693848],[115.71807861300002,27.092285156],[115.68450927700002,27.110717773],[115.66552734400001,27.133300781],[115.64410400400001,27.163696289],[115.63311767600001,27.193115234],[115.63232421900001,27.226074219],[115.66088867200001,27.251708984],[115.68572998000002,27.277099609],[115.67529296900001,27.30847168],[115.66711425800001,27.341308594],[115.66589355500001,27.372497559],[115.69207763700001,27.397705078],[115.71691894500002,27.422485352],[115.68829345700001,27.44152832],[115.65087890600002,27.444091797],[115.62249755900001,27.459472656],[115.60052490200002,27.483886719],[115.58172607400002,27.513305664],[115.58831787100002,27.540893555],[115.59887695300002,27.575073242],[115.62487793000001,27.610900879],[115.64709472700001,27.632080078],[115.67108154300001,27.651489258],[115.69830322300001,27.670288086],[115.72229003900001,27.69732666],[115.73712158200001,27.722900391]]]}}
