{"type":"Feature","id":"bulk-99377448B10363457468369","bbox":[105.49627685500002,32.145080566,108.27032470700001,33.857910156],"properties":{"id":"bulk-99377448B10363457468369","name":"Hanzhong","nameEn":"Hanzhong","fullName":"Hanzhong","level":"city","boundaryRole":"administrative-extent","boundaryQuality":"generalized-source-2020","boundaryYearRepresented":"2020","bounds":[[105.49627685500002,32.145080566],[108.27032470700001,33.857910156]],"center":[106.88330078100002,33.001495360999996],"centerMethod":"bounding-box midpoint; camera framing only","license":"CC-BY-3.0-IGO","attribution":"geoBoundaries / HDX, China administrative boundaries (2020)","source":{"provider":"geoBoundaries gbHumanitarian / HDX","url":"https://github.com/wmgeolab/geoBoundaries/raw/9469f09/releaseData/gbHumanitarian/CHN/ADM2/geoBoundaries-CHN-ADM2.geojson","metadataUrl":"https://www.geoboundaries.org/api/current/gbHumanitarian/CHN/ADM2/","shapeID":"99377448B10363457468369","shapeName":"Hanzhong","boundaryID":"CHN-ADM2-99377448","commit":"9469f09"},"geometryCounts":{"coordinates":204,"components":1,"holes":0},"boundaryNotice":"geoBoundaries / HDX 2020 年行政区数据，海岸和边界经过源数据概化，并非当前测绘成果。"},"geometry":{"type":"Polygon","coordinates":[[[107.71807861300002,32.321899414],[107.76910400400001,32.241699219],[107.88012695300002,32.182495117],[107.90527343700002,32.145080566],[107.95330810500002,32.153320312],[107.95788574200002,32.174682617],[108.01312255900001,32.228271484],[108.05908203100002,32.237304687],[108.10888671900001,32.227905273],[108.18688964800002,32.247314453],[108.19232177700002,32.271484375],[108.10809326200001,32.342895508],[108.10388183600001,32.379089355],[108.13732910200001,32.383728027],[108.12207031200002,32.408874512],[108.13830566400001,32.437072754],[108.18127441400001,32.4296875],[108.20928955100001,32.444519043],[108.23992919900002,32.467895508],[108.27032470700001,32.479919434],[108.25970459000001,32.515930176],[108.23370361300002,32.53692627],[108.21972656200002,32.567871094],[108.19488525400001,32.597717285],[108.22448730500001,32.620727539],[108.25250244100002,32.670898437],[108.23968505900001,32.708129883],[108.22167968700002,32.732299805],[108.16528320300002,32.749511719],[108.17327880900001,32.780700684],[108.12109375000001,32.796081543],[108.09527587900001,32.839111328],[108.08007812500001,32.89251709],[108.10290527300002,32.92388916],[108.12231445300002,32.954101562],[108.13507080100001,32.99609375],[108.12329101600001,33.033874512],[108.09368896500001,33.077880859],[108.09552002,33.120117187],[108.09490966800001,33.147277832],[108.10211181600002,33.188476562],[108.07049560500002,33.20892334],[108.03967285200001,33.22869873],[108.02929687500001,33.25592041],[108.03570556600002,33.285522461],[108.03948974600002,33.313476562],[108.062316895,33.341308594],[108.08770752,33.378479004],[108.11187744100002,33.398071289],[108.15588378900001,33.411682129],[108.15270996100001,33.44152832],[108.11767578100002,33.466308594],[108.09112548800002,33.485107422],[108.06970214800002,33.506286621],[108.05328369100002,33.542907715],[108.05187988300001,33.58190918],[108.05749511700002,33.62310791],[108.05548095700001,33.668884277],[108.04052734400001,33.711914062],[108.00390625000001,33.719482422],[107.95367431600002,33.734313965],[107.90490722700001,33.740905762],[107.86627197300001,33.726074219],[107.85552978500002,33.699707031],[107.81732177700002,33.677124023],[107.79028320300002,33.698913574],[107.74328613300001,33.71307373],[107.67590332000002,33.715698242],[107.62969970700001,33.701293945],[107.57910156200002,33.692077637],[107.546691895,33.686279297],[107.48309326200001,33.671691895],[107.43609619100002,33.642700195],[107.39849853500002,33.653930664],[107.36791992200001,33.675476074],[107.32092285200001,33.67590332],[107.26672363300001,33.705871582],[107.31329345700001,33.760314941],[107.32031250000001,33.798278809],[107.28448486300002,33.788085937],[107.23712158200001,33.769470215],[107.18450927700002,33.766906738],[107.15991210900002,33.790527344],[107.12652587900001,33.79107666],[107.10070800800001,33.81048584],[107.05151367200001,33.851928711],[107.01568603500002,33.815307617],[106.98547363300001,33.800292969],[106.95031738300001,33.804870605],[106.90148925800001,33.833129883],[106.88250732400002,33.857910156],[106.84350585900002,33.853271484],[106.82427978500002,33.830505371],[106.79827880900001,33.812683105],[106.79547119100002,33.783691406],[106.80047607400002,33.747497559],[106.78833007800002,33.703491211],[106.76068115200002,33.667724609],[106.71649169900002,33.686706543],[106.70007324200002,33.655883789],[106.66333007800002,33.64630127],[106.64251709000001,33.620483398],[106.61767578100002,33.592102051],[106.56689453100002,33.577697754],[106.56268310500002,33.554504395],[106.55072021500001,33.533081055],[106.54150390600002,33.516906738],[106.52209472700001,33.513671875],[106.50549316400001,33.52130127],[106.47729492200001,33.529724121],[106.44207763700001,33.540100098],[106.42687988300001,33.606079102],[106.40570068400001,33.61529541],[106.40270996100001,33.614318848],[106.37188720700001,33.591308594],[106.34271240200002,33.585083008],[106.29327392600001,33.591674805],[106.23907470700001,33.56628418],[106.16247558600001,33.548522949],[106.13311767600001,33.591125488],[106.04010009800001,33.613098145],[105.96051025400001,33.589111328],[105.91992187500001,33.553283691],[105.88891601600001,33.525085449],[105.87170410200001,33.503723145],[105.85192871100001,33.462280273],[105.85607910200001,33.404724121],[105.80407714800002,33.374511719],[105.74450683600001,33.366088867],[105.77130127,33.312072754],[105.79107666000002,33.274108887],[105.85748291000002,33.247314453],[105.95208740200002,33.239929199],[105.99969482400002,33.19909668],[106.01367187500001,33.178527832],[105.99530029300001,33.159301758],[105.96228027300002,33.168884277],[105.94952392600001,33.163085937],[105.94329834000001,33.149291992],[105.94787597700001,33.057922363],[105.93811035200001,32.996276855],[105.87847900400001,32.930480957],[105.83312988300001,32.923522949],[105.72308349600002,32.89050293],[105.65588378900001,32.876098633],[105.62847900400001,32.870300293],[105.58148193400001,32.876525879],[105.50427246100001,32.903930664],[105.49627685500002,32.849487305],[105.50427246100001,32.80267334],[105.53228759800001,32.768127441],[105.57452392600001,32.708496094],[105.61230468700002,32.710693359],[105.63909912100002,32.717285156],[105.66589355500001,32.724121094],[105.73529052700002,32.743530273],[105.78747558600001,32.75769043],[105.82788085900002,32.795471191],[105.82312011700002,32.825500488],[105.84490966800001,32.823486328],[105.89489746100001,32.819885254],[105.95330810500002,32.824523926],[106.02532959000001,32.838500977],[106.06927490200002,32.845275879],[106.09948730500001,32.808105469],[106.08251953100002,32.774719238],[106.07568359400001,32.759277344],[106.13610839800002,32.720275879],[106.22808837900001,32.678894043],[106.30371093700002,32.672485352],[106.31390380900001,32.671691895],[106.40368652300002,32.623718262],[106.46228027300002,32.641479492],[106.48291015600002,32.669677734],[106.55328369100002,32.675476074],[106.56152343700002,32.676330566],[106.62432861300002,32.70111084],[106.63067627,32.702880859],[106.72711181600002,32.72869873],[106.76269531200002,32.708496094],[106.80529785200001,32.696289062],[106.83990478500002,32.697875977],[107.05712890600002,32.712280273],[107.08312988300001,32.645874023],[107.04632568400001,32.599487305],[107.04028320300002,32.523925781],[107.03833007800002,32.495483398],[107.10552978500002,32.496887207],[107.12591552700002,32.497497559],[107.12371826200001,32.450317383],[107.22369384800001,32.413513184],[107.238098145,32.429077148],[107.26312255900001,32.474121094],[107.28991699200002,32.524475098],[107.34252929700001,32.533691406],[107.39691162100002,32.53729248],[107.41412353500002,32.50592041],[107.39227294900002,32.437072754],[107.40527343700002,32.407287598],[107.44171142600001,32.390686035],[107.54772949200002,32.408691406],[107.64550781200002,32.394470215],[107.70587158200001,32.341125488],[107.71807861300002,32.321899414]]]}}
