{"type":"Feature","id":"bulk-99377448B28627967508116","bbox":[115.51708984400001,32.860473633,116.80688476600001,34.074890137],"properties":{"id":"bulk-99377448B28627967508116","name":"Bozhou","nameEn":"Bozhou","fullName":"Bozhou","level":"city","boundaryRole":"administrative-extent","boundaryQuality":"generalized-source-2020","boundaryYearRepresented":"2020","bounds":[[115.51708984400001,32.860473633],[116.80688476600001,34.074890137]],"center":[116.16198730500001,33.467681885],"centerMethod":"bounding-box midpoint; camera framing only","license":"CC-BY-3.0-IGO","attribution":"geoBoundaries / HDX, China administrative boundaries (2020)","source":{"provider":"geoBoundaries gbHumanitarian / HDX","url":"https://github.com/wmgeolab/geoBoundaries/raw/9469f09/releaseData/gbHumanitarian/CHN/ADM2/geoBoundaries-CHN-ADM2.geojson","metadataUrl":"https://www.geoboundaries.org/api/current/gbHumanitarian/CHN/ADM2/","shapeID":"99377448B28627967508116","shapeName":"Bozhou","boundaryID":"CHN-ADM2-99377448","commit":"9469f09"},"geometryCounts":{"coordinates":131,"components":1,"holes":0},"boundaryNotice":"geoBoundaries / HDX 2020 年行政区数据，海岸和边界经过源数据概化，并非当前测绘成果。"},"geometry":{"type":"Polygon","coordinates":[[[116.78350830100001,33.295715332],[116.78387451200001,33.324279785],[116.79431152300002,33.354675293],[116.78790283200001,33.392883301],[116.76147460900002,33.42767334],[116.72729492200001,33.448913574],[116.68927002,33.460510254],[116.64068603500002,33.472900391],[116.59692382800002,33.474487305],[116.56469726600001,33.468688965],[116.52209472700001,33.465881348],[116.51892089800002,33.504272461],[116.52410888700001,33.531494141],[116.53668212900001,33.558288574],[116.53912353500002,33.590881348],[116.51690673800002,33.620727539],[116.48370361300002,33.642089844],[116.47991943400001,33.675476074],[116.47192382800002,33.709899902],[116.44927978500002,33.740905762],[116.42272949200002,33.765075684],[116.37408447300001,33.789123535],[116.36352539100001,33.788513184],[116.32830810500002,33.77331543],[116.296691895,33.758728027],[116.27368164100001,33.761474609],[116.25030517600001,33.757324219],[116.22668457000002,33.748474121],[116.20367431600002,33.730895996],[116.16168212900001,33.712280273],[116.13092041000002,33.727905273],[116.10290527300002,33.736083984],[116.06329345700001,33.750671387],[116.05688476600001,33.753295898],[116.04290771500001,33.775878906],[116.02728271500001,33.80670166],[116.03027343700002,33.855285645],[116.00250244100002,33.901489258],[115.97808837900001,33.917724609],[115.95587158200001,33.913330078],[115.95568847700001,33.944274902],[115.92669677700002,33.973876953],[115.92370605500001,33.975708008],[115.88970947300001,33.999084473],[115.83392334000001,33.989074707],[115.80187988300001,33.988525391],[115.78607177700002,34.03692627],[115.76892089800002,34.044677734],[115.70251464800002,34.074890137],[115.66430664100001,34.063903809],[115.64251709000001,34.057495117],[115.61389160200001,34.049072266],[115.56091308600001,34.028930664],[115.54211425800001,34.010070801],[115.52868652300002,33.969116211],[115.53472900400001,33.919311523],[115.52752685500002,33.88848877],[115.51708984400001,33.86151123],[115.53228759800001,33.83807373],[115.56890869100002,33.825073242],[115.56768798800002,33.803100586],[115.56848144500002,33.780883789],[115.53570556600002,33.76171875],[115.53271484400001,33.727478027],[115.53228759800001,33.722106934],[115.57830810500002,33.682128906],[115.55047607400002,33.656677246],[115.55651855500001,33.629089355],[115.54370117200001,33.61529541],[115.562316895,33.593322754],[115.56671142600001,33.581726074],[115.56927490200002,33.573486328],[115.58288574200002,33.532287598],[115.59271240200002,33.513671875],[115.62567138700001,33.503112793],[115.66949462900001,33.487487793],[115.72967529300001,33.466491699],[115.76147460900002,33.442077637],[115.83190918000001,33.407104492],[115.85308837900001,33.392272949],[115.85028076200001,33.35168457],[115.84967041000002,33.342529297],[115.85968017600001,33.328491211],[115.86968994100002,33.309692383],[115.86810302700002,33.287109375],[115.85552978500002,33.269470215],[115.83227539100001,33.257080078],[115.82550048800002,33.185119629],[115.84228515600002,33.119689941],[115.88708496100001,33.105529785],[115.93408203100002,33.09588623],[115.96929931600002,33.083679199],[115.99487304700001,33.058105469],[116.01330566400001,33.02911377],[116.02447509800001,32.998901367],[116.04028320300002,32.970275879],[116.05670166000002,32.944885254],[116.09307861300002,32.942687988],[116.12469482400002,32.930297852],[116.14630127,32.908691406],[116.19451904300001,32.885498047],[116.24127197300001,32.873901367],[116.27612304700001,32.860473633],[116.31530761700002,32.867675781],[116.35449218700002,32.891479492],[116.35949707000002,32.92791748],[116.35992431600002,32.959289551],[116.37207031200002,32.992919922],[116.36871337900001,33.031677246],[116.43829345700001,33.015319824],[116.47027587900001,32.995300293],[116.49511718700002,32.967102051],[116.51470947300001,32.936279297],[116.54809570300002,32.919921875],[116.58032226600001,32.926086426],[116.62408447300001,32.942504883],[116.66070556600002,32.944274902],[116.73370361300002,32.932495117],[116.73931884800001,32.965270996],[116.76489257800002,32.994506836],[116.79650878900001,33.018493652],[116.78228759800001,33.050292969],[116.74310302700002,33.055725098],[116.72851562500001,33.082275391],[116.73468017600001,33.116516113],[116.75268554700001,33.146911621],[116.78448486300002,33.172912598],[116.80688476600001,33.197692871],[116.80151367200001,33.227905273],[116.79211425800001,33.257080078],[116.78350830100001,33.295715332]]]}}
