{"type":"Feature","id":"bulk-99377448B64127969691659","bbox":[127.546691895,46.449279785,130.736083984,49.424316406],"properties":{"id":"bulk-99377448B64127969691659","name":"Yichun","nameEn":"Yichun","fullName":"Yichun","level":"city","boundaryRole":"administrative-extent","boundaryQuality":"generalized-source-2020","boundaryYearRepresented":"2020","bounds":[[127.546691895,46.449279785],[130.736083984,49.424316406]],"center":[129.1413879395,47.9367980955],"centerMethod":"bounding-box midpoint; camera framing only","license":"CC-BY-3.0-IGO","attribution":"geoBoundaries / HDX, China administrative boundaries (2020)","source":{"provider":"geoBoundaries gbHumanitarian / HDX","url":"https://github.com/wmgeolab/geoBoundaries/raw/9469f09/releaseData/gbHumanitarian/CHN/ADM2/geoBoundaries-CHN-ADM2.geojson","metadataUrl":"https://www.geoboundaries.org/api/current/gbHumanitarian/CHN/ADM2/","shapeID":"99377448B64127969691659","shapeName":"Yichun","boundaryID":"CHN-ADM2-99377448","commit":"9469f09"},"geometryCounts":{"coordinates":334,"components":1,"holes":0},"boundaryNotice":"geoBoundaries / HDX 2020 年行政区数据，海岸和边界经过源数据概化，并非当前测绘成果。"},"geometry":{"type":"Polygon","coordinates":[[[129.474914551,46.609313965],[129.49468994100002,46.639282227],[129.53167724600002,46.651489258],[129.54089355500003,46.67767334],[129.55810546900003,46.71307373],[129.596679687,46.738708496],[129.612487793,46.774291992],[129.59307861300002,46.80670166],[129.563903809,46.846923828],[129.55267334,46.881530762],[129.546081543,46.916503906],[129.53790283200001,46.950927734],[129.55010986300002,46.983520508],[129.60351562500003,47.002319336],[129.65008544900002,47.010681152],[129.66748046900003,47.038879395],[129.657104492,47.0703125],[129.692077637,47.091918945],[129.71911621100003,47.114501953],[129.709289551,47.143676758],[129.739501953,47.166687012],[129.770690918,47.195678711],[129.786682129,47.222717285],[129.827880859,47.216491699],[129.85070800800003,47.248474121],[129.82373046900003,47.268920898],[129.86132812500003,47.291687012],[129.848327637,47.323303223],[129.812316895,47.335510254],[129.80169677700002,47.368103027],[129.83990478500002,47.386901855],[129.852905273,47.415710449],[129.83032226600002,47.45690918],[129.83331298800002,47.486328125],[129.858276367,47.51348877],[129.862487793,47.552490234],[129.88092041000002,47.578674316],[129.86907959,47.610107422],[129.867492676,47.637512207],[129.88427734400003,47.664672852],[129.844909668,47.68548584],[129.783325195,47.707092285],[129.73352050800003,47.732727051],[129.712280273,47.756896973],[129.680725098,47.787109375],[129.68048095700001,47.81451416],[129.67669677700002,47.844116211],[129.663879395,47.870483398],[129.63708496100003,47.902709961],[129.66729736300002,47.925476074],[129.71472168000003,47.946289062],[129.71807861300002,47.977111816],[129.70068359400003,48.010314941],[129.698303223,48.045715332],[129.701293945,48.072875977],[129.72271728500002,48.097473145],[129.75732421900003,48.116882324],[129.760925293,48.146118164],[129.74047851600002,48.172912598],[129.763122559,48.200927734],[129.80267334,48.214477539],[129.82427978500002,48.247680664],[129.86968994100002,48.237670898],[129.90667724600002,48.218078613],[129.96368408200001,48.181274414],[130.00231933600003,48.166320801],[130.01727294900002,48.144897461],[130.06610107400002,48.128295898],[130.09149169900002,48.141723633],[130.16992187500003,48.14050293],[130.18951416000002,48.169311523],[130.18829345700001,48.200927734],[130.199707031,48.238098145],[130.22888183600003,48.263122559],[130.30627441400003,48.293518066],[130.353271484,48.306274414],[130.40490722700002,48.299072266],[130.42407226600002,48.291503906],[130.45367431600002,48.282470703],[130.49792480500003,48.285888672],[130.617492676,48.300476074],[130.679077148,48.313476562],[130.736083984,48.31628418],[130.70672607400002,48.333679199],[130.691894531,48.353515625],[130.691711426,48.366699219],[130.696472168,48.400695801],[130.707702637,48.418884277],[130.71411132800003,48.444274902],[130.713928223,48.466674805],[130.71008300800003,48.490722656],[130.68572998000002,48.499084473],[130.68048095700001,48.49609375],[130.66528320300003,48.490478516],[130.647888184,48.487670898],[130.634887695,48.488525391],[130.62969970700001,48.489929199],[130.58489990200002,48.472473145],[130.57830810500002,48.524108887],[130.56909179700003,48.553527832],[130.53692627,48.575683594],[130.506896973,48.592102051],[130.47070312500003,48.614929199],[130.49768066400003,48.644104004],[130.51708984400003,48.662109375],[130.523925781,48.68927002],[130.528503418,48.717895508],[130.535095215,48.739501953],[130.57067871100003,48.769287109],[130.59387207,48.799926758],[130.60388183600003,48.837097168],[130.60070800800003,48.867492676],[130.57067871100003,48.863098145],[130.568481445,48.861877441],[130.55950927700002,48.857299805],[130.55187988300003,48.855102539],[130.53271484400003,48.854309082],[130.52227783200001,48.855285645],[130.51550293000003,48.856689453],[130.47711181600002,48.852722168],[130.44592285200002,48.860717773],[130.38208007800003,48.894897461],[130.36187744100002,48.890319824],[130.35247802700002,48.88671875],[130.33868408200001,48.881286621],[130.32110595700001,48.876281738],[130.30651855500003,48.872314453],[130.29388427700002,48.86907959],[130.282104492,48.866882324],[130.266479492,48.865112305],[130.253723145,48.864318848],[130.24407959,48.864929199],[130.219726562,48.857727051],[130.182312012,48.863708496],[130.14971923800002,48.881286621],[130.112304687,48.896728516],[130.06127929700003,48.917724609],[130.022705078,48.924682617],[129.987670898,48.952880859],[129.956481934,48.975891113],[129.92687988300003,48.993896484],[129.88372802700002,49.013671875],[129.861083984,49.079711914],[129.81732177700002,49.093078613],[129.76971435500002,49.155700684],[129.709289551,49.184326172],[129.66430664100002,49.25592041],[129.50408935500002,49.275878906],[129.48089599600002,49.341125488],[129.47290039100002,49.37689209],[129.471923828,49.392883301],[129.43127441400003,49.408508301],[129.37591552700002,49.424316406],[129.36932373000002,49.414306641],[129.368713379,49.405883789],[129.36828613300003,49.398498535],[129.370910645,49.387084961],[129.374084473,49.380493164],[129.37609863300003,49.369873047],[129.373718262,49.363098145],[129.36932373000002,49.358520508],[129.361083984,49.355895996],[129.35089111300002,49.354675293],[129.33508300800003,49.354492187],[129.32250976600002,49.356079102],[129.31652832,49.356689453],[129.31610107400002,49.356689453],[129.31408691400003,49.328674316],[129.296081543,49.334899902],[129.26049804700003,49.355102539],[129.20208740200002,49.302307129],[129.15509033200001,49.287109375],[129.11968994100002,49.261901855],[129.11828613300003,49.233276367],[129.12689209,49.202270508],[129.14727783200001,49.175720215],[129.15930175800003,49.144714355],[129.161682129,49.108703613],[129.16027832,49.070922852],[129.171875,49.032714844],[129.20709228500002,49.014892578],[129.25927734400003,49.005493164],[129.31787109400003,48.991516113],[129.384887695,48.980285645],[129.41992187500003,48.950073242],[129.43829345700001,48.922302246],[129.45190429700003,48.910888672],[129.399108887,48.846679687],[129.361083984,48.79107666],[129.31048584,48.766113281],[129.24810791000002,48.75012207],[129.202880859,48.74407959],[129.14807128900003,48.741516113],[129.12951660200002,48.714904785],[129.12152099600002,48.686889648],[129.13427734400003,48.65612793],[129.161315918,48.638122559],[129.16210937500003,48.611083984],[129.147888184,48.582885742],[129.10852050800003,48.561889648],[129.067077637,48.549072266],[129.02111816400003,48.530700684],[128.982910156,48.506530762],[128.94909668000003,48.477111816],[128.938720703,48.44732666],[128.93170166000002,48.413696289],[128.925720215,48.378479004],[128.91888427700002,48.338500977],[128.887695312,48.3125],[128.870300293,48.286315918],[128.856872559,48.255493164],[128.84167480500003,48.215270996],[128.79730224600002,48.190307617],[128.75891113300003,48.20892334],[128.73687744100002,48.244873047],[128.73107910200002,48.280273437],[128.72692871100003,48.315917969],[128.69372558600003,48.349304199],[128.639709473,48.352294922],[128.603088379,48.332092285],[128.55468750000003,48.307495117],[128.51208496100003,48.307128906],[128.467285156,48.30871582],[128.420898437,48.292114258],[128.39489746100003,48.270690918],[128.36669921900003,48.236083984],[128.33947753900003,48.199890137],[128.31610107400002,48.171325684],[128.30548095700001,48.144714355],[128.28729248000002,48.119506836],[128.253479004,48.094726562],[128.21630859400003,48.082519531],[128.17352294900002,48.0703125],[128.13732910200002,48.054870605],[128.105285645,48.020690918],[128.133483887,47.999694824],[128.12768554700003,47.965515137],[128.117126465,47.936096191],[128.11907959,47.903686523],[128.157287598,47.890075684],[128.202697754,47.872070312],[128.240722656,47.858703613],[128.282287598,47.846130371],[128.30187988300003,47.806518555],[128.30688476600002,47.77911377],[128.31488037100002,47.748901367],[128.272521973,47.730895996],[128.21948242200003,47.715515137],[128.250305176,47.694519043],[128.288085937,47.678283691],[128.275878906,47.64831543],[128.24230957,47.628112793],[128.23449707,47.590087891],[128.22888183600003,47.555297852],[128.20330810500002,47.531677246],[128.196472168,47.503112793],[128.21368408200001,47.475891113],[128.23510742200003,47.451477051],[128.264892578,47.418884277],[128.294311523,47.394287109],[128.32611084,47.372680664],[128.35510253900003,47.350891113],[128.413085937,47.357299805],[128.45330810500002,47.357910156],[128.454528809,47.323303223],[128.456298828,47.288879395],[128.451477051,47.284484863],[128.43487548800002,47.262695312],[128.436889648,47.231079102],[128.421081543,47.199523926],[128.394287109,47.178894043],[128.35992431600002,47.168884277],[128.27947998000002,47.157470703],[128.24450683600003,47.145080566],[128.21447753900003,47.12487793],[128.17047119100002,47.118530273],[128.11492919900002,47.120727539],[128.075073242,47.116088867],[128.01568603500002,47.104492187],[127.98968505900001,47.086120605],[127.95587158200001,47.078308105],[127.92291259800001,47.072875977],[127.87188720700001,47.079101562],[127.83270263700001,47.076904297],[127.78491210900002,47.068481445],[127.76611328100002,47.037109375],[127.69787597700001,47.004699707],[127.64410400400001,46.999328613],[127.59008789100001,46.99407959],[127.56732177700002,46.987304687],[127.546691895,46.975280762],[127.57910156200002,46.952087402],[127.64947509800001,46.926696777],[127.68688964800002,46.922119141],[127.74572753900001,46.893310547],[127.79748535200001,46.850891113],[127.84692382800002,46.799072266],[127.94091796900001,46.732299805],[127.99090576200001,46.670898437],[128.010925293,46.627502441],[128.041503906,46.611694336],[128.09008789100002,46.598327637],[128.145874023,46.57208252],[128.201293945,46.549499512],[128.256896973,46.53729248],[128.31268310500002,46.536071777],[128.364318848,46.549499512],[128.39508056600002,46.58392334],[128.43591308600003,46.592712402],[128.48071289100002,46.588500977],[128.525878906,46.568481445],[128.576293945,46.552307129],[128.628295898,46.545715332],[128.66369628900003,46.524291992],[128.66229248000002,46.49029541],[128.666320801,46.456726074],[128.71472168000003,46.449279785],[128.78552246100003,46.459716797],[128.83172607400002,46.462097168],[128.86810302700002,46.480285645],[128.923095703,46.47668457],[128.96612548800002,46.471313477],[129.00469970700001,46.487304687],[129.02508544900002,46.521911621],[129.069519043,46.520324707],[129.158874512,46.517089844],[129.165283203,46.553710937],[129.190307617,46.583496094],[129.22290039100002,46.598876953],[129.30133056600002,46.624694824],[129.35089111300002,46.60748291],[129.39532470700001,46.587280273],[129.451477051,46.587097168],[129.474914551,46.609313965]]]}}
