{"type":"Feature","id":"bulk-99377448B87002295255029","bbox":[104.09613037100002,28.926330566,105.28051757800002,29.619873047],"properties":{"id":"bulk-99377448B87002295255029","name":"Zigong","nameEn":"Zigong","fullName":"Zigong","level":"city","boundaryRole":"administrative-extent","boundaryQuality":"generalized-source-2020","boundaryYearRepresented":"2020","bounds":[[104.09613037100002,28.926330566],[105.28051757800002,29.619873047]],"center":[104.68832397450001,29.2731018065],"centerMethod":"bounding-box midpoint; camera framing only","license":"CC-BY-3.0-IGO","attribution":"geoBoundaries / HDX, China administrative boundaries (2020)","source":{"provider":"geoBoundaries gbHumanitarian / HDX","url":"https://github.com/wmgeolab/geoBoundaries/raw/9469f09/releaseData/gbHumanitarian/CHN/ADM2/geoBoundaries-CHN-ADM2.geojson","metadataUrl":"https://www.geoboundaries.org/api/current/gbHumanitarian/CHN/ADM2/","shapeID":"99377448B87002295255029","shapeName":"Zigong","boundaryID":"CHN-ADM2-99377448","commit":"9469f09"},"geometryCounts":{"coordinates":106,"components":1,"holes":0},"boundaryNotice":"geoBoundaries / HDX 2020 年行政区数据，海岸和边界经过源数据概化，并非当前测绘成果。"},"geometry":{"type":"Polygon","coordinates":[[[104.179504395,29.200317383],[104.203125,29.22668457],[104.23413085900002,29.214477539],[104.25091552700002,29.24810791],[104.27728271500001,29.264282227],[104.31268310500002,29.241882324],[104.34509277300002,29.222717285],[104.37530517600001,29.234680176],[104.40289306600002,29.217712402],[104.43511962900001,29.213317871],[104.46667480500001,29.181518555],[104.488098145,29.153320312],[104.52050781200002,29.144104004],[104.54467773400002,29.126525879],[104.56909179700001,29.151916504],[104.60571289100001,29.193481445],[104.65869140600002,29.180297852],[104.69189453100002,29.158691406],[104.70751953100002,29.129699707],[104.72131347700001,29.099121094],[104.73388671900001,29.066894531],[104.71868896500001,29.031921387],[104.73187255900001,28.998474121],[104.74829101600001,28.973876953],[104.80969238300001,28.991882324],[104.85107421900001,28.99432373],[104.87792968700002,29.024719238],[104.90008544900002,29.050476074],[104.93591308600001,29.049682617],[104.95208740200002,29.020690918],[104.98907470700001,28.983886719],[105.02050781200002,28.958312988],[105.04791259800001,28.938476562],[105.08587646500001,28.926330566],[105.16467285200001,28.950500488],[105.19909668000001,28.934692383],[105.24029541000002,28.94128418],[105.28051757800002,28.950500488],[105.28051757800002,28.983886719],[105.27191162100002,29.011901855],[105.23431396500001,29.022521973],[105.19927978500002,29.036071777],[105.20452880900001,29.07208252],[105.22808837900001,29.090515137],[105.24468994100002,29.117492676],[105.25970459000001,29.152709961],[105.27667236300002,29.184875488],[105.23309326200001,29.195922852],[105.19671630900001,29.194885254],[105.18530273400002,29.228515625],[105.16247558600001,29.248718262],[105.13470459000001,29.261291504],[105.11492919900002,29.29510498],[105.08209228500002,29.32989502],[105.06390380900001,29.355895996],[105.05249023400002,29.384521484],[105.08111572300001,29.408325195],[105.07647705100001,29.436889648],[105.01031494100002,29.453125],[104.96972656200002,29.415710449],[104.93371582000002,29.441894531],[104.90191650400001,29.44152832],[104.86187744100002,29.488525391],[104.84112548800002,29.464111328],[104.80871582000002,29.444274902],[104.77331543000001,29.443115234],[104.74291992200001,29.424316406],[104.74847412100002,29.390075684],[104.71771240200002,29.37310791],[104.67352294900002,29.392700195],[104.64227294900002,29.412475586],[104.62811279300001,29.436706543],[104.59130859400001,29.433288574],[104.56011962900001,29.428100586],[104.52111816400001,29.427490234],[104.53228759800001,29.455322266],[104.55529785200001,29.476928711],[104.54010009800001,29.503479004],[104.51428222700001,29.534484863],[104.49627685500002,29.565124512],[104.49792480500001,29.601501465],[104.46209716800001,29.597717285],[104.41528320300002,29.60748291],[104.37268066400001,29.566894531],[104.34112548800002,29.578674316],[104.31652832000002,29.598083496],[104.27532959000001,29.619873047],[104.21191406200002,29.610900879],[104.18572998000002,29.595092773],[104.15551757800002,29.571716309],[104.16247558600001,29.534118652],[104.16369628900001,29.506896973],[104.15747070300002,29.471496582],[104.12127685500002,29.483276367],[104.09613037100002,29.466125488],[104.09967041000002,29.433288574],[104.10131835900002,29.401123047],[104.13452148400002,29.383300781],[104.16931152300002,29.373474121],[104.15612793000001,29.343078613],[104.11669921900001,29.339904785],[104.10327148400002,29.312927246],[104.13470459000001,29.29510498],[104.15148925800001,29.251098633],[104.14868164100001,29.22088623],[104.179504395,29.200317383]]]}}
