{"type":"Feature","id":"bulk-99377448B10139484560393","bbox":[103.80548095700001,30.523498535,105.18450927700002,31.697692871],"properties":{"id":"bulk-99377448B10139484560393","name":"Deyang","nameEn":"Deyang","fullName":"Deyang","level":"city","boundaryRole":"administrative-extent","boundaryQuality":"generalized-source-2020","boundaryYearRepresented":"2020","bounds":[[103.80548095700001,30.523498535],[105.18450927700002,31.697692871]],"center":[104.49499511700002,31.110595703],"centerMethod":"bounding-box midpoint; camera framing only","license":"CC-BY-3.0-IGO","attribution":"geoBoundaries / HDX, China administrative boundaries (2020)","source":{"provider":"geoBoundaries gbHumanitarian / HDX","url":"https://github.com/wmgeolab/geoBoundaries/raw/9469f09/releaseData/gbHumanitarian/CHN/ADM2/geoBoundaries-CHN-ADM2.geojson","metadataUrl":"https://www.geoboundaries.org/api/current/gbHumanitarian/CHN/ADM2/","shapeID":"99377448B10139484560393","shapeName":"Deyang","boundaryID":"CHN-ADM2-99377448","commit":"9469f09"},"geometryCounts":{"coordinates":115,"components":1,"holes":0},"boundaryNotice":"geoBoundaries / HDX 2020 年行政区数据，海岸和边界经过源数据概化，并非当前测绘成果。"},"geometry":{"type":"Polygon","coordinates":[[[104.85809326200001,30.602111816],[104.88671875000001,30.615905762],[104.92150878900001,30.615905762],[104.95489502,30.610473633],[104.972473145,30.582519531],[104.980285645,30.553527832],[105.00268554700001,30.523498535],[105.03448486300002,30.533691406],[105.07751464800002,30.55267334],[105.10668945300002,30.565917969],[105.120910645,30.59588623],[105.13049316400001,30.622497559],[105.15948486300002,30.649475098],[105.17449951200001,30.673706055],[105.17932128900001,30.702270508],[105.18450927700002,30.73449707],[105.14031982400002,30.75390625],[105.10632324200002,30.76348877],[105.070129395,30.770507812],[105.02709960900002,30.780517578],[105.00848388700001,30.810119629],[105.00848388700001,30.841491699],[105.00109863300001,30.868103027],[104.96752929700001,30.878295898],[104.95989990200002,30.908081055],[104.94549560500002,30.939697266],[104.91290283200001,30.953491211],[104.87567138700001,30.960327148],[104.85272216800001,30.988525391],[104.83728027300002,31.014526367],[104.82611084000001,31.04107666],[104.79730224600002,31.076477051],[104.78387451200001,31.10949707],[104.78790283200001,31.140075684],[104.76391601600001,31.165893555],[104.73992919900002,31.190307617],[104.73309326200001,31.230712891],[104.71173095700001,31.261291504],[104.68249511700002,31.281494141],[104.67407226600001,31.317321777],[104.65008544900002,31.341308594],[104.61950683600001,31.351318359],[104.60247802700002,31.37689209],[104.58728027300002,31.402282715],[104.55712890600002,31.416503906],[104.52270507800002,31.450073242],[104.49487304700001,31.395324707],[104.46649169900002,31.378112793],[104.42388916000002,31.374694824],[104.39147949200002,31.372070312],[104.35687255900001,31.389892578],[104.33587646500001,31.415893555],[104.30767822300001,31.437316895],[104.27447509800001,31.460083008],[104.23211669900002,31.485107422],[104.20489502,31.503479004],[104.17633056600002,31.52911377],[104.15789794900002,31.554077148],[104.15350341800001,31.580688477],[104.13970947300001,31.609313965],[104.12548828100002,31.657287598],[104.11828613300001,31.697692871],[104.07189941400001,31.693115234],[104.03552246100001,31.69128418],[104.00427246100001,31.6796875],[103.96472168000001,31.651123047],[103.93609619100002,31.629272461],[103.89587402300002,31.600280762],[103.86291503900001,31.564697266],[103.83508300800001,31.513305664],[103.81567382800002,31.489929199],[103.80548095700001,31.460693359],[103.82330322300001,31.424682617],[103.85412597700001,31.411682129],[103.90289306600002,31.403076172],[103.92651367200001,31.384277344],[103.92907714800002,31.357116699],[103.92047119100002,31.325683594],[103.90887451200001,31.291320801],[103.92309570300002,31.260925293],[103.93988037100002,31.236877441],[103.94787597700001,31.206115723],[103.97851562500001,31.1953125],[104.01312255900001,31.190917969],[104.03070068400001,31.159484863],[104.04327392600001,31.114318848],[104.06207275400001,31.086486816],[104.09527587900001,31.061523437],[104.12347412100002,31.041870117],[104.16912841800001,30.992675781],[104.17407226600001,30.962280273],[104.16369628900001,30.926086426],[104.18090820300002,30.899719238],[104.21771240200002,30.892272949],[104.25988769500002,30.893920898],[104.30010986300002,30.897094727],[104.34631347700001,30.909912109],[104.38128662100002,30.929077148],[104.41290283200001,30.937072754],[104.45330810500002,30.93548584],[104.49987793000001,30.940490723],[104.53350830100001,30.907287598],[104.55108642600001,30.883300781],[104.58630371100001,30.869689941],[104.62750244100002,30.855102539],[104.66351318400001,30.833679199],[104.69732666000002,30.815307617],[104.71807861300002,30.789306641],[104.74810791000002,30.765930176],[104.76568603500002,30.735290527],[104.79351806600002,30.703918457],[104.82330322300001,30.670288086],[104.81768798800002,30.628723145],[104.82647705100001,30.593688965],[104.85809326200001,30.602111816]]]}}
