{"type":"Feature","id":"bulk-99377448B24980840975436","bbox":[109.81530761700002,19.13470459,110.25128173800002,19.603271484],"properties":{"id":"bulk-99377448B24980840975436","name":"Tunchang County","nameEn":"Tunchang County","fullName":"Tunchang County","level":"city","boundaryRole":"administrative-extent","boundaryQuality":"generalized-source-2020","boundaryYearRepresented":"2020","bounds":[[109.81530761700002,19.13470459],[110.25128173800002,19.603271484]],"center":[110.03329467750001,19.368988037],"centerMethod":"bounding-box midpoint; camera framing only","license":"CC-BY-3.0-IGO","attribution":"geoBoundaries / HDX, China administrative boundaries (2020)","source":{"provider":"geoBoundaries gbHumanitarian / HDX","url":"https://github.com/wmgeolab/geoBoundaries/raw/9469f09/releaseData/gbHumanitarian/CHN/ADM2/geoBoundaries-CHN-ADM2.geojson","metadataUrl":"https://www.geoboundaries.org/api/current/gbHumanitarian/CHN/ADM2/","shapeID":"99377448B24980840975436","shapeName":"Tunchang County","boundaryID":"CHN-ADM2-99377448","commit":"9469f09"},"geometryCounts":{"coordinates":267,"components":1,"holes":0},"boundaryNotice":"geoBoundaries / HDX 2020 年行政区数据，海岸和边界经过源数据概化，并非当前测绘成果。"},"geometry":{"type":"Polygon","coordinates":[[[109.86688232400002,19.391296387],[109.86407470700001,19.389526367],[109.85589599600002,19.388305664],[109.85192871100001,19.385681152],[109.84832763700001,19.383728027],[109.84527587900001,19.378112793],[109.84191894500002,19.373474121],[109.83947753900001,19.365905762],[109.83972168000001,19.361877441],[109.83929443400001,19.355285645],[109.83288574200002,19.350524902],[109.82788085900002,19.349487305],[109.82391357400002,19.34588623],[109.81628418000001,19.340515137],[109.82067871100001,19.337890625],[109.82049560500002,19.33392334],[109.81890869100002,19.326477051],[109.82049560500002,19.320678711],[109.81909179700001,19.31427002],[109.81890869100002,19.305480957],[109.81530761700002,19.296081543],[109.81610107400002,19.292480469],[109.82330322300001,19.287109375],[109.82647705100001,19.282470703],[109.83007812500001,19.278686523],[109.83471679700001,19.276489258],[109.84008789100001,19.276306152],[109.84552002,19.277709961],[109.85211181600002,19.277893066],[109.85852050800001,19.276916504],[109.86267089800002,19.274719238],[109.86608886700002,19.272094727],[109.87170410200001,19.265319824],[109.87530517600001,19.259277344],[109.88153076200001,19.252319336],[109.88348388700001,19.249694824],[109.88787841800001,19.244873047],[109.89251709000001,19.241088867],[109.89630127,19.240722656],[109.90728759800001,19.241516113],[109.91333007800002,19.242919922],[109.91967773400002,19.241516113],[109.92651367200001,19.236694336],[109.93389892600001,19.234130859],[109.94110107400002,19.228271484],[109.94671630900001,19.221313477],[109.95031738300001,19.21472168],[109.95092773400002,19.210083008],[109.94989013700001,19.205688477],[109.94927978500002,19.200500488],[109.94970703100002,19.197875977],[109.95367431600002,19.190490723],[109.96929931600002,19.192687988],[109.97332763700001,19.193908691],[109.99090576200001,19.193481445],[109.99310302700002,19.192321777],[109.99749755900001,19.19128418],[110.00292968700002,19.190490723],[110.00872802700002,19.18951416],[110.01428222700001,19.187683105],[110.01928710900002,19.184875488],[110.02252197300001,19.177490234],[110.02368164100001,19.17388916],[110.02911377,19.166870117],[110.03491210900002,19.163330078],[110.03948974600002,19.159729004],[110.04272460900002,19.151672363],[110.04351806600002,19.146484375],[110.04431152300002,19.143920898],[110.046875,19.140075684],[110.05291748000002,19.136291504],[110.06152343700002,19.137084961],[110.06469726600001,19.138122559],[110.07373046900001,19.140319824],[110.08007812500001,19.141723633],[110.09027099600002,19.141906738],[110.097473145,19.141479492],[110.10229492200001,19.140075684],[110.105285645,19.139526367],[110.11090087900001,19.13470459],[110.11370849600002,19.134887695],[110.11572265600002,19.137084961],[110.11907959000001,19.141113281],[110.12152099600002,19.142700195],[110.12408447300001,19.146484375],[110.128723145,19.152282715],[110.13470459000001,19.16192627],[110.13531494100002,19.170288086],[110.13452148400002,19.176696777],[110.13848877,19.183898926],[110.13848877,19.186523437],[110.13690185500002,19.190673828],[110.13592529300001,19.196716309],[110.13769531200002,19.204711914],[110.14147949200002,19.210327148],[110.14648437500001,19.210083008],[110.15112304700001,19.204284668],[110.15911865200002,19.196472168],[110.16632080100001,19.192871094],[110.17492675800001,19.195129395],[110.18572998000002,19.200683594],[110.19787597700001,19.204528809],[110.203125,19.206481934],[110.20751953100002,19.208679199],[110.21392822300001,19.210327148],[110.22131347700001,19.209899902],[110.22351074200002,19.210083008],[110.22210693400001,19.216674805],[110.22070312500001,19.223510742],[110.22308349600002,19.234924316],[110.22070312500001,19.247680664],[110.22070312500001,19.25012207],[110.22308349600002,19.260314941],[110.22387695300002,19.270690918],[110.22412109400001,19.282104492],[110.22668457000002,19.289123535],[110.23052978500002,19.292480469],[110.23791503900001,19.301086426],[110.23651123000002,19.311523437],[110.22967529300001,19.31628418],[110.22088623000002,19.316894531],[110.21209716800001,19.315490723],[110.20330810500002,19.312316895],[110.19488525400001,19.312072754],[110.19091796900001,19.31652832],[110.19110107400002,19.323303223],[110.19152832000002,19.328918457],[110.19311523400002,19.337280273],[110.19592285200001,19.341918945],[110.19873046900001,19.346496582],[110.19732666000002,19.355285645],[110.18988037100002,19.357727051],[110.18292236300002,19.356323242],[110.17028808600001,19.358886719],[110.163879395,19.368713379],[110.15991210900002,19.383117676],[110.15930175800001,19.394470215],[110.15887451200001,19.399902344],[110.15972900400001,19.408691406],[110.15948486300002,19.423278809],[110.16009521500001,19.42791748],[110.16632080100001,19.436279297],[110.17248535200001,19.442077637],[110.17852783200001,19.44708252],[110.18347168000001,19.453491211],[110.18988037100002,19.457702637],[110.19873046900001,19.456115723],[110.20648193400001,19.452087402],[110.21588134800001,19.450683594],[110.22351074200002,19.452514648],[110.22869873000002,19.461486816],[110.22869873000002,19.470275879],[110.22869873000002,19.481506348],[110.23010253900001,19.487915039],[110.23632812500001,19.492126465],[110.24511718700002,19.491516113],[110.25128173800002,19.496520996],[110.25067138700001,19.502075195],[110.24670410200001,19.511291504],[110.23748779300001,19.520874023],[110.23431396500001,19.524475098],[110.22949218700002,19.527526855],[110.22491455100001,19.529296875],[110.21911621100001,19.530090332],[110.21270752,19.530700684],[110.20269775400001,19.532714844],[110.19531250000001,19.537902832],[110.19470214800002,19.545288086],[110.19390869100002,19.55291748],[110.19427490200002,19.56072998],[110.19250488300001,19.566711426],[110.19287109400001,19.573303223],[110.19232177700002,19.584106445],[110.18872070300002,19.593322754],[110.18249511700002,19.59967041],[110.17547607400002,19.603271484],[110.16888427700002,19.601928711],[110.16271972700001,19.597106934],[110.15789794900002,19.591674805],[110.15527343700002,19.584899902],[110.15148925800001,19.577087402],[110.14410400400001,19.572509766],[110.14172363300001,19.571899414],[110.13232421900001,19.564086914],[110.12707519500002,19.563293457],[110.12408447300001,19.563476562],[110.12072753900001,19.56451416],[110.11669921900001,19.564880371],[110.11230468700002,19.563720703],[110.10827636700002,19.562316895],[110.10412597700001,19.559509277],[110.09887695300002,19.550720215],[110.09729003900001,19.545715332],[110.10009765600002,19.539489746],[110.10089111300002,19.536682129],[110.10607910200001,19.537475586],[110.10852050800001,19.532287598],[110.10888671900001,19.521911621],[110.10791015600002,19.522277832],[110.10888671900001,19.517883301],[110.11248779300001,19.513916016],[110.11407470700001,19.510498047],[110.11511230500001,19.504882812],[110.10772705100001,19.500305176],[110.09912109400001,19.498718262],[110.09112548800002,19.499328613],[110.08172607400002,19.499511719],[110.07629394500002,19.498291016],[110.06768798800002,19.493713379],[110.06567382800002,19.485473633],[110.06909179700001,19.478881836],[110.06951904300001,19.473876953],[110.06787109400001,19.469299316],[110.06011962900001,19.464294434],[110.05108642600001,19.460083008],[110.04150390600002,19.457702637],[110.03411865200002,19.459472656],[110.03009033200001,19.464904785],[110.02947998000002,19.470092773],[110.02807617200001,19.477905273],[110.02728271500001,19.480285645],[110.02612304700001,19.48248291],[110.02209472700001,19.485717773],[110.01629638700001,19.487121582],[110.00811767600001,19.486083984],[110.00048828100002,19.48449707],[109.99389648400002,19.484130859],[109.98492431600002,19.485107422],[109.97949218700002,19.486877441],[109.97351074200002,19.489074707],[109.96868896500001,19.49029541],[109.96209716800001,19.490905762],[109.95770263700001,19.491516113],[109.95172119100002,19.490478516],[109.94488525400001,19.488708496],[109.93328857400002,19.487670898],[109.93450927700002,19.48248291],[109.93328857400002,19.473693848],[109.94067382800002,19.467895508],[109.93591308600001,19.466125488],[109.93408203100002,19.462890625],[109.93408203100002,19.457092285],[109.93310546900001,19.448303223],[109.92510986300002,19.443481445],[109.92352294900002,19.43951416],[109.92889404300001,19.438110352],[109.937316895,19.436523437],[109.93908691400001,19.432128906],[109.93652343700002,19.429077148],[109.93072509800001,19.428283691],[109.92510986300002,19.42791748],[109.91229248000002,19.427490234],[109.91290283200001,19.423522949],[109.90789794900002,19.414489746],[109.90112304700001,19.410888672],[109.90411377,19.41027832],[109.91009521500001,19.406311035],[109.90771484400001,19.403076172],[109.90509033200001,19.396484375],[109.90551757800002,19.390686035],[109.90167236300002,19.388671875],[109.89587402300002,19.387512207],[109.89093017600001,19.386291504],[109.88348388700001,19.382873535],[109.87792968700002,19.385498047],[109.870910645,19.389099121],[109.86688232400002,19.391296387]]]}}
