{"type":"Feature","id":"bulk-99377448B73000107564438","bbox":[107.65631103500002,35.330688477,110.52087402300002,37.482299805],"properties":{"id":"bulk-99377448B73000107564438","name":"Yan'an","nameEn":"Yan'an","fullName":"Yan'an","level":"city","boundaryRole":"administrative-extent","boundaryQuality":"generalized-source-2020","boundaryYearRepresented":"2020","bounds":[[107.65631103500002,35.330688477],[110.52087402300002,37.482299805]],"center":[109.08859252900001,36.406494140999996],"centerMethod":"bounding-box midpoint; camera framing only","license":"CC-BY-3.0-IGO","attribution":"geoBoundaries / HDX, China administrative boundaries (2020)","source":{"provider":"geoBoundaries gbHumanitarian / HDX","url":"https://github.com/wmgeolab/geoBoundaries/raw/9469f09/releaseData/gbHumanitarian/CHN/ADM2/geoBoundaries-CHN-ADM2.geojson","metadataUrl":"https://www.geoboundaries.org/api/current/gbHumanitarian/CHN/ADM2/","shapeID":"99377448B73000107564438","shapeName":"Yan'an","boundaryID":"CHN-ADM2-99377448","commit":"9469f09"},"geometryCounts":{"coordinates":250,"components":1,"holes":0},"boundaryNotice":"geoBoundaries / HDX 2020 年行政区数据，海岸和边界经过源数据概化，并非当前测绘成果。"},"geometry":{"type":"Polygon","coordinates":[[[110.34411621100001,36.964904785],[110.30688476600001,36.966125488],[110.27087402300002,36.957519531],[110.24127197300001,36.971313477],[110.21368408200001,36.993103027],[110.16772460900002,36.989318848],[110.14947509800001,36.966491699],[110.11029052700002,36.957885742],[110.078125,36.977478027],[110.02947998000002,37.016906738],[110.01049804700001,37.067321777],[110.01788330100001,37.094299316],[110.00610351600001,37.124694824],[109.96771240200002,37.109680176],[109.96429443400001,37.138671875],[109.96228027300002,37.170715332],[109.94348144500002,37.197875977],[109.98211669900002,37.204711914],[110.02392578100002,37.204528809],[110.01330566400001,37.235473633],[109.98767089800002,37.254516602],[109.94268798800002,37.286315918],[109.90289306600002,37.29510498],[109.88012695300002,37.27331543],[109.83068847700001,37.270874023],[109.78967285200001,37.267700195],[109.80871582000002,37.296875],[109.796875,37.328918457],[109.76232910200001,37.339904785],[109.72308349600002,37.36730957],[109.68487548800002,37.40032959],[109.64471435500002,37.405273437],[109.60272216800001,37.402282715],[109.57049560500002,37.41809082],[109.56188964800002,37.476928711],[109.52752685500002,37.482299805],[109.50128173800002,37.460510254],[109.44891357400002,37.44152832],[109.42633056600002,37.421325684],[109.39007568400001,37.420715332],[109.37451171900001,37.390930176],[109.34649658200001,37.358886719],[109.31268310500002,37.330688477],[109.27508544900002,37.321472168],[109.22991943400001,37.310913086],[109.19287109400001,37.303894043],[109.14312744100002,37.291687012],[109.105285645,37.292480469],[109.05889892600001,37.277282715],[109.01147460900002,37.267700195],[108.96887207000002,37.24230957],[108.95208740200002,37.216491699],[108.92071533200001,37.165710449],[108.85272216800001,37.192077637],[108.85308837900001,37.150085449],[108.83428955100001,37.11328125],[108.79388427700002,37.096923828],[108.745910645,37.062072754],[108.75189209000001,37.028930664],[108.78912353500002,37.013305664],[108.80731201200001,36.986328125],[108.77172851600001,36.960083008],[108.72949218700002,36.960327148],[108.69787597700001,36.983276367],[108.663879395,37.010314941],[108.62207031200002,37.032470703],[108.58068847700001,36.999694824],[108.55187988300001,36.969482422],[108.50048828100002,36.987915039],[108.538879395,37.040710449],[108.53448486300002,37.075927734],[108.52972412100002,37.112121582],[108.52789306600002,37.154907227],[108.52252197300001,37.190673828],[108.48828125000001,37.200683594],[108.45770263700001,37.213500977],[108.46990966800001,37.24407959],[108.45849609400001,37.270690918],[108.43432617200001,37.295898437],[108.41949462900001,37.324890137],[108.40551757800002,37.362121582],[108.37567138700001,37.344299316],[108.35888671900001,37.38671875],[108.31549072300001,37.348693848],[108.27307128900001,37.327880859],[108.23547363300001,37.311706543],[108.19470214800002,37.28112793],[108.20568847700001,37.254089355],[108.23632812500001,37.237121582],[108.26867675800001,37.196289062],[108.23547363300001,37.173095703],[108.17572021500001,37.135681152],[108.15289306600002,37.166320801],[108.12048339800002,37.15612793],[108.10888671900001,37.116516113],[108.08673095700001,37.092895508],[108.04388427700002,37.103881836],[108.00207519500002,37.095703125],[107.953125,37.081115723],[107.91748046900001,37.080078125],[107.88067627,37.099121094],[107.87390136700002,37.131713867],[107.87329101600001,37.16607666],[107.855285645,37.191101074],[107.81469726600001,37.202880859],[107.78527832000002,37.22052002],[107.753723145,37.180480957],[107.73828125000001,37.147705078],[107.69732666000002,37.131530762],[107.66790771500001,37.104309082],[107.69207763700001,37.070678711],[107.68988037100002,37.042724609],[107.65710449200002,37.027526855],[107.67669677700002,37.002685547],[107.71630859400001,36.965698242],[107.68231201200001,36.948913574],[107.703125,36.924926758],[107.72369384800001,36.890075684],[107.71588134800001,36.852111816],[107.68347168000001,36.831726074],[107.65631103500002,36.824279785],[107.71429443400001,36.821289062],[107.81671142600001,36.79309082],[107.85931396500001,36.777893066],[107.87408447300001,36.73651123],[107.88629150400001,36.712890625],[107.90191650400001,36.683105469],[107.91308593700002,36.652282715],[107.96667480500001,36.646118164],[108.02551269500002,36.577087402],[108.11853027300002,36.541503906],[108.14709472700001,36.583496094],[108.19812011700002,36.56628418],[108.23748779300001,36.55291748],[108.32470703100002,36.524108887],[108.38848877,36.463928223],[108.45349121100001,36.451477051],[108.55487060500002,36.425476074],[108.59851074200002,36.414306641],[108.679504395,36.36932373],[108.67407226600001,36.304504395],[108.60931396500001,36.257080078],[108.61047363300001,36.188903809],[108.66308593700002,36.096679687],[108.66711425800001,36.002075195],[108.63189697300001,35.954101562],[108.50469970700001,35.933105469],[108.46429443400001,35.869873047],[108.47149658200001,35.835876465],[108.48168945300002,35.787902832],[108.47387695300002,35.727478027],[108.46990966800001,35.698303223],[108.49871826200001,35.613891602],[108.50811767600001,35.601928711],[108.54467773400002,35.556091309],[108.56829834000001,35.502685547],[108.67388916000002,35.491699219],[108.72271728500002,35.469482422],[108.75872802700002,35.450927734],[108.78149414100001,35.406494141],[108.79650878900001,35.380126953],[108.82727050800001,35.359130859],[108.84368896500001,35.330688477],[108.89312744100002,35.351928711],[108.93109130900001,35.36730957],[108.95269775400001,35.394714355],[108.95770263700001,35.43548584],[108.96490478500002,35.469299316],[108.97912597700001,35.49407959],[109.01708984400001,35.525512695],[109.04827880900001,35.537719727],[109.08007812500001,35.549926758],[109.11468505900001,35.561706543],[109.17211914100001,35.56829834],[109.20410156200002,35.546081543],[109.25769043000001,35.521728516],[109.29388427700002,35.515319824],[109.35430908200001,35.510314941],[109.43688964800002,35.49987793],[109.44970703100002,35.466125488],[109.45208740200002,35.420288086],[109.46368408200001,35.389282227],[109.51727294900002,35.429321289],[109.56030273400002,35.436523437],[109.60809326200001,35.425720215],[109.64447021500001,35.413879395],[109.68927002,35.411499023],[109.77307128900001,35.435119629],[109.81610107400002,35.428527832],[109.87170410200001,35.405517578],[109.921875,35.396911621],[109.97149658200001,35.386291504],[110.04229736300002,35.397705078],[110.10571289100001,35.426330566],[110.14569091800001,35.453918457],[110.16949462900001,35.473083496],[110.19628906200002,35.493286133],[110.22509765600002,35.520080566],[110.24188232400002,35.545288086],[110.22967529300001,35.575683594],[110.20147705100001,35.605895996],[110.16088867200001,35.631286621],[110.12170410200001,35.657287598],[110.11767578100002,35.692077637],[110.15588378900001,35.703918457],[110.22229003900001,35.714477539],[110.28692627,35.715270996],[110.31567382800002,35.731079102],[110.34271240200002,35.767272949],[110.38208007800002,35.78729248],[110.42510986300002,35.805114746],[110.46649169900002,35.820922852],[110.52087402300002,35.835510254],[110.49212646500001,35.844116211],[110.48132324200002,35.84967041],[110.46691894500002,35.869689941],[110.48168945300002,35.955078125],[110.453125,36.02331543],[110.44610595700001,36.04888916],[110.43151855500001,36.068908691],[110.42810058600001,36.094482422],[110.43188476600001,36.128723145],[110.41748046900001,36.171325684],[110.41748046900001,36.182678223],[110.44689941400001,36.236694336],[110.45068359400001,36.267883301],[110.44268798800002,36.285522461],[110.43267822300001,36.304870605],[110.42907714800002,36.32208252],[110.44769287100002,36.375915527],[110.43328857400002,36.407287598],[110.42968750000001,36.424316406],[110.44067382800002,36.444274902],[110.45910644500002,36.466918945],[110.44848632800002,36.526672363],[110.41589355500001,36.595092773],[110.37951660200001,36.626525879],[110.36108398400002,36.640686035],[110.36132812500001,36.657714844],[110.41271972700001,36.680297852],[110.42010498000002,36.708679199],[110.40911865200002,36.72869873],[110.39093017600001,36.745727539],[110.35809326200001,36.760070801],[110.39129638700001,36.80267334],[110.35107421900001,36.856689453],[110.36950683600001,36.885070801],[110.36968994100002,36.902282715],[110.36230468700002,36.930725098],[110.34411621100001,36.964904785]]]}}
