{"type":"Feature","id":"bulk-99377448B12315855375942","bbox":[105.36169433600001,34.869689941,107.80810546900001,35.736877441],"properties":{"id":"bulk-99377448B12315855375942","name":"Pingliang","nameEn":"Pingliang","fullName":"Pingliang","level":"city","boundaryRole":"administrative-extent","boundaryQuality":"generalized-source-2020","boundaryYearRepresented":"2020","bounds":[[105.36169433600001,34.869689941],[107.80810546900001,35.736877441]],"center":[106.58489990250001,35.303283691],"centerMethod":"bounding-box midpoint; camera framing only","license":"CC-BY-3.0-IGO","attribution":"geoBoundaries / HDX, China administrative boundaries (2020)","source":{"provider":"geoBoundaries gbHumanitarian / HDX","url":"https://github.com/wmgeolab/geoBoundaries/raw/9469f09/releaseData/gbHumanitarian/CHN/ADM2/geoBoundaries-CHN-ADM2.geojson","metadataUrl":"https://www.geoboundaries.org/api/current/gbHumanitarian/CHN/ADM2/","shapeID":"99377448B12315855375942","shapeName":"Pingliang","boundaryID":"CHN-ADM2-99377448","commit":"9469f09"},"geometryCounts":{"coordinates":154,"components":1,"holes":0},"boundaryNotice":"geoBoundaries / HDX 2020 年行政区数据，海岸和边界经过源数据概化，并非当前测绘成果。"},"geometry":{"type":"Polygon","coordinates":[[[107.78430175800001,34.971130371],[107.80810546900001,34.989929199],[107.80792236300002,34.998718262],[107.79272460900002,35.007324219],[107.77331543000001,35.019470215],[107.73229980500001,35.044921875],[107.69012451200001,35.114929199],[107.66491699200002,35.173706055],[107.65087890600002,35.200500488],[107.63867187500001,35.223693848],[107.65332031200002,35.223083496],[107.69372558600001,35.258300781],[107.70532226600001,35.318725586],[107.61950683600001,35.451721191],[107.57690429700001,35.454284668],[107.55310058600001,35.482116699],[107.51831054700001,35.486877441],[107.49670410200001,35.458679199],[107.45269775400001,35.480529785],[107.40911865200002,35.491271973],[107.36590576200001,35.485107422],[107.32147216800001,35.489501953],[107.27911377,35.505310059],[107.23992919900002,35.512878418],[107.20507812500001,35.515686035],[107.20330810500002,35.487915039],[107.18127441400001,35.464111328],[107.12292480500001,35.474914551],[107.06909179700001,35.459106445],[107.02532959000001,35.466918945],[106.99810791000002,35.50189209],[106.97131347700001,35.533081055],[106.93988037100002,35.569274902],[106.90972900400001,35.599304199],[106.85992431600002,35.624084473],[106.81671142600001,35.643493652],[106.76049804700001,35.671508789],[106.74670410200001,35.713684082],[106.72070312500001,35.724121094],[106.68109130900001,35.6796875],[106.61047363300001,35.69909668],[106.55969238300001,35.726928711],[106.44769287100002,35.736877441],[106.38549804700001,35.688720703],[106.41052246100001,35.614929199],[106.43231201200001,35.559692383],[106.41687011700002,35.505126953],[106.45532226600001,35.449707031],[106.46228027300002,35.396484375],[106.46392822300001,35.384521484],[106.44592285200001,35.314880371],[106.42309570300002,35.249694824],[106.37188720700001,35.220092773],[106.328125,35.241516113],[106.28387451200001,35.302307129],[106.25048828100002,35.369506836],[106.21649169900002,35.404724121],[106.18212890600002,35.412109375],[106.15972900400001,35.396728516],[106.13372802700002,35.363098145],[106.11090087900001,35.354919434],[106.07891845700001,35.394287109],[106.07708740200002,35.430725098],[106.05810546900001,35.4375],[106.01031494100002,35.421325684],[105.96691894500002,35.408874512],[105.93688964800002,35.408081055],[105.92150878900001,35.414672852],[105.92651367200001,35.4296875],[105.96807861300002,35.431091309],[106.00671386700002,35.446899414],[106.03369140600002,35.462280273],[106.03790283200001,35.469726562],[106.02349853500002,35.480285645],[105.98388671900001,35.486328125],[105.96350097700001,35.518676758],[105.93530273400002,35.525085449],[105.90747070300002,35.524108887],[105.88751220700001,35.508911133],[105.87908935500002,35.49407959],[105.86492919900002,35.497070312],[105.85888671900001,35.522521973],[105.84088134800001,35.554870605],[105.81347656200002,35.588928223],[105.78967285200001,35.608520508],[105.36169433600001,35.492126465],[105.38409423800002,35.455078125],[105.40570068400001,35.433898926],[105.44067382800002,35.376525879],[105.47369384800001,35.354675293],[105.51171875000001,35.352905273],[105.54229736300002,35.325073242],[105.56127929700001,35.296508789],[105.56951904300001,35.265319824],[105.56652832000002,35.232727051],[105.58367919900002,35.197692871],[105.63110351600001,35.149475098],[105.66027832000002,35.116699219],[105.68951416000002,35.098510742],[105.72448730500001,35.100708008],[105.76092529300001,35.100524902],[105.79907226600001,35.075073242],[105.84991455100001,35.07208252],[105.89172363300001,35.072875977],[105.94287109400001,35.080505371],[106.00531005900001,35.085083008],[106.05572509800001,35.082519531],[106.09411621100001,35.084899902],[106.13647460900002,35.105285645],[106.17291259800001,35.143310547],[106.203125,35.155273437],[106.24890136700002,35.163879395],[106.28747558600001,35.157470703],[106.31927490200002,35.135070801],[106.35168457000002,35.121520996],[106.37310791000002,35.093505859],[106.42327880900001,35.08770752],[106.45727539100001,35.0703125],[106.48608398400002,35.041687012],[106.52307128900001,35.065673828],[106.55108642600001,35.061279297],[106.67028808600001,35.067077637],[106.75128173800002,35.081726074],[106.82373046900001,35.083496094],[106.88372802700002,35.09967041],[106.97570800800001,35.05267334],[107.03729248000002,35.015075684],[107.05792236300002,35.002502441],[107.04949951200001,34.959899902],[107.07489013700001,34.938293457],[107.11767578100002,34.923278809],[107.11828613300001,34.918701172],[107.12371826200001,34.881896973],[107.20428466800001,34.869689941],[107.23608398400002,34.916320801],[107.36108398400002,34.903076172],[107.421691895,34.898681641],[107.46429443400001,34.887878418],[107.47650146500001,34.893127441],[107.47607421900001,34.901916504],[107.47308349600002,34.921508789],[107.47827148400002,34.949279785],[107.48931884800001,34.956298828],[107.52270507800002,34.957092285],[107.56347656200002,34.960693359],[107.57830810500002,34.960083008],[107.58850097700001,34.952270508],[107.58551025400001,34.930725098],[107.59307861300002,34.922912598],[107.60192871100001,34.924072266],[107.64349365200002,34.94152832],[107.68408203100002,34.95111084],[107.73327636700002,34.959899902],[107.78430175800001,34.971130371]]]}}
