{"type":"Feature","id":"bulk-99377448B82278088643894","bbox":[121.20330810500002,50.837280273,127.11108398400002,53.531494141],"properties":{"id":"bulk-99377448B82278088643894","name":"Daxinganling Prefecture","nameEn":"Daxinganling Prefecture","fullName":"Daxinganling Prefecture","level":"city","boundaryRole":"administrative-extent","boundaryQuality":"generalized-source-2020","boundaryYearRepresented":"2020","bounds":[[121.20330810500002,50.837280273],[127.11108398400002,53.531494141]],"center":[124.15719604450001,52.184387207],"centerMethod":"bounding-box midpoint; camera framing only","license":"CC-BY-3.0-IGO","attribution":"geoBoundaries / HDX, China administrative boundaries (2020)","source":{"provider":"geoBoundaries gbHumanitarian / HDX","url":"https://github.com/wmgeolab/geoBoundaries/raw/9469f09/releaseData/gbHumanitarian/CHN/ADM2/geoBoundaries-CHN-ADM2.geojson","metadataUrl":"https://www.geoboundaries.org/api/current/gbHumanitarian/CHN/ADM2/","shapeID":"99377448B82278088643894","shapeName":"Daxinganling Prefecture","boundaryID":"CHN-ADM2-99377448","commit":"9469f09"},"geometryCounts":{"coordinates":417,"components":1,"holes":0},"boundaryNotice":"geoBoundaries / HDX 2020 年行政区数据，海岸和边界经过源数据概化，并非当前测绘成果。"},"geometry":{"type":"Polygon","coordinates":[[[125.98510742200001,50.946472168],[126.08532714800002,50.917114258],[126.12731933600001,50.919494629],[126.17968750000001,50.921508789],[126.22631835900002,50.92767334],[126.26910400400001,50.904296875],[126.28167724600002,50.869689941],[126.29772949200002,50.837280273],[126.34130859400001,50.83850097700001],[126.43572998000002,50.857910156],[126.50451660200001,50.85748291],[126.55407714800002,50.859313965],[126.62347412100002,50.861694336],[126.671875,50.86389160200001],[126.72509765600002,50.866088867],[126.78808593700002,50.870483398],[126.84271240200002,50.874694824],[126.88928222700001,50.878112793],[126.95971679700001,50.88067627],[127.00512695300002,50.878112793],[127.11108398400002,50.878723145],[127.08612060500002,50.895507812],[127.03149414100001,50.929077148],[126.97290039100001,50.958129883],[126.93109130900001,50.991088867],[126.91772460900002,51.001098633],[126.87530517600001,51.037902832],[126.870910645,51.060119629],[126.85552978500002,51.118286133],[126.84613037100002,51.144104004],[126.86010742200001,51.165100098],[126.88970947300001,51.196899414],[126.89050293000001,51.19787597700001],[126.89031982400002,51.199279785],[126.88952636700002,51.205322266],[126.88952636700002,51.209472656],[126.89050293000001,51.21307373],[126.89709472700001,51.22131347700001],[126.90771484400001,51.234680176],[126.91009521500001,51.242492676],[126.91650390600002,51.248291016],[126.91827392600001,51.253112793],[126.91192627,51.272888184],[126.89868164100001,51.299926758],[126.87567138700001,51.296508789],[126.89031982400002,51.286682129],[126.90130615200002,51.273681641],[126.90472412100002,51.264526367],[126.90490722700001,51.256530762],[126.90148925800001,51.250671387],[126.89129638700001,51.24810791],[126.87109375000001,51.245727539],[126.86987304700001,51.245727539],[126.86987304700001,51.237670898],[126.86590576200001,51.222106934],[126.84490966800001,51.218688965],[126.79809570300002,51.233276367],[126.76507568400001,51.262512207],[126.74749755900001,51.284301758],[126.77447509800001,51.311523437],[126.80468750000001,51.32611084],[126.80468750000001,51.326293945],[126.80950927700002,51.334716797],[126.81610107400002,51.33972168],[126.82592773400002,51.343505859],[126.83489990200002,51.345092773],[126.84448242200001,51.344482422],[126.88031005900001,51.358703613],[126.83929443400001,51.384887695],[126.78332519500002,51.397705078],[126.73590087900001,51.41607666],[126.77410888700001,51.510314941],[126.69628906200002,51.534912109],[126.64831543000001,51.562683105],[126.66027832000002,51.627685547],[126.67071533200001,51.686279297],[126.61950683600001,51.707885742],[126.56732177700002,51.742919922],[126.54150390600002,51.77331543],[126.50891113300001,51.806091309],[126.48730468700002,51.853088379],[126.45989990200002,51.872070312],[126.42010498000002,51.893310547],[126.40808105500001,51.909729004],[126.40307617200001,51.942504883],[126.39849853500002,51.976318359],[126.38067627,51.999084473],[126.4375,52.017883301],[126.43847656200002,52.02532959],[126.44372558600001,52.030700684],[126.45410156200002,52.037475586],[126.46392822300001,52.037902832],[126.46710205100001,52.03771972700001],[126.48468017600001,52.12951660200001],[126.44128418000001,52.131286621],[126.37188720700001,52.14630127],[126.32708740200002,52.153686523],[126.27410888700001,52.169677734],[126.25109863300001,52.18927002],[126.24792480500001,52.20568847700001],[126.29309082000002,52.22131347700001],[126.29370117200001,52.223876953],[126.29791259800001,52.232727051],[126.30609130900001,52.239929199],[126.31750488300001,52.24810791],[126.34448242200001,52.262512207],[126.34527587900001,52.262695312],[126.31372070300002,52.271118164],[126.24328613300001,52.294677734],[126.26287841800001,52.33251953100001],[126.28570556600002,52.359680176],[126.23388671900001,52.410888672],[126.16711425800001,52.437683105],[126.12988281200002,52.459716797],[126.14910888700001,52.495727539],[126.06152343700002,52.558105469],[126.01867675800001,52.545288086],[125.97412109400001,52.537475586],[125.94708252,52.546875],[125.92132568400001,52.580078125],[125.90472412100002,52.602722168],[125.91229248000002,52.621887207],[125.95507812500001,52.639892578],[125.95428466800001,52.646911621],[125.95751953100002,52.657104492],[125.96307373000002,52.664916992],[125.97052002,52.671325684],[125.98529052700002,52.676330566],[125.99188232400002,52.678710937],[125.99468994100002,52.678283691],[125.99627685500002,52.67791748],[125.99169921900001,52.688293457],[126.02471923800002,52.757324219],[125.97570800800001,52.74407959],[125.91992187500001,52.738525391],[125.77368164100001,52.860107422],[125.75750732400002,52.860717773],[125.69848632800002,52.848510742],[125.65167236300002,52.840270996],[125.64007568400001,52.83807373],[125.61370849600002,52.838928223],[125.59191894500002,52.846679687],[125.58489990200002,52.860900879],[125.60888671900001,52.881286621],[125.63891601600001,52.907897949],[125.663879395,52.926513672],[125.67309570300002,52.952270508],[125.55090332000002,53.035095215],[125.46850585900002,53.018310547],[125.44287109400001,53.041870117],[125.38671875000001,53.067504883],[125.31628418000001,53.088684082],[125.25909423800002,53.110473633],[125.20410156200002,53.134887695],[125.16711425800001,53.154724121],[125.07751464800002,53.164306641],[124.99353027300002,53.179077148],[124.91711425800001,53.169128418],[124.88568115200002,53.142272949],[124.89129638700001,53.131103516],[124.89752197300001,53.123291016],[124.89929199200002,53.114685059],[124.89672851600001,53.10791015600001],[124.89007568400001,53.103088379],[124.88647460900002,53.10168457],[124.87731933600001,53.09967041],[124.86968994100002,53.100708008],[124.86712646500001,53.102722168],[124.84930419900002,53.078125],[124.81988525400001,53.07232666],[124.78247070300002,53.08447265600001],[124.74249267600001,53.096923828],[124.70672607400002,53.115478516],[124.66650390600002,53.134521484],[124.63250732400002,53.161499023],[124.59509277300002,53.17248535200001],[124.53051757800002,53.161499023],[124.44030761700002,53.162109375],[124.39648437500001,53.165100098],[124.347473145,53.225891113],[124.30529785200001,53.269897461],[124.24847412100002,53.322692871],[124.21447753900001,53.338317871],[124.17547607400002,53.35607910200001],[124.14947509800001,53.353515625],[124.14569091800001,53.349304199],[124.13891601600001,53.344909668],[124.13269043000001,53.343688965],[124.11871337900001,53.34387207],[124.11090087900001,53.345703125],[124.10510253900001,53.348693848],[124.10491943400001,53.349121094],[124.07409668000001,53.34588623],[123.99810791000002,53.35168457],[123.94250488300001,53.383483887],[123.88372802700002,53.428710937],[123.82550048800002,53.45489502],[123.74450683600001,53.465698242],[123.68829345700001,53.48107910200001],[123.65051269500002,53.507324219],[123.61492919900002,53.521911621],[123.56591796900001,53.471679687],[123.54168701200001,53.49609375],[123.53729248000002,53.495727539],[123.53167724600002,53.496887207],[123.52947998000002,53.503112793],[123.52990722700001,53.507324219],[123.53009033200001,53.50769043],[123.50689697300001,53.53112793],[123.49230957000002,53.51611328100001],[123.49951171900001,53.508483887],[123.50170898400002,53.504272461],[123.49810791000002,53.49987793],[123.49487304700001,53.49749755900001],[123.48968505900001,53.495910645],[123.48187255900001,53.496887207],[123.47650146500001,53.49987793],[123.46148681600002,53.484313965],[123.33929443400001,53.518676758],[123.23187255900001,53.531494141],[123.11730957000002,53.47131347700001],[122.98730468700002,53.48187255900001],[122.92791748000002,53.459106445],[122.86511230500001,53.44128418],[122.79748535200001,53.421081543],[122.75469970700001,53.42248535200001],[122.65368652300002,53.4296875],[122.55511474600002,53.43371582],[122.44610595700001,53.428894043],[122.37988281200002,53.41607666],[122.35809326200001,53.433898926],[122.30548095700001,53.46270752],[122.13647460900002,53.446899414],[122.13287353500002,53.442077637],[122.12652587900001,53.434875488],[122.11767578100002,53.42767334],[122.10748291000002,53.422729492],[122.09771728500002,53.420288086],[122.08947753900001,53.419494629],[122.07891845700001,53.41809082],[122.07110595700001,53.417480469],[122.06988525400001,53.417480469],[122.04827880900001,53.401489258],[122.00390625000001,53.384887695],[121.94787597700001,53.387084961],[121.90087890600002,53.397277832],[121.84387207000002,53.401489258],[121.74530029300001,53.379272461],[121.66668701200001,53.35369873],[121.59088134800001,53.333496094],[121.52532959000001,53.31451416],[121.46527099600002,53.317504883],[121.47851562500001,53.298278809],[121.51751709000001,53.256103516],[121.55609130900001,53.227905273],[121.60748291000002,53.21472168],[121.61950683600001,53.177124023],[121.63989257800002,53.145690918],[121.68109130900001,53.12487793],[121.73510742200001,53.102905273],[121.76892089800002,53.058288574],[121.80187988300001,53.032287598],[121.80310058600001,53.015319824],[121.78350830100001,52.987915039],[121.77648925800001,52.981872559],[121.74169921900001,52.964904785],[121.70190429700001,52.953918457],[121.67510986300002,52.926086426],[121.66009521500001,52.891723633],[121.62811279300001,52.842712402],[121.60070800800001,52.796325684],[121.56988525400001,52.75390625],[121.52832031200002,52.723327637],[121.47467041000002,52.697509766],[121.44287109400001,52.681274414],[121.40887451200001,52.644714355],[121.35552978500002,52.603881836],[121.30133056600002,52.573486328],[121.24468994100002,52.538513184],[121.20330810500002,52.507080078],[121.20648193400001,52.501281738],[121.21667480500001,52.493896484],[121.26129150400001,52.50189209],[121.29992675800001,52.516723633],[121.33068847700001,52.512512207],[121.36029052700002,52.49267578100001],[121.41192627,52.443115234],[121.44927978500002,52.419921875],[121.52227783200001,52.402282715],[121.64367675800001,52.391296387],[121.71508789100001,52.381103516],[121.72210693400001,52.371276855],[121.72790527300002,52.362915039],[121.74468994100002,52.338684082],[121.78631591800001,52.276123047],[121.81127929700001,52.249084473],[121.85888671900001,52.227478027],[121.93572998000002,52.231872559],[121.99768066400001,52.256713867],[122.02288818400001,52.284484863],[122.046875,52.304870605],[122.06530761700002,52.341674805],[122.10247802700002,52.379699707],[122.12908935500002,52.428894043],[122.14929199200002,52.45892334],[122.17828369100002,52.468688965],[122.203125,52.454711914],[122.26770019500002,52.446716309],[122.29650878900001,52.43212890600001],[122.33752441400001,52.399108887],[122.34948730500001,52.327270508],[122.41308593700002,52.329528809],[122.42108154300001,52.296325684],[122.40069580100001,52.264526367],[122.44909668000001,52.233520508],[122.51690673800002,52.250305176],[122.57568359400001,52.24267578100001],[122.64630127,52.24432373],[122.72131347700001,52.246276855],[122.73089599600002,52.236694336],[122.75952148400002,52.207885742],[122.75469970700001,52.169128418],[122.69268798800002,52.145507812],[122.63732910200001,52.12689209],[122.62689209000001,52.110107422],[122.67230224600002,52.056884766],[122.69390869100002,51.985473633],[122.69470214800002,51.946289062],[122.70770263700001,51.904296875],[122.71691894500002,51.87109375],[122.73468017600001,51.845275879],[122.75671386700002,51.8203125],[122.77972412100002,51.778503418],[122.78228759800001,51.748474121],[122.78149414100001,51.715087891],[122.81372070300002,51.677307129],[122.86968994100002,51.629882812],[122.90051269500002,51.577880859],[122.91412353500002,51.547119141],[122.93048095700001,51.508728027],[122.92449951200001,51.46472168],[122.90930175800001,51.430725098],[122.90887451200001,51.412475586],[122.90850830100001,51.377075195],[122.95172119100002,51.35949707],[122.99291992200001,51.346679687],[123.00292968700002,51.332885742],[123.02551269500002,51.297729492],[123.05712890600002,51.265319824],[123.11450195300002,51.25567627],[123.15069580100001,51.280273437],[123.20410156200002,51.251525879],[123.24047851600001,51.215087891],[123.31311035200001,51.204101562],[123.40411377,51.241271973],[123.51727294900002,51.274719238],[123.578125,51.32208252],[123.61230468700002,51.343078613],[123.63787841800001,51.397277832],[123.67291259800001,51.408874512],[123.78192138700001,51.348083496],[123.84252929700001,51.326721191],[123.86853027300002,51.309509277],[123.91290283200001,51.29888916],[123.96411132800002,51.286682129],[123.99652099600002,51.305114746],[124.06567382800002,51.278320312],[124.08831787100002,51.31048584],[124.14251709000001,51.337890625],[124.20111084000001,51.334289551],[124.25567627,51.292907715],[124.29028320300002,51.275695801],[124.35968017600001,51.276489258],[124.40087890600002,51.282714844],[124.39727783200001,51.323913574],[124.43652343700002,51.372070312],[124.49627685500002,51.37951660200001],[124.53851318400001,51.353088379],[124.60388183600001,51.322692871],[124.65728759800001,51.3203125],[124.67431640600002,51.351074219],[124.71527099600002,51.381286621],[124.77050781200002,51.387084961],[124.81671142600001,51.403076172],[124.85369873000002,51.43371582],[124.89508056600002,51.44732666],[124.90747070300002,51.463684082],[124.89990234400001,51.480285645],[124.88909912100002,51.494506836],[124.91912841800001,51.520324707],[124.96728515600002,51.537902832],[125.01428222700001,51.562072754],[125.02209472700001,51.595703125],[125.02893066400001,51.600524902],[125.03912353500002,51.644104004],[125.06610107400002,51.674072266],[125.12670898400002,51.652099609],[125.14770507800002,51.638916016],[125.20147705100001,51.62512207],[125.25048828100002,51.608886719],[125.29028320300002,51.602294922],[125.32232666000002,51.569091797],[125.35968017600001,51.553283691],[125.41967773400002,51.518310547],[125.46710205100001,51.484680176],[125.51330566400001,51.445495605],[125.61090087900001,51.360900879],[125.68048095700001,51.249694824],[125.72332763700001,51.193115234],[125.76007080100001,51.181884766],[125.796691895,51.122314453],[125.81970214800002,51.101318359],[125.88488769500002,51.090698242],[125.91430664100001,51.095092773],[125.92852783200001,51.037902832],[125.98730468700002,51.00189209],[125.98510742200001,50.946472168]]]}}
