{"type":"Feature","id":"bulk-99377448B42731390639383","bbox":[103.75512695300002,30.72668457,105.72747802700002,33.042297363],"properties":{"id":"bulk-99377448B42731390639383","name":"Mianyang","nameEn":"Mianyang","fullName":"Mianyang","level":"city","boundaryRole":"administrative-extent","boundaryQuality":"generalized-source-2020","boundaryYearRepresented":"2020","bounds":[[103.75512695300002,30.72668457],[105.72747802700002,33.042297363]],"center":[104.74130249000001,31.884490966500003],"centerMethod":"bounding-box midpoint; camera framing only","license":"CC-BY-3.0-IGO","attribution":"geoBoundaries / HDX, China administrative boundaries (2020)","source":{"provider":"geoBoundaries gbHumanitarian / HDX","url":"https://github.com/wmgeolab/geoBoundaries/raw/9469f09/releaseData/gbHumanitarian/CHN/ADM2/geoBoundaries-CHN-ADM2.geojson","metadataUrl":"https://www.geoboundaries.org/api/current/gbHumanitarian/CHN/ADM2/","shapeID":"99377448B42731390639383","shapeName":"Mianyang","boundaryID":"CHN-ADM2-99377448","commit":"9469f09"},"geometryCounts":{"coordinates":252,"components":1,"holes":0},"boundaryNotice":"geoBoundaries / HDX 2020 年行政区数据，海岸和边界经过源数据概化，并非当前测绘成果。"},"geometry":{"type":"Polygon","coordinates":[[[105.18450927700002,30.73449707],[105.21850585900002,30.72668457],[105.25268554700001,30.730285645],[105.28308105500001,30.752319336],[105.28051757800002,30.783081055],[105.26287841800001,30.819885254],[105.24389648400002,30.848083496],[105.22290039100001,30.872680664],[105.20227050800001,30.897277832],[105.20709228500002,30.951293945],[105.20288085900002,30.983886719],[105.19268798800002,31.021118164],[105.19427490200002,31.05291748],[105.21429443400001,31.085876465],[105.24810791000002,31.09967041],[105.29730224600002,31.10748291],[105.29528808600001,31.139282227],[105.33752441400001,31.15411377],[105.38012695300002,31.151672363],[105.39532470700001,31.126525879],[105.41107177700002,31.098083496],[105.43969726600001,31.074523926],[105.48107910200001,31.065307617],[105.51208496100001,31.050292969],[105.54211425800001,31.029907227],[105.57489013700001,31.006286621],[105.61407470700001,30.999694824],[105.64868164100001,30.993896484],[105.68768310500002,31.006286621],[105.72570800800001,31.02532959],[105.72747802700002,31.064880371],[105.72009277300002,31.105102539],[105.72387695300002,31.137695312],[105.70190429700001,31.159118652],[105.68347168000001,31.186706543],[105.67712402300002,31.231689453],[105.65612793000001,31.256896973],[105.63452148400002,31.279724121],[105.60388183600001,31.307128906],[105.63189697300001,31.328491211],[105.65393066400001,31.357299805],[105.64068603500002,31.389282227],[105.60772705100001,31.385314941],[105.56671142600001,31.376281738],[105.53430175800001,31.381103516],[105.52008056600002,31.407470703],[105.50732421900001,31.439697266],[105.45788574200002,31.503723145],[105.45568847700001,31.533508301],[105.42028808600001,31.553527832],[105.40710449200002,31.579528809],[105.37890625000001,31.599121094],[105.35388183600001,31.633300781],[105.34808349600002,31.665893555],[105.347473145,31.699890137],[105.31311035200001,31.704528809],[105.28607177700002,31.721313477],[105.30328369100002,31.74987793],[105.30548095700001,31.785095215],[105.26452636700002,31.794128418],[105.25128173800002,31.8203125],[105.23150634800001,31.846313477],[105.22888183600001,31.879272461],[105.20849609400001,31.903076172],[105.21289062500001,31.933898926],[105.20208740200002,31.967712402],[105.18847656200002,32.009521484],[105.22290039100001,32.030090332],[105.26312255900001,32.036499023],[105.26348877,32.073730469],[105.28607177700002,32.120483398],[105.30627441400001,32.142272949],[105.26593017600001,32.158325195],[105.27532959000001,32.200317383],[105.27209472700001,32.234313965],[105.27368164100001,32.26550293],[105.25610351600001,32.293273926],[105.24609375000001,32.319274902],[105.17590332000002,32.31628418],[105.14093017600001,32.31451416],[105.10229492200001,32.307678223],[105.07672119100002,32.287109375],[105.03387451200001,32.269104004],[104.98852539100001,32.257873535],[104.98352050800001,32.293273926],[104.95788574200002,32.329284668],[104.92767334000001,32.354492187],[104.88208007800002,32.369506836],[104.84490966800001,32.368530273],[104.80950927700002,32.380493164],[104.77990722700001,32.404296875],[104.76727294900002,32.440490723],[104.76947021500001,32.481323242],[104.77148437500001,32.513916016],[104.75128173800002,32.542724609],[104.71948242200001,32.558288574],[104.69067382800002,32.572875977],[104.66149902300002,32.587097168],[104.64508056600002,32.622314453],[104.65631103500002,32.676879883],[104.62792968700002,32.704101562],[104.58508300800001,32.726318359],[104.48748779300001,32.743286133],[104.41333007800002,32.782470703],[104.31311035200001,32.83392334],[104.29248046900001,32.892272949],[104.24407959000001,32.894897461],[104.21112060500002,32.911682129],[104.171691895,32.938903809],[104.15148925800001,32.961486816],[104.11492919900002,32.99987793],[104.07928466800001,33.00970459],[104.04589843700002,33.017272949],[104.01892089800002,33.042297363],[103.98010253900001,33.035888672],[103.98547363300001,33.002502441],[103.98052978500002,32.973083496],[103.97290039100001,32.937927246],[103.97790527300002,32.88848877],[103.99267578100002,32.862121582],[103.96868896500001,32.834106445],[103.99548339800002,32.814086914],[104.03369140600002,32.824523926],[104.06072998000002,32.840698242],[104.09527587900001,32.844482422],[104.10809326200001,32.818725586],[104.13970947300001,32.796875],[104.15069580100001,32.757080078],[104.13970947300001,32.725708008],[104.16448974600002,32.696716309],[104.18408203100002,32.66027832],[104.179504395,32.628112793],[104.17669677700002,32.601318359],[104.17871093700002,32.56652832],[104.17590332000002,32.537902832],[104.17547607400002,32.49432373],[104.16131591800001,32.465087891],[104.11108398400002,32.468078613],[104.12951660200001,32.498474121],[104.12628173800002,32.532897949],[104.10552978500002,32.555908203],[104.08569335900002,32.58807373],[104.07409668000001,32.613525391],[104.04748535200001,32.645080566],[104.01208496100001,32.65032959],[103.97650146500001,32.649108887],[103.94427490200002,32.644287109],[103.89532470700001,32.634094238],[103.85131835900002,32.607727051],[103.84991455100001,32.571289062],[103.87371826200001,32.55267334],[103.89312744100002,32.525085449],[103.91510009800001,32.498474121],[103.920898437,32.47052002],[103.91607666000002,32.434082031],[103.90728759800001,32.392883301],[103.90930175800001,32.350280762],[103.92828369100002,32.328674316],[103.95727539100001,32.312316895],[103.99731445300002,32.298522949],[104.01751709000001,32.271728516],[104.03967285200001,32.25012207],[104.078125,32.230712891],[104.12072753900001,32.225708008],[104.15368652300002,32.240112305],[104.16748046900001,32.265319824],[104.18328857400002,32.295898437],[104.21807861300002,32.301086426],[104.21948242200001,32.270874023],[104.23468017600001,32.246887207],[104.25067138700001,32.218688965],[104.21447753900001,32.208679199],[104.18908691400001,32.191711426],[104.17828369100002,32.159729004],[104.14788818400001,32.14630127],[104.10607910200001,32.127075195],[104.06970214800002,32.135925293],[104.03448486300002,32.127685547],[104.00610351600001,32.142272949],[103.96807861300002,32.152099609],[103.93670654300001,32.160095215],[103.88067627,32.162109375],[103.85668945300002,32.138122559],[103.81451416000002,32.134887695],[103.83111572300001,32.097106934],[103.83050537100002,32.0546875],[103.80212402300002,32.037109375],[103.77612304700001,32.013916016],[103.75512695300002,31.98449707],[103.75732421900001,31.952697754],[103.79168701200001,31.937927246],[103.82867431600002,31.9375],[103.86389160200001,31.92590332],[103.90130615200002,31.930297852],[103.94250488300001,31.932128906],[103.96173095700001,31.905517578],[103.96710205100001,31.874328613],[104.00067138700001,31.859924316],[104.04248046900001,31.843322754],[104.07550048800002,31.832519531],[104.11651611300002,31.822875977],[104.13610839800002,31.797912598],[104.16992187500001,31.775085449],[104.17687988300001,31.739929199],[104.15411377,31.717712402],[104.11828613300001,31.697692871],[104.12548828100002,31.657287598],[104.13970947300001,31.609313965],[104.15350341800001,31.580688477],[104.15789794900002,31.554077148],[104.17633056600002,31.52911377],[104.20489502,31.503479004],[104.23211669900002,31.485107422],[104.27447509800001,31.460083008],[104.30767822300001,31.437316895],[104.33587646500001,31.415893555],[104.35687255900001,31.389892578],[104.39147949200002,31.372070312],[104.42388916000002,31.374694824],[104.46649169900002,31.378112793],[104.49487304700001,31.395324707],[104.52270507800002,31.450073242],[104.55712890600002,31.416503906],[104.58728027300002,31.402282715],[104.60247802700002,31.37689209],[104.61950683600001,31.351318359],[104.65008544900002,31.341308594],[104.67407226600001,31.317321777],[104.68249511700002,31.281494141],[104.71173095700001,31.261291504],[104.73309326200001,31.230712891],[104.73992919900002,31.190307617],[104.76391601600001,31.165893555],[104.78790283200001,31.140075684],[104.78387451200001,31.10949707],[104.79730224600002,31.076477051],[104.82611084000001,31.04107666],[104.83728027300002,31.014526367],[104.85272216800001,30.988525391],[104.87567138700001,30.960327148],[104.91290283200001,30.953491211],[104.94549560500002,30.939697266],[104.95989990200002,30.908081055],[104.96752929700001,30.878295898],[105.00109863300001,30.868103027],[105.00848388700001,30.841491699],[105.00848388700001,30.810119629],[105.02709960900002,30.780517578],[105.070129395,30.770507812],[105.10632324200002,30.76348877],[105.14031982400002,30.75390625],[105.18450927700002,30.73449707]]]}}
