{"type":"Feature","id":"bulk-99377448B35106486019230","bbox":[115.17871093700002,37.080688477,116.51147460900002,38.350708008],"properties":{"id":"bulk-99377448B35106486019230","name":"Hengshui","nameEn":"Hengshui","fullName":"Hengshui","level":"city","boundaryRole":"administrative-extent","boundaryQuality":"generalized-source-2020","boundaryYearRepresented":"2020","bounds":[[115.17871093700002,37.080688477],[116.51147460900002,38.350708008]],"center":[115.84509277300002,37.7156982425],"centerMethod":"bounding-box midpoint; camera framing only","license":"CC-BY-3.0-IGO","attribution":"geoBoundaries / HDX, China administrative boundaries (2020)","source":{"provider":"geoBoundaries gbHumanitarian / HDX","url":"https://github.com/wmgeolab/geoBoundaries/raw/9469f09/releaseData/gbHumanitarian/CHN/ADM2/geoBoundaries-CHN-ADM2.geojson","metadataUrl":"https://www.geoboundaries.org/api/current/gbHumanitarian/CHN/ADM2/","shapeID":"99377448B35106486019230","shapeName":"Hengshui","boundaryID":"CHN-ADM2-99377448","commit":"9469f09"},"geometryCounts":{"coordinates":110,"components":1,"holes":0},"boundaryNotice":"geoBoundaries / HDX 2020 年行政区数据，海岸和边界经过源数据概化，并非当前测绘成果。"},"geometry":{"type":"Polygon","coordinates":[[[115.32891845700001,38.248901367],[115.33367919900002,38.190490723],[115.33831787100002,38.143920898],[115.34613037100002,38.117919922],[115.37329101600001,38.093078613],[115.41247558600001,38.086914062],[115.445129395,38.102478027],[115.46527099600002,38.050720215],[115.45050048800002,38.016723633],[115.42730712900001,37.994506836],[115.40429687500001,37.965881348],[115.39428710900002,37.936279297],[115.37951660200001,37.893493652],[115.36267089800002,37.863708496],[115.33911132800002,37.834716797],[115.31188964800002,37.804077148],[115.30908203100002,37.77532959],[115.30792236300002,37.737304687],[115.29309082000002,37.707519531],[115.25872802700002,37.67791748],[115.22009277300002,37.643310547],[115.18627929700001,37.617126465],[115.17871093700002,37.584106445],[115.20489502,37.55670166],[115.24090576200001,37.551513672],[115.28808593700002,37.541320801],[115.34552002,37.531921387],[115.38952636700002,37.519104004],[115.41870117200001,37.499694824],[115.41632080100001,37.463317871],[115.38909912100002,37.444519043],[115.37890625000001,37.407104492],[115.40087890600002,37.367919922],[115.44927978500002,37.346496582],[115.50708007800002,37.319091797],[115.56890869100002,37.334289551],[115.57971191400001,37.309082031],[115.613098145,37.263122559],[115.64367675800001,37.235717773],[115.68072509800001,37.210327148],[115.73388671900001,37.211730957],[115.75207519500002,37.170288086],[115.78167724600002,37.137878418],[115.81268310500002,37.110900879],[115.84191894500002,37.080688477],[115.85052490200002,37.107910156],[115.84210205100001,37.125915527],[115.84991455100001,37.143127441],[115.88671875000001,37.199279785],[115.92529296900001,37.235107422],[115.92932128900001,37.287719727],[115.94390869100002,37.307128906],[115.97869873000002,37.335693359],[116.03851318400001,37.350524902],[116.05548095700001,37.357116699],[116.19427490200002,37.359313965],[116.21350097700001,37.374694824],[116.22491455100001,37.394287109],[116.19409179700001,37.418273926],[116.19250488300001,37.452514648],[116.22167968700002,37.474914551],[116.23107910200001,37.512084961],[116.24029541000002,37.544311523],[116.26208496100001,37.570922852],[116.27893066400001,37.575073242],[116.32049560500002,37.643493652],[116.32727050800001,37.685913086],[116.35687255900001,37.727111816],[116.37768554700001,37.741088867],[116.39990234400001,37.770080566],[116.41290283200001,37.817871094],[116.42510986300002,37.836730957],[116.43988037100002,37.856079102],[116.46752929700001,37.872314453],[116.47888183600001,37.889282227],[116.50408935500002,37.953491211],[116.51147460900002,38.003295898],[116.43408203100002,38.019897461],[116.37750244100002,38.012512207],[116.34027099600002,38.00189209],[116.31530761700002,37.977905273],[116.25787353500002,37.960510254],[116.21612548800002,37.972717285],[116.18572998000002,37.964111328],[116.14471435500002,37.943481445],[116.10913085900002,37.909912109],[116.09490966800001,37.983520508],[116.06732177700002,38.034912109],[116.07427978500002,38.061096191],[116.02850341800001,38.110290527],[115.98889160200001,38.129516602],[115.95190429700001,38.132873535],[115.90008544900002,38.137695312],[115.86370849600002,38.16192627],[115.84552002,38.188720703],[115.84088134800001,38.224304199],[115.83569335900002,38.253112793],[115.82391357400002,38.284484863],[115.81292724600002,38.321289062],[115.77752685500002,38.338684082],[115.74151611300002,38.33972168],[115.70111084000001,38.350708008],[115.65209960900002,38.321716309],[115.59771728500002,38.313110352],[115.53387451200001,38.301513672],[115.49407959000001,38.298095703],[115.44012451200001,38.308288574],[115.36987304700001,38.304504395],[115.35107421900001,38.281311035],[115.32891845700001,38.248901367]]]}}
