{"type":"Feature","id":"bulk-99377448B47358915944701","bbox":[124.64532470700001,47.555114746,129.45190429700003,50.946472168],"properties":{"id":"bulk-99377448B47358915944701","name":"Heihe","nameEn":"Heihe","fullName":"Heihe","level":"city","boundaryRole":"administrative-extent","boundaryQuality":"generalized-source-2020","boundaryYearRepresented":"2020","bounds":[[124.64532470700001,47.555114746],[129.45190429700003,50.946472168]],"center":[127.04861450200002,49.250793457],"centerMethod":"bounding-box midpoint; camera framing only","license":"CC-BY-3.0-IGO","attribution":"geoBoundaries / HDX, China administrative boundaries (2020)","source":{"provider":"geoBoundaries gbHumanitarian / HDX","url":"https://github.com/wmgeolab/geoBoundaries/raw/9469f09/releaseData/gbHumanitarian/CHN/ADM2/geoBoundaries-CHN-ADM2.geojson","metadataUrl":"https://www.geoboundaries.org/api/current/gbHumanitarian/CHN/ADM2/","shapeID":"99377448B47358915944701","shapeName":"Heihe","boundaryID":"CHN-ADM2-99377448","commit":"9469f09"},"geometryCounts":{"coordinates":420,"components":1,"holes":0},"boundaryNotice":"geoBoundaries / HDX 2020 年行政区数据，海岸和边界经过源数据概化，并非当前测绘成果。"},"geometry":{"type":"Polygon","coordinates":[[[124.64532470700001,48.889892578],[124.75488281200002,48.864501953],[124.80169677700002,48.843688965],[124.83648681600002,48.82208252],[124.89868164100001,48.82409668],[124.95471191400001,48.820495605],[124.98388671900001,48.798522949],[124.98931884800001,48.759887695],[124.96929931600002,48.733276367],[124.93969726600001,48.70489502],[124.93652343700002,48.671875],[124.98730468700002,48.654296875],[125.04211425800001,48.664672852],[125.09527587900001,48.664489746],[125.14569091800001,48.655273437],[125.18170166000002,48.636291504],[125.222473145,48.64050293],[125.25830078100002,48.658874512],[125.30609130900001,48.678283691],[125.35089111300002,48.699707031],[125.37347412100002,48.722473145],[125.40209960900002,48.749328613],[125.46832275400001,48.775512695],[125.51269531200002,48.789306641],[125.55749511700002,48.799926758],[125.59368896500001,48.787475586],[125.63531494100002,48.790527344],[125.67108154300001,48.818481445],[125.70367431600002,48.851318359],[125.74609375000001,48.86328125],[125.78851318400001,48.859680176],[125.83172607400002,48.857116699],[125.89068603500002,48.841918945],[125.89672851600001,48.801696777],[125.88952636700002,48.774108887],[125.88867187500001,48.743713379],[125.90252685500002,48.710327148],[125.93212890600002,48.683288574],[125.94830322300001,48.643676758],[125.93548584000001,48.61529541],[125.90527343700002,48.594909668],[125.86492919900002,48.590270996],[125.81872558600001,48.589477539],[125.77508544900002,48.583129883],[125.73327636700002,48.565917969],[125.69628906200002,48.538330078],[125.69531250000001,48.509887695],[125.70892334000001,48.477905273],[125.74511718700002,48.465270996],[125.76989746100001,48.443481445],[125.77349853500002,48.409912109],[125.77490234400001,48.378112793],[125.77630615200002,48.348510742],[125.79168701200001,48.318481445],[125.82250976600001,48.294128418],[125.85571289100001,48.266479492],[125.88568115200002,48.239318848],[125.92687988300001,48.23828125],[125.97052002,48.235717773],[125.98907470700001,48.210327148],[126.04431152300002,48.216674805],[126.08471679700001,48.214904785],[126.13427734400001,48.221496582],[126.18109130900001,48.228271484],[126.25732421900001,48.231079102],[126.27972412100002,48.207885742],[126.29467773400002,48.1796875],[126.30487060500002,48.145874023],[126.33770752,48.12512207],[126.38110351600001,48.121520996],[126.437316895,48.127502441],[126.46228027300002,48.153320312],[126.52349853500002,48.16229248],[126.56628418000001,48.154724121],[126.60552978500002,48.129699707],[126.61767578100002,48.101501465],[126.62567138700001,48.070678711],[126.60491943400001,48.038513184],[126.55950927700002,48.022521973],[126.54290771500001,47.969909668],[126.57971191400001,47.949279785],[126.60632324200002,47.923278809],[126.61090087900001,47.890075684],[126.57189941400001,47.867675781],[126.554504395,47.842712402],[126.55291748000002,47.802307129],[126.57348632800002,47.769714355],[126.55767822300001,47.73651123],[126.53588867200001,47.698730469],[126.52008056600002,47.669128418],[126.48187255900001,47.606689453],[126.47808837900001,47.567687988],[126.47747802700002,47.555114746],[126.50610351600001,47.614074707],[126.56671142600001,47.660095215],[126.61248779300001,47.67388916],[126.65570068400001,47.705078125],[126.69531250000001,47.722106934],[126.75891113300001,47.721923828],[126.79211425800001,47.713317871],[126.82128906200002,47.702697754],[126.85552978500002,47.698730469],[126.87792968700002,47.703308105],[126.92510986300002,47.721923828],[126.97692871100001,47.744689941],[127.01470947300001,47.754516602],[127.03527832000002,47.752075195],[127.10388183600001,47.770507812],[127.14691162100002,47.772705078],[127.21209716800001,47.764892578],[127.25750732400002,47.776306152],[127.30749511700002,47.777526855],[127.36730957000002,47.789672852],[127.40148925800001,47.812072754],[127.44769287100002,47.825683594],[127.49749755900001,47.826904297],[127.54449462900001,47.81628418],[127.55511474600002,47.803100586],[127.56152343700002,47.773498535],[127.56970214800002,47.750671387],[127.59472656200002,47.738098145],[127.61987304700001,47.725524902],[127.64532470700001,47.715087891],[127.66412353500002,47.705505371],[127.67388916000002,47.694091797],[127.75689697300001,47.710876465],[127.77209472700001,47.738098145],[127.74047851600001,47.763305664],[127.75231933600001,47.793273926],[127.78570556600002,47.824707031],[127.79528808600001,47.855895996],[127.82550048800002,47.878479004],[127.85150146500001,47.903686523],[127.86810302700002,47.93951416],[127.84887695300002,47.963317871],[127.83532714800002,47.990112305],[127.85992431600002,48.014526367],[127.90368652300002,48.025695801],[127.94567871100001,48.018127441],[127.99212646500001,48.003112793],[128.04248046900003,48.004882812],[128.105285645,48.020690918],[128.13732910200002,48.054870605],[128.17352294900002,48.0703125],[128.21630859400003,48.082519531],[128.253479004,48.094726562],[128.28729248000002,48.119506836],[128.30548095700001,48.144714355],[128.31610107400002,48.171325684],[128.33947753900003,48.199890137],[128.36669921900003,48.236083984],[128.39489746100003,48.270690918],[128.420898437,48.292114258],[128.467285156,48.30871582],[128.51208496100003,48.307128906],[128.55468750000003,48.307495117],[128.603088379,48.332092285],[128.639709473,48.352294922],[128.69372558600003,48.349304199],[128.72692871100003,48.315917969],[128.73107910200002,48.280273437],[128.73687744100002,48.244873047],[128.75891113300003,48.20892334],[128.79730224600002,48.190307617],[128.84167480500003,48.215270996],[128.856872559,48.255493164],[128.870300293,48.286315918],[128.887695312,48.3125],[128.91888427700002,48.338500977],[128.925720215,48.378479004],[128.93170166000002,48.413696289],[128.938720703,48.44732666],[128.94909668000003,48.477111816],[128.982910156,48.506530762],[129.02111816400003,48.530700684],[129.067077637,48.549072266],[129.10852050800003,48.561889648],[129.147888184,48.582885742],[129.16210937500003,48.611083984],[129.161315918,48.638122559],[129.13427734400003,48.65612793],[129.12152099600002,48.686889648],[129.12951660200002,48.714904785],[129.14807128900003,48.741516113],[129.202880859,48.74407959],[129.24810791000002,48.75012207],[129.31048584,48.766113281],[129.361083984,48.79107666],[129.399108887,48.846679687],[129.45190429700003,48.910888672],[129.43829345700001,48.922302246],[129.41992187500003,48.950073242],[129.384887695,48.980285645],[129.31787109400003,48.991516113],[129.25927734400003,49.005493164],[129.20709228500002,49.014892578],[129.171875,49.032714844],[129.16027832,49.070922852],[129.161682129,49.108703613],[129.15930175800003,49.144714355],[129.14727783200001,49.175720215],[129.12689209,49.202270508],[129.11828613300003,49.233276367],[129.11968994100002,49.261901855],[129.15509033200001,49.287109375],[129.20208740200002,49.302307129],[129.26049804700003,49.355102539],[129.23492431600002,49.371887207],[129.199707031,49.381896973],[129.168273926,49.380493164],[129.15612793000003,49.370727539],[129.14709472700002,49.361877441],[129.13909912100002,49.35748291],[129.131713867,49.353515625],[129.114501953,49.352111816],[129.100280762,49.353515625],[129.08508300800003,49.349487305],[129.052307129,49.348083496],[129.01208496100003,49.360717773],[128.989685059,49.380493164],[128.97308349600002,49.401306152],[128.951293945,49.419128418],[128.92669677700002,49.441894531],[128.886108398,49.452697754],[128.82672119100002,49.462097168],[128.773925781,49.472290039],[128.772521973,49.472290039],[128.77148437500003,49.472717285],[128.75732421900003,49.475280762],[128.71148681600002,49.467895508],[128.692077637,49.478881836],[128.691711426,49.507873535],[128.72869873000002,49.529724121],[128.73632812500003,49.556884766],[128.715881348,49.564086914],[128.71508789100002,49.563903809],[128.700073242,49.565307617],[128.69250488300003,49.56652832],[128.65808105500003,49.564697266],[128.62329101600002,49.555908203],[128.57867431600002,49.567871094],[128.54229736300002,49.584716797],[128.495483398,49.592529297],[128.492675781,49.591918945],[128.478271484,49.590087891],[128.46148681600002,49.588928223],[128.440307617,49.588928223],[128.421875,49.58972168],[128.408325195,49.588684082],[128.40393066400003,49.58807373],[128.368530273,49.577880859],[128.36791992200003,49.575500488],[128.36950683600003,49.5703125],[128.36950683600003,49.568725586],[128.36968994100002,49.566101074],[128.36810302700002,49.563720703],[128.36328125000003,49.559692383],[128.34552002,49.548278809],[128.33349609400003,49.542724609],[128.329284668,49.542480469],[128.324523926,49.543273926],[128.321472168,49.544921875],[128.30932617200003,49.550292969],[128.274291992,49.531921387],[128.21887207,49.547302246],[128.21527099600002,49.544494629],[128.21008300800003,49.541687012],[128.19409179700003,49.540283203],[128.18988037100002,49.537475586],[128.12750244100002,49.530883789],[128.06408691400003,49.52532959],[127.980285645,49.549499512],[127.97528076200001,49.553894043],[127.93328857400002,49.591491699],[127.93267822300001,49.590698242],[127.92370605500001,49.585327148],[127.91491699200002,49.582275391],[127.89929199200002,49.581115723],[127.88427734400001,49.581298828],[127.85552978500002,49.572692871],[127.80432128900001,49.559875488],[127.76452636700002,49.563720703],[127.75048828100002,49.580322266],[127.72052002,49.615905762],[127.66772460900002,49.635070801],[127.63372802700002,49.651489258],[127.62152099600002,49.657287598],[127.62487793000001,49.702880859],[127.62048339800002,49.745727539],[127.58471679700001,49.759277344],[127.52087402300002,49.769470215],[127.46728515600002,49.796325684],[127.47412109400001,49.834106445],[127.48107910200001,49.866088867],[127.47912597700001,49.902099609],[127.46069335900002,49.939880371],[127.43231201200001,49.972290039],[127.42272949200002,50.000488281],[127.44989013700001,50.039672852],[127.49047851600001,50.076477051],[127.51629638700001,50.120483398],[127.53967285200001,50.150695801],[127.54571533200001,50.18951416],[127.52990722700001,50.221496582],[127.50109863300001,50.241699219],[127.47509765600002,50.245483398],[127.42272949200002,50.262878418],[127.35388183600001,50.271728516],[127.30352783200001,50.291503906],[127.30371093700002,50.325500488],[127.32208252,50.363708496],[127.33349609400001,50.385070801],[127.31170654300001,50.405517578],[127.27368164100001,50.429504395],[127.25610351600001,50.455078125],[127.26892089800002,50.477111816],[127.28790283200001,50.501281738],[127.30590820300002,50.532287598],[127.30828857400002,50.568725586],[127.28552246100001,50.591125488],[127.26892089800002,50.615722656],[127.25109863300001,50.640319824],[127.23687744100002,50.67388916],[127.22949218700002,50.70111084],[127.21307373000002,50.731323242],[127.20111084000001,50.762878418],[127.14648437500001,50.80670166],[127.13488769500002,50.834472656],[127.11791992200001,50.874084473],[127.11108398400002,50.878723145],[127.00512695300002,50.878112793],[126.95971679700001,50.88067627],[126.88928222700001,50.878112793],[126.84271240200002,50.874694824],[126.78808593700002,50.870483398],[126.72509765600002,50.866088867],[126.671875,50.86389160200001],[126.62347412100002,50.861694336],[126.55407714800002,50.859313965],[126.50451660200001,50.85748291],[126.43572998000002,50.857910156],[126.34130859400001,50.83850097700001],[126.29772949200002,50.837280273],[126.28167724600002,50.869689941],[126.26910400400001,50.904296875],[126.22631835900002,50.92767334],[126.17968750000001,50.921508789],[126.12731933600001,50.919494629],[126.08532714800002,50.917114258],[125.98510742200001,50.946472168],[125.97790527300002,50.917724609],[125.92810058600001,50.852478027],[125.86688232400002,50.855285645],[125.80529785200001,50.78771972700001],[125.76269531200002,50.773681641],[125.74108886700002,50.731689453],[125.68371582000002,50.726501465],[125.71508789100001,50.693725586],[125.71807861300002,50.58972168],[125.73669433600001,50.55090332],[125.72430419900002,50.522521973],[125.68572998000002,50.478515625],[125.63031005900001,50.480712891],[125.57910156200002,50.430480957],[125.50189209000001,50.434875488],[125.49627685500002,50.387512207],[125.45971679700001,50.398681641],[125.44732666000002,50.322509766],[125.429504395,50.294677734],[125.39648437500001,50.272277832],[125.37591552700002,50.256103516],[125.37188720700001,50.215881348],[125.36047363300001,50.19128418],[125.31292724600002,50.17767334],[125.28527832000002,50.154724121],[125.29931640600002,50.120117187],[125.23010253900001,50.108886719],[125.22027587900001,50.091308594],[125.25091552700002,50.055114746],[125.24829101600001,50.044311523],[125.22589111300002,50.042907715],[125.19989013700001,50.027099609],[125.20831298800002,50.015319824],[125.19989013700001,49.979309082],[125.18408203100002,49.958679199],[125.14031982400002,49.9375],[125.14068603500002,49.915283203],[125.171691895,49.856872559],[125.16412353500002,49.824707031],[125.13208007800002,49.805908203],[125.15130615200002,49.792907715],[125.17248535200001,49.764892578],[125.14807128900001,49.634887695],[125.14007568400001,49.62487793],[125.09570312500001,49.647705078],[125.07092285200001,49.635498047],[125.06768798800002,49.621276855],[125.12731933600001,49.593078613],[125.16632080100001,49.522888184],[125.20031738300001,49.383483887],[125.19287109400001,49.303527832],[125.14831543000001,49.205322266],[125.13928222700001,49.165893555],[125.10449218700002,49.132873535],[125.05511474600002,49.108520508],[125.03289794900002,49.107299805],[125.00769043000001,49.117126465],[124.97131347700001,49.150085449],[124.92529296900001,49.140075684],[124.87792968700002,49.148681641],[124.85272216800001,49.158508301],[124.82971191400001,49.153503418],[124.76489257800002,49.108703613],[124.74249267600001,49.081481934],[124.74652099600002,49.026306152],[124.72192382800002,49.014099121],[124.70690918000001,48.946105957],[124.69671630900001,48.925109863],[124.65148925800001,48.892883301],[124.64532470700001,48.889892578]]]}}
