{"type":"Feature","id":"bulk-99377448B90531948746136","bbox":[119.63592529300001,31.921691895,120.50427246100001,33.208496094],"properties":{"id":"bulk-99377448B90531948746136","name":"Taizhou","nameEn":"Taizhou","fullName":"Taizhou","level":"city","boundaryRole":"administrative-extent","boundaryQuality":"generalized-source-2020","boundaryYearRepresented":"2020","bounds":[[119.63592529300001,31.921691895],[120.50427246100001,33.208496094]],"center":[120.07009887700002,32.565093994499996],"centerMethod":"bounding-box midpoint; camera framing only","license":"CC-BY-3.0-IGO","attribution":"geoBoundaries / HDX, China administrative boundaries (2020)","source":{"provider":"geoBoundaries gbHumanitarian / HDX","url":"https://github.com/wmgeolab/geoBoundaries/raw/9469f09/releaseData/gbHumanitarian/CHN/ADM2/geoBoundaries-CHN-ADM2.geojson","metadataUrl":"https://www.geoboundaries.org/api/current/gbHumanitarian/CHN/ADM2/","shapeID":"99377448B90531948746136","shapeName":"Taizhou","boundaryID":"CHN-ADM2-99377448","commit":"9469f09"},"geometryCounts":{"coordinates":113,"components":1,"holes":0},"boundaryNotice":"geoBoundaries / HDX 2020 年行政区数据，海岸和边界经过源数据概化，并非当前测绘成果。"},"geometry":{"type":"Polygon","coordinates":[[[120.00091552700002,31.96270752],[120.07971191400001,31.94128418],[120.14129638700001,31.922729492],[120.17987060500002,31.921691895],[120.27008056600002,31.949890137],[120.28070068400001,31.954528809],[120.30047607400002,31.968078613],[120.30047607400002,31.970275879],[120.32110595700001,31.984313965],[120.32232666000002,31.985473633],[120.32489013700001,31.986877441],[120.32910156200002,31.989685059],[120.35150146500001,32.00390625],[120.35168457000002,32.004089355],[120.355285645,32.015930176],[120.40612793000001,32.049499512],[120.43591308600001,32.065124512],[120.47369384800001,32.076904297],[120.47912597700001,32.079101562],[120.48870849600002,32.077880859],[120.50427246100001,32.079101562],[120.46972656200002,32.114685059],[120.43048095700001,32.124511719],[120.39807128900001,32.12487793],[120.35668945300002,32.126708984],[120.33148193400001,32.172912598],[120.34307861300002,32.241271973],[120.33331298800002,32.273071289],[120.34429931600002,32.303894043],[120.37072753900001,32.360107422],[120.33209228500002,32.367126465],[120.26928710900002,32.379516602],[120.26232910200001,32.422302246],[120.25311279300001,32.463500977],[120.25048828100002,32.504699707],[120.25012207000002,32.540283203],[120.24468994100002,32.572692871],[120.21209716800001,32.59387207],[120.17572021500001,32.627502441],[120.13012695300002,32.616088867],[120.09332275400001,32.633911133],[120.12030029300001,32.690490723],[120.14050293000001,32.716125488],[120.16467285200001,32.738708496],[120.19848632800002,32.763671875],[120.15350341800001,32.798095703],[120.17132568400001,32.826293945],[120.17810058600001,32.862121582],[120.17309570300002,32.889892578],[120.17028808600001,32.918701172],[120.19732666000002,32.93371582],[120.23547363300001,32.932678223],[120.26391601600001,32.953674316],[120.26947021500001,32.987304687],[120.25848388700001,33.024719238],[120.24749755900001,33.05267334],[120.25549316400001,33.079528809],[120.25653076200001,33.10748291],[120.24450683600001,33.13269043],[120.17828369100002,33.153686523],[120.10491943400001,33.170898437],[120.05767822300001,33.182312012],[120.01947021500001,33.171081543],[119.98052978500002,33.152099609],[119.94488525400001,33.156677246],[119.90911865200002,33.159729004],[119.87310791000002,33.159729004],[119.82727050800001,33.144714355],[119.78833007800002,33.134277344],[119.75189209000001,33.136291504],[119.73229980500001,33.158508301],[119.72552490200002,33.187072754],[119.69970703100002,33.208496094],[119.65948486300002,33.194519043],[119.64288330100001,33.171081543],[119.63592529300001,33.145080566],[119.63970947300001,33.10168457],[119.66632080100001,33.051086426],[119.67547607400002,33.00769043],[119.67852783200001,32.970092773],[119.68652343700002,32.942077637],[119.70349121100001,32.916687012],[119.74749755900001,32.910705566],[119.76690673800002,32.887695312],[119.76068115200002,32.851928711],[119.76147460900002,32.822692871],[119.79187011700002,32.809326172],[119.80487060500002,32.783081055],[119.84051513700001,32.750915527],[119.84252929700001,32.719299316],[119.87567138700001,32.671691895],[119.87689209000001,32.642272949],[119.86090087900001,32.618896484],[119.80432128900001,32.614685059],[119.79968261700002,32.585693359],[119.82232666000002,32.55871582],[119.81072998000002,32.523681641],[119.81549072300001,32.487304687],[119.83972168000001,32.46472168],[119.85107421900001,32.438720703],[119.83129882800002,32.411499023],[119.85870361300002,32.385498047],[119.85650634800001,32.366271973],[119.83270263700001,32.266723633],[119.84869384800001,32.253295898],[119.85949707000002,32.245300293],[119.86468505900001,32.239929199],[119.88568115200002,32.170471191],[119.90649414100001,32.101074219],[119.91912841800001,32.083129883],[119.93151855500001,32.065307617],[119.95471191400001,32.015075684],[120.00091552700002,31.96270752]]]}}
