{"type":"Feature","id":"bulk-99377448B46042051847183","bbox":[116.24169921900001,27.839904785,118.44409179700001,29.685913086],"properties":{"id":"bulk-99377448B46042051847183","name":"Shangrao","nameEn":"Shangrao","fullName":"Shangrao","level":"city","boundaryRole":"administrative-extent","boundaryQuality":"generalized-source-2020","boundaryYearRepresented":"2020","bounds":[[116.24169921900001,27.839904785],[118.44409179700001,29.685913086]],"center":[117.34289550800001,28.7629089355],"centerMethod":"bounding-box midpoint; camera framing only","license":"CC-BY-3.0-IGO","attribution":"geoBoundaries / HDX, China administrative boundaries (2020)","source":{"provider":"geoBoundaries gbHumanitarian / HDX","url":"https://github.com/wmgeolab/geoBoundaries/raw/9469f09/releaseData/gbHumanitarian/CHN/ADM2/geoBoundaries-CHN-ADM2.geojson","metadataUrl":"https://www.geoboundaries.org/api/current/gbHumanitarian/CHN/ADM2/","shapeID":"99377448B46042051847183","shapeName":"Shangrao","boundaryID":"CHN-ADM2-99377448","commit":"9469f09"},"geometryCounts":{"coordinates":316,"components":1,"holes":0},"boundaryNotice":"geoBoundaries / HDX 2020 年行政区数据，海岸和边界经过源数据概化，并非当前测绘成果。"},"geometry":{"type":"Polygon","coordinates":[[[118.18872070300002,29.416320801],[118.17852783200001,29.432678223],[118.12811279300001,29.426879883],[118.10229492200001,29.444519043],[118.12170410200001,29.501281738],[118.07287597700001,29.54107666],[118.04992675800001,29.540710449],[118.02551269500002,29.548278809],[117.98468017600001,29.5625],[117.945129395,29.563110352],[117.90228271500001,29.551513672],[117.87249755900001,29.544311523],[117.79492187500001,29.553527832],[117.75769043000001,29.571716309],[117.73388671900001,29.570922852],[117.64190673800002,29.507873535],[117.60369873000002,29.481323242],[117.56170654300001,29.451721191],[117.53210449200002,29.430725098],[117.50732421900001,29.410888672],[117.48010253900001,29.365722656],[117.47332763700001,29.33807373],[117.44268798800002,29.316711426],[117.43151855500001,29.280517578],[117.41192627,29.243103027],[117.38232421900001,29.216674805],[117.35467529300001,29.182312012],[117.36608886700002,29.152282715],[117.38891601600001,29.129699707],[117.43188476600001,29.134277344],[117.45831298800002,29.154907227],[117.49249267600001,29.14630127],[117.49169921900001,29.116088867],[117.49328613300001,29.076293945],[117.48767089800002,29.039123535],[117.47949218700002,29.012512207],[117.45727539100001,28.979492187],[117.45770263700001,28.950683594],[117.49871826200001,28.934082031],[117.52227783200001,28.90447998],[117.53771972700001,28.857299805],[117.53790283200001,28.821105957],[117.50891113300001,28.803527832],[117.47949218700002,28.827514648],[117.44628906200002,28.844482422],[117.42089843700002,28.827880859],[117.40490722700001,28.799926758],[117.38348388700001,28.770874023],[117.32830810500002,28.749694824],[117.28808593700002,28.746704102],[117.25189209000001,28.735900879],[117.20892334000001,28.736328125],[117.17572021500001,28.741088867],[117.14532470700001,28.772521973],[117.10668945300002,28.785705566],[117.06408691400001,28.791503906],[117.03192138700001,28.807312012],[117.02130127,28.840515137],[116.99688720700001,28.858520508],[116.96051025400001,28.869506836],[116.95269775400001,28.89831543],[116.97772216800001,28.922912598],[116.99847412100002,28.948303223],[117.01849365200002,28.985717773],[117.02947998000002,29.018310547],[117.03308105500001,29.06427002],[117.04467773400002,29.090881348],[117.05969238300001,29.09387207],[117.06207275400001,29.098693848],[117.06732177700002,29.104309082],[117.07049560500002,29.109313965],[117.05908203100002,29.127502441],[117.04327392600001,29.144287109],[117.02130127,29.151916504],[117.02032470700001,29.156677246],[117.01989746100001,29.165710449],[117.02008056600002,29.179077148],[117.01507568400001,29.198486328],[117.01031494100002,29.222290039],[116.99890136700002,29.252929687],[117.00067138700001,29.259521484],[117.01367187500001,29.270080566],[117.02587890600002,29.274902344],[117.02911377,29.27911377],[117.03472900400001,29.295898437],[117.03948974600002,29.308898926],[117.04650878900001,29.314880371],[117.05187988300001,29.31829834],[117.05847168000001,29.318115234],[117.04791259800001,29.339294434],[117.04772949200002,29.378479004],[117.05651855500001,29.413513184],[117.05749511700002,29.44909668],[117.04150390600002,29.497497559],[117.03588867200001,29.547485352],[117.03747558600001,29.582885742],[117.04608154300001,29.637878418],[117.06927490200002,29.663879395],[117.06347656200002,29.685913086],[117.03289794900002,29.676696777],[116.98413085900002,29.668701172],[116.94287109400001,29.662719727],[116.91632080100001,29.641906738],[116.88012695300002,29.617919922],[116.84252929700001,29.601074219],[116.82269287100002,29.586120605],[116.78930664100001,29.571716309],[116.76031494100002,29.576904297],[116.75469970700001,29.600280762],[116.70031738300001,29.585083008],[116.69232177700002,29.604309082],[116.63989257800002,29.580505371],[116.59667968700002,29.582519531],[116.56488037100002,29.602294922],[116.51910400400001,29.610107422],[116.50408935500002,29.562927246],[116.51989746100001,29.538696289],[116.52587890600002,29.509277344],[116.52429199200002,29.470092773],[116.52148437500001,29.436889648],[116.52532959000001,29.406677246],[116.53668212900001,29.380310059],[116.54168701200001,29.350280762],[116.53967285200001,29.321105957],[116.53692627,29.286682129],[116.55133056600002,29.254089355],[116.56188964800002,29.227722168],[116.55932617200001,29.201904297],[116.54949951200001,29.188110352],[116.52569580100001,29.189880371],[116.51489257800002,29.217712402],[116.50390625000001,29.229675293],[116.49212646500001,29.180297852],[116.48052978500002,29.186706543],[116.47607421900001,29.186523437],[116.47308349600002,29.181518555],[116.46710205100001,29.177490234],[116.45947265600002,29.167480469],[116.45532226600001,29.163879395],[116.44708252,29.159484863],[116.43029785200001,29.145690918],[116.42047119100002,29.134887695],[116.41949462900001,29.127685547],[116.41967773400002,29.123718262],[116.42230224600002,29.114074707],[116.42510986300002,29.101074219],[116.42492675800001,29.09387207],[116.42028808600001,29.087524414],[116.40588378900001,29.07232666],[116.39489746100001,29.055480957],[116.40069580100001,29.051696777],[116.40270996100001,29.042724609],[116.40209960900002,29.033508301],[116.39788818400001,29.020507812],[116.40008544900002,29.007873535],[116.39910888700001,28.999084473],[116.39251709000001,28.985107422],[116.39068603500002,28.977478027],[116.39007568400001,28.968078613],[116.39172363300001,28.960693359],[116.38970947300001,28.946289062],[116.378723145,28.934082031],[116.37408447300001,28.926513672],[116.36767578100002,28.919311523],[116.35632324200002,28.893676758],[116.35131835900002,28.889526367],[116.34167480500001,28.881713867],[116.33990478500002,28.879272461],[116.33709716800001,28.878295898],[116.33410644500002,28.863708496],[116.32171630900001,28.859130859],[116.24169921900001,28.860107422],[116.25152587900001,28.830078125],[116.26867675800001,28.837280273],[116.27807617200001,28.807128906],[116.29907226600001,28.771911621],[116.296875,28.770324707],[116.39550781200002,28.720092773],[116.42651367200001,28.707275391],[116.45050048800002,28.683898926],[116.45867919900002,28.657470703],[116.46228027300002,28.626098633],[116.47747802700002,28.582885742],[116.49572753900001,28.539123535],[116.51171875000001,28.513916016],[116.54168701200001,28.469482422],[116.56072998000002,28.424682617],[116.57147216800001,28.398498535],[116.60089111300002,28.373291016],[116.63830566400001,28.363708496],[116.67089843700002,28.361694336],[116.70349121100001,28.368286133],[116.74188232400002,28.362304687],[116.77270507800002,28.355285645],[116.84368896500001,28.388122559],[116.85388183600001,28.415527344],[116.87487793000001,28.439086914],[116.85949707000002,28.46887207],[116.89611816400001,28.467285156],[116.90747070300002,28.503479004],[116.95709228500002,28.499328613],[117.00390625000001,28.498474121],[117.05212402300002,28.519104004],[117.06530761700002,28.551086426],[117.05987548800002,28.590698242],[117.09387207000002,28.611694336],[117.12011718700002,28.583679199],[117.15350341800001,28.577087402],[117.18389892600001,28.544311523],[117.21130371100001,28.600280762],[117.23010253900001,28.642883301],[117.26287841800001,28.603881836],[117.28070068400001,28.57232666],[117.29150390600002,28.540283203],[117.30828857400002,28.498718262],[117.31872558600001,28.473083496],[117.31671142600001,28.445129395],[117.30731201200001,28.415893555],[117.30712890600002,28.386474609],[117.31048584000001,28.351928711],[117.28332519500002,28.315673828],[117.25488281200002,28.295288086],[117.27307128900001,28.266296387],[117.28112793000001,28.237487793],[117.26269531200002,28.213928223],[117.24768066400001,28.182312012],[117.24969482400002,28.154907227],[117.27508544900002,28.132507324],[117.31427002,28.122680664],[117.35192871100001,28.114501953],[117.38250732400002,28.108520508],[117.41412353500002,28.08807373],[117.45568847700001,28.083129883],[117.44470214800002,28.055725098],[117.43890380900001,28.000488281],[117.42852783200001,27.973693848],[117.42248535200001,27.942504883],[117.42712402300002,27.927490234],[117.44451904300001,27.933105469],[117.45971679700001,27.959106445],[117.49609375000001,27.990905762],[117.54931640600002,27.977111816],[117.55670166000002,27.926513672],[117.58587646500001,27.878295898],[117.60711669900002,27.847473145],[117.66009521500001,27.842529297],[117.68847656200002,27.839904785],[117.74011230500001,27.845703125],[117.76452636700002,27.87109375],[117.80010986300002,27.905700684],[117.82989502,27.932495117],[117.91412353500002,27.98449707],[117.95251464800002,27.989685059],[117.96490478500002,27.991271973],[118.01751709000001,27.99407959],[118.04791259800001,27.989685059],[118.06268310500002,27.981506348],[118.06732177700002,27.97668457],[118.07910156200002,27.982299805],[118.08087158200001,28.005493164],[118.11151123000002,28.039306641],[118.15368652300002,28.059509277],[118.16607666000002,28.065307617],[118.21527099600002,28.077697754],[118.22888183600001,28.080871582],[118.288879395,28.083312988],[118.34167480500001,28.101318359],[118.35028076200001,28.142883301],[118.33367919900002,28.187927246],[118.30670166000002,28.196899414],[118.28930664100001,28.222106934],[118.3125,28.241088867],[118.33569335900002,28.271911621],[118.37371826200001,28.281921387],[118.39392089800002,28.267700195],[118.39727783200001,28.283081055],[118.43487548800002,28.311889648],[118.44250488300001,28.352478027],[118.43609619100002,28.373474121],[118.43707275400001,28.420898437],[118.44409179700001,28.465270996],[118.41687011700002,28.495727539],[118.41290283200001,28.504882812],[118.39630127,28.545288086],[118.38891601600001,28.603088379],[118.39093017600001,28.625305176],[118.39208984400001,28.651123047],[118.37530517600001,28.707702637],[118.36547851600001,28.750488281],[118.35827636700002,28.771911621],[118.34808349600002,28.801696777],[118.30249023400002,28.848510742],[118.26251220700001,28.855529785],[118.25891113300001,28.899291992],[118.25848388700001,28.904907227],[118.20812988300001,28.923278809],[118.17468261700002,28.908508301],[118.16687011700002,28.9375],[118.16729736300002,28.955505371],[118.15588378900001,28.979309082],[118.12670898400002,28.990112305],[118.10827636700002,28.998291016],[118.07250976600001,29.014099121],[118.02893066400001,29.037475586],[118.00109863300001,29.128479004],[117.99389648400002,29.168273926],[117.99572753900001,29.17590332],[118.00488281200002,29.212280273],[118.05047607400002,29.236083984],[118.04309082000002,29.271484375],[118.05249023400002,29.296691895],[118.11407470700001,29.300109863],[118.16271972700001,29.319274902],[118.18292236300002,29.359924316],[118.19427490200002,29.407470703],[118.18872070300002,29.416320801]]]}}
