{"type":"Feature","id":"bulk-99377448B86618079280815","bbox":[98.16131591800001,25.554321289,99.59808349600002,28.411071777],"properties":{"id":"bulk-99377448B86618079280815","name":"Nujiang Lisu Autonomous Prefecture","nameEn":"Nujiang Lisu Autonomous Prefecture","fullName":"Nujiang Lisu Autonomous Prefecture","level":"city","boundaryRole":"administrative-extent","boundaryQuality":"generalized-source-2020","boundaryYearRepresented":"2020","bounds":[[98.16131591800001,25.554321289],[99.59808349600002,28.411071777]],"center":[98.87969970700001,26.982696533000002],"centerMethod":"bounding-box midpoint; camera framing only","license":"CC-BY-3.0-IGO","attribution":"geoBoundaries / HDX, China administrative boundaries (2020)","source":{"provider":"geoBoundaries gbHumanitarian / HDX","url":"https://github.com/wmgeolab/geoBoundaries/raw/9469f09/releaseData/gbHumanitarian/CHN/ADM2/geoBoundaries-CHN-ADM2.geojson","metadataUrl":"https://www.geoboundaries.org/api/current/gbHumanitarian/CHN/ADM2/","shapeID":"99377448B86618079280815","shapeName":"Nujiang Lisu Autonomous Prefecture","boundaryID":"CHN-ADM2-99377448","commit":"9469f09"},"geometryCounts":{"coordinates":311,"components":1,"holes":0},"boundaryNotice":"geoBoundaries / HDX 2020 年行政区数据，海岸和边界经过源数据概化，并非当前测绘成果。"},"geometry":{"type":"Polygon","coordinates":[[[98.88549804700001,25.598083496],[98.87768554700001,25.627929687],[98.90411377,25.652709961],[98.90447998,25.68572998],[98.88610839800002,25.728515625],[98.86291503900001,25.760498047],[98.88531494100002,25.783691406],[98.91247558600001,25.767089844],[98.94451904300001,25.741882324],[98.98669433600001,25.721313477],[99.02447509800001,25.720275879],[99.05133056600002,25.749328613],[99.02331543000001,25.768310547],[98.98492431600002,25.783508301],[98.98291015600002,25.815917969],[98.99652099600002,25.848083496],[98.98590087900001,25.878112793],[98.98211669900002,25.911682129],[98.99768066400001,25.934692383],[99.01068115200002,25.973083496],[99.01507568400001,26.017883301],[99.01251220700001,26.058105469],[99.01531982400002,26.091674805],[99.02551269500002,26.13671875],[99.05792236300002,26.150695801],[99.09527587900001,26.142883301],[99.12390136700002,26.12689209],[99.15509033200001,26.10949707],[99.18572998,26.127502441],[99.17767334000001,26.164306641],[99.20928955100001,26.186096191],[99.26330566400001,26.211486816],[99.29608154300001,26.223876953],[99.31652832000002,26.252319336],[99.31970214800002,26.28527832],[99.347473145,26.310119629],[99.38848877,26.322875977],[99.42547607400002,26.322875977],[99.47088623,26.350280762],[99.48907470700001,26.378295898],[99.50567627,26.413513184],[99.51232910200001,26.461120605],[99.51788330100001,26.493896484],[99.528320312,26.544921875],[99.53967285200001,26.577087402],[99.56030273400002,26.616088867],[99.594726562,26.639282227],[99.59808349600002,26.706481934],[99.56628418000001,26.743530273],[99.56408691400001,26.79309082],[99.53271484400001,26.845275879],[99.51531982400002,26.869689941],[99.49072265600002,26.904296875],[99.44671630900001,26.96307373],[99.41931152300002,26.938720703],[99.39788818400001,26.915710449],[99.37451171900001,26.887878418],[99.34509277300002,26.910888672],[99.33709716800001,26.955078125],[99.313476562,26.989318848],[99.296691895,27.024475098],[99.25927734400001,27.04309082],[99.24847412100002,27.002075195],[99.20288085900002,26.989685059],[99.15570068400001,26.985107422],[99.12609863300001,26.977111816],[99.07568359400001,26.96472168],[99.04449462900001,26.958312988],[98.99688720700001,26.941711426],[98.95532226600001,26.962097168],[98.95227050800001,27.003295898],[98.972473145,27.055297852],[98.97570800800001,27.083679199],[98.96807861300002,27.121704102],[98.96130371100001,27.156494141],[98.97509765600002,27.184082031],[98.979492187,27.225891113],[98.995910645,27.253723145],[98.97351074200002,27.279907227],[98.92669677700002,27.303283691],[98.90051269500002,27.33770752],[98.89129638700001,27.376708984],[98.887695312,27.413513184],[98.88452148400002,27.441711426],[98.88470459000001,27.48828125],[98.89868164100001,27.526123047],[98.90130615200002,27.558288574],[98.88970947300001,27.588317871],[98.85992431600002,27.62487793],[98.84069824200002,27.655517578],[98.85888671900001,27.687927246],[98.86529541000002,27.718078613],[98.846679687,27.740905762],[98.80688476600001,27.765686035],[98.79547119100002,27.795898437],[98.79632568400001,27.835083008],[98.79608154300001,27.874511719],[98.79290771500001,27.908081055],[98.79071044900002,27.942321777],[98.788085937,27.972106934],[98.78167724600002,28.004089355],[98.77227783200001,28.033325195],[98.74291992200001,28.066711426],[98.72052002,28.086914062],[98.71069335900002,28.120910645],[98.68811035200001,28.164123535],[98.68530273400002,28.158081055],[98.63287353500002,28.179077148],[98.57391357400002,28.195678711],[98.52612304700001,28.159301758],[98.46929931600002,28.12109375],[98.41271972700001,28.120727539],[98.40612793000001,28.215698242],[98.41088867200001,28.262878418],[98.38427734400001,28.31427002],[98.35510253900001,28.385314941],[98.33508300800001,28.411071777],[98.31048584000001,28.408874512],[98.27490234400001,28.388671875],[98.23547363300001,28.382873535],[98.24151611300002,28.35369873],[98.25549316400001,28.303894043],[98.27770996100001,28.270874023],[98.28552246100001,28.243896484],[98.25610351600001,28.209289551],[98.22467041000002,28.204284668],[98.21087646500001,28.200073242],[98.20269775400001,28.192871094],[98.18951416000002,28.160095215],[98.18109130900001,28.145874023],[98.18109130900001,28.144287109],[98.18109130900001,28.111694336],[98.16809082000002,28.085510254],[98.16131591800001,28.02331543],[98.16528320300002,27.965087891],[98.188476562,27.956726074],[98.20471191400001,27.93927002],[98.21472168000001,27.912902832],[98.20269775400001,27.851074219],[98.23590087900001,27.815307617],[98.24249267600001,27.783874512],[98.24169921900001,27.749328613],[98.24310302700002,27.748474121],[98.24530029300001,27.742675781],[98.26928710900002,27.72088623],[98.26068115200002,27.698913574],[98.29052734400001,27.666320801],[98.31689453100002,27.611328125],[98.33190918000001,27.542480469],[98.35931396500001,27.525085449],[98.39367675800001,27.523498535],[98.40008544900002,27.537109375],[98.40087890600002,27.542724609],[98.41027832000002,27.548706055],[98.428710937,27.551513672],[98.43151855500001,27.557495117],[98.43389892600001,27.568481445],[98.43450927700002,27.572875977],[98.43347168000001,27.586914062],[98.43090820300002,27.591674805],[98.429504395,27.59552002],[98.43408203100002,27.604309082],[98.43371582000002,27.611083984],[98.42932128900001,27.613891602],[98.43969726600001,27.628723145],[98.43890380900001,27.636291504],[98.43328857400002,27.642700195],[98.43530273400002,27.651123047],[98.43048095700001,27.658508301],[98.43310546900001,27.666503906],[98.44268798800002,27.669128418],[98.44531250000001,27.668884277],[98.44592285200001,27.666870117],[98.45172119100002,27.661499023],[98.45867919900002,27.659301758],[98.45892334000001,27.658874512],[98.53710937500001,27.631103516],[98.53747558600001,27.638671875],[98.54949951200001,27.642700195],[98.55108642600001,27.648681641],[98.55389404300001,27.650085449],[98.55792236300002,27.648681641],[98.56311035200001,27.643493652],[98.56671142600001,27.646118164],[98.59692382800002,27.616271973],[98.61627197300001,27.577880859],[98.62152099600002,27.579284668],[98.63287353500002,27.574707031],[98.65393066400001,27.580505371],[98.65631103500002,27.584716797],[98.65991210900002,27.58807373],[98.66510009800001,27.590087891],[98.66888427700002,27.589477539],[98.67352294900002,27.586914062],[98.69287109400001,27.593505859],[98.71807861300002,27.583312988],[98.72467041000002,27.558288574],[98.72192382800002,27.533081055],[98.71368408200001,27.47088623],[98.711120605,27.455505371],[98.71008300800001,27.450500488],[98.71832275400001,27.413696289],[98.71807861300002,27.391723633],[98.73107910200001,27.354125977],[98.73687744100002,27.353088379],[98.73291015600002,27.348876953],[98.73748779300001,27.335876465],[98.74169921900001,27.332275391],[98.74011230500001,27.328491211],[98.74890136700002,27.303283691],[98.74670410200001,27.280883789],[98.74267578100002,27.248474121],[98.72430419900002,27.227722168],[98.72387695300002,27.224304199],[98.72027587900001,27.223083496],[98.73211669900002,27.180480957],[98.721679687,27.165527344],[98.72369384800001,27.143676758],[98.73413085900002,27.072875977],[98.74072265600002,27.075500488],[98.74688720700001,27.072509766],[98.75567627,27.062683105],[98.76049804700001,27.058288574],[98.78491210900002,27.050109863],[98.78967285200001,27.030517578],[98.75567627,26.982910156],[98.76452636700002,26.94708252],[98.78570556600002,26.920898437],[98.75329589800002,26.868896484],[98.78411865200002,26.831726074],[98.78332519500002,26.799499512],[98.78149414100001,26.766113281],[98.78131103500002,26.764526367],[98.77349853500002,26.710327148],[98.79107666000002,26.670715332],[98.79248046900001,26.645080566],[98.79870605500001,26.613708496],[98.79608154300001,26.571105957],[98.77929687500001,26.543701172],[98.76910400400001,26.511474609],[98.76232910200001,26.461914062],[98.76770019500002,26.398071289],[98.76007080100001,26.384277344],[98.74609375000001,26.359130859],[98.71508789100001,26.321899414],[98.70208740200002,26.257080078],[98.72991943400001,26.248901367],[98.74847412100002,26.210510254],[98.75811767600001,26.176513672],[98.74652099600002,26.147705078],[98.70788574200002,26.099487305],[98.70367431600002,26.11907959],[98.70172119100002,26.112121582],[98.69348144500002,26.114929199],[98.69012451200001,26.111328125],[98.68829345700001,26.105285645],[98.68029785200001,26.099121094],[98.67449951200001,26.100097656],[98.67047119100002,26.095703125],[98.66888427700002,26.091491699],[98.66088867200001,26.091125488],[98.65789794900002,26.098083496],[98.65771484400001,26.106323242],[98.65991210900002,26.110107422],[98.66491699200002,26.11328125],[98.66748046900001,26.123718262],[98.66192627,26.130310059],[98.66247558600001,26.134521484],[98.65509033200001,26.143676758],[98.64727783200001,26.147705078],[98.64349365200002,26.148681641],[98.63128662100002,26.151306152],[98.62609863300001,26.14831543],[98.62567138700001,26.145080566],[98.62390136700002,26.143676758],[98.61590576200001,26.142700195],[98.61090087900001,26.134887695],[98.60369873,26.132873535],[98.59027099600002,26.144714355],[98.58288574200002,26.14630127],[98.58288574200002,26.143310547],[98.58569335900002,26.139282227],[98.58489990200002,26.132873535],[98.58410644500002,26.131286621],[98.58587646500001,26.122314453],[98.586120605,26.095703125],[98.586914062,26.086486816],[98.59088134800001,26.073303223],[98.59350585900002,26.075317383],[98.597473145,26.06628418],[98.60107421900001,26.063293457],[98.60070800800001,26.056091309],[98.61248779300001,26.053283691],[98.620117187,26.004516602],[98.64068603500002,25.980102539],[98.67272949200002,25.95489502],[98.69232177700002,25.931274414],[98.73669433600001,25.881713867],[98.71588134800001,25.84552002],[98.71148681600002,25.841491699],[98.72552490200002,25.806884766],[98.73748779300001,25.770874023],[98.74890136700002,25.73651123],[98.75830078100002,25.696716309],[98.76092529300001,25.669677734],[98.76068115200002,25.625488281],[98.77709960900002,25.591491699],[98.80609130900001,25.555908203],[98.84210205100001,25.554321289],[98.88787841800001,25.570678711],[98.88549804700001,25.598083496]]]}}
