{"type":"Feature","id":"bulk-99377448B14117363498730","bbox":[115.32049560500002,30.996887207,117.26190185500002,32.644897461],"properties":{"id":"bulk-99377448B14117363498730","name":"Lu'an","nameEn":"Lu'an","fullName":"Lu'an","level":"city","boundaryRole":"administrative-extent","boundaryQuality":"generalized-source-2020","boundaryYearRepresented":"2020","bounds":[[115.32049560500002,30.996887207],[117.26190185500002,32.644897461]],"center":[116.29119873000002,31.820892334],"centerMethod":"bounding-box midpoint; camera framing only","license":"CC-BY-3.0-IGO","attribution":"geoBoundaries / HDX, China administrative boundaries (2020)","source":{"provider":"geoBoundaries gbHumanitarian / HDX","url":"https://github.com/wmgeolab/geoBoundaries/raw/9469f09/releaseData/gbHumanitarian/CHN/ADM2/geoBoundaries-CHN-ADM2.geojson","metadataUrl":"https://www.geoboundaries.org/api/current/gbHumanitarian/CHN/ADM2/","shapeID":"99377448B14117363498730","shapeName":"Lu'an","boundaryID":"CHN-ADM2-99377448","commit":"9469f09"},"geometryCounts":{"coordinates":200,"components":1,"holes":0},"boundaryNotice":"geoBoundaries / HDX 2020 年行政区数据，海岸和边界经过源数据概化，并非当前测绘成果。"},"geometry":{"type":"Polygon","coordinates":[[[117.02532959000001,31.263305664],[117.05010986300002,31.288879395],[117.06689453100002,31.320922852],[117.07189941400001,31.352722168],[117.07312011700002,31.389526367],[117.09411621100001,31.42590332],[117.10668945300002,31.453491211],[117.13507080100001,31.48248291],[117.16607666000002,31.493103027],[117.20587158200001,31.49029541],[117.24810791000002,31.502502441],[117.26190185500002,31.518493652],[117.19128418000001,31.528930664],[117.15069580100001,31.540527344],[117.11627197300001,31.540283203],[117.078125,31.537902832],[117.03747558600001,31.530700684],[117.00091552700002,31.520690918],[117.00891113300001,31.527526855],[116.96612548800002,31.539123535],[116.92132568400001,31.528076172],[116.88830566400001,31.525512695],[116.86029052700002,31.526123047],[116.82031250000001,31.528930664],[116.79589843700002,31.548522949],[116.76348877,31.576477051],[116.74511718700002,31.611877441],[116.745910645,31.645080566],[116.74847412100002,31.673522949],[116.74353027300002,31.70892334],[116.74328613300001,31.744689941],[116.72949218700002,31.775695801],[116.69171142600001,31.785522461],[116.67810058600001,31.815917969],[116.70111084000001,31.837890625],[116.74127197300001,31.837890625],[116.75128173800002,31.865905762],[116.73071289100001,31.888916016],[116.79272460900002,31.939880371],[116.83209228500002,31.959899902],[116.86749267600001,31.970703125],[116.90270996100001,31.984924316],[116.94207763700001,31.993713379],[116.99749755900001,31.992126465],[117.05828857400002,31.991088867],[117.02911377,32.032287598],[117.01208496100001,32.058898926],[116.98632812500001,32.100280762],[116.96630859400001,32.123718262],[116.96929931600002,32.167724609],[117.00592041000002,32.155883789],[117.03491210900002,32.172485352],[117.05627441400001,32.199890137],[117.06652832000002,32.229125977],[117.05828857400002,32.261901855],[117.038879395,32.287719727],[117.03668212900001,32.321899414],[117.03332519500002,32.356689453],[117.01910400400001,32.383483887],[116.98669433600001,32.395874023],[116.94787597700001,32.396728516],[116.91168212900001,32.393127441],[116.88250732400002,32.410888672],[116.88012695300002,32.438720703],[116.87951660200001,32.473083496],[116.86889648400002,32.517272949],[116.83972168000001,32.572875977],[116.81127929700001,32.602111816],[116.79089355500001,32.627319336],[116.76428222700001,32.644897461],[116.72332763700001,32.61730957],[116.69030761700002,32.598693848],[116.63311767600001,32.592529297],[116.58129882800002,32.582519531],[116.55267334000001,32.554870605],[116.51550293000001,32.526916504],[116.49810791000002,32.494506836],[116.48010253900001,32.467712402],[116.43829345700001,32.434509277],[116.39428710900002,32.436889648],[116.35089111300002,32.448303223],[116.34051513700001,32.457885742],[116.31988525400001,32.477294922],[116.29907226600001,32.496520996],[116.27728271500001,32.502319336],[116.25427246100001,32.489685059],[116.24151611300002,32.467712402],[116.23950195300002,32.440490723],[116.12329101600001,32.441894531],[116.12487793000001,32.464477539],[116.10449218700002,32.48828125],[116.08392334000001,32.50769043],[116.07373046900001,32.521728516],[116.04132080100001,32.532470703],[116.00952148400002,32.552307129],[115.99908447300001,32.561889648],[115.98950195300002,32.580688477],[115.96789550800001,32.590881348],[115.94549560500002,32.602294922],[115.92370605500001,32.593078613],[115.91210937500001,32.584472656],[115.90008544900002,32.571289062],[115.87792968700002,32.572509766],[115.85070800800001,32.500915527],[115.84967041000002,32.487304687],[115.83709716800001,32.465270996],[115.82507324200002,32.452087402],[115.81829834000001,32.434326172],[115.83831787100002,32.405883789],[115.84808349600002,32.387329102],[115.85711669900002,32.35949707],[115.86547851600001,32.322692871],[115.85888671900001,32.227478027],[115.83551025400001,32.210327148],[115.85748291000002,32.209289551],[115.86169433600001,32.113525391],[115.86950683600001,32.067504883],[115.88787841800001,32.016479492],[115.88592529300001,31.989318848],[115.88250732400002,31.93951416],[115.85992431600002,31.855895996],[115.82092285200001,31.819885254],[115.77850341800001,31.791503906],[115.73547363300001,31.768493652],[115.68847656200002,31.762512207],[115.67712402300002,31.760925293],[115.64367675800001,31.755310059],[115.60729980500001,31.738891602],[115.56787109400001,31.722717285],[115.53930664100001,31.709716797],[115.48327636700002,31.685302734],[115.42871093700002,31.62689209],[115.41809082000002,31.587280273],[115.40667724600002,31.573730469],[115.39691162100002,31.55267334],[115.37890625000001,31.532897949],[115.36047363300001,31.491882324],[115.36810302700002,31.450683594],[115.35949707000002,31.412109375],[115.33331298800002,31.377502441],[115.32629394500002,31.368103027],[115.32049560500002,31.37890625],[115.32507324200002,31.367126465],[115.32928466800001,31.34387207],[115.37890625000001,31.352722168],[115.40887451200001,31.336486816],[115.44531250000001,31.299499512],[115.47192382800002,31.262084961],[115.49792480500001,31.210510254],[115.50091552700002,31.205688477],[115.52331543000001,31.171325684],[115.56909179700001,31.171325684],[115.62969970700001,31.226501465],[115.66229248000002,31.219116211],[115.69171142600001,31.193908691],[115.70947265600002,31.151306152],[115.72271728500002,31.122314453],[115.78729248000002,31.117126465],[115.83148193400001,31.128479004],[115.83612060500002,31.126525879],[115.87408447300001,31.109924316],[115.89550781200002,31.078674316],[115.91107177700002,31.054077148],[115.94287109400001,31.034912109],[115.99029541000002,31.009887695],[116.01208496100001,30.996887207],[116.04528808600001,31.033081055],[116.06671142600001,31.059509277],[116.08551025400001,31.083129883],[116.12371826200001,31.101501465],[116.16333007800002,31.104492187],[116.18511962900001,31.077270508],[116.22528076200001,31.07611084],[116.25512695300002,31.102905273],[116.27630615200002,31.126281738],[116.30688476600001,31.150695801],[116.33508300800001,31.164489746],[116.43627929700001,31.169494629],[116.44592285200001,31.136901855],[116.48272705100001,31.151489258],[116.51470947300001,31.176086426],[116.55151367200001,31.165893555],[116.55670166000002,31.138916016],[116.53588867200001,31.105102539],[116.52789306600002,31.067504883],[116.60168457000002,31.067077637],[116.63952636700002,31.06628418],[116.67407226600001,31.055725098],[116.70989990200002,31.062072754],[116.75109863300001,31.076293945],[116.79290771500001,31.081298828],[116.81848144500002,31.110900879],[116.84472656200002,31.132507324],[116.88507080100001,31.124328613],[116.92089843700002,31.142883301],[116.94067382800002,31.175720215],[116.95428466800001,31.21307373],[116.96069335900002,31.243103027],[116.98413085900002,31.267272949],[117.02532959000001,31.263305664]]]}}
