{"type":"Feature","id":"bulk-99377448B39185046026287","bbox":[108.59631347700001,23.902282715,110.42547607400002,26.042724609],"properties":{"id":"bulk-99377448B39185046026287","name":"Liuzhou","nameEn":"Liuzhou","fullName":"Liuzhou","level":"city","boundaryRole":"administrative-extent","boundaryQuality":"generalized-source-2020","boundaryYearRepresented":"2020","bounds":[[108.59631347700001,23.902282715],[110.42547607400002,26.042724609]],"center":[109.51089477550002,24.972503662],"centerMethod":"bounding-box midpoint; camera framing only","license":"CC-BY-3.0-IGO","attribution":"geoBoundaries / HDX, China administrative boundaries (2020)","source":{"provider":"geoBoundaries gbHumanitarian / HDX","url":"https://github.com/wmgeolab/geoBoundaries/raw/9469f09/releaseData/gbHumanitarian/CHN/ADM2/geoBoundaries-CHN-ADM2.geojson","metadataUrl":"https://www.geoboundaries.org/api/current/gbHumanitarian/CHN/ADM2/","shapeID":"99377448B39185046026287","shapeName":"Liuzhou","boundaryID":"CHN-ADM2-99377448","commit":"9469f09"},"geometryCounts":{"coordinates":224,"components":1,"holes":0},"boundaryNotice":"geoBoundaries / HDX 2020 年行政区数据，海岸和边界经过源数据概化，并非当前测绘成果。"},"geometry":{"type":"Polygon","coordinates":[[[109.48211669900002,26.042724609],[109.44427490200002,26.015930176],[109.41088867200001,25.983886719],[109.39111328100002,25.919921875],[109.35369873000002,25.888122559],[109.33630371100001,25.851928711],[109.31988525400001,25.813903809],[109.32348632800002,25.791503906],[109.33111572300001,25.754699707],[109.30249023400002,25.73449707],[109.21051025400001,25.741271973],[109.17211914100001,25.769470215],[109.15771484400001,25.771911621],[109.14709472700001,25.773681641],[109.11547851600001,25.80090332],[109.10308837900001,25.823303223],[109.00427246100001,25.773925781],[108.94891357400002,25.752319336],[108.87768554700001,25.72052002],[108.92211914100001,25.69708252],[108.95568847700001,25.707519531],[109.00830078100002,25.729125977],[109.05029296900001,25.726074219],[109.04229736300002,25.716674805],[109.03668212900001,25.709716797],[109.03192138700001,25.647705078],[109.02307128900001,25.594482422],[109.05291748000002,25.55090332],[109.01971435500002,25.52331543],[108.97668457000002,25.52532959],[108.92572021500001,25.540710449],[108.878723145,25.546875],[108.81512451200001,25.542297363],[108.76812744100002,25.550292969],[108.77929687500001,25.579284668],[108.76251220700001,25.618530273],[108.74212646500001,25.634277344],[108.68688964800002,25.608886719],[108.65948486300002,25.549072266],[108.66430664100001,25.518676758],[108.59948730500001,25.488525391],[108.59631347700001,25.42010498],[108.60571289100001,25.347473145],[108.61169433600001,25.342102051],[108.63128662100002,25.319274902],[108.63787841800001,25.287475586],[108.64007568400001,25.258728027],[108.66052246100001,25.238525391],[108.69091796900001,25.224914551],[108.67370605500001,25.190673828],[108.65887451200001,25.139892578],[108.71612548800002,25.142272949],[108.74810791000002,25.149902344],[108.78411865200002,25.15447998],[108.82250976600001,25.17590332],[108.85131835900002,25.187072754],[108.89508056600002,25.169311523],[108.93127441400001,25.152282715],[108.95489502,25.170471191],[109.01287841800001,25.213928223],[109.05047607400002,25.222106934],[109.06390380900001,25.18951416],[109.07409668000001,25.145080566],[109.07891845700001,25.104675293],[109.06628418000001,25.076477051],[109.046691895,25.045288086],[109.00250244100002,25.014709473],[108.97528076200001,25.000915527],[108.99072265600002,24.967102051],[109.02368164100001,24.95892334],[109.04931640600002,24.974121094],[109.08032226600001,24.993713379],[109.10131835900002,24.957702637],[109.11407470700001,24.926879883],[109.13330078100002,24.897705078],[109.15350341800001,24.868896484],[109.11450195300002,24.833129883],[109.06787109400001,24.842712402],[109.03051757800002,24.854492187],[108.99871826200001,24.841491699],[108.97570800800001,24.819274902],[108.94671630900001,24.785095215],[108.94152832000002,24.751525879],[108.92907714800002,24.725280762],[108.94873046900001,24.69708252],[108.93170166000002,24.661315918],[108.89770507800002,24.644714355],[108.82647705100001,24.560119629],[108.82708740200002,24.525085449],[108.82727050800001,24.507507324],[108.85412597700001,24.49029541],[108.90747070300002,24.490905762],[108.93450927700002,24.473693848],[108.96112060500002,24.473876953],[109.00811767600001,24.45892334],[108.99212646500001,24.4375],[108.94787597700001,24.419311523],[108.91247558600001,24.390319824],[108.89910888700001,24.365905762],[108.89630127,24.328918457],[108.95092773400002,24.26751709],[108.93432617200001,24.236328125],[108.93811035200001,24.194274902],[108.92608642600001,24.168701172],[108.95147705100001,24.143127441],[108.99328613300001,24.151489258],[109.03607177700002,24.132324219],[109.07769775400001,24.131103516],[109.11907959000001,24.124328613],[109.10211181600002,24.086486816],[109.11627197300001,24.053710937],[109.15130615200002,24.047912598],[109.18371582000002,24.061279297],[109.21392822300001,24.081115723],[109.25653076200001,24.085083008],[109.28631591800001,24.066894531],[109.30810546900001,24.027099609],[109.32769775400001,23.971923828],[109.34692382800002,23.945678711],[109.38269043000001,23.930297852],[109.41168212900001,23.935913086],[109.47131347700001,23.976318359],[109.49768066400001,24.028930664],[109.55047607400002,24.06427002],[109.57690429700001,24.099487305],[109.60327148400002,24.13470459],[109.68310546900001,24.155883789],[109.70971679700001,24.13848877],[109.73608398400002,24.173522949],[109.73608398400002,24.191101074],[109.73590087900001,24.222717285],[110.23309326200001,23.926696777],[110.26367187500001,23.902282715],[110.28747558600001,23.918884277],[110.28289794900002,23.952697754],[110.27410888700001,23.980712891],[110.27648925800001,24.012329102],[110.29248046900001,24.04888916],[110.31127929700001,24.086120605],[110.31628418000001,24.11907959],[110.34832763700001,24.157287598],[110.38769531200002,24.148681641],[110.42547607400002,24.146911621],[110.40527343700002,24.179077148],[110.40087890600002,24.206726074],[110.40490722700001,24.234313965],[110.38592529300001,24.25769043],[110.36169433600001,24.292114258],[110.32452392600001,24.313293457],[110.27630615200002,24.351501465],[110.25170898400002,24.376281738],[110.23168945300002,24.400512695],[110.19927978500002,24.400512695],[110.16333007800002,24.434692383],[110.18688964800002,24.46307373],[110.15887451200001,24.48248291],[110.12292480500001,24.463928223],[110.10192871100001,24.483886719],[110.10668945300002,24.511474609],[110.13031005900001,24.539489746],[110.15069580100001,24.572692871],[110.15008544900002,24.606506348],[110.13128662100002,24.669494629],[110.06011962900001,24.673278809],[110.07769775400001,24.702087402],[110.05187988300001,24.716918945],[110.02331543000001,24.693908691],[109.98712158200001,24.698303223],[109.96191406200002,24.725891113],[109.93371582000002,24.751525879],[109.93048095700001,24.781677246],[109.90551757800002,24.804321289],[109.87628173800002,24.828674316],[109.86529541000002,24.85949707],[109.83990478500002,24.884277344],[109.80371093700002,24.877319336],[109.77447509800001,24.856079102],[109.74389648400002,24.858703613],[109.70251464800002,24.871887207],[109.63592529300001,24.868713379],[109.59808349600002,24.878723145],[109.60632324200002,24.905090332],[109.60888671900001,24.937072754],[109.60168457000002,24.969116211],[109.60632324200002,25.002502441],[109.62207031200002,25.041687012],[109.63909912100002,25.078918457],[109.64587402300002,25.120483398],[109.63507080100001,25.156921387],[109.63311767600001,25.19152832],[109.65747070300002,25.208679199],[109.68890380900001,25.227722168],[109.69647216800001,25.25592041],[109.70489502,25.302490234],[109.71868896500001,25.34588623],[109.72387695300002,25.392883301],[109.73168945300002,25.424072266],[109.75250244100002,25.466918945],[109.76068115200002,25.500305176],[109.76269531200002,25.536315918],[109.75207519500002,25.56628418],[109.72747802700002,25.614074707],[109.73248291000002,25.651123047],[109.75109863300001,25.688293457],[109.76232910200001,25.72088623],[109.76129150400001,25.759094238],[109.74432373000002,25.783508301],[109.71630859400001,25.805908203],[109.71392822300001,25.841491699],[109.72387695300002,25.866516113],[109.69787597700001,25.86529541],[109.65447998000002,25.891723633],[109.65612793000001,25.90612793],[109.64392089800002,25.924926758],[109.64471435500002,25.938293457],[109.67852783200001,25.953125],[109.71588134800001,25.99029541],[109.68450927700002,26.023071289],[109.64947509800001,26.016479492],[109.63232421900001,26.03527832],[109.58532714800002,26.030273437],[109.56652832000002,26.017272949],[109.53472900400001,26.003479004],[109.48211669900002,26.042724609]]]}}
