{"type":"Feature","id":"bulk-99377448B70681955371786","bbox":[117.95831298800002,29.94909668,119.60827636700002,31.307312012],"properties":{"id":"bulk-99377448B70681955371786","name":"Xuancheng","nameEn":"Xuancheng","fullName":"Xuancheng","level":"city","boundaryRole":"administrative-extent","boundaryQuality":"generalized-source-2020","boundaryYearRepresented":"2020","bounds":[[117.95831298800002,29.94909668],[119.60827636700002,31.307312012]],"center":[118.78329467750001,30.628204346],"centerMethod":"bounding-box midpoint; camera framing only","license":"CC-BY-3.0-IGO","attribution":"geoBoundaries / HDX, China administrative boundaries (2020)","source":{"provider":"geoBoundaries gbHumanitarian / HDX","url":"https://github.com/wmgeolab/geoBoundaries/raw/9469f09/releaseData/gbHumanitarian/CHN/ADM2/geoBoundaries-CHN-ADM2.geojson","metadataUrl":"https://www.geoboundaries.org/api/current/gbHumanitarian/CHN/ADM2/","shapeID":"99377448B70681955371786","shapeName":"Xuancheng","boundaryID":"CHN-ADM2-99377448","commit":"9469f09"},"geometryCounts":{"coordinates":155,"components":1,"holes":0},"boundaryNotice":"geoBoundaries / HDX 2020 年行政区数据，海岸和边界经过源数据概化，并非当前测绘成果。"},"geometry":{"type":"Polygon","coordinates":[[[119.17608642600001,31.257873535],[119.13989257800002,31.289672852],[119.08551025400001,31.269470215],[119.05712890600002,31.251098633],[119.01647949200002,31.236877441],[119.00189209000001,31.231689453],[118.953125,31.235107422],[118.90411377,31.224121094],[118.83630371100001,31.22869873],[118.78088378900001,31.242126465],[118.76391601600001,31.230895996],[118.71307373000002,31.281494141],[118.69567871100001,31.307312012],[118.65087890600002,31.299682617],[118.65087890600002,31.254272461],[118.65747070300002,31.218688965],[118.67028808600001,31.194091797],[118.69311523400002,31.172729492],[118.71569824200002,31.144897461],[118.68450927700002,31.124084473],[118.66772460900002,31.082519531],[118.66131591800001,31.053527832],[118.63592529300001,31.030700684],[118.59869384800001,31.040283203],[118.56488037100002,31.033874512],[118.57373046900001,30.992919922],[118.56170654300001,30.964477539],[118.52130127,30.959472656],[118.46588134800001,30.965515137],[118.48187255900001,30.936523437],[118.47332763700001,30.885498047],[118.472473145,30.842529297],[118.47808837900001,30.815673828],[118.45050048800002,30.77130127],[118.42932128900001,30.801330566],[118.413879395,30.827514648],[118.38391113300001,30.849487305],[118.34088134800001,30.839111328],[118.31311035200001,30.822509766],[118.29571533200001,30.793273926],[118.28149414100001,30.768127441],[118.27392578100002,30.737304687],[118.25250244100002,30.709472656],[118.20928955100001,30.707885742],[118.16870117200001,30.68951416],[118.14410400400001,30.667114258],[118.09112548800002,30.657104492],[118.07147216800001,30.635925293],[118.04370117200001,30.611877441],[118.01092529300001,30.581726074],[117.98510742200001,30.551879883],[117.95831298800002,30.522094727],[118.03149414100001,30.502319336],[118.07031250000001,30.520507812],[118.10327148400002,30.522888184],[118.11169433600001,30.484680176],[118.09771728500002,30.451293945],[118.12670898400002,30.440673828],[118.15930175800001,30.454101562],[118.19329834000001,30.465698242],[118.22351074200002,30.436279297],[118.23107910200001,30.406677246],[118.25927734400001,30.389099121],[118.30432128900001,30.389099121],[118.29309082000002,30.357727051],[118.29931640600002,30.326477051],[118.29730224600002,30.296691895],[118.27947998000002,30.273681641],[118.25610351600001,30.25567627],[118.25848388700001,30.222290039],[118.28649902300002,30.203308105],[118.30792236300002,30.181091309],[118.32269287100002,30.156677246],[118.39093017600001,30.148681641],[118.37152099600002,30.104125977],[118.42687988300001,30.104492187],[118.46051025400001,30.094299316],[118.48730468700002,30.067871094],[118.50390625000001,30.030883789],[118.50048828100002,30.003479004],[118.49511718700002,29.973876953],[118.51910400400001,29.952270508],[118.55828857400002,29.94909668],[118.58630371100001,29.96472168],[118.60772705100001,29.992919922],[118.62951660200001,30.019287109],[118.65710449200002,30.04107666],[118.69067382800002,30.054321289],[118.73791503900001,30.063293457],[118.76947021500001,30.077697754],[118.79870605500001,30.103271484],[118.84472656200002,30.146484375],[118.83569335900002,30.167480469],[118.88409423800002,30.179321289],[118.86987304700001,30.228515625],[118.84210205100001,30.281311035],[118.84411621100001,30.30267334],[118.84649658200001,30.328125],[118.90789794900002,30.352478027],[118.92449951200001,30.349487305],[118.96728515600002,30.321716309],[119.02069091800001,30.295715332],[119.07672119100002,30.306884766],[119.12109375000001,30.297485352],[119.23071289100001,30.286071777],[119.21832275400001,30.331726074],[119.24890136700002,30.37310791],[119.29852294900002,30.36328125],[119.32550048800002,30.356872559],[119.34112548800002,30.365722656],[119.32830810500002,30.401123047],[119.31127929700001,30.448120117],[119.29968261700002,30.491699219],[119.26348877,30.520080566],[119.19128418000001,30.59387207],[119.21490478500002,30.606506348],[119.22668457000002,30.609130859],[119.312316895,30.628112793],[119.31628418000001,30.67767334],[119.35308837900001,30.684875488],[119.38787841800001,30.652099609],[119.41992187500001,30.644287109],[119.4375,30.701904297],[119.44952392600001,30.716308594],[119.44488525400001,30.754089355],[119.50012207000002,30.775878906],[119.53070068400001,30.8046875],[119.53228759800001,30.860900879],[119.53308105500001,30.867126465],[119.53710937500001,30.897888184],[119.55291748000002,30.958312988],[119.58227539100001,30.995300293],[119.59088134800001,31.047302246],[119.597473145,31.080505371],[119.60827636700002,31.12310791],[119.59051513700001,31.124694824],[119.56329345700001,31.119689941],[119.53851318400001,31.147277832],[119.51593017600001,31.169677734],[119.51428222700001,31.171325684],[119.46948242200001,31.171875],[119.43151855500001,31.164916992],[119.40972900400001,31.171875],[119.39550781200002,31.177307129],[119.37652587900001,31.170715332],[119.35650634800001,31.180908203],[119.35229492200001,31.183105469],[119.33947753900001,31.205322266],[119.33569335900002,31.25189209],[119.35327148400002,31.277282715],[119.29949951200001,31.283081055],[119.25848388700001,31.257507324],[119.22192382800002,31.245727539],[119.18609619100002,31.249084473],[119.17608642600001,31.257873535]]]}}
