{"type":"Feature","id":"bulk-99377448B68263377180527","bbox":[85.520874023,44.93572998,91.062316895,49.173278809],"properties":{"id":"bulk-99377448B68263377180527","name":"Altay Prefecture","nameEn":"Altay Prefecture","fullName":"Altay Prefecture","level":"city","boundaryRole":"administrative-extent","boundaryQuality":"generalized-source-2020","boundaryYearRepresented":"2020","bounds":[[85.520874023,44.93572998],[91.062316895,49.173278809]],"center":[88.291595459,47.0545043945],"centerMethod":"bounding-box midpoint; camera framing only","license":"CC-BY-3.0-IGO","attribution":"geoBoundaries / HDX, China administrative boundaries (2020)","source":{"provider":"geoBoundaries gbHumanitarian / HDX","url":"https://github.com/wmgeolab/geoBoundaries/raw/9469f09/releaseData/gbHumanitarian/CHN/ADM2/geoBoundaries-CHN-ADM2.geojson","metadataUrl":"https://www.geoboundaries.org/api/current/gbHumanitarian/CHN/ADM2/","shapeID":"99377448B68263377180527","shapeName":"Altay Prefecture","boundaryID":"CHN-ADM2-99377448","commit":"9469f09"},"geometryCounts":{"coordinates":504,"components":1,"holes":0},"boundaryNotice":"geoBoundaries / HDX 2020 年行政区数据，海岸和边界经过源数据概化，并非当前测绘成果。"},"geometry":{"type":"Polygon","coordinates":[[[87.33172607400002,45.290527344],[87.33709716800001,45.220092773],[87.335693359,45.19128418],[87.33709716800001,45.162719727],[87.33770752,45.126098633],[87.33831787100002,45.072875977],[87.33789062500001,45.026123047],[87.33367919900002,44.988708496],[87.33270263700001,44.961120605],[87.38928222700001,44.950073242],[87.429504395,44.949890137],[87.50689697300001,44.947875977],[87.551330566,44.946289062],[87.600524902,44.952087402],[87.68188476600001,44.937683105],[87.73272705100001,44.936889648],[87.78552246100001,44.93572998],[87.82452392600001,44.938476562],[87.903686523,44.942871094],[87.99029541000002,44.949890137],[88.08972168000001,44.940124512],[88.15869140600002,44.94152832],[88.25811767600001,44.945922852],[88.31549072300001,44.946289062],[88.38189697300001,44.9453125],[88.43927002,44.943481445],[88.50152587900001,44.947509766],[88.55767822300001,44.952087402],[88.60430908200001,44.951293945],[88.643127441,44.950683594],[88.70111084000001,44.953491211],[88.76409912100002,44.946716309],[88.81512451200001,44.946716309],[88.86450195300002,44.948303223],[88.92388916000002,44.948913574],[88.98632812500001,44.947692871],[89.04809570300002,44.949279785],[89.102478027,44.950683594],[89.152526855,44.954284668],[89.19952392600001,44.956726074],[89.27252197300001,44.953491211],[89.31707763700001,44.963500977],[89.38049316400001,44.956481934],[89.44927978500002,44.955078125],[89.51367187500001,44.955322266],[89.57189941400001,44.95690918],[89.636901855,44.955688477],[89.70050048800002,44.954284668],[89.76428222700001,44.955078125],[89.81610107400002,44.954711914],[89.859924316,44.954284668],[89.93310546900001,44.954284668],[89.97308349600002,44.958312988],[90.02728271500001,44.955078125],[90.06689453100002,44.955505371],[90.12548828100002,44.960083008],[90.17651367200001,44.952697754],[90.21710205100001,44.951477051],[90.21771240200002,44.98828125],[90.21527099600002,45.024719238],[90.237304687,45.049072266],[90.26232910200001,45.091674805],[90.28247070300002,45.131103516],[90.320495605,45.167297363],[90.347473145,45.195495605],[90.37292480500001,45.230285645],[90.39770507800002,45.259277344],[90.427490234,45.297485352],[90.45727539100001,45.340698242],[90.487670898,45.372680664],[90.52069091800001,45.387329102],[90.56872558600001,45.400085449],[90.62609863300001,45.416687012],[90.73852539100001,45.437316895],[90.70269775400001,45.468078613],[90.695495605,45.470703125],[90.67108154300001,45.50592041],[90.68670654300001,45.616516113],[90.73089599600002,45.733093262],[90.87768554700001,45.909301758],[90.98828125000001,45.982910156],[90.99487304700001,45.993530273],[91.02410888700001,46.04107666],[91.030273437,46.084472656],[91.030273437,46.086486816],[91.02947998,46.089904785],[91.00067138700001,46.139892578],[90.971679687,46.164672852],[90.96771240200002,46.188293457],[90.96508789100001,46.194519043],[90.94830322300001,46.220092773],[90.92932128900001,46.248291016],[90.92590332000002,46.257080078],[90.89807128900001,46.290100098],[90.92272949200002,46.324890137],[90.96350097700001,46.341308594],[90.987670898,46.404724121],[91.01287841800001,46.426696777],[91.01507568400001,46.46270752],[91.03631591800001,46.47668457],[91.05908203100002,46.533081055],[91.062316895,46.535888672],[91.060302734,46.546691895],[91.052124023,46.56048584],[91.04510498,46.563293457],[91.00732421900001,46.557495117],[91.00811767600001,46.574707031],[91.04327392600001,46.6875],[91.04388427700002,46.69128418],[91.03747558600001,46.709899902],[91.01989746100001,46.737304687],[90.98907470700001,46.745300293],[90.98370361300002,46.759277344],[90.96667480500001,46.784912109],[90.95349121100001,46.807312012],[90.95349121100001,46.807495117],[90.93988037100002,46.819885254],[90.953308105,46.848876953],[90.95111084000001,46.857299805],[90.94128418000001,46.874084473],[90.91809082000002,46.891906738],[90.91748046900001,46.917480469],[90.89367675800001,46.942504883],[90.855285645,46.962524414],[90.81671142600001,46.968322754],[90.778686523,46.972473145],[90.69952392600001,47.042724609],[90.678283691,47.06628418],[90.63848877,47.098693848],[90.61029052700002,47.143310547],[90.58990478500002,47.163696289],[90.53192138700001,47.205078125],[90.52172851600001,47.225524902],[90.51550293000001,47.252929687],[90.502929687,47.276489258],[90.479492187,47.288085937],[90.472473145,47.309509277],[90.48669433600001,47.322875977],[90.49127197300001,47.345275879],[90.504882812,47.361328125],[90.48791503900001,47.372497559],[90.470092773,47.392089844],[90.44787597700001,47.403503418],[90.45190429700001,47.442077637],[90.46490478500002,47.459289551],[90.46429443400001,47.481079102],[90.46173095700001,47.483886719],[90.42730712900001,47.513305664],[90.40447998,47.520324707],[90.336120605,47.607727051],[90.344726562,47.648498535],[90.26831054700001,47.687683105],[90.25592041000002,47.690490723],[90.20971679700001,47.692321777],[90.18408203100002,47.702087402],[90.15447998,47.707275391],[90.12768554700001,47.707885742],[90.08868408200001,47.736083984],[90.06427002,47.782287598],[90.06512451200001,47.813720703],[90.07928466800001,47.837280273],[90.05731201200001,47.841918945],[90.053283691,47.852294922],[90.04528808600001,47.856079102],[90.01568603500002,47.856079102],[90.011901855,47.861083984],[89.96350097700001,47.865478516],[89.96630859400001,47.834106445],[89.95391845700001,47.81628418],[89.913085937,47.809692383],[89.85632324200002,47.814697266],[89.83447265600002,47.817321777],[89.81048584000001,47.816894531],[89.76751709000001,47.819274902],[89.747070312,47.823120117],[89.72912597700001,47.838684082],[89.72570800800001,47.876098633],[89.69067382800002,47.889282227],[89.68029785200001,47.895507812],[89.64367675800001,47.895874023],[89.61712646500001,47.9375],[89.57489013700001,47.960876465],[89.56768798800002,47.987670898],[89.597473145,48.008728027],[89.59729003900001,48.008911133],[89.55529785200001,48.002929687],[89.502929687,48.00189209],[89.44409179700001,48.003723145],[89.39947509800001,48.013122559],[89.36529541000002,48.030273437],[89.362304687,48.028320312],[89.35589599600002,48.006896973],[89.337280273,47.991088867],[89.28833007800002,47.988525391],[89.243896484,47.958496094],[89.21209716800001,47.962280273],[89.18371582000002,47.973083496],[89.12689209000001,47.964904785],[89.08551025400001,47.964294434],[89.06848144500002,47.972717285],[89.05908203100002,47.977294922],[89.03430175800001,48.006530762],[89.02172851600001,48.020690918],[88.959899902,48.063293457],[88.93927002,48.082702637],[88.89630127,48.080871582],[88.85308837900001,48.094116211],[88.810302734,48.108276367],[88.79412841800001,48.099121094],[88.79071044900002,48.10949707],[88.75628662100002,48.124694824],[88.69091796900001,48.159729004],[88.68310546900001,48.170471191],[88.67327880900001,48.171875],[88.65148925800001,48.16607666],[88.62548828100002,48.171508789],[88.61828613300001,48.192871094],[88.61169433600001,48.201721191],[88.57611084000001,48.246276855],[88.57348632800002,48.269104004],[88.56591796900001,48.282714844],[88.57891845700001,48.29888916],[88.59167480500001,48.324890137],[88.51550293000001,48.356689453],[88.50689697300001,48.394897461],[88.46948242200001,48.364685059],[88.44067382800002,48.354675293],[88.40570068400001,48.380493164],[88.38507080100001,48.408325195],[88.35272216800001,48.412902832],[88.34112548800002,48.443115234],[88.329101562,48.466674805],[88.31512451200001,48.474487305],[88.27893066400001,48.486083984],[88.27209472700001,48.486328125],[88.167724609,48.492919922],[88.14611816400001,48.51751709],[88.12652587900001,48.528686523],[88.077880859,48.545898437],[88.02807617200001,48.551879883],[87.98248291000002,48.573913574],[87.97570800800001,48.580078125],[87.97528076200001,48.580322266],[87.975524902,48.580322266],[87.96508789100001,48.58972168],[87.96472168000001,48.603881836],[87.994689941,48.625488281],[88.02227783200001,48.639892578],[88.02227783200001,48.647705078],[88.011901855,48.660095215],[88.038085937,48.674316406],[88.05468750000001,48.681884766],[88.062683105,48.697509766],[88.02893066400001,48.706481934],[88.00927734400001,48.73449707],[87.98791503900001,48.739685059],[87.94610595700001,48.742675781],[87.902526855,48.763305664],[87.85711669900002,48.796875],[87.83868408200001,48.813476562],[87.83831787100002,48.813476562],[87.82208252,48.821899414],[87.81652832000002,48.828125],[87.73992919900002,48.862915039],[87.74169921900001,48.882080078],[87.75030517600001,48.89251709],[87.74731445300002,48.895690918],[87.75128173800002,48.906921387],[87.780273437,48.934509277],[87.79107666000002,48.940917969],[87.82531738300001,48.950927734],[87.84051513700001,48.962524414],[87.87847900400001,48.995910645],[87.835327148,49.018493652],[87.83410644500002,49.054321289],[87.842712402,49.074523926],[87.81372070300002,49.104919434],[87.811096191,49.132873535],[87.79730224600002,49.154296875],[87.77227783200001,49.173278809],[87.768127441,49.172485352],[87.76629638700001,49.172302246],[87.72467041000002,49.157287598],[87.64691162100002,49.145324707],[87.56628418000001,49.13269043],[87.518127441,49.12890625],[87.51507568400001,49.11328125],[87.511901855,49.108276367],[87.51232910200001,49.106872559],[87.50830078100002,49.100891113],[87.50653076200001,49.099914551],[87.49688720700001,49.084899902],[87.47113037100002,49.065673828],[87.43310546900001,49.053100586],[87.39208984400001,49.065490723],[87.35589599600002,49.083496094],[87.350524902,49.085327148],[87.30609130900001,49.100280762],[87.24047851600001,49.093505859],[87.136108398,49.128112793],[87.07250976600001,49.123718262],[87.04791259800001,49.121887207],[86.986083984,49.103088379],[86.96911621100001,49.100524902],[86.945129395,49.099304199],[86.92327880900001,49.099914551],[86.91552734400001,49.10168457],[86.89050293000001,49.112670898],[86.85510253900001,49.094299316],[86.84112548800002,49.073303223],[86.84112548800002,49.071472168],[86.83868408200001,49.065673828],[86.836486816,49.060302734],[86.82928466800001,49.050476074],[86.80828857400002,49.039123535],[86.80529785200001,49.038085937],[86.78228759800001,49.025695801],[86.72888183600001,48.99810791],[86.72869873,48.997680664],[86.72607421900001,48.942077637],[86.73370361300002,48.914672852],[86.73889160200001,48.906311035],[86.75592041000002,48.894104004],[86.768127441,48.887695312],[86.77331543000001,48.882080078],[86.778686523,48.873291016],[86.79528808600001,48.865905762],[86.81048584000001,48.850280762],[86.8125,48.842895508],[86.81207275400001,48.838500977],[86.81951904300001,48.833679199],[86.796691895,48.807312012],[86.75451660200001,48.787109375],[86.75732421900001,48.760070801],[86.75732421900001,48.759521484],[86.76550293000001,48.752075195],[86.76947021500001,48.744689941],[86.770080566,48.733520508],[86.76312255900001,48.714904785],[86.74987793000001,48.70111084],[86.72192382800002,48.680114746],[86.70690918000001,48.671691895],[86.69970703100002,48.66607666],[86.69531250000001,48.660522461],[86.69488525400001,48.658691406],[86.69049072300001,48.644287109],[86.68548584000001,48.638916016],[86.67150878900001,48.631530762],[86.65032959000001,48.629089355],[86.65008544900002,48.62890625],[86.62408447300001,48.584106445],[86.577087402,48.528076172],[86.562683105,48.509521484],[86.40631103500002,48.457275391],[86.33587646500001,48.457702637],[86.24407959000001,48.38671875],[86.187316895,48.426330566],[86.019714355,48.41607666],[85.987304687,48.416320801],[85.85070800800001,48.416870117],[85.80187988300001,48.404724121],[85.753723145,48.379516602],[85.72772216800001,48.325683594],[85.69610595700001,48.268127441],[85.65490722700001,48.213684082],[85.650512695,48.211486816],[85.643920898,48.200317383],[85.64288330100001,48.19909668],[85.61492919900002,48.164672852],[85.61047363300001,48.156677246],[85.60632324200002,48.122680664],[85.60668945300002,48.110107422],[85.61212158200001,48.083312988],[85.610290527,48.079528809],[85.60668945300002,48.071289062],[85.59613037100002,48.057922363],[85.59228515600002,48.049682617],[85.58831787100002,48.026489258],[85.56689453100002,48.00012207],[85.55828857400002,47.991088867],[85.55151367200001,47.979675293],[85.54772949200002,47.973693848],[85.54248046900001,47.95489502],[85.54229736300002,47.952514648],[85.58111572300001,47.883911133],[85.577514648,47.84552002],[85.57690429700001,47.839111328],[85.57409668000001,47.808898926],[85.592712402,47.749694824],[85.59228515600002,47.742919922],[85.595092773,47.733093262],[85.602111816,47.705688477],[85.601318359,47.686279297],[85.60650634800001,47.662719727],[85.61688232400002,47.631896973],[85.62109375000001,47.609130859],[85.621276855,47.607727051],[85.60852050800001,47.55090332],[85.613098145,47.526489258],[85.620483398,47.489318848],[85.62188720700001,47.486877441],[85.63989257800002,47.454284668],[85.66632080100001,47.42590332],[85.68670654300001,47.411315918],[85.69830322300001,47.397888184],[85.70550537100002,47.382873535],[85.70690918000001,47.377319336],[85.70727539100001,47.375488281],[85.69812011700002,47.352294922],[85.69091796900001,47.324707031],[85.693481445,47.312927246],[85.702880859,47.294677734],[85.703674316,47.279907227],[85.69531250000001,47.258117676],[85.695495605,47.254882812],[85.69689941400001,47.230895996],[85.69488525400001,47.223327637],[85.69067382800002,47.218322754],[85.67767334000001,47.211486816],[85.677124023,47.211486816],[85.67071533200001,47.199707031],[85.645874023,47.169921875],[85.59411621100001,47.120300293],[85.53051757800002,47.06628418],[85.52972412100002,47.059509277],[85.52209472700001,47.059326172],[85.520874023,47.058288574],[85.56091308600001,46.98651123],[85.60607910200001,46.988891602],[85.670471191,46.988891602],[85.73168945300002,46.98651123],[85.785705566,46.985717773],[85.83947753900001,46.99407959],[85.90631103500002,47.004089355],[85.97412109400001,47.000488281],[86.01989746100001,46.979492187],[86.05847168000001,46.957275391],[86.09967041000002,46.931884766],[86.15393066400001,46.924499512],[86.19488525400001,46.934692383],[86.23828125000001,46.940307617],[86.30548095700001,46.945129395],[86.37847900400001,46.94732666],[86.42327880900001,46.940917969],[86.45452880900001,46.914672852],[86.53192138700001,46.915710449],[86.62652587900001,46.934692383],[86.69110107400002,46.94909668],[86.730285645,46.952270508],[86.77191162100002,46.955505371],[86.83471679700001,46.964904785],[86.87469482400002,46.972473145],[86.928710937,46.983703613],[87.02587890600002,47.00567627],[87.06048584000001,46.942321777],[87.06048584000001,46.907714844],[87.06829834000001,46.860900879],[87.07550048800002,46.827514648],[87.09588623,46.798522949],[87.13427734400001,46.77947998],[87.19189453100002,46.782287598],[87.22668457,46.754272461],[87.24029541000002,46.711730957],[87.238098145,46.683288574],[87.234924316,46.652282715],[87.22387695300002,46.618103027],[87.20428466800001,46.589477539],[87.169311523,46.567321777],[87.14050293000001,46.547912598],[87.10510253900001,46.522277832],[87.08251953100002,46.499084473],[87.06207275400001,46.463928223],[87.07427978500002,46.408325195],[87.10491943400001,46.361083984],[87.12548828100002,46.333312988],[87.14727783200001,46.291687012],[87.170471191,46.242919922],[87.195129395,46.1953125],[87.21728515600002,46.152526855],[87.24407959000001,46.110290527],[87.27288818400001,46.073486328],[87.28112793000001,46.044128418],[87.30969238300001,45.994506836],[87.326293945,45.968078613],[87.34948730500001,45.931884766],[87.35870361300002,45.901306152],[87.35388183600001,45.866882324],[87.34790039100001,45.832702637],[87.34552002,45.8046875],[87.33868408200001,45.772888184],[87.33471679700001,45.741882324],[87.33331298800002,45.696105957],[87.33172607400002,45.658691406],[87.328308105,45.611083984],[87.33752441400001,45.561279297],[87.33850097700001,45.533691406],[87.33630371100001,45.501708984],[87.33447265600002,45.472106934],[87.33032226600001,45.436279297],[87.32373046900001,45.407714844],[87.31951904300001,45.371704102],[87.32110595700001,45.344482422],[87.32568359400001,45.317687988],[87.33172607400002,45.290527344]]]}}
