{"type":"Feature","id":"bulk-99377448B40595653469308","bbox":[114.40667724600002,29.707092285,116.09289550800001,31.608093262],"properties":{"id":"bulk-99377448B40595653469308","name":"Huanggang","nameEn":"Huanggang","fullName":"Huanggang","level":"city","boundaryRole":"administrative-extent","boundaryQuality":"generalized-source-2020","boundaryYearRepresented":"2020","bounds":[[114.40667724600002,29.707092285],[116.09289550800001,31.608093262]],"center":[115.24978637700002,30.6575927735],"centerMethod":"bounding-box midpoint; camera framing only","license":"CC-BY-3.0-IGO","attribution":"geoBoundaries / HDX, China administrative boundaries (2020)","source":{"provider":"geoBoundaries gbHumanitarian / HDX","url":"https://github.com/wmgeolab/geoBoundaries/raw/9469f09/releaseData/gbHumanitarian/CHN/ADM2/geoBoundaries-CHN-ADM2.geojson","metadataUrl":"https://www.geoboundaries.org/api/current/gbHumanitarian/CHN/ADM2/","shapeID":"99377448B40595653469308","shapeName":"Huanggang","boundaryID":"CHN-ADM2-99377448","commit":"9469f09"},"geometryCounts":{"coordinates":205,"components":1,"holes":0},"boundaryNotice":"geoBoundaries / HDX 2020 年行政区数据，海岸和边界经过源数据概化，并非当前测绘成果。"},"geometry":{"type":"Polygon","coordinates":[[[116.01208496100001,30.996887207],[115.99029541000002,31.009887695],[115.94287109400001,31.034912109],[115.91107177700002,31.054077148],[115.89550781200002,31.078674316],[115.87408447300001,31.109924316],[115.83612060500002,31.126525879],[115.83148193400001,31.128479004],[115.78729248000002,31.117126465],[115.72271728500002,31.122314453],[115.70947265600002,31.151306152],[115.69171142600001,31.193908691],[115.66229248000002,31.219116211],[115.62969970700001,31.226501465],[115.56909179700001,31.171325684],[115.52331543000001,31.171325684],[115.50091552700002,31.205688477],[115.49792480500001,31.210510254],[115.47192382800002,31.262084961],[115.44531250000001,31.299499512],[115.40887451200001,31.336486816],[115.37890625000001,31.352722168],[115.32928466800001,31.34387207],[115.32507324200002,31.367126465],[115.32049560500002,31.37890625],[115.32629394500002,31.368103027],[115.33331298800002,31.377502441],[115.23651123000002,31.405883789],[115.22387695300002,31.408325195],[115.21289062500001,31.403320312],[115.18609619100002,31.398925781],[115.17767334000001,31.424926758],[115.17510986300002,31.456115723],[115.17272949200002,31.492675781],[115.17590332000002,31.532470703],[115.16827392600001,31.574523926],[115.163879395,31.58190918],[115.14868164100001,31.608093262],[115.10888671900001,31.584472656],[115.05590820300002,31.548278809],[115.04589843700002,31.538879395],[115.02368164100001,31.478515625],[114.96173095700001,31.478881836],[114.90972900400001,31.485107422],[114.86712646500001,31.464294434],[114.82629394500002,31.457702637],[114.81530761700002,31.459289551],[114.78912353500002,31.463317871],[114.75549316400001,31.497314453],[114.73010253900001,31.525695801],[114.71789550800001,31.539306641],[114.66247558600001,31.517089844],[114.64367675800001,31.554870605],[114.61651611300002,31.591308594],[114.59228515600002,31.601074219],[114.56732177700002,31.56451416],[114.53747558600001,31.581298828],[114.51989746100001,31.561889648],[114.50848388700001,31.533874512],[114.51269531200002,31.496887207],[114.49688720700001,31.472473145],[114.48950195300002,31.437683105],[114.45568847700001,31.410095215],[114.44348144500002,31.372497559],[114.45190429700001,31.344482422],[114.43969726600001,31.319274902],[114.41052246100001,31.276916504],[114.40667724600002,31.244873047],[114.41992187500001,31.218078613],[114.45690918000001,31.203308105],[114.48309326200001,31.171691895],[114.49670410200001,31.131286621],[114.51068115200002,31.089294434],[114.51269531200002,31.061096191],[114.51251220700001,31.029296875],[114.53509521500001,30.999694824],[114.56292724600002,30.976074219],[114.58209228500002,30.952087402],[114.62591552700002,30.938903809],[114.66271972700001,30.942077637],[114.69451904300001,30.957092285],[114.69091796900001,30.99407959],[114.73907470700001,30.982910156],[114.76770019500002,31.009094238],[114.79992675800001,30.980529785],[114.81970214800002,30.957519531],[114.85449218700002,30.960327148],[114.86370849600002,30.988891602],[114.87347412100002,31.017700195],[114.90771484400001,31.012695312],[114.94128418000001,31.005493164],[114.96649169900002,31.026123047],[114.99090576200001,30.99407959],[115.00390625000001,30.948120117],[115.03009033200001,30.910888672],[115.05590820300002,30.891906738],[115.05950927700002,30.858886719],[115.02270507800002,30.848510742],[114.99328613300001,30.860717773],[114.96051025400001,30.854125977],[114.95111084000001,30.821472168],[114.91229248000002,30.812072754],[114.87847900400001,30.81427002],[114.863098145,30.789306641],[114.83770752,30.757080078],[114.79748535200001,30.747070312],[114.78210449200002,30.723083496],[114.78833007800002,30.696105957],[114.81152343700002,30.66809082],[114.80847168000001,30.618103027],[114.81372070300002,30.583679199],[114.81207275400001,30.556274414],[114.81048584000001,30.52911377],[114.82751464800002,30.446289062],[114.82592773400002,30.418884277],[114.82507324200002,30.405273437],[114.84588623000002,30.390686035],[114.86749267600001,30.389709473],[114.88909912100002,30.388916016],[114.93212890600002,30.387084961],[114.96649169900002,30.386474609],[114.995910645,30.370727539],[115.03808593700002,30.355102539],[115.05889892600001,30.340515137],[115.05731201200001,30.313293457],[115.05651855500001,30.299682617],[115.05548095700001,30.285888672],[115.07470703100002,30.24407959],[115.07312011700002,30.216674805],[115.07232666000002,30.202880859],[115.09289550800001,30.188476562],[115.13592529300001,30.186523437],[115.17889404300001,30.184692383],[115.19952392600001,30.17010498],[115.21929931600002,30.141723633],[115.24072265600002,30.140686035],[115.26049804700001,30.112487793],[115.28112793000001,30.097900391],[115.30010986300002,30.055908203],[115.29827880900001,30.028503418],[115.31811523400002,30.000305176],[115.33691406200002,29.958312988],[115.35589599600002,29.916320801],[115.37469482400002,29.874328613],[115.41491699200002,29.831298828],[115.43530273400002,29.81652832],[115.54168701200001,29.810119629],[115.63732910200001,29.815124512],[115.69409179700001,29.819091797],[115.72552490200002,29.804504395],[115.74047851600001,29.787902832],[115.76470947300001,29.765075684],[115.79748535200001,29.742126465],[115.83331298800002,29.72869873],[115.86468505900001,29.717102051],[115.89251709000001,29.709106445],[115.93371582000002,29.707092285],[115.95928955100001,29.712280273],[115.99432373000002,29.725280762],[116.03308105500001,29.743286133],[116.03930664100001,29.749511719],[116.05572509800001,29.761901855],[116.06488037100002,29.782897949],[116.07769775400001,29.800109863],[116.09289550800001,29.831481934],[116.09252929700001,29.894897461],[116.06567382800002,29.937927246],[116.06207275400001,29.963928223],[116.06427002,30.000305176],[116.06530761700002,30.033325195],[116.06329345700001,30.0546875],[116.05871582000002,30.082519531],[116.04907226600001,30.13092041],[116.03332519500002,30.182495117],[115.99011230500001,30.235107422],[115.93969726600001,30.288879395],[115.91088867200001,30.30090332],[115.89147949200002,30.300476074],[115.86248779300001,30.300292969],[115.86108398400002,30.313720703],[115.86828613300001,30.330322266],[115.88787841800001,30.356872559],[115.90289306600002,30.397277832],[115.89208984400001,30.435302734],[115.88812255900001,30.449523926],[115.87048339800002,30.51171875],[115.87268066400001,30.547119141],[115.84967041000002,30.571289062],[115.77990722700001,30.604492187],[115.75347900400001,30.660705566],[115.75268554700001,30.663696289],[115.74090576200001,30.716308594],[115.75708007800002,30.74230957],[115.81109619100002,30.765075684],[115.82232666000002,30.769897461],[115.81072998000002,30.807678223],[115.80328369100002,30.843505859],[115.82550048800002,30.879089355],[115.86547851600001,30.874694824],[115.90087890600002,30.881286621],[115.95129394500002,30.910095215],[115.98388671900001,30.940673828],[116.02349853500002,30.980895996],[116.02087402300002,30.991516113],[116.01208496100001,30.996887207]]]}}
