{"type":"Feature","id":"bulk-99377448B74997352647261","bbox":[119.23150634800001,28.506286621,120.76910400400001,29.680480957],"properties":{"id":"bulk-99377448B74997352647261","name":"Jinhua","nameEn":"Jinhua","fullName":"Jinhua","level":"city","boundaryRole":"administrative-extent","boundaryQuality":"generalized-source-2020","boundaryYearRepresented":"2020","bounds":[[119.23150634800001,28.506286621],[120.76910400400001,29.680480957]],"center":[120.00030517600001,29.093383789],"centerMethod":"bounding-box midpoint; camera framing only","license":"CC-BY-3.0-IGO","attribution":"geoBoundaries / HDX, China administrative boundaries (2020)","source":{"provider":"geoBoundaries gbHumanitarian / HDX","url":"https://github.com/wmgeolab/geoBoundaries/raw/9469f09/releaseData/gbHumanitarian/CHN/ADM2/geoBoundaries-CHN-ADM2.geojson","metadataUrl":"https://www.geoboundaries.org/api/current/gbHumanitarian/CHN/ADM2/","shapeID":"99377448B74997352647261","shapeName":"Jinhua","boundaryID":"CHN-ADM2-99377448","commit":"9469f09"},"geometryCounts":{"coordinates":182,"components":1,"holes":0},"boundaryNotice":"geoBoundaries / HDX 2020 年行政区数据，海岸和边界经过源数据概化，并非当前测绘成果。"},"geometry":{"type":"Polygon","coordinates":[[[119.24230957000002,29.237670898],[119.23529052700002,29.211486816],[119.23150634800001,29.18347168],[119.23291015600002,29.178894043],[119.23870849600002,29.176696777],[119.23907470700001,29.167297363],[119.24047851600001,29.16192627],[119.24267578100002,29.158081055],[119.24768066400001,29.156677246],[119.24871826200001,29.148498535],[119.24987793000001,29.142883301],[119.26208496100001,29.127929687],[119.26770019500002,29.121887207],[119.27551269500002,29.118103027],[119.28448486300002,29.109924316],[119.29827880900001,29.093322754],[119.30627441400001,29.089111328],[119.31750488300001,29.082275391],[119.32128906200002,29.078308105],[119.33648681600002,29.075683594],[119.33929443400001,29.070678711],[119.34051513700001,29.060302734],[119.33752441400001,29.05090332],[119.33209228500002,29.044494629],[119.32690429700001,29.037902832],[119.32409668000001,29.027709961],[119.32373046900001,29.017883301],[119.32647705100001,29.012329102],[119.32867431600002,29.007507324],[119.328125,29.003723145],[119.32507324200002,28.99810791],[119.31829834000001,28.992126465],[119.30871582000002,28.985290527],[119.30230712900001,28.979492187],[119.29547119100002,28.970275879],[119.29431152300002,28.962524414],[119.29968261700002,28.954284668],[119.31127929700001,28.94732666],[119.31530761700002,28.94329834],[119.32427978500002,28.938476562],[119.32867431600002,28.931884766],[119.33428955100001,28.922119141],[119.33551025400001,28.916320801],[119.33428955100001,28.908874512],[119.32849121100001,28.892089844],[119.32287597700001,28.882507324],[119.32287597700001,28.874084473],[119.32788085900002,28.85168457],[119.33288574200002,28.834716797],[119.33227539100001,28.829711914],[119.33209228500002,28.817077637],[119.33068847700001,28.812927246],[119.32788085900002,28.809326172],[119.32592773400002,28.80871582],[119.31872558600001,28.803527832],[119.32208252,28.794921875],[119.32830810500002,28.754882812],[119.36010742200001,28.751281738],[119.39410400400001,28.762512207],[119.41870117200001,28.737121582],[119.45452880900001,28.742492676],[119.45330810500002,28.68170166],[119.44311523400002,28.65612793],[119.45568847700001,28.611877441],[119.48547363300001,28.593078613],[119.48632812500001,28.554870605],[119.51531982400002,28.536499023],[119.54052734400001,28.514099121],[119.58148193400001,28.506286621],[119.61529541000002,28.506896973],[119.65808105500001,28.506286621],[119.69873046900001,28.524902344],[119.72869873000002,28.550292969],[119.73791503900001,28.585693359],[119.74847412100002,28.612915039],[119.78692627,28.613891602],[119.80627441400001,28.636108398],[119.80371093700002,28.663330078],[119.82971191400001,28.685913086],[119.85211181600002,28.707885742],[119.88128662100002,28.760681152],[119.91107177700002,28.780090332],[119.94952392600001,28.775878906],[119.97930908200001,28.746520996],[120.02130127,28.737121582],[120.05627441400001,28.756103516],[120.08868408200001,28.757507324],[120.120910645,28.757873535],[120.15051269500002,28.783691406],[120.17852783200001,28.803710937],[120.20367431600002,28.822875977],[120.23547363300001,28.847717285],[120.25030517600001,28.879699707],[120.25048828100002,28.911315918],[120.28027343700002,28.932312012],[120.30908203100002,28.876525879],[120.32867431600002,28.83770752],[120.35668945300002,28.815673828],[120.38812255900001,28.806091309],[120.43811035200001,28.82232666],[120.46789550800001,28.832275391],[120.50091552700002,28.842712402],[120.53649902300002,28.855895996],[120.57507324200002,28.873291016],[120.61328125000001,28.887329102],[120.64251709000001,28.907104492],[120.65393066400001,28.93572998],[120.67687988300001,28.955505371],[120.703125,28.980712891],[120.70410156200002,29.008117676],[120.69287109400001,29.04309082],[120.67492675800001,29.072875977],[120.69488525400001,29.101074219],[120.68847656200002,29.132873535],[120.71368408200001,29.16229248],[120.74353027300002,29.17767334],[120.76910400400001,29.209472656],[120.74450683600001,29.238891602],[120.75292968700002,29.276672363],[120.73712158200001,29.300292969],[120.69708252,29.326293945],[120.63592529300001,29.31829834],[120.60308837900001,29.319702148],[120.55969238300001,29.326477051],[120.53851318400001,29.352478027],[120.52587890600002,29.381286621],[120.51751709000001,29.408874512],[120.50311279300001,29.452270508],[120.46832275400001,29.500671387],[120.41528320300002,29.445495605],[120.40032959000001,29.421875],[120.36767578100002,29.401123047],[120.33227539100001,29.385681152],[120.29449462900001,29.368103027],[120.26550293000001,29.406921387],[120.26208496100001,29.442871094],[120.25451660200001,29.477478027],[120.22967529300001,29.50189209],[120.20568847700001,29.519470215],[120.18927002,29.54309082],[120.15631103500002,29.530090332],[120.13610839800002,29.499084473],[120.10992431600002,29.482299805],[120.06408691400001,29.489074707],[120.05627441400001,29.522277832],[120.04949951200001,29.552307129],[120.02252197300001,29.56652832],[119.99951171900001,29.592895508],[119.98132324200002,29.632873535],[119.93890380900001,29.680480957],[119.89251709000001,29.653076172],[119.84570312500001,29.668701172],[119.81408691400001,29.668518066],[119.77868652300002,29.653930664],[119.75531005900001,29.632873535],[119.74810791000002,29.598876953],[119.75488281200002,29.57208252],[119.73687744100002,29.54888916],[119.71270752,29.527526855],[119.71649169900002,29.497497559],[119.68890380900001,29.477478027],[119.69873046900001,29.450073242],[119.66589355500001,29.437927246],[119.62652587900001,29.427307129],[119.59991455100001,29.41027832],[119.57427978500002,29.38848877],[119.54870605500001,29.357116699],[119.51690673800002,29.340087891],[119.48168945300002,29.329528809],[119.44732666000002,29.349121094],[119.44390869100002,29.377075195],[119.42712402300002,29.404296875],[119.39251709000001,29.402893066],[119.35827636700002,29.414489746],[119.32672119100002,29.398681641],[119.32373046900001,29.36932373],[119.33569335900002,29.341308594],[119.34307861300002,29.310119629],[119.33007812500001,29.283508301],[119.30108642600001,29.272094727],[119.27252197300001,29.250305176],[119.24230957000002,29.237670898]]]}}
