{"type":"Feature","id":"bulk-99377448B53289075104232","bbox":[111.97808837900001,27.332275391,113.06292724600002,28.056091309],"properties":{"id":"bulk-99377448B53289075104232","name":"Xiangtan","nameEn":"Xiangtan","fullName":"Xiangtan","level":"city","boundaryRole":"administrative-extent","boundaryQuality":"generalized-source-2020","boundaryYearRepresented":"2020","bounds":[[111.97808837900001,27.332275391],[113.06292724600002,28.056091309]],"center":[112.52050781250001,27.69418335],"centerMethod":"bounding-box midpoint; camera framing only","license":"CC-BY-3.0-IGO","attribution":"geoBoundaries / HDX, China administrative boundaries (2020)","source":{"provider":"geoBoundaries gbHumanitarian / HDX","url":"https://github.com/wmgeolab/geoBoundaries/raw/9469f09/releaseData/gbHumanitarian/CHN/ADM2/geoBoundaries-CHN-ADM2.geojson","metadataUrl":"https://www.geoboundaries.org/api/current/gbHumanitarian/CHN/ADM2/","shapeID":"99377448B53289075104232","shapeName":"Xiangtan","boundaryID":"CHN-ADM2-99377448","commit":"9469f09"},"geometryCounts":{"coordinates":96,"components":1,"holes":0},"boundaryNotice":"geoBoundaries / HDX 2020 年行政区数据，海岸和边界经过源数据概化，并非当前测绘成果。"},"geometry":{"type":"Polygon","coordinates":[[[111.97808837900001,27.872680664],[111.99987793000001,27.830505371],[112.06170654300001,27.785705566],[112.07849121100001,27.755310059],[112.05151367200001,27.721313477],[112.02429199200002,27.698120117],[112.02691650400001,27.665283203],[112.04052734400001,27.633117676],[112.07830810500002,27.620117187],[112.09912109400001,27.64251709],[112.12310791000002,27.621276855],[112.15209960900002,27.642883301],[112.18029785200001,27.66027832],[112.21752929700001,27.687927246],[112.25927734400001,27.687316895],[112.28009033200001,27.663085937],[112.28051757800002,27.62487793],[112.29351806600002,27.589904785],[112.29388427700002,27.548706055],[112.27392578100002,27.519714355],[112.29107666000002,27.478515625],[112.33068847700001,27.480102539],[112.36987304700001,27.499084473],[112.38928222700001,27.533508301],[112.41412353500002,27.486694336],[112.42749023400002,27.452697754],[112.47009277300002,27.430480957],[112.51330566400001,27.425292969],[112.55908203100002,27.431274414],[112.59307861300002,27.438720703],[112.62487793000001,27.449707031],[112.66247558600001,27.453125],[112.66107177700002,27.419128418],[112.66650390600002,27.392089844],[112.69952392600001,27.38470459],[112.73309326200001,27.392089844],[112.75628662100002,27.374328613],[112.76947021500001,27.341491699],[112.80651855500001,27.332275391],[112.89770507800002,27.348693848],[112.89752197300001,27.399475098],[112.94250488300001,27.43927002],[112.92907714800002,27.482910156],[112.921875,27.514892578],[112.94049072300001,27.547729492],[112.96191406200002,27.581481934],[112.98748779300001,27.609130859],[112.97607421900001,27.635070801],[112.96130371100001,27.671875],[112.99932861300002,27.690307617],[112.99969482400002,27.722473145],[112.98370361300002,27.760681152],[112.96649169900002,27.807312012],[112.98309326200001,27.839477539],[113.00952148400002,27.86907959],[113.02789306600002,27.895690918],[113.05590820300002,27.940124512],[113.06292724600002,27.968322754],[113.05932617200001,27.998291016],[113.02148437500001,28.034118652],[112.99768066400001,27.979309082],[112.97528076200001,27.945922852],[112.94427490200002,27.956115723],[112.89611816400001,27.951721191],[112.85992431600002,27.950317383],[112.82952880900001,27.980529785],[112.80847168000001,28.024108887],[112.78967285200001,28.049316406],[112.73571777300002,28.056091309],[112.72888183600001,27.993530273],[112.71929931600002,27.937683105],[112.70111084000001,27.915893555],[112.67089843700002,27.906311035],[112.63507080100001,27.896728516],[112.61352539100001,27.874511719],[112.58251953100002,27.893493652],[112.56890869100002,27.917724609],[112.53527832000002,27.943908691],[112.50927734400001,27.958679199],[112.48950195300002,27.982116699],[112.47692871100001,28.011291504],[112.44171142600001,28.028930664],[112.40490722700001,28.028320312],[112.38031005900001,28.007873535],[112.38067627,27.975708008],[112.36010742200001,27.949890137],[112.31909179700001,27.940673828],[112.27612304700001,27.939086914],[112.23071289100001,27.944702148],[112.18829345700001,27.949279785],[112.14367675800001,27.928710937],[112.12432861300002,27.90411377],[112.09088134800001,27.880493164],[112.05627441400001,27.871704102],[112.02252197300001,27.870727539],[111.97808837900001,27.872680664]]]}}
