{"type":"Feature","id":"bulk-99377448B75484016433290","bbox":[113.113098145,22.038330078,113.61108398400002,22.439880371],"properties":{"id":"bulk-99377448B75484016433290","name":"Zhuhai","nameEn":"Zhuhai","fullName":"Zhuhai","level":"city","boundaryRole":"administrative-extent","boundaryQuality":"generalized-source-2020","boundaryYearRepresented":"2020","bounds":[[113.113098145,22.038330078],[113.61108398400002,22.439880371]],"center":[113.3620910645,22.2391052245],"centerMethod":"bounding-box midpoint; camera framing only","license":"CC-BY-3.0-IGO","attribution":"geoBoundaries / HDX, China administrative boundaries (2020)","source":{"provider":"geoBoundaries gbHumanitarian / HDX","url":"https://github.com/wmgeolab/geoBoundaries/raw/9469f09/releaseData/gbHumanitarian/CHN/ADM2/geoBoundaries-CHN-ADM2.geojson","metadataUrl":"https://www.geoboundaries.org/api/current/gbHumanitarian/CHN/ADM2/","shapeID":"99377448B75484016433290","shapeName":"Zhuhai","boundaryID":"CHN-ADM2-99377448","commit":"9469f09"},"geometryCounts":{"coordinates":211,"components":5,"holes":0},"boundaryNotice":"geoBoundaries / HDX 2020 年行政区数据，海岸和边界经过源数据概化，并非当前测绘成果。"},"geometry":{"type":"MultiPolygon","coordinates":[[[[113.26287841800001,22.11328125],[113.26568603500002,22.116516113],[113.26348877,22.114685059],[113.26287841800001,22.11328125]]],[[[113.39868164100001,22.219726562],[113.41088867200001,22.21887207],[113.41247558600001,22.226074219],[113.39868164100001,22.219726562]]],[[[113.50970459000001,22.172912598],[113.51367187500001,22.178527832],[113.51831054700001,22.179504395],[113.52227783200001,22.182678223],[113.52648925800001,22.193725586],[113.52569580100001,22.202880859],[113.51409912100002,22.227722168],[113.50988769500002,22.231079102],[113.50671386700002,22.230712891],[113.48651123000002,22.227722168],[113.46252441400001,22.22052002],[113.45989990200002,22.218322754],[113.45892334000001,22.204101562],[113.46307373000002,22.18347168],[113.46191406200002,22.176330566],[113.45788574200002,22.171081543],[113.45507812500001,22.169677734],[113.45428466800001,22.167297363],[113.45690918000001,22.165100098],[113.46032714800002,22.165527344],[113.46588134800001,22.169921875],[113.47387695300002,22.172119141],[113.47869873000002,22.17590332],[113.488098145,22.17590332],[113.50628662100002,22.170715332],[113.50970459000001,22.172912598]]],[[[113.41650390600002,22.228088379],[113.41448974600002,22.221313477],[113.41467285200001,22.218688965],[113.41851806600002,22.218505859],[113.41967773400002,22.196289062],[113.42028808600001,22.190673828],[113.42370605500001,22.185913086],[113.429504395,22.180908203],[113.44787597700001,22.172912598],[113.45147705100001,22.173522949],[113.45532226600001,22.176513672],[113.45751953100002,22.182678223],[113.45568847700001,22.19732666],[113.45349121100001,22.217102051],[113.45428466800001,22.22052002],[113.47729492200001,22.228271484],[113.47308349600002,22.231872559],[113.46527099600002,22.233520508],[113.45727539100001,22.233093262],[113.45349121100001,22.231689453],[113.45190429700001,22.225891113],[113.44891357400002,22.228271484],[113.44769287100002,22.232299805],[113.44927978500002,22.23651123],[113.45349121100001,22.239318848],[113.47167968700002,22.235717773],[113.48168945300002,22.231079102],[113.49371337900001,22.231079102],[113.50769043000001,22.235473633],[113.51287841800001,22.235107422],[113.51788330100001,22.230529785],[113.52648925800001,22.218322754],[113.52893066400001,22.213684082],[113.53167724600002,22.208129883],[113.53228759800001,22.207885742],[113.53912353500002,22.206298828],[113.53527832000002,22.200317383],[113.53430175800001,22.192077637],[113.52947998000002,22.184326172],[113.53027343700002,22.180480957],[113.53771972700001,22.188110352],[113.54309082000002,22.186889648],[113.54547119100002,22.188903809],[113.55187988300001,22.198486328],[113.55407714800002,22.201293945],[113.55108642600001,22.205505371],[113.55249023400002,22.208312988],[113.55010986300002,22.21307373],[113.55090332000002,22.214477539],[113.554504395,22.221130371],[113.55889892600001,22.229675293],[113.56329345700001,22.232910156],[113.57427978500002,22.236694336],[113.58172607400002,22.24230957],[113.58728027300002,22.242919922],[113.58728027300002,22.243103027],[113.57507324200002,22.260070801],[113.56927490200002,22.288879395],[113.570129395,22.289672852],[113.56988525400001,22.290283203],[113.570129395,22.292724609],[113.57568359400001,22.303100586],[113.58270263700001,22.309875488],[113.58709716800001,22.311706543],[113.597473145,22.3125],[113.59887695300002,22.313110352],[113.59887695300002,22.318908691],[113.59832763700001,22.319274902],[113.59667968700002,22.324890137],[113.58911132800002,22.333129883],[113.58752441400001,22.339111328],[113.59490966800001,22.354919434],[113.59631347700001,22.355712891],[113.60070800800001,22.353271484],[113.60748291000002,22.352722168],[113.61108398400002,22.358276367],[113.59887695300002,22.362121582],[113.57470703100002,22.366516113],[113.54748535200001,22.377502441],[113.54608154300001,22.384521484],[113.54370117200001,22.385925293],[113.54248046900001,22.387878418],[113.54327392600001,22.391906738],[113.54168701200001,22.392272949],[113.53808593700002,22.392883301],[113.53491210900002,22.397521973],[113.53369140600002,22.401916504],[113.53472900400001,22.411682129],[113.54351806600002,22.437072754],[113.54467773400002,22.439086914],[113.46850585900002,22.439086914],[113.45971679700001,22.396911621],[113.45227050800001,22.355102539],[113.45672607400002,22.306884766],[113.46289062500001,22.272094727],[113.43548584000001,22.237121582],[113.41650390600002,22.228088379]]],[[[113.15191650400001,22.24432373],[113.16607666000002,22.267089844],[113.16790771500001,22.292907715],[113.16552734400001,22.315124512],[113.17028808600001,22.341918945],[113.18249511700002,22.360900879],[113.18609619100002,22.312683105],[113.18231201200001,22.283325195],[113.18450927700002,22.259094238],[113.18029785200001,22.247070312],[113.16711425800001,22.230895996],[113.15307617200001,22.219299316],[113.13507080100001,22.202087402],[113.12969970700001,22.18371582],[113.12530517600001,22.167114258],[113.12512207000002,22.16607666],[113.12591552700002,22.163513184],[113.13128662100002,22.157287598],[113.13153076200001,22.14831543],[113.13507080100001,22.136901855],[113.12152099600002,22.114318848],[113.11968994100002,22.108093262],[113.11627197300001,22.096313477],[113.11352539100001,22.090698242],[113.113098145,22.081481934],[113.11431884800001,22.075927734],[113.11511230500001,22.075073242],[113.13287353500002,22.070678711],[113.16650390600002,22.054321289],[113.18469238300001,22.058288574],[113.18969726600001,22.054077148],[113.19848632800002,22.056884766],[113.20391845700001,22.061279297],[113.20587158200001,22.063110352],[113.20867919900002,22.069274902],[113.20788574200002,22.073120117],[113.20190429700001,22.079528809],[113.20190429700001,22.081726074],[113.20568847700001,22.080871582],[113.21173095700001,22.073730469],[113.21191406200002,22.067321777],[113.20751953100002,22.05291748],[113.20849609400001,22.047485352],[113.21472168000001,22.040893555],[113.21990966800001,22.038330078],[113.22589111300002,22.039306641],[113.23150634800001,22.04107666],[113.24188232400002,22.048278809],[113.25329589800002,22.049926758],[113.25549316400001,22.054077148],[113.25769043000001,22.054077148],[113.25231933600001,22.075927734],[113.25109863300001,22.099914551],[113.25512695300002,22.104492187],[113.25653076200001,22.111328125],[113.26727294900002,22.12487793],[113.27349853500002,22.129516602],[113.27947998000002,22.140930176],[113.28967285200001,22.156311035],[113.30090332000002,22.170898437],[113.29968261700002,22.192077637],[113.28570556600002,22.213928223],[113.27032470700001,22.225280762],[113.25567627,22.253479004],[113.24768066400001,22.286071777],[113.24572753900001,22.319519043],[113.24871826200001,22.35369873],[113.25769043000001,22.389526367],[113.26593017600001,22.385681152],[113.22808837900001,22.439880371],[113.20172119100002,22.410095215],[113.17248535200001,22.414123535],[113.14208984400001,22.414489746],[113.13452148400002,22.380493164],[113.14508056600002,22.353088379],[113.14971923800002,22.325683594],[113.14831543000001,22.298095703],[113.14929199200002,22.262512207],[113.13171386700002,22.230529785],[113.15191650400001,22.24432373]]]]}}
