{"type":"Feature","id":"bulk-99377448B52368682312116","bbox":[116.72851562500001,32.727294922,118.04931640600002,33.486083984],"properties":{"id":"bulk-99377448B52368682312116","name":"Bengbu","nameEn":"Bengbu","fullName":"Bengbu","level":"city","boundaryRole":"administrative-extent","boundaryQuality":"generalized-source-2020","boundaryYearRepresented":"2020","bounds":[[116.72851562500001,32.727294922],[118.04931640600002,33.486083984]],"center":[117.38891601550002,33.106689453],"centerMethod":"bounding-box midpoint; camera framing only","license":"CC-BY-3.0-IGO","attribution":"geoBoundaries / HDX, China administrative boundaries (2020)","source":{"provider":"geoBoundaries gbHumanitarian / HDX","url":"https://github.com/wmgeolab/geoBoundaries/raw/9469f09/releaseData/gbHumanitarian/CHN/ADM2/geoBoundaries-CHN-ADM2.geojson","metadataUrl":"https://www.geoboundaries.org/api/current/gbHumanitarian/CHN/ADM2/","shapeID":"99377448B52368682312116","shapeName":"Bengbu","boundaryID":"CHN-ADM2-99377448","commit":"9469f09"},"geometryCounts":{"coordinates":105,"components":1,"holes":0},"boundaryNotice":"geoBoundaries / HDX 2020 年行政区数据，海岸和边界经过源数据概化，并非当前测绘成果。"},"geometry":{"type":"Polygon","coordinates":[[[117.93829345700001,33.310913086],[117.86108398400002,33.312316895],[117.82708740200002,33.294311523],[117.79187011700002,33.276489258],[117.75451660200001,33.275695801],[117.71392822300001,33.273681641],[117.68408203100002,33.293884277],[117.65350341800001,33.320495605],[117.60668945300002,33.322875977],[117.53411865200002,33.323913574],[117.48828125000001,33.319885254],[117.45349121100001,33.328918457],[117.41772460900002,33.348876953],[117.40008544900002,33.376098633],[117.37908935500002,33.412902832],[117.36547851600001,33.437683105],[117.33947753900001,33.46307373],[117.30609130900001,33.479675293],[117.23510742200001,33.486083984],[117.22192382800002,33.482299805],[117.20208740200002,33.45892334],[117.17907714800002,33.4375],[117.15130615200002,33.420471191],[117.13372802700002,33.390075684],[117.09948730500001,33.387329102],[117.05908203100002,33.389709473],[117.07110595700001,33.329101562],[117.07629394500002,33.302490234],[117.04211425800001,33.259887695],[116.99688720700001,33.269470215],[116.96270752,33.277282715],[116.92590332000002,33.293518066],[116.88067627,33.31829834],[116.86370849600002,33.348693848],[116.85388183600001,33.304321289],[116.81909179700001,33.289306641],[116.78350830100001,33.295715332],[116.79211425800001,33.257080078],[116.80151367200001,33.227905273],[116.80688476600001,33.197692871],[116.78448486300002,33.172912598],[116.75268554700001,33.146911621],[116.73468017600001,33.116516113],[116.72851562500001,33.082275391],[116.74310302700002,33.055725098],[116.78228759800001,33.050292969],[116.79650878900001,33.018493652],[116.76489257800002,32.994506836],[116.73931884800001,32.965270996],[116.73370361300002,32.932495117],[116.76531982400002,32.913513184],[116.79272460900002,32.89831543],[116.81811523400002,32.877685547],[116.84490966800001,32.854675293],[116.87652587900001,32.836914062],[116.91247558600001,32.820678711],[116.95007324200002,32.80291748],[116.98510742200001,32.783508301],[117.01068115200002,32.758728027],[117.04949951200001,32.75012207],[117.07592773400002,32.765686035],[117.09887695300002,32.770874023],[117.11749267600001,32.773498535],[117.12030029300001,32.760498047],[117.11889648400002,32.727294922],[117.19873046900001,32.74230957],[117.23608398400002,32.765075684],[117.24468994100002,32.797912598],[117.26568603500002,32.838500977],[117.29992675800001,32.834472656],[117.33630371100001,32.834289551],[117.38287353500002,32.832275391],[117.42907714800002,32.839111328],[117.45849609400001,32.854919434],[117.47729492200001,32.885314941],[117.49468994100002,32.919494629],[117.51947021500001,32.972473145],[117.56311035200001,32.944702148],[117.59112548800002,32.931274414],[117.63232421900001,32.918518066],[117.66027832000002,32.937072754],[117.67291259800001,32.969299316],[117.69769287100002,33.005310059],[117.73413085900002,33.014892578],[117.76489257800002,33.04309082],[117.79388427700002,33.029296875],[117.85809326200001,33.05291748],[117.91070556600002,32.996887207],[117.94531250000001,32.995727539],[117.98107910200001,33.009094238],[117.99548339800002,33.036499023],[117.99487304700001,33.067321777],[118.02532959000001,33.086730957],[118.04132080100001,33.110290527],[118.04931640600002,33.139892578],[118.02191162100002,33.131896973],[118.003723145,33.148925781],[117.97650146500001,33.175292969],[117.94049072300001,33.187316895],[117.92852783200001,33.200317383],[117.91467285200001,33.217102051],[117.91168212900001,33.245727539],[117.921691895,33.272521973],[117.93408203100002,33.289672852],[117.93829345700001,33.310913086]]]}}
