{"type":"Feature","id":"bulk-99377448B91441707917493","bbox":[121.54467773400002,40.678710937,122.44750976600001,41.443115234],"properties":{"id":"bulk-99377448B91441707917493","name":"Panjin","nameEn":"Panjin","fullName":"Panjin","level":"city","boundaryRole":"administrative-extent","boundaryQuality":"generalized-source-2020","boundaryYearRepresented":"2020","bounds":[[121.54467773400002,40.678710937],[122.44750976600001,41.443115234]],"center":[121.99609375000001,41.0609130855],"centerMethod":"bounding-box midpoint; camera framing only","license":"CC-BY-3.0-IGO","attribution":"geoBoundaries / HDX, China administrative boundaries (2020)","source":{"provider":"geoBoundaries gbHumanitarian / HDX","url":"https://github.com/wmgeolab/geoBoundaries/raw/9469f09/releaseData/gbHumanitarian/CHN/ADM2/geoBoundaries-CHN-ADM2.geojson","metadataUrl":"https://www.geoboundaries.org/api/current/gbHumanitarian/CHN/ADM2/","shapeID":"99377448B91441707917493","shapeName":"Panjin","boundaryID":"CHN-ADM2-99377448","commit":"9469f09"},"geometryCounts":{"coordinates":136,"components":1,"holes":0},"boundaryNotice":"geoBoundaries / HDX 2020 年行政区数据，海岸和边界经过源数据概化，并非当前测绘成果。"},"geometry":{"type":"Polygon","coordinates":[[[122.12609863300001,41.443115234],[122.09771728500002,41.424926758],[122.06970214800002,41.408874512],[122.03552246100001,41.393493652],[122.00689697300001,41.372924805],[121.93347168000001,41.339294434],[121.89349365200002,41.323303223],[121.84649658200001,41.319091797],[121.80468750000001,41.328308105],[121.75628662100002,41.31628418],[121.72308349600002,41.297485352],[121.68072509800001,41.27331543],[121.61608886700002,41.245727539],[121.58752441400001,41.204711914],[121.57989502,41.176696777],[121.56732177700002,41.141906738],[121.54467773400002,41.111694336],[121.56451416000002,41.080688477],[121.60772705100001,41.069274902],[121.68927002,41.05267334],[121.66888427700002,41.016479492],[121.65032959000001,40.989685059],[121.66009521500001,40.957275391],[121.64251709000001,40.920288086],[121.61810302700002,40.893920898],[121.63348388700001,40.907714844],[121.66131591800001,40.90447998],[121.67449951200001,40.901672363],[121.70007324200002,40.893127441],[121.71411132800002,40.895690918],[121.71087646500001,40.905883789],[121.69049072300001,40.91027832],[121.67889404300001,40.923095703],[121.71850585900002,40.923278809],[121.71032714800002,40.934875488],[121.69567871100001,40.94329834],[121.68029785200001,40.956481934],[121.67468261700002,40.967712402],[121.67272949200002,40.986877441],[121.70532226600001,40.98248291],[121.71929931600002,40.993103027],[121.72631835900002,41.014099121],[121.72827148400002,41.04309082],[121.74432373000002,41.043518066],[121.76489257800002,41.056274414],[121.76788330100001,41.004272461],[121.76892089800002,40.99432373],[121.79229736300002,40.97869873],[121.81072998000002,41.022888184],[121.81591796900001,41.035705566],[121.82391357400002,41.054870605],[121.84008789100001,41.039916992],[121.84930419900002,41.028320312],[121.84588623000002,41.014099121],[121.84509277300002,41.001525879],[121.84289550800001,40.995300293],[121.87109375000001,40.977478027],[121.88787841800001,40.966918945],[121.89288330100001,40.952087402],[121.91748046900001,40.959106445],[121.90631103500002,40.919311523],[121.90631103500002,40.903686523],[121.91571044900002,40.893127441],[121.91650390600002,40.87487793],[121.91711425800001,40.863098145],[121.93267822300001,40.860717773],[121.95172119100002,40.870910645],[121.93408203100002,40.846130371],[121.91607666000002,40.832275391],[121.90667724600002,40.812316895],[121.90051269500002,40.795471191],[121.90368652300002,40.791687012],[121.92108154300001,40.78527832],[121.93688964800002,40.807922363],[121.94329834000001,40.797119141],[121.95208740200002,40.79107666],[121.953125,40.785522461],[121.95391845700001,40.780700684],[121.96789550800001,40.769897461],[121.99230957000002,40.756103516],[122.04907226600001,40.732299805],[122.08111572300001,40.709472656],[122.10052490200002,40.6953125],[122.11010742200001,40.683288574],[122.11248779300001,40.68170166],[122.11407470700001,40.691101074],[122.17468261700002,40.678710937],[122.20629882800002,40.680480957],[122.22711181600002,40.692504883],[122.22869873000002,40.701477051],[122.20471191400001,40.708312988],[122.19268798800002,40.711730957],[122.16149902300002,40.712280273],[122.14990234400001,40.717895508],[122.13909912100002,40.728088379],[122.09490966800001,40.764526367],[122.07489013700001,40.793884277],[122.13049316400001,40.865112305],[122.14672851600001,40.849914551],[122.17608642600001,40.837890625],[122.19927978500002,40.863525391],[122.23632812500001,40.860107422],[122.27850341800001,40.886291504],[122.25872802700002,40.918273926],[122.25408935500002,40.92791748],[122.26129150400001,40.934082031],[122.30572509800001,40.936889648],[122.31188964800002,40.973327637],[122.31390380900001,40.984680176],[122.33508300800001,40.998901367],[122.34912109400001,41.006896973],[122.36230468700002,41.047302246],[122.37847900400001,41.068908691],[122.38848877,41.091125488],[122.36987304700001,41.092895508],[122.36029052700002,41.109924316],[122.35870361300002,41.137695312],[122.37310791000002,41.147888184],[122.42230224600002,41.178100586],[122.44451904300001,41.196899414],[122.44750976600001,41.215087891],[122.44567871100001,41.240722656],[122.43432617200001,41.248718262],[122.421875,41.24987793],[122.36987304700001,41.240722656],[122.34967041000002,41.233276367],[122.32171630900001,41.217285156],[122.29608154300001,41.178100586],[122.21350097700001,41.174072266],[122.16888427700002,41.208129883],[122.18487548800002,41.266906738],[122.19372558600001,41.319091797],[122.18707275400001,41.354492187],[122.16290283200001,41.39831543],[122.13549804700001,41.42388916],[122.12609863300001,41.443115234]]]}}
