{"type":"Feature","id":"bulk-99377448B61551270213045","bbox":[109.17712402300002,27.717102051,110.36212158200001,29.646728516],"properties":{"id":"bulk-99377448B61551270213045","name":"Xiangxi Tujia and Miao Autonomous Prefecture","nameEn":"Xiangxi Tujia and Miao Autonomous Prefecture","fullName":"Xiangxi Tujia and Miao Autonomous Prefecture","level":"city","boundaryRole":"administrative-extent","boundaryQuality":"generalized-source-2020","boundaryYearRepresented":"2020","bounds":[[109.17712402300002,27.717102051],[110.36212158200001,29.646728516]],"center":[109.76962280250001,28.6819152835],"centerMethod":"bounding-box midpoint; camera framing only","license":"CC-BY-3.0-IGO","attribution":"geoBoundaries / HDX, China administrative boundaries (2020)","source":{"provider":"geoBoundaries gbHumanitarian / HDX","url":"https://github.com/wmgeolab/geoBoundaries/raw/9469f09/releaseData/gbHumanitarian/CHN/ADM2/geoBoundaries-CHN-ADM2.geojson","metadataUrl":"https://www.geoboundaries.org/api/current/gbHumanitarian/CHN/ADM2/","shapeID":"99377448B61551270213045","shapeName":"Xiangxi Tujia and Miao Autonomous Prefecture","boundaryID":"CHN-ADM2-99377448","commit":"9469f09"},"geometryCounts":{"coordinates":156,"components":1,"holes":0},"boundaryNotice":"geoBoundaries / HDX 2020 年行政区数据，海岸和边界经过源数据概化，并非当前测绘成果。"},"geometry":{"type":"Polygon","coordinates":[[[109.20471191400001,29.139526367],[109.28570556600002,29.064880371],[109.29248046900001,29.038085937],[109.28149414100001,29.014892578],[109.26348877,28.990478516],[109.24249267600001,28.948486328],[109.21130371100001,28.90612793],[109.20367431600002,28.868530273],[109.23107910200001,28.817871094],[109.24127197300001,28.796875],[109.26727294900002,28.768493652],[109.27947998000002,28.755493164],[109.24731445300002,28.709472656],[109.22808837900001,28.689697266],[109.17712402300002,28.659484863],[109.19830322300001,28.630310059],[109.20489502,28.609924316],[109.29711914100001,28.590698242],[109.29132080100001,28.572692871],[109.27770996100001,28.556518555],[109.27111816400001,28.548278809],[109.24908447300001,28.487487793],[109.25592041000002,28.383483887],[109.27752685500002,28.328674316],[109.26910400400001,28.253479004],[109.34710693400001,28.289672852],[109.35229492200001,28.231689453],[109.32928466800001,28.17590332],[109.31488037100002,28.141113281],[109.28729248000002,28.084472656],[109.28448486300002,28.067321777],[109.32373046900001,28.056274414],[109.32708740200002,28.042907715],[109.32031250000001,28.016906738],[109.28588867200001,27.946716309],[109.30389404300001,27.844482422],[109.31347656200002,27.790710449],[109.35412597700001,27.744873047],[109.39709472700001,27.717102051],[109.41870117200001,27.740478516],[109.44207763700001,27.76348877],[109.46228027300002,27.788513184],[109.48968505900001,27.808288574],[109.51232910200001,27.785888672],[109.54010009800001,27.774475098],[109.56072998000002,27.805297852],[109.60430908200001,27.821289062],[109.63671875000001,27.848083496],[109.60949707000002,27.871276855],[109.59588623000002,27.899475098],[109.61529541000002,27.920898437],[109.65710449200002,27.930297852],[109.69152832000002,27.962097168],[109.70550537100002,27.989685059],[109.76788330100001,28.009094238],[109.79150390600002,27.987121582],[109.82171630900001,27.968078613],[109.85632324200002,27.950683594],[109.89569091800001,27.93347168],[109.92272949200002,27.959472656],[109.95111084000001,27.9453125],[109.98449707000002,27.934509277],[110.02368164100001,27.946289062],[110.05407714800002,27.977111816],[110.08551025400001,27.994689941],[110.10729980500001,28.02911377],[110.14550781200002,28.106323242],[110.16668701200001,28.133728027],[110.18768310500002,28.161071777],[110.22967529300001,28.202270508],[110.21807861300002,28.226928711],[110.19488525400001,28.249328613],[110.17651367200001,28.275878906],[110.16992187500001,28.305908203],[110.17791748000002,28.340881348],[110.16650390600002,28.370483398],[110.13470459000001,28.386108398],[110.10711669900002,28.401306152],[110.07849121100001,28.441711426],[110.10687255900001,28.458496094],[110.13372802700002,28.482727051],[110.13531494100002,28.515075684],[110.13189697300001,28.559875488],[110.17047119100002,28.559082031],[110.20452880900001,28.56628418],[110.21368408200001,28.596496582],[110.18890380900001,28.626525879],[110.23370361300002,28.651123047],[110.25311279300001,28.695922852],[110.25592041000002,28.72869873],[110.28228759800001,28.750671387],[110.32031250000001,28.765319824],[110.33190918000001,28.794128418],[110.35089111300002,28.825927734],[110.36212158200001,28.857910156],[110.36047363300001,28.887084961],[110.35192871100001,28.917114258],[110.32391357400002,28.930908203],[110.29870605500001,28.956298828],[110.31988525400001,28.979309082],[110.32110595700001,29.010070801],[110.31268310500002,29.042907715],[110.28649902300002,29.071472168],[110.23590087900001,29.102111816],[110.21771240200002,29.127685547],[110.18530273400002,29.14630127],[110.16711425800001,29.170471191],[110.13092041000002,29.151672363],[110.09869384800001,29.12487793],[110.06530761700002,29.143920898],[110.05310058600001,29.178100586],[110.05487060500002,29.210876465],[110.07031250000001,29.256713867],[110.11468505900001,29.325500488],[110.04290771500001,29.301879883],[110.00347900400001,29.29107666],[109.97149658200001,29.294677734],[109.94067382800002,29.322875977],[109.9375,29.35748291],[109.93231201200001,29.384521484],[109.93011474600002,29.41192627],[109.90850830100001,29.432495117],[109.86291503900001,29.407287598],[109.79888916000002,29.381286621],[109.78430175800001,29.41229248],[109.78930664100001,29.448120117],[109.76788330100001,29.476074219],[109.74688720700001,29.497497559],[109.72967529300001,29.529724121],[109.74932861300002,29.565307617],[109.73492431600002,29.598876953],[109.671691895,29.609924316],[109.64367675800001,29.631713867],[109.63348388700001,29.631896973],[109.57171630900001,29.643676758],[109.52893066400001,29.646728516],[109.45349121100001,29.608520508],[109.50170898400002,29.59387207],[109.50012207000002,29.559326172],[109.46832275400001,29.532104492],[109.45928955100001,29.528503418],[109.42687988300001,29.495483398],[109.38452148400002,29.467895508],[109.38470459000001,29.426879883],[109.34228515600002,29.399108887],[109.34307861300002,29.298706055],[109.30090332000002,29.270874023],[109.32250976600001,29.230102539],[109.27990722700001,29.229675293],[109.25848388700001,29.257080078],[109.23730468700002,29.243286133],[109.23748779300001,29.215881348],[109.23767089800002,29.188293457],[109.23791503900001,29.174682617],[109.238098145,29.160888672],[109.20471191400001,29.139526367]]]}}
