{"type":"Feature","id":"bulk-99377448B29774087094091","bbox":[113.54309082000002,22.111083984,113.58728027300002,22.198913574],"properties":{"id":"bulk-99377448B29774087094091","name":"Macao Special Administrative Region","nameEn":"Macao Special Administrative Region","fullName":"Macao Special Administrative Region","level":"province","boundaryRole":"administrative-extent","boundaryQuality":"generalized-source-2020","boundaryYearRepresented":"2020","bounds":[[113.54309082000002,22.111083984],[113.58728027300002,22.198913574]],"center":[113.56518554650002,22.154998779],"centerMethod":"bounding-box midpoint; camera framing only","license":"CC-BY-3.0-IGO","attribution":"geoBoundaries / HDX, China administrative boundaries (2020)","source":{"provider":"geoBoundaries gbHumanitarian / HDX","url":"https://github.com/wmgeolab/geoBoundaries/raw/9469f09/releaseData/gbHumanitarian/CHN/ADM2/geoBoundaries-CHN-ADM2.geojson","metadataUrl":"https://www.geoboundaries.org/api/current/gbHumanitarian/CHN/ADM2/","shapeID":"99377448B29774087094091","shapeName":"Macao Special Administrative Region","boundaryID":"CHN-ADM2-99377448","commit":"9469f09"},"geometryCounts":{"coordinates":32,"components":4,"holes":0},"boundaryNotice":"geoBoundaries / HDX 2020 年行政区数据，海岸和边界经过源数据概化，并非当前测绘成果。"},"geometry":{"type":"MultiPolygon","coordinates":[[[[113.55432128900001,22.111083984],[113.57208252,22.11328125],[113.57391357400002,22.121887207],[113.58728027300002,22.126708984],[113.57849121100001,22.128723145],[113.56707763700001,22.126098633],[113.56152343700002,22.121520996],[113.55792236300002,22.120117187],[113.55468750000001,22.112915039],[113.55432128900001,22.111083984]]],[[[113.55950927700002,22.150085449],[113.56347656200002,22.151123047],[113.56311035200001,22.151489258],[113.55828857400002,22.153503418],[113.55688476600001,22.151672363],[113.55950927700002,22.150085449]]],[[[113.54791259800001,22.155090332],[113.54608154300001,22.155883789],[113.54650878900001,22.155273437],[113.54791259800001,22.155090332]]],[[[113.54309082000002,22.186889648],[113.54608154300001,22.186096191],[113.546875,22.185913086],[113.54949951200001,22.183288574],[113.56530761700002,22.188903809],[113.56127929700001,22.19128418],[113.55767822300001,22.191711426],[113.55572509800001,22.195922852],[113.55267334000001,22.198913574],[113.55187988300001,22.198486328],[113.54547119100002,22.188903809],[113.54309082000002,22.186889648]]]]}}
