{"type":"Feature","id":"bulk-99377448B77454602150112","bbox":[101.155273437,26.082092285,102.28308105500001,27.346923828],"properties":{"id":"bulk-99377448B77454602150112","name":"Panzhihua","nameEn":"Panzhihua","fullName":"Panzhihua","level":"city","boundaryRole":"administrative-extent","boundaryQuality":"generalized-source-2020","boundaryYearRepresented":"2020","bounds":[[101.155273437,26.082092285],[102.28308105500001,27.346923828]],"center":[101.71917724600002,26.7145080565],"centerMethod":"bounding-box midpoint; camera framing only","license":"CC-BY-3.0-IGO","attribution":"geoBoundaries / HDX, China administrative boundaries (2020)","source":{"provider":"geoBoundaries gbHumanitarian / HDX","url":"https://github.com/wmgeolab/geoBoundaries/raw/9469f09/releaseData/gbHumanitarian/CHN/ADM2/geoBoundaries-CHN-ADM2.geojson","metadataUrl":"https://www.geoboundaries.org/api/current/gbHumanitarian/CHN/ADM2/","shapeID":"99377448B77454602150112","shapeName":"Panzhihua","boundaryID":"CHN-ADM2-99377448","commit":"9469f09"},"geometryCounts":{"coordinates":119,"components":1,"holes":0},"boundaryNotice":"geoBoundaries / HDX 2020 年行政区数据，海岸和边界经过源数据概化，并非当前测绘成果。"},"geometry":{"type":"Polygon","coordinates":[[[101.155273437,27.190673828],[101.16229248,27.187072754],[101.18927002,27.152282715],[101.17132568400001,27.059082031],[101.18811035200001,26.991882324],[101.25091552700002,26.963500977],[101.26031494100002,26.937683105],[101.26770019500002,26.916870117],[101.31372070300002,26.914306641],[101.39349365200002,26.886108398],[101.42327880900001,26.842529297],[101.42547607400002,26.819091797],[101.39849853500002,26.733276367],[101.420898437,26.721496582],[101.46447753900001,26.750915527],[101.46368408200001,26.758911133],[101.48852539100001,26.78527832],[101.51849365200002,26.774902344],[101.54187011700002,26.766723633],[101.52392578100002,26.744689941],[101.48931884800001,26.663513184],[101.436523437,26.624328613],[101.40051269500002,26.536682129],[101.47052002,26.520874023],[101.471679687,26.520690918],[101.55712890600002,26.504516602],[101.63049316400001,26.434326172],[101.69329834000001,26.356079102],[101.68792724600002,26.338500977],[101.63671875000001,26.314697266],[101.605285645,26.316894531],[101.59552002,26.241088867],[101.66552734400001,26.213928223],[101.77148437500001,26.241699219],[101.81671142600001,26.155700684],[101.81451416000002,26.103088379],[101.82147216800001,26.082092285],[101.87670898400002,26.08972168],[101.86889648400002,26.126525879],[101.88067627,26.163696289],[101.90808105500001,26.18548584],[101.93310546900001,26.208129883],[101.93707275400001,26.240112305],[101.94372558600001,26.275512695],[101.95288085900002,26.301513672],[101.96307373000002,26.327697754],[101.97607421900001,26.372680664],[101.97131347700001,26.402526855],[101.96051025400001,26.434875488],[101.93688964800002,26.465698242],[101.90948486300002,26.493103027],[101.90551757800002,26.524291992],[101.93988037100002,26.545898437],[101.94647216800001,26.577087402],[101.94012451200001,26.616088867],[101.94409179700001,26.665710449],[101.95050048800002,26.699279785],[101.95367431600002,26.740905762],[101.97027587900001,26.765319824],[102.01489257800002,26.764282227],[102.03790283200001,26.736694336],[102.07250976600001,26.735107422],[102.08508300800001,26.707519531],[102.09912109400001,26.682922363],[102.12292480500001,26.655700684],[102.15130615200002,26.66809082],[102.17071533200001,26.699523926],[102.18450927700002,26.729125977],[102.18829345700001,26.758728027],[102.20727539100001,26.789306641],[102.18127441400001,26.813110352],[102.19268798800002,26.838500977],[102.21667480500001,26.859924316],[102.22351074200002,26.890075684],[102.23168945300002,26.928710937],[102.24169921900001,26.971679687],[102.24792480500001,27.037902832],[102.25329589800002,27.071289062],[102.28308105500001,27.106079102],[102.23413085900002,27.129882812],[102.21112060500002,27.149475098],[102.18048095700001,27.173095703],[102.14752197300001,27.186523437],[102.11828613300001,27.166870117],[102.08947753900001,27.142272949],[102.061523437,27.106079102],[102.01928710900002,27.106079102],[102.00109863300001,27.140930176],[101.98168945300002,27.166687012],[101.95111084000001,27.185119629],[101.92572021500001,27.207092285],[101.92071533200001,27.241271973],[101.91351318400001,27.286499023],[101.90930175800001,27.25567627],[101.91229248000002,27.223327637],[101.89709472700001,27.189880371],[101.88189697300001,27.156311035],[101.77868652300002,27.144104004],[101.74890136700002,27.156311035],[101.71368408200001,27.174682617],[101.68371582000002,27.205505371],[101.65948486300002,27.228515625],[101.64807128900001,27.265319824],[101.64093017600001,27.291687012],[101.63488769500002,27.324890137],[101.61468505900001,27.346923828],[101.58612060500002,27.329101562],[101.56610107400002,27.3046875],[101.54510498000002,27.27532959],[101.50909423800002,27.24407959],[101.47607421900001,27.242919922],[101.44488525400001,27.242675781],[101.41088867200001,27.234130859],[101.37487793000001,27.223083496],[101.32507324200002,27.212097168],[101.29370117200001,27.205505371],[101.25091552700002,27.196899414],[101.20172119100002,27.193481445],[101.155273437,27.190673828]]]}}
