{"type":"Feature","id":"bulk-99377448B1156667526877","bbox":[115.58172607400002,26.504699707,117.27069091800001,28.469482422],"properties":{"id":"bulk-99377448B1156667526877","name":"Fuzhou","nameEn":"Fuzhou","fullName":"Fuzhou","level":"city","boundaryRole":"administrative-extent","boundaryQuality":"generalized-source-2020","boundaryYearRepresented":"2020","bounds":[[115.58172607400002,26.504699707],[117.27069091800001,28.469482422]],"center":[116.42620849600002,27.4870910645],"centerMethod":"bounding-box midpoint; camera framing only","license":"CC-BY-3.0-IGO","attribution":"geoBoundaries / HDX, China administrative boundaries (2020)","source":{"provider":"geoBoundaries gbHumanitarian / HDX","url":"https://github.com/wmgeolab/geoBoundaries/raw/9469f09/releaseData/gbHumanitarian/CHN/ADM2/geoBoundaries-CHN-ADM2.geojson","metadataUrl":"https://www.geoboundaries.org/api/current/gbHumanitarian/CHN/ADM2/","shapeID":"99377448B1156667526877","shapeName":"Fuzhou","boundaryID":"CHN-ADM2-99377448","commit":"9469f09"},"geometryCounts":{"coordinates":203,"components":1,"holes":0},"boundaryNotice":"geoBoundaries / HDX 2020 年行政区数据，海岸和边界经过源数据概化，并非当前测绘成果。"},"geometry":{"type":"Polygon","coordinates":[[[117.25567627,27.858520508],[117.22808837900001,27.87487793],[117.19049072300001,27.883728027],[117.15008544900002,27.874511719],[117.10748291000002,27.871887207],[117.09228515600002,27.900085449],[117.06408691400001,27.87890625],[117.03088378900001,27.844726562],[116.98889160200001,27.839477539],[116.97747802700002,27.870483398],[116.99627685500002,27.89630127],[117.01849365200002,27.922302246],[117.02947998000002,27.951477051],[117.00067138700001,27.975891113],[116.97412109400001,27.996704102],[116.95587158200001,28.031311035],[116.92687988300001,28.045898437],[116.90808105500001,28.071472168],[116.87127685500002,28.051086426],[116.81848144500002,28.064697266],[116.78833007800002,28.083312988],[116.79528808600001,28.115905762],[116.79187011700002,28.143493652],[116.78472900400001,28.170288086],[116.75109863300001,28.163879395],[116.71868896500001,28.17010498],[116.68231201200001,28.198303223],[116.68548584000001,28.231506348],[116.72149658200001,28.232727051],[116.75708007800002,28.235473633],[116.78710937500001,28.249084473],[116.79229736300002,28.283081055],[116.78210449200002,28.309326172],[116.77270507800002,28.355285645],[116.74188232400002,28.362304687],[116.70349121100001,28.368286133],[116.67089843700002,28.361694336],[116.63830566400001,28.363708496],[116.60089111300002,28.373291016],[116.57147216800001,28.398498535],[116.56072998000002,28.424682617],[116.54168701200001,28.469482422],[116.52172851600001,28.4296875],[116.52752685500002,28.395690918],[116.51232910200001,28.364318848],[116.49627685500002,28.331726074],[116.48828125000001,28.299316406],[116.46527099600002,28.276489258],[116.44909668000001,28.244873047],[116.42388916000002,28.222106934],[116.38031005900001,28.218322754],[116.32427978500002,28.192077637],[116.25488281200002,28.190124512],[116.23388671900001,28.19128418],[116.21087646500001,28.165100098],[116.18988037100002,28.16607666],[116.16992187500001,28.181091309],[116.12988281200002,28.210693359],[116.11029052700002,28.230102539],[116.08929443400001,28.186889648],[116.06109619100002,28.159118652],[116.07232666000002,28.132873535],[116.10968017600001,28.121887207],[116.11968994100002,28.087890625],[116.12109375000001,28.050109863],[116.10467529300001,28.01550293],[116.08929443400001,27.980285645],[116.07348632800002,27.951293945],[116.06127929700001,27.926086426],[116.00268554700001,27.88470459],[115.96868896500001,27.876281738],[115.93829345700001,27.879882812],[115.90008544900002,27.868896484],[115.87432861300002,27.852111816],[115.85388183600001,27.831481934],[115.84869384800001,27.803283691],[115.85052490200002,27.775512695],[115.84710693400001,27.746704102],[115.82891845700001,27.716674805],[115.73712158200001,27.722900391],[115.72229003900001,27.69732666],[115.69830322300001,27.670288086],[115.67108154300001,27.651489258],[115.64709472700001,27.632080078],[115.62487793000001,27.610900879],[115.59887695300002,27.575073242],[115.58831787100002,27.540893555],[115.58172607400002,27.513305664],[115.60052490200002,27.483886719],[115.62249755900001,27.459472656],[115.65087890600002,27.444091797],[115.68829345700001,27.44152832],[115.71691894500002,27.422485352],[115.69207763700001,27.397705078],[115.66589355500001,27.372497559],[115.66711425800001,27.341308594],[115.67529296900001,27.30847168],[115.68572998000002,27.277099609],[115.66088867200001,27.251708984],[115.63232421900001,27.226074219],[115.63311767600001,27.193115234],[115.64410400400001,27.163696289],[115.66552734400001,27.133300781],[115.68450927700002,27.110717773],[115.71807861300002,27.092285156],[115.75488281200002,27.098693848],[115.79467773400002,27.104125977],[115.82049560500002,27.078491211],[115.83947753900001,27.039672852],[115.85827636700002,27.014099121],[115.87750244100002,26.990722656],[115.921875,26.960327148],[115.95227050800001,26.987487793],[115.97351074200002,27.017883301],[115.99328613300001,27.040100098],[116.00250244100002,27.066711426],[116.00787353500002,27.096679687],[116.04571533200001,27.125488281],[116.08972168000001,27.129882812],[116.12072753900001,27.109313965],[116.13647460900002,27.067871094],[116.13867187500001,27.039672852],[116.18969726600001,27.050476074],[116.17370605500001,27.00567627],[116.16052246100001,26.972106934],[116.14349365200002,26.910705566],[116.15368652300002,26.881530762],[116.14587402300002,26.855285645],[116.13391113300001,26.824707031],[116.13232421900001,26.788879395],[116.12371826200001,26.754882812],[116.11529541000002,26.726928711],[116.13610839800002,26.69708252],[116.17730712900001,26.680114746],[116.20251464800002,26.655883789],[116.22711181600002,26.631713867],[116.25292968700002,26.611877441],[116.26251220700001,26.580078125],[116.24670410200001,26.5546875],[116.27551269500002,26.524902344],[116.29827880900001,26.505310059],[116.32952880900001,26.504699707],[116.36688232400002,26.528076172],[116.38708496100001,26.549499512],[116.43249511700002,26.578125],[116.45709228500002,26.597473145],[116.48547363300001,26.581115723],[116.50628662100002,26.56048584],[116.538879395,26.569885254],[116.53631591800001,26.573913574],[116.53051757800002,26.60748291],[116.53967285200001,26.642883301],[116.53649902300002,26.650085449],[116.52368164100001,26.678710937],[116.50048828100002,26.693481445],[116.480285645,26.709716797],[116.48510742200001,26.721923828],[116.51611328100002,26.75012207],[116.51531982400002,26.800292969],[116.51629638700001,26.815490723],[116.51812744100002,26.844116211],[116.53070068400001,26.864074707],[116.53491210900002,26.87109375],[116.56048584000001,26.907470703],[116.58270263700001,26.936889648],[116.61511230500001,26.952270508],[116.63610839800002,26.99432373],[116.69647216800001,26.989318848],[116.70892334000001,26.999084473],[116.72747802700002,27.013671875],[116.78448486300002,27.034118652],[116.85412597700001,27.04107666],[116.91870117200001,27.051879883],[116.97290039100001,27.086730957],[117.003723145,27.124511719],[117.00927734400001,27.131286621],[117.01068115200002,27.133300781],[117.04870605500001,27.184875488],[117.09808349600002,27.251098633],[117.12927246100001,27.276306152],[117.13348388700001,27.303710937],[117.13690185500002,27.327087402],[117.11248779300001,27.356079102],[117.07672119100002,27.368103027],[117.07629394500002,27.391296387],[117.10467529300001,27.446289062],[117.08691406200002,27.498291016],[117.07110595700001,27.536682129],[117.02648925800001,27.555480957],[117.01312255900001,27.566711426],[117.00830078100002,27.570678711],[116.99072265600002,27.627319336],[117.01031494100002,27.644104004],[117.05328369100002,27.630126953],[117.09808349600002,27.644714355],[117.054504395,27.676696777],[117.13031005900001,27.695678711],[117.18328857400002,27.706115723],[117.20367431600002,27.720275879],[117.26068115200002,27.760925293],[117.27069091800001,27.79888916],[117.25329589800002,27.85369873],[117.25567627,27.858520508]]]}}
