{"type":"Feature","id":"bulk-99377448B96450546740730","bbox":[114.23669433600001,23.180908203,115.58489990200002,24.778686523],"properties":{"id":"bulk-99377448B96450546740730","name":"Heyuan","nameEn":"Heyuan","fullName":"Heyuan","level":"city","boundaryRole":"administrative-extent","boundaryQuality":"generalized-source-2020","boundaryYearRepresented":"2020","bounds":[[114.23669433600001,23.180908203],[115.58489990200002,24.778686523]],"center":[114.91079711900002,23.979797363000003],"centerMethod":"bounding-box midpoint; camera framing only","license":"CC-BY-3.0-IGO","attribution":"geoBoundaries / HDX, China administrative boundaries (2020)","source":{"provider":"geoBoundaries gbHumanitarian / HDX","url":"https://github.com/wmgeolab/geoBoundaries/raw/9469f09/releaseData/gbHumanitarian/CHN/ADM2/geoBoundaries-CHN-ADM2.geojson","metadataUrl":"https://www.geoboundaries.org/api/current/gbHumanitarian/CHN/ADM2/","shapeID":"99377448B96450546740730","shapeName":"Heyuan","boundaryID":"CHN-ADM2-99377448","commit":"9469f09"},"geometryCounts":{"coordinates":198,"components":1,"holes":0},"boundaryNotice":"geoBoundaries / HDX 2020 年行政区数据，海岸和边界经过源数据概化，并非当前测绘成果。"},"geometry":{"type":"Polygon","coordinates":[[[114.31311035200001,24.582275391],[114.29327392600001,24.473327637],[114.26672363300001,24.451477051],[114.24291992200001,24.425292969],[114.23669433600001,24.397521973],[114.24627685500002,24.366088867],[114.25592041000002,24.33190918],[114.26129150400001,24.305114746],[114.24627685500002,24.269470215],[114.26232910200001,24.239074707],[114.27947998000002,24.206298828],[114.30310058600001,24.169921875],[114.32910156200002,24.150512695],[114.36090087900001,24.144104004],[114.40191650400001,24.135314941],[114.43969726600001,24.118286133],[114.46087646500001,24.138671875],[114.46368408200001,24.169677734],[114.47467041000002,24.199523926],[114.50952148400002,24.22869873],[114.52392578100002,24.259277344],[114.54949951200001,24.274475098],[114.57507324200002,24.255126953],[114.58209228500002,24.227722168],[114.58630371100001,24.199523926],[114.57910156200002,24.168884277],[114.55548095700001,24.148498535],[114.52709960900002,24.131896973],[114.48828125000001,24.114074707],[114.45147705100001,24.084106445],[114.42071533200001,24.048522949],[114.38507080100001,24.031921387],[114.39971923800002,24.007080078],[114.39508056600002,23.977294922],[114.38610839800002,23.949707031],[114.36010742200001,23.921081543],[114.32629394500002,23.920898437],[114.33532714800002,23.856079102],[114.33251953100002,23.801879883],[114.34252929700001,23.768920898],[114.36511230500001,23.747680664],[114.38647460900002,23.714111328],[114.41607666000002,23.70111084],[114.44891357400002,23.683898926],[114.48132324200002,23.6796875],[114.51068115200002,23.667480469],[114.53729248000002,23.617492676],[114.54888916000002,23.591491699],[114.57208252,23.56652832],[114.64770507800002,23.581726074],[114.65393066400001,23.539306641],[114.65008544900002,23.51171875],[114.65289306600002,23.48449707],[114.671875,23.450683594],[114.69128418000001,23.39831543],[114.70269775400001,23.370910645],[114.72509765600002,23.341918945],[114.75207519500002,23.312683105],[114.77349853500002,23.279907227],[114.78247070300002,23.248291016],[114.78729248000002,23.214294434],[114.80468750000001,23.180908203],[114.84948730500001,23.204528809],[114.87792968700002,23.247924805],[114.89227294900002,23.273071289],[114.90228271500001,23.304321289],[114.91528320300002,23.330871582],[114.94427490200002,23.323486328],[114.98712158200001,23.315673828],[115.02392578100002,23.32409668],[115.05328369100002,23.33392334],[115.07269287100002,23.362487793],[115.10052490200002,23.380126953],[115.13769531200002,23.387329102],[115.16650390600002,23.39251709],[115.22167968700002,23.39630127],[115.25769043000001,23.394470215],[115.28332519500002,23.362487793],[115.29467773400002,23.327697754],[115.33929443400001,23.323913574],[115.36547851600001,23.303710937],[115.42547607400002,23.313476562],[115.44268798800002,23.346679687],[115.45629882800002,23.386901855],[115.44610595700001,23.417114258],[115.44390869100002,23.450683594],[115.44207763700001,23.492126465],[115.44128418000001,23.522888184],[115.44012451200001,23.557922363],[115.43927002,23.593322754],[115.44091796900001,23.633117676],[115.45190429700001,23.669494629],[115.45129394500002,23.706726074],[115.42028808600001,23.728271484],[115.38708496100001,23.743286133],[115.38067627,23.770690918],[115.33288574200002,23.804321289],[115.36151123000002,23.864929199],[115.37750244100002,23.896728516],[115.38830566400001,23.92590332],[115.40350341800001,23.953491211],[115.41467285200001,23.980895996],[115.42492675800001,24.019470215],[115.42327880900001,24.05267334],[115.41748046900001,24.096313477],[115.42388916000002,24.123718262],[115.44348144500002,24.153503418],[115.47430419900002,24.147277832],[115.48547363300001,24.11529541],[115.51849365200002,24.120300293],[115.50628662100002,24.152709961],[115.49468994100002,24.181091309],[115.52050781200002,24.216918945],[115.58190918000001,24.229309082],[115.58489990200002,24.269104004],[115.56970214800002,24.294311523],[115.55212402300002,24.322509766],[115.53967285200001,24.348510742],[115.54248046900001,24.381896973],[115.56451416000002,24.405700684],[115.57672119100002,24.437927246],[115.57788085900002,24.468688965],[115.55249023400002,24.499694824],[115.52270507800002,24.511291504],[115.48907470700001,24.50769043],[115.48150634800001,24.541320801],[115.48168945300002,24.572875977],[115.50268554700001,24.595092773],[115.54510498000002,24.635925293],[115.52447509800001,24.667907715],[115.46032714800002,24.725708008],[115.46008300800001,24.73828125],[115.41949462900001,24.758117676],[115.38848877,24.770324707],[115.36029052700002,24.778686523],[115.35729980500001,24.774475098],[115.34008789100001,24.749694824],[115.31591796900001,24.740722656],[115.296691895,24.750488281],[115.27429199200002,24.739685059],[115.26708984400001,24.732910156],[115.24609375000001,24.727294922],[115.22692871100001,24.720092773],[115.20507812500001,24.714477539],[115.17633056600002,24.710693359],[115.17431640600002,24.710327148],[115.16650390600002,24.693481445],[115.15490722700001,24.67590332],[115.12329101600001,24.678100586],[115.11230468700002,24.672302246],[115.08428955100001,24.665283203],[115.06427002,24.683105469],[115.03790283200001,24.688720703],[115.02111816400001,24.688476562],[115.01672363300001,24.678710937],[115.00830078100002,24.666320801],[114.98730468700002,24.659912109],[114.96173095700001,24.660095215],[114.92608642600001,24.659484863],[114.89807128900001,24.649719238],[114.88970947300001,24.638305664],[114.89111328100002,24.626525879],[114.87890625000001,24.617919922],[114.87451171900001,24.607299805],[114.86871337900001,24.584899902],[114.86108398400002,24.568908691],[114.83673095700001,24.55267334],[114.82250976600001,24.564880371],[114.80828857400002,24.581726074],[114.79791259800001,24.586120605],[114.78027343700002,24.593688965],[114.74511718700002,24.601074219],[114.72271728500002,24.581298828],[114.70587158200001,24.560119629],[114.69671630900001,24.547912598],[114.687316895,24.546081543],[114.67572021500001,24.544128418],[114.65991210900002,24.54107666],[114.64367675800001,24.555114746],[114.62829589800002,24.562927246],[114.60247802700002,24.561096191],[114.59228515600002,24.551513672],[114.58410644500002,24.544494629],[114.57208252,24.538696289],[114.55487060500002,24.530273437],[114.53527832000002,24.52911377],[114.50988769500002,24.538085937],[114.48992919900002,24.529724121],[114.46228027300002,24.527099609],[114.44470214800002,24.50592041],[114.41510009800001,24.501525879],[114.39227294900002,24.501281738],[114.38391113300001,24.510681152],[114.36608886700002,24.535705566],[114.36132812500001,24.546081543],[114.35888671900001,24.552124023],[114.34191894500002,24.572509766],[114.31311035200001,24.582275391]]]}}
