{"type":"Feature","id":"bulk-99377448B91873401060374","bbox":[115.74090576200001,29.778930664,117.72650146500001,31.267272949],"properties":{"id":"bulk-99377448B91873401060374","name":"Anqing","nameEn":"Anqing","fullName":"Anqing","level":"city","boundaryRole":"administrative-extent","boundaryQuality":"generalized-source-2020","boundaryYearRepresented":"2020","bounds":[[115.74090576200001,29.778930664],[117.72650146500001,31.267272949]],"center":[116.73370361350001,30.5231018065],"centerMethod":"bounding-box midpoint; camera framing only","license":"CC-BY-3.0-IGO","attribution":"geoBoundaries / HDX, China administrative boundaries (2020)","source":{"provider":"geoBoundaries gbHumanitarian / HDX","url":"https://github.com/wmgeolab/geoBoundaries/raw/9469f09/releaseData/gbHumanitarian/CHN/ADM2/geoBoundaries-CHN-ADM2.geojson","metadataUrl":"https://www.geoboundaries.org/api/current/gbHumanitarian/CHN/ADM2/","shapeID":"99377448B91873401060374","shapeName":"Anqing","boundaryID":"CHN-ADM2-99377448","commit":"9469f09"},"geometryCounts":{"coordinates":165,"components":1,"holes":0},"boundaryNotice":"geoBoundaries / HDX 2020 年行政区数据，海岸和边界经过源数据概化，并非当前测绘成果。"},"geometry":{"type":"Polygon","coordinates":[[[117.49371337900001,30.995300293],[117.45172119100002,30.983276367],[117.41149902300002,30.968322754],[117.37329101600001,30.970092773],[117.34350585900002,30.986694336],[117.29852294900002,30.982116699],[117.26348877,30.983703613],[117.22332763700001,31.003295898],[117.19812011700002,31.03692627],[117.18011474600002,31.060913086],[117.12652587900001,31.074523926],[117.11511230500001,31.124084473],[117.11291503900001,31.164916992],[117.09869384800001,31.195922852],[117.07391357400002,31.222473145],[117.05249023400002,31.24432373],[117.02532959000001,31.263305664],[116.98413085900002,31.267272949],[116.96069335900002,31.243103027],[116.95428466800001,31.21307373],[116.94067382800002,31.175720215],[116.92089843700002,31.142883301],[116.88507080100001,31.124328613],[116.84472656200002,31.132507324],[116.81848144500002,31.110900879],[116.79290771500001,31.081298828],[116.75109863300001,31.076293945],[116.70989990200002,31.062072754],[116.67407226600001,31.055725098],[116.63952636700002,31.06628418],[116.60168457000002,31.067077637],[116.52789306600002,31.067504883],[116.53588867200001,31.105102539],[116.55670166000002,31.138916016],[116.55151367200001,31.165893555],[116.51470947300001,31.176086426],[116.48272705100001,31.151489258],[116.44592285200001,31.136901855],[116.43627929700001,31.169494629],[116.33508300800001,31.164489746],[116.30688476600001,31.150695801],[116.27630615200002,31.126281738],[116.25512695300002,31.102905273],[116.22528076200001,31.07611084],[116.18511962900001,31.077270508],[116.16333007800002,31.104492187],[116.12371826200001,31.101501465],[116.08551025400001,31.083129883],[116.06671142600001,31.059509277],[116.04528808600001,31.033081055],[116.01208496100001,30.996887207],[116.02087402300002,30.991516113],[116.02349853500002,30.980895996],[115.98388671900001,30.940673828],[115.95129394500002,30.910095215],[115.90087890600002,30.881286621],[115.86547851600001,30.874694824],[115.82550048800002,30.879089355],[115.80328369100002,30.843505859],[115.81072998000002,30.807678223],[115.82232666000002,30.769897461],[115.81109619100002,30.765075684],[115.75708007800002,30.74230957],[115.74090576200001,30.716308594],[115.75268554700001,30.663696289],[115.75347900400001,30.660705566],[115.77990722700001,30.604492187],[115.84967041000002,30.571289062],[115.87268066400001,30.547119141],[115.87048339800002,30.51171875],[115.88812255900001,30.449523926],[115.89208984400001,30.435302734],[115.90289306600002,30.397277832],[115.88787841800001,30.356872559],[115.86828613300001,30.330322266],[115.86108398400002,30.313720703],[115.86248779300001,30.300292969],[115.89147949200002,30.300476074],[115.91088867200001,30.30090332],[115.93969726600001,30.288879395],[115.99011230500001,30.235107422],[116.03332519500002,30.182495117],[116.04907226600001,30.13092041],[116.05871582000002,30.082519531],[116.06329345700001,30.0546875],[116.06530761700002,30.033325195],[116.06427002,30.000305176],[116.06207275400001,29.963928223],[116.06567382800002,29.937927246],[116.09252929700001,29.894897461],[116.09289550800001,29.831481934],[116.07769775400001,29.800109863],[116.09649658200001,29.810302734],[116.13110351600001,29.814697266],[116.14971923800002,29.8125],[116.16552734400001,29.808288574],[116.18408203100002,29.798522949],[116.19909668000001,29.790100098],[116.20690918000001,29.781494141],[116.24267578100002,29.778930664],[116.29431152300002,29.793273926],[116.34088134800001,29.820495605],[116.37268066400001,29.839477539],[116.38867187500001,29.847473145],[116.41888427700002,29.861877441],[116.45831298800002,29.87890625],[116.49951171900001,29.89251709],[116.53570556600002,29.910888672],[116.55468750000001,29.931274414],[116.55987548800002,29.937683105],[116.56127929700001,29.957885742],[116.56488037100002,29.996276855],[116.58227539100001,30.043701172],[116.59167480500001,30.055297852],[116.60913085900002,30.063903809],[116.61010742200001,30.064697266],[116.69689941400001,30.059509277],[116.74749755900001,30.02911377],[116.79071044900002,30.087524414],[116.81329345700001,30.111328125],[116.82989502,30.139709473],[116.84667968700002,30.163879395],[116.86669921900001,30.187927246],[116.88867187500001,30.217285156],[116.90771484400001,30.248474121],[116.91632080100001,30.274475098],[116.90832519500002,30.308898926],[116.89587402300002,30.336486816],[116.88092041000002,30.369873047],[116.88708496100001,30.405090332],[116.91290283200001,30.420715332],[116.94427490200002,30.443481445],[116.99670410200001,30.478515625],[117.03088378900001,30.490905762],[117.06628418000001,30.489318848],[117.09851074200002,30.482299805],[117.13391113300001,30.466308594],[117.18530273400002,30.473327637],[117.19848632800002,30.488891602],[117.21051025400001,30.50189209],[117.21228027300002,30.524475098],[117.21508789100001,30.556274414],[117.20709228500002,30.588928223],[117.20251464800002,30.625915527],[117.24432373000002,30.650085449],[117.27807617200001,30.677124023],[117.32110595700001,30.695129395],[117.37310791000002,30.707519531],[117.42272949200002,30.716308594],[117.47387695300002,30.714294434],[117.51770019500002,30.734130859],[117.55047607400002,30.750488281],[117.58569335900002,30.757080078],[117.63427734400001,30.772277832],[117.66967773400002,30.791320801],[117.70367431600002,30.835876465],[117.72631835900002,30.860900879],[117.72650146500001,30.900878906],[117.72229003900001,30.953491211],[117.67730712900001,30.957885742],[117.64251709000001,30.965087891],[117.60632324200002,30.971679687],[117.56750488300001,30.977294922],[117.52288818400001,30.977905273],[117.49371337900001,30.995300293]]]}}
