{"type":"Feature","id":"bulk-99377448B93045281621125","bbox":[115.72589111300002,36.400085449,117.56707763700001,37.987304687],"properties":{"id":"bulk-99377448B93045281621125","name":"Dezhou","nameEn":"Dezhou","fullName":"Dezhou","level":"city","boundaryRole":"administrative-extent","boundaryQuality":"generalized-source-2020","boundaryYearRepresented":"2020","bounds":[[115.72589111300002,36.400085449],[117.56707763700001,37.987304687]],"center":[116.64648437500001,37.193695068],"centerMethod":"bounding-box midpoint; camera framing only","license":"CC-BY-3.0-IGO","attribution":"geoBoundaries / HDX, China administrative boundaries (2020)","source":{"provider":"geoBoundaries gbHumanitarian / HDX","url":"https://github.com/wmgeolab/geoBoundaries/raw/9469f09/releaseData/gbHumanitarian/CHN/ADM2/geoBoundaries-CHN-ADM2.geojson","metadataUrl":"https://www.geoboundaries.org/api/current/gbHumanitarian/CHN/ADM2/","shapeID":"99377448B93045281621125","shapeName":"Dezhou","boundaryID":"CHN-ADM2-99377448","commit":"9469f09"},"geometryCounts":{"coordinates":151,"components":1,"holes":0},"boundaryNotice":"geoBoundaries / HDX 2020 年行政区数据，海岸和边界经过源数据概化，并非当前测绘成果。"},"geometry":{"type":"Polygon","coordinates":[[[116.27893066400001,37.575073242],[116.26208496100001,37.570922852],[116.24029541000002,37.544311523],[116.23107910200001,37.512084961],[116.22167968700002,37.474914551],[116.19250488300001,37.452514648],[116.19409179700001,37.418273926],[116.22491455100001,37.394287109],[116.21350097700001,37.374694824],[116.19427490200002,37.359313965],[116.05548095700001,37.357116699],[116.03851318400001,37.350524902],[115.97869873000002,37.335693359],[115.94390869100002,37.307128906],[115.92932128900001,37.287719727],[115.92529296900001,37.235107422],[115.88671875000001,37.199279785],[115.84991455100001,37.143127441],[115.84210205100001,37.125915527],[115.85052490200002,37.107910156],[115.84191894500002,37.080688477],[115.82971191400001,37.048522949],[115.80169677700002,37.022277832],[115.75030517600001,36.986877441],[115.74328613300001,36.936889648],[115.72589111300002,36.92010498],[115.74169921900001,36.917297363],[115.82568359400001,36.885681152],[115.86370849600002,36.876708984],[115.90527343700002,36.873474121],[115.94927978500002,36.872314453],[115.98791503900001,36.870117187],[116.03167724600002,36.87487793],[116.06988525400001,36.879089355],[116.12689209000001,36.901489258],[116.17651367200001,36.954284668],[116.21130371100001,37.023071289],[116.22027587900001,37.031677246],[116.25970459000001,36.989501953],[116.29528808600001,36.979125977],[116.33087158200001,36.971496582],[116.37829589800002,36.963500977],[116.41748046900001,36.941101074],[116.42388916000002,36.91027832],[116.41027832000002,36.88092041],[116.39031982400002,36.848327637],[116.37652587900001,36.814086914],[116.37072753900001,36.787475586],[116.37432861300002,36.745117187],[116.38610839800002,36.704101562],[116.36267089800002,36.683105469],[116.39709472700001,36.634094238],[116.39910888700001,36.598693848],[116.39428710900002,36.564697266],[116.38427734400001,36.521911621],[116.42871093700002,36.470275879],[116.45471191400001,36.437072754],[116.47650146500001,36.412902832],[116.52648925800001,36.400085449],[116.58831787100002,36.413513184],[116.58209228500002,36.454101562],[116.56530761700002,36.485107422],[116.62628173800002,36.557312012],[116.68829345700001,36.601928711],[116.72167968700002,36.615112305],[116.74969482400002,36.676513672],[116.77728271500001,36.695129395],[116.78448486300002,36.70489502],[116.85449218700002,36.726318359],[116.97027587900001,36.717529297],[117.04492187500001,36.753479004],[117.04827880900001,36.807495117],[117.04187011700002,36.836914062],[117.00750732400002,36.835510254],[116.97070312500001,36.828674316],[116.94848632800002,36.853088379],[116.93969726600001,36.88671875],[116.90527343700002,36.928710937],[116.87249755900001,36.956115723],[116.86853027300002,36.993103027],[116.90527343700002,37.010925293],[116.92327880900001,37.042724609],[116.91210937500001,37.071899414],[116.95587158200001,37.097473145],[117.03930664100001,37.115478516],[117.02392578100002,37.140319824],[117.02508544900002,37.177490234],[117.02172851600001,37.212890625],[117.00451660200001,37.242919922],[116.97430419900002,37.28112793],[116.97192382800002,37.309326172],[116.97448730500001,37.347717285],[116.98388671900001,37.386901855],[116.99371337900001,37.43347168],[117.02050781200002,37.456115723],[117.07171630900001,37.470092773],[117.09729003900001,37.475891113],[117.12310791000002,37.484130859],[117.16149902300002,37.49407959],[117.19451904300001,37.513671875],[117.24267578100002,37.559082031],[117.27770996100001,37.598083496],[117.31909179700001,37.678710937],[117.34307861300002,37.63671875],[117.36907959000001,37.618896484],[117.40429687500001,37.61328125],[117.44091796900001,37.625915527],[117.47113037100002,37.644897461],[117.50128173800002,37.667480469],[117.52050781200002,37.69152832],[117.51849365200002,37.754699707],[117.52807617200001,37.790283203],[117.56707763700001,37.830688477],[117.54992675800001,37.855285645],[117.53747558600001,37.891479492],[117.54711914100001,37.922485352],[117.54388427700002,37.962524414],[117.50469970700001,37.987304687],[117.45007324200002,37.899902344],[117.44232177700002,37.887878418],[117.40710449200002,37.864685059],[117.36010742200001,37.854919434],[117.32427978500002,37.856872559],[117.30090332000002,37.853088379],[117.18792724600002,37.841918945],[117.14868164100001,37.844116211],[117.03308105500001,37.837890625],[117.00927734400001,37.829101562],[116.98229980500001,37.820495605],[116.93951416000002,37.8203125],[116.87890625000001,37.841125488],[116.82928466800001,37.836120605],[116.82348632800002,37.835693359],[116.76971435500002,37.831726074],[116.73547363300001,37.815917969],[116.71868896500001,37.774108887],[116.70031738300001,37.752502441],[116.65447998000002,37.717102051],[116.64050293000001,37.705322266],[116.628723145,37.683288574],[116.61932373000002,37.651123047],[116.60852050800001,37.639099121],[116.52569580100001,37.590515137],[116.45507812500001,37.53112793],[116.45129394500002,37.522277832],[116.42608642600001,37.503479004],[116.38647460900002,37.488891602],[116.37890625000001,37.486083984],[116.36608886700002,37.515686035],[116.34667968700002,37.567871094],[116.27893066400001,37.575073242]]]}}
