{"type":"Feature","id":"bulk-99377448B51289367945326","bbox":[110.00427246100001,18.588317871,110.57507324200002,19.132507324],"properties":{"id":"bulk-99377448B51289367945326","name":"Wanning City","nameEn":"Wanning City","fullName":"Wanning City","level":"city","boundaryRole":"administrative-extent","boundaryQuality":"generalized-source-2020","boundaryYearRepresented":"2020","bounds":[[110.00427246100001,18.588317871],[110.57507324200002,19.132507324]],"center":[110.28967285150001,18.8604125975],"centerMethod":"bounding-box midpoint; camera framing only","license":"CC-BY-3.0-IGO","attribution":"geoBoundaries / HDX, China administrative boundaries (2020)","source":{"provider":"geoBoundaries gbHumanitarian / HDX","url":"https://github.com/wmgeolab/geoBoundaries/raw/9469f09/releaseData/gbHumanitarian/CHN/ADM2/geoBoundaries-CHN-ADM2.geojson","metadataUrl":"https://www.geoboundaries.org/api/current/gbHumanitarian/CHN/ADM2/","shapeID":"99377448B51289367945326","shapeName":"Wanning City","boundaryID":"CHN-ADM2-99377448","commit":"9469f09"},"geometryCounts":{"coordinates":1729,"components":4,"holes":0},"boundaryNotice":"geoBoundaries / HDX 2020 年行政区数据，海岸和边界经过源数据概化，并非当前测绘成果。"},"geometry":{"type":"MultiPolygon","coordinates":[[[[110.48327636700002,18.674926758],[110.48327636700002,18.675292969],[110.48291015600002,18.675292969],[110.48291015600002,18.675476074],[110.48132324200002,18.675476074],[110.48132324200002,18.675292969],[110.48071289100001,18.675292969],[110.48071289100001,18.674926758],[110.480285645,18.674926758],[110.480285645,18.674682617],[110.47967529300001,18.674682617],[110.47967529300001,18.674316406],[110.47930908200001,18.674316406],[110.47930908200001,18.674072266],[110.47912597700001,18.674072266],[110.47912597700001,18.67388916],[110.47888183600001,18.67388916],[110.47888183600001,18.673278809],[110.47851562500001,18.673278809],[110.47851562500001,18.672912598],[110.47808837900001,18.672912598],[110.47650146500001,18.662719727],[110.47827148400002,18.659301758],[110.49108886700002,18.66607666],[110.49188232400002,18.669128418],[110.49090576200001,18.672485352],[110.49090576200001,18.672729492],[110.48968505900001,18.672729492],[110.48968505900001,18.672912598],[110.48828125000001,18.672912598],[110.48828125000001,18.672729492],[110.48791503900001,18.672729492],[110.48791503900001,18.672485352],[110.48712158200001,18.672485352],[110.48712158200001,18.673278809],[110.48687744100002,18.673278809],[110.48687744100002,18.674072266],[110.48651123000002,18.674072266],[110.48651123000002,18.674316406],[110.48632812500001,18.674316406],[110.48632812500001,18.674682617],[110.48608398400002,18.674682617],[110.48608398400002,18.674926758],[110.48529052700002,18.674926758],[110.48327636700002,18.674926758]]],[[[110.47692871100001,18.690124512],[110.47650146500001,18.690124512],[110.47650146500001,18.690490723],[110.47570800800001,18.690490723],[110.47570800800001,18.690673828],[110.47351074200002,18.690673828],[110.472473145,18.687683105],[110.47747802700002,18.675476074],[110.47772216800001,18.675476074],[110.47772216800001,18.676086426],[110.47790527300002,18.676086426],[110.47790527300002,18.676513672],[110.480285645,18.676513672],[110.480285645,18.676330566],[110.48107910200001,18.676330566],[110.48107910200001,18.676513672],[110.48132324200002,18.676513672],[110.48132324200002,18.676879883],[110.48211669900002,18.676879883],[110.48211669900002,18.677124023],[110.48248291000002,18.677124023],[110.48291015600002,18.677124023],[110.48291015600002,18.677490234],[110.48327636700002,18.677490234],[110.48327636700002,18.67767334],[110.48352050800001,18.67767334],[110.48352050800001,18.678283691],[110.48388671900001,18.678283691],[110.48388671900001,18.678527832],[110.48132324200002,18.680725098],[110.48071289100001,18.682922363],[110.48052978500002,18.682922363],[110.48052978500002,18.683288574],[110.480285645,18.683288574],[110.480285645,18.68347168],[110.47991943400001,18.68347168],[110.47991943400001,18.683898926],[110.47967529300001,18.683898926],[110.47967529300001,18.684692383],[110.47991943400001,18.684692383],[110.47991943400001,18.68572998],[110.47967529300001,18.68572998],[110.47967529300001,18.686279297],[110.47930908200001,18.686279297],[110.47930908200001,18.686523437],[110.47912597700001,18.686523437],[110.47912597700001,18.687072754],[110.47888183600001,18.687072754],[110.47888183600001,18.6875],[110.47851562500001,18.6875],[110.47851562500001,18.687927246],[110.47827148400002,18.687927246],[110.47827148400002,18.688476562],[110.47790527300002,18.688476562],[110.47790527300002,18.689086914],[110.47772216800001,18.689086914],[110.47772216800001,18.68927002],[110.47747802700002,18.68927002],[110.47747802700002,18.689697266],[110.47711181600002,18.689697266],[110.47711181600002,18.689880371],[110.47692871100001,18.689880371],[110.47692871100001,18.690124512]]],[[[110.17510986300002,18.588317871],[110.17529296900001,18.588500977],[110.17547607400002,18.588684082],[110.17572021500001,18.588928223],[110.17572021500001,18.589294434],[110.17608642600001,18.589294434],[110.17608642600001,18.58972168],[110.17633056600002,18.58972168],[110.17633056600002,18.591308594],[110.17712402300002,18.591308594],[110.17712402300002,18.591674805],[110.17767334000001,18.591674805],[110.17767334000001,18.592102051],[110.17791748000002,18.592102051],[110.17791748000002,18.592712402],[110.17889404300001,18.592712402],[110.17889404300001,18.593688965],[110.17907714800002,18.593688965],[110.17907714800002,18.594116211],[110.179504395,18.594116211],[110.18127441400001,18.59967041],[110.19030761700002,18.614318848],[110.19708252,18.617919922],[110.19750976600001,18.618103027],[110.19750976600001,18.618530273],[110.19708252,18.618530273],[110.19708252,18.618896484],[110.19769287100002,18.618896484],[110.19769287100002,18.61907959],[110.19909668000001,18.61907959],[110.19909668000001,18.61932373],[110.19970703100002,18.61932373],[110.19970703100002,18.619689941],[110.20031738300001,18.619689941],[110.20050048800002,18.619873047],[110.20068359400001,18.619873047],[110.21429443400001,18.634094238],[110.21807861300002,18.636108398],[110.22851562500001,18.632324219],[110.22851562500001,18.632507324],[110.22888183600001,18.632507324],[110.22888183600001,18.63269043],[110.22912597700001,18.63269043],[110.22912597700001,18.632873535],[110.22930908200001,18.632873535],[110.22930908200001,18.633300781],[110.22967529300001,18.633300781],[110.22967529300001,18.633728027],[110.22991943400001,18.633728027],[110.22991943400001,18.63470459],[110.23052978500002,18.63470459],[110.23052978500002,18.634887695],[110.23071289100001,18.634887695],[110.23071289100001,18.635070801],[110.23132324200002,18.635070801],[110.23132324200002,18.635498047],[110.23150634800001,18.635498047],[110.23052978500002,18.63848877],[110.24530029300001,18.651306152],[110.26190185500002,18.665527344],[110.27587890600002,18.668273926],[110.28308105500001,18.673706055],[110.296875,18.672485352],[110.30889892600001,18.665710449],[110.31567382800002,18.665283203],[110.32373046900001,18.668518066],[110.32592773400002,18.671081543],[110.32330322300001,18.675476074],[110.32452392600001,18.677307129],[110.35192871100001,18.694091797],[110.36828613300001,18.697875977],[110.37548828100002,18.695495605],[110.38269043000001,18.698486328],[110.38787841800001,18.698120117],[110.39752197300001,18.694274902],[110.39910888700001,18.696472168],[110.39868164100001,18.69909668],[110.39428710900002,18.705688477],[110.39648437500001,18.707702637],[110.40252685500002,18.707885742],[110.41308593700002,18.701477051],[110.41528320300002,18.698486328],[110.41412353500002,18.6875],[110.41229248000002,18.687927246],[110.40991210900002,18.694091797],[110.40771484400001,18.693908691],[110.40368652300002,18.688293457],[110.39471435500002,18.69128418],[110.38909912100002,18.688903809],[110.38708496100001,18.687927246],[110.38012695300002,18.687316895],[110.36950683600001,18.689880371],[110.36212158200001,18.689697266],[110.35211181600002,18.687683105],[110.33892822300001,18.682312012],[110.33508300800001,18.679077148],[110.33312988300001,18.674926758],[110.33551025400001,18.672485352],[110.35150146500001,18.674926758],[110.35687255900001,18.666870117],[110.36071777300002,18.66607666],[110.37329101600001,18.676513672],[110.38092041000002,18.672912598],[110.38928222700001,18.680480957],[110.39227294900002,18.683105469],[110.39630127,18.682678223],[110.40270996100001,18.673095703],[110.40710449200002,18.671875],[110.41027832000002,18.664123535],[110.413879395,18.664672852],[110.41552734400001,18.667114258],[110.41528320300002,18.667114258],[110.41528320300002,18.667480469],[110.41528320300002,18.667724609],[110.41552734400001,18.667724609],[110.41552734400001,18.667907715],[110.41552734400001,18.668273926],[110.41571044900002,18.668273926],[110.41571044900002,18.668884277],[110.41607666000002,18.668884277],[110.41607666000002,18.670715332],[110.41650390600002,18.670715332],[110.41650390600002,18.671081543],[110.41687011700002,18.671081543],[110.41687011700002,18.671325684],[110.41711425800001,18.671325684],[110.41711425800001,18.671875],[110.41748046900001,18.671875],[110.41748046900001,18.672119141],[110.41772460900002,18.672119141],[110.41772460900002,18.672485352],[110.41790771500001,18.672485352],[110.41790771500001,18.672912598],[110.41827392600001,18.672912598],[110.41827392600001,18.673278809],[110.41851806600002,18.673278809],[110.41851806600002,18.673522949],[110.41967773400002,18.673522949],[110.41967773400002,18.67388916],[110.42047119100002,18.67388916],[110.42047119100002,18.674072266],[110.42071533200001,18.674072266],[110.42071533200001,18.674316406],[110.42108154300001,18.674316406],[110.42108154300001,18.674926758],[110.42132568400001,18.674926758],[110.42132568400001,18.675292969],[110.42150878900001,18.675292969],[110.42150878900001,18.675476074],[110.421875,18.675476074],[110.421875,18.675720215],[110.42248535200001,18.675720215],[110.42248535200001,18.676086426],[110.42272949200002,18.676086426],[110.42272949200002,18.676330566],[110.42291259800001,18.676330566],[110.42291259800001,18.676513672],[110.42327880900001,18.676513672],[110.42327880900001,18.676879883],[110.42352294900002,18.676879883],[110.42352294900002,18.677124023],[110.42388916000002,18.677124023],[110.42388916000002,18.677490234],[110.42407226600001,18.677490234],[110.42407226600001,18.67791748],[110.42431640600002,18.67791748],[110.42431640600002,18.678283691],[110.42468261700002,18.678283691],[110.42468261700002,18.678527832],[110.42492675800001,18.678527832],[110.42492675800001,18.679077148],[110.42529296900001,18.679077148],[110.42529296900001,18.6796875],[110.42547607400002,18.6796875],[110.42547607400002,18.680297852],[110.42572021500001,18.680114746],[110.42572021500001,18.680725098],[110.42608642600001,18.680725098],[110.42608642600001,18.681091309],[110.42633056600002,18.681091309],[110.42633056600002,18.681274414],[110.42651367200001,18.681274414],[110.42651367200001,18.681518555],[110.42687988300001,18.681518555],[110.42687988300001,18.682128906],[110.42712402300002,18.682128906],[110.42712402300002,18.682678223],[110.42749023400002,18.682678223],[110.42749023400002,18.683288574],[110.42767334000001,18.683288574],[110.42767334000001,18.683898926],[110.42791748000002,18.683898926],[110.42791748000002,18.684082031],[110.42828369100002,18.684082031],[110.42828369100002,18.684692383],[110.42852783200001,18.684692383],[110.42852783200001,18.686523437],[110.42889404300001,18.686523437],[110.42889404300001,18.688476562],[110.42907714800002,18.688476562],[110.42907714800002,18.690673828],[110.42889404300001,18.690673828],[110.42889404300001,18.699707031],[110.42907714800002,18.699707031],[110.42907714800002,18.70489502],[110.42932128900001,18.70489502],[110.42932128900001,18.708312988],[110.42968750000001,18.708312988],[110.42968750000001,18.710510254],[110.42987060500002,18.710510254],[110.42987060500002,18.711486816],[110.43011474600002,18.711486816],[110.43011474600002,18.71270752],[110.43048095700001,18.71270752],[110.43048095700001,18.713500977],[110.43072509800001,18.713500977],[110.43072509800001,18.71472168],[110.43109130900001,18.71472168],[110.43109130900001,18.715698242],[110.43127441400001,18.715698242],[110.43127441400001,18.716918945],[110.43151855500001,18.716918945],[110.43151855500001,18.717895508],[110.43188476600001,18.717895508],[110.43188476600001,18.719116211],[110.43212890600002,18.719116211],[110.43212890600002,18.720275879],[110.43249511700002,18.720275879],[110.43249511700002,18.72088623],[110.43267822300001,18.72088623],[110.43267822300001,18.721679687],[110.43292236300002,18.721679687],[110.43292236300002,18.722473145],[110.43328857400002,18.722473145],[110.43328857400002,18.723327637],[110.43347168000001,18.723327637],[110.43347168000001,18.724121094],[110.43389892600001,18.724121094],[110.43389892600001,18.72467041],[110.43408203100002,18.72467041],[110.43408203100002,18.725280762],[110.43432617200001,18.725280762],[110.43432617200001,18.725708008],[110.43450927700002,18.725708008],[110.43469238300001,18.725708008],[110.43469238300001,18.726074219],[110.43469238300001,18.726318359],[110.43487548800002,18.726318359],[110.43487548800002,18.72668457],[110.43487548800002,18.727478027],[110.43511962900001,18.727478027],[110.43511962900001,18.728271484],[110.43548584000001,18.728271484],[110.43548584000001,18.728515625],[110.43572998000002,18.728515625],[110.43572998000002,18.728881836],[110.43609619100002,18.728881836],[110.43609619100002,18.729125977],[110.43609619100002,18.729309082],[110.43627929700001,18.729309082],[110.43627929700001,18.729492187],[110.43627929700001,18.729675293],[110.43707275400001,18.731506348],[110.43908691400001,18.733520508],[110.44390869100002,18.733703613],[110.44732666000002,18.736328125],[110.44848632800002,18.739685059],[110.44873046900001,18.740478516],[110.44873046900001,18.741088867],[110.44909668000001,18.741088867],[110.44909668000001,18.742675781],[110.44873046900001,18.742675781],[110.44873046900001,18.743896484],[110.44830322300001,18.743896484],[110.44830322300001,18.74407959],[110.44750976600001,18.74407959],[110.44750976600001,18.74432373],[110.44549560500002,18.74432373],[110.44549560500002,18.744689941],[110.44488525400001,18.744689941],[110.44488525400001,18.744873047],[110.44427490200002,18.744873047],[110.44427490200002,18.745117187],[110.44372558600001,18.745117187],[110.44372558600001,18.745483398],[110.44348144500002,18.745483398],[110.44348144500002,18.745727539],[110.44287109400001,18.745727539],[110.44287109400001,18.74609375],[110.44250488300001,18.74609375],[110.44250488300001,18.746276855],[110.44110107400002,18.746276855],[110.44110107400002,18.746520996],[110.44049072300001,18.746520996],[110.44049072300001,18.746887207],[110.44012451200001,18.746887207],[110.44012451200001,18.747070312],[110.43969726600001,18.747070312],[110.43969726600001,18.747497559],[110.43927002,18.747497559],[110.43927002,18.747680664],[110.43890380900001,18.747680664],[110.43890380900001,18.747924805],[110.43847656200002,18.747924805],[110.43847656200002,18.748291016],[110.43572998000002,18.748291016],[110.43572998000002,18.748474121],[110.43548584000001,18.748474121],[110.43548584000001,18.748901367],[110.43432617200001,18.748901367],[110.43432617200001,18.749084473],[110.43408203100002,18.749084473],[110.43408203100002,18.749328613],[110.43328857400002,18.749328613],[110.43328857400002,18.749694824],[110.43347168000001,18.749694824],[110.43347168000001,18.74987793],[110.43389892600001,18.74987793],[110.43389892600001,18.75012207],[110.43572998000002,18.75012207],[110.43572998000002,18.74987793],[110.43652343700002,18.74987793],[110.43652343700002,18.749694824],[110.4375,18.749694824],[110.4375,18.749328613],[110.43768310500002,18.749328613],[110.43768310500002,18.749084473],[110.43829345700001,18.749084473],[110.43829345700001,18.748901367],[110.43908691400001,18.748901367],[110.43908691400001,18.748474121],[110.43927002,18.748474121],[110.43927002,18.748291016],[110.43988037100002,18.748291016],[110.43988037100002,18.747924805],[110.44012451200001,18.747924805],[110.44012451200001,18.747680664],[110.44067382800002,18.747680664],[110.44067382800002,18.747497559],[110.44152832000002,18.747497559],[110.44152832000002,18.747070312],[110.44268798800002,18.747070312],[110.44268798800002,18.746887207],[110.44329834000001,18.746887207],[110.44329834000001,18.746520996],[110.44372558600001,18.746520996],[110.44372558600001,18.746276855],[110.44427490200002,18.746276855],[110.44427490200002,18.74609375],[110.44470214800002,18.74609375],[110.44470214800002,18.746276855],[110.44488525400001,18.746276855],[110.44488525400001,18.74609375],[110.44567871100001,18.74609375],[110.44567871100001,18.746276855],[110.44610595700001,18.746276855],[110.44610595700001,18.74609375],[110.44628906200002,18.74609375],[110.44628906200002,18.745727539],[110.44708252,18.745727539],[110.44708252,18.745483398],[110.44830322300001,18.745483398],[110.44830322300001,18.745117187],[110.44848632800002,18.745117187],[110.44848632800002,18.744873047],[110.44873046900001,18.744873047],[110.44873046900001,18.744689941],[110.44909668000001,18.744689941],[110.44909668000001,18.74432373],[110.44970703100002,18.74432373],[110.44970703100002,18.74407959],[110.44970703100002,18.743896484],[110.44989013700001,18.743896484],[110.44989013700001,18.743286133],[110.45111084000001,18.746520996],[110.45428466800001,18.752319336],[110.45428466800001,18.752502441],[110.45452880900001,18.752502441],[110.45471191400001,18.752685547],[110.45471191400001,18.753295898],[110.45489502,18.753295898],[110.45489502,18.753723145],[110.45507812500001,18.753723145],[110.45507812500001,18.754272461],[110.45550537100002,18.754272461],[110.45550537100002,18.754882812],[110.45568847700001,18.754882812],[110.45568847700001,18.755493164],[110.45611572300001,18.755493164],[110.45611572300001,18.756103516],[110.45629882800002,18.756103516],[110.45629882800002,18.756530762],[110.45648193400001,18.756530762],[110.45648193400001,18.757080078],[110.45690918000001,18.757080078],[110.45690918000001,18.75769043],[110.45709228500002,18.75769043],[110.45709228500002,18.758300781],[110.45727539100001,18.758300781],[110.45727539100001,18.758728027],[110.45770263700001,18.758728027],[110.45770263700001,18.759277344],[110.45788574200002,18.759277344],[110.45788574200002,18.759887695],[110.45831298800002,18.759887695],[110.45831298800002,18.760498047],[110.45849609400001,18.760498047],[110.45849609400001,18.760681152],[110.45867919900002,18.760681152],[110.45867919900002,18.761291504],[110.45910644500002,18.761291504],[110.45910644500002,18.761901855],[110.45928955100001,18.761901855],[110.45928955100001,18.762084961],[110.45971679700001,18.762084961],[110.45971679700001,18.762695312],[110.45989990200002,18.762695312],[110.45989990200002,18.763305664],[110.46008300800001,18.763305664],[110.46008300800001,18.76348877],[110.46051025400001,18.76348877],[110.46051025400001,18.763671875],[110.46069335900002,18.763671875],[110.46069335900002,18.764282227],[110.46112060500002,18.764282227],[110.46112060500002,18.764709473],[110.46130371100001,18.764709473],[110.46130371100001,18.764892578],[110.46148681600002,18.764892578],[110.46148681600002,18.76550293],[110.46191406200002,18.76550293],[110.46191406200002,18.765686035],[110.46209716800001,18.765686035],[110.46209716800001,18.766113281],[110.46228027300002,18.766113281],[110.46228027300002,18.766479492],[110.46270752,18.766479492],[110.46270752,18.766906738],[110.46289062500001,18.766906738],[110.46289062500001,18.767089844],[110.46331787100002,18.767089844],[110.46331787100002,18.767700195],[110.46350097700001,18.767700195],[110.46350097700001,18.767883301],[110.46368408200001,18.767883301],[110.46368408200001,18.768493652],[110.46429443400001,18.768493652],[110.46429443400001,18.768676758],[110.46472168000001,18.768676758],[110.46472168000001,18.769104004],[110.46490478500002,18.769104004],[110.46490478500002,18.769287109],[110.46508789100001,18.769287109],[110.46508789100001,18.769714355],[110.46551513700001,18.769714355],[110.46551513700001,18.769897461],[110.46569824200002,18.769897461],[110.46569824200002,18.770080566],[110.46588134800001,18.770080566],[110.46588134800001,18.770507812],[110.46630859400001,18.770507812],[110.46630859400001,18.770690918],[110.46667480500001,18.770690918],[110.46667480500001,18.771118164],[110.46691894500002,18.771118164],[110.46691894500002,18.77130127],[110.46728515600002,18.77130127],[110.46728515600002,18.771484375],[110.46771240200002,18.771484375],[110.46771240200002,18.771911621],[110.46789550800001,18.771911621],[110.46789550800001,18.772094727],[110.46832275400001,18.772094727],[110.46832275400001,18.772277832],[110.46868896500001,18.772277832],[110.46868896500001,18.772705078],[110.46911621100001,18.772705078],[110.46911621100001,18.772888184],[110.46929931600002,18.772888184],[110.46929931600002,18.77331543],[110.46990966800001,18.77331543],[110.46990966800001,18.773498535],[110.47052002,18.773498535],[110.47052002,18.773681641],[110.47088623000002,18.773681641],[110.47088623000002,18.774108887],[110.47271728500002,18.774108887],[110.47271728500002,18.774291992],[110.47387695300002,18.774291992],[110.47387695300002,18.774719238],[110.47430419900002,18.774719238],[110.47430419900002,18.774902344],[110.47467041000002,18.774902344],[110.47607421900001,18.775878906],[110.47912597700001,18.776916504],[110.47967529300001,18.776306152],[110.48272705100001,18.776306152],[110.48272705100001,18.775695801],[110.48291015600002,18.775695801],[110.48291015600002,18.774902344],[110.48327636700002,18.774902344],[110.48327636700002,18.774291992],[110.48352050800001,18.774291992],[110.48352050800001,18.774108887],[110.48388671900001,18.774108887],[110.48388671900001,18.773681641],[110.48413085900002,18.773681641],[110.48413085900002,18.773498535],[110.48468017600001,18.773498535],[110.48468017600001,18.77331543],[110.48510742200001,18.77331543],[110.48510742200001,18.772888184],[110.48547363300001,18.772888184],[110.48547363300001,18.772705078],[110.48571777300002,18.772705078],[110.48571777300002,18.772094727],[110.48608398400002,18.772094727],[110.48608398400002,18.771484375],[110.48632812500001,18.771484375],[110.48632812500001,18.77130127],[110.48651123000002,18.77130127],[110.48651123000002,18.771118164],[110.48687744100002,18.771118164],[110.48687744100002,18.770690918],[110.48712158200001,18.770690918],[110.48712158200001,18.770507812],[110.48748779300001,18.770507812],[110.48748779300001,18.770080566],[110.48767089800002,18.770080566],[110.48767089800002,18.769897461],[110.48748779300001,18.769897461],[110.48748779300001,18.769714355],[110.48767089800002,18.769714355],[110.48767089800002,18.769470215],[110.48767089800002,18.768493652],[110.48992919900002,18.769287109],[110.49389648400002,18.776123047],[110.49627685500002,18.776916504],[110.49627685500002,18.777099609],[110.49652099600002,18.777099609],[110.49652099600002,18.777282715],[110.49707031200002,18.777282715],[110.49707031200002,18.777709961],[110.49749755900001,18.777709961],[110.49749755900001,18.777893066],[110.49792480500001,18.777893066],[110.49792480500001,18.778320312],[110.49829101600001,18.778320312],[110.49829101600001,18.778503418],[110.49871826200001,18.778503418],[110.49871826200001,18.778686523],[110.49908447300001,18.778686523],[110.49908447300001,18.77911377],[110.49932861300002,18.77911377],[110.49932861300002,18.779296875],[110.49969482400002,18.779296875],[110.49969482400002,18.779724121],[110.49987793000001,18.779724121],[110.49987793000001,18.779907227],[110.50012207000002,18.779907227],[110.50012207000002,18.780273437],[110.50048828100002,18.780273437],[110.50048828100002,18.780517578],[110.50067138700001,18.780517578],[110.50067138700001,18.780700684],[110.50128173800002,18.780700684],[110.50152587900001,18.780700684],[110.50152587900001,18.780883789],[110.50207519500002,18.780883789],[110.50207519500002,18.781311035],[110.503723145,18.781311035],[110.503723145,18.781677246],[110.50427246100001,18.781677246],[110.50427246100001,18.781921387],[110.50567627,18.781921387],[110.50567627,18.781677246],[110.50610351600001,18.781677246],[110.50610351600001,18.781311035],[110.50628662100002,18.781311035],[110.50628662100002,18.780883789],[110.50653076200001,18.780883789],[110.50653076200001,18.780700684],[110.50689697300001,18.780700684],[110.50689697300001,18.780273437],[110.50708007800002,18.780273437],[110.50708007800002,18.779724121],[110.50750732400002,18.779724121],[110.50750732400002,18.779296875],[110.50769043000001,18.779296875],[110.50769043000001,18.778686523],[110.50848388700001,18.778686523],[110.50848388700001,18.778503418],[110.50909423800002,18.778503418],[110.50909423800002,18.778320312],[110.50970459000001,18.778320312],[110.50970459000001,18.777893066],[110.51129150400001,18.777893066],[110.51129150400001,18.776916504],[110.51110839800002,18.776916504],[110.51110839800002,18.775695801],[110.51129150400001,18.775695801],[110.51129150400001,18.774719238],[110.51147460900002,18.774719238],[110.51147460900002,18.774291992],[110.51190185500002,18.774291992],[110.51190185500002,18.77911377],[110.51489257800002,18.780273437],[110.51489257800002,18.780883789],[110.51507568400001,18.780883789],[110.51507568400001,18.781311035],[110.51550293000001,18.781311035],[110.51550293000001,18.781921387],[110.51568603500002,18.781921387],[110.51568603500002,18.782104492],[110.51629638700001,18.782104492],[110.51629638700001,18.782287598],[110.51647949200002,18.782287598],[110.51647949200002,18.782714844],[110.51708984400001,18.782714844],[110.51708984400001,18.782897949],[110.51751709000001,18.782897949],[110.51751709000001,18.783325195],[110.51788330100001,18.783325195],[110.51788330100001,18.783508301],[110.51831054700001,18.783508301],[110.51831054700001,18.783874512],[110.51867675800001,18.783874512],[110.51867675800001,18.784118652],[110.51910400400001,18.784118652],[110.51910400400001,18.784301758],[110.51928710900002,18.784301758],[110.51928710900002,18.784729004],[110.51971435500002,18.784729004],[110.51971435500002,18.784912109],[110.52008056600002,18.784912109],[110.52008056600002,18.78527832],[110.52050781200002,18.78527832],[110.52050781200002,18.785522461],[110.52069091800001,18.785522461],[110.52069091800001,18.785705566],[110.52111816400001,18.785705566],[110.52111816400001,18.785888672],[110.52130127,18.785888672],[110.52130127,18.786315918],[110.52191162100002,18.786315918],[110.52191162100002,18.786499023],[110.52209472700001,18.786499023],[110.52209472700001,18.78692627],[110.52227783200001,18.78692627],[110.52227783200001,18.787109375],[110.52331543000001,18.787109375],[110.52331543000001,18.787475586],[110.52410888700001,18.787475586],[110.52410888700001,18.787719727],[110.52490234400001,18.787719727],[110.52490234400001,18.787902832],[110.52551269500002,18.787902832],[110.52551269500002,18.788330078],[110.52630615200002,18.788330078],[110.52630615200002,18.788513184],[110.52709960900002,18.788513184],[110.52709960900002,18.788879395],[110.52832031200002,18.788879395],[110.52832031200002,18.789123535],[110.52972412100002,18.789123535],[110.52972412100002,18.788879395],[110.52990722700001,18.788879395],[110.53051757800002,18.788879395],[110.53051757800002,18.788696289],[110.53051757800002,18.788513184],[110.53070068400001,18.788513184],[110.53070068400001,18.788330078],[110.53131103500002,18.788330078],[110.53131103500002,18.78692627],[110.53112793000001,18.78692627],[110.53112793000001,18.785888672],[110.53070068400001,18.785888672],[110.53070068400001,18.78527832],[110.53112793000001,18.78527832],[110.53112793000001,18.784301758],[110.53131103500002,18.784301758],[110.53131103500002,18.783874512],[110.53149414100001,18.783874512],[110.53149414100001,18.783508301],[110.53149414100001,18.783325195],[110.53192138700001,18.783081055],[110.53747558600001,18.780883789],[110.53771972700001,18.782714844],[110.53790283200001,18.783508301],[110.53009033200001,18.794921875],[110.52832031200002,18.805725098],[110.52832031200002,18.80670166],[110.52807617200001,18.806884766],[110.52789306600002,18.806884766],[110.52789306600002,18.807312012],[110.52770996100001,18.807922363],[110.52770996100001,18.808105469],[110.52752685500002,18.80847168],[110.52728271500001,18.80871582],[110.52728271500001,18.809082031],[110.52709960900002,18.809082031],[110.52709960900002,18.809326172],[110.51867675800001,18.82989502],[110.51428222700001,18.856872559],[110.51287841800001,18.879089355],[110.51171875000001,18.880310059],[110.49908447300001,18.874328613],[110.49487304700001,18.870483398],[110.49328613300001,18.866516113],[110.49371337900001,18.865722656],[110.49688720700001,18.855102539],[110.49548339800002,18.844116211],[110.50451660200001,18.832702637],[110.50488281200002,18.827880859],[110.50170898400002,18.819702148],[110.50268554700001,18.816894531],[110.50872802700002,18.81072998],[110.51171875000001,18.8046875],[110.51171875000001,18.801879883],[110.50891113300001,18.799499512],[110.50311279300001,18.798522949],[110.49609375000001,18.792724609],[110.49169921900001,18.79107666],[110.48608398400002,18.792114258],[110.48327636700002,18.795288086],[110.48889160200001,18.795898437],[110.48870849600002,18.799682617],[110.48468017600001,18.801330566],[110.47387695300002,18.800476074],[110.47332763700001,18.800476074],[110.46771240200002,18.804321289],[110.46270752,18.803894043],[110.46148681600002,18.80267334],[110.45648193400001,18.8046875],[110.44830322300001,18.799682617],[110.44732666000002,18.805114746],[110.43652343700002,18.821899414],[110.43530273400002,18.827697754],[110.43609619100002,18.835510254],[110.43951416000002,18.837524414],[110.45111084000001,18.836730957],[110.45672607400002,18.839477539],[110.46667480500001,18.852478027],[110.46331787100002,18.857299805],[110.46447753900001,18.860900879],[110.46209716800001,18.862121582],[110.46112060500002,18.865112305],[110.46350097700001,18.86907959],[110.46173095700001,18.875671387],[110.46307373000002,18.881713867],[110.46588134800001,18.882080078],[110.47229003900001,18.872497559],[110.47729492200001,18.878723145],[110.48608398400002,18.885925293],[110.50347900400001,18.893127441],[110.50787353500002,18.894287109],[110.50970459000001,18.892089844],[110.50988769500002,18.892089844],[110.50988769500002,18.891906738],[110.51007080100001,18.891906738],[110.51007080100001,18.891479492],[110.51031494100002,18.891479492],[110.51068115200002,18.891479492],[110.51068115200002,18.891296387],[110.51129150400001,18.891296387],[110.51129150400001,18.891479492],[110.51147460900002,18.891479492],[110.51147460900002,18.891296387],[110.51208496100001,18.891296387],[110.51208496100001,18.891113281],[110.51232910200001,18.891113281],[110.51232910200001,18.89050293],[110.51269531200002,18.89050293],[110.51269531200002,18.890075684],[110.51287841800001,18.890075684],[110.51287841800001,18.889709473],[110.51330566400001,18.889709473],[110.51330566400001,18.889099121],[110.51428222700001,18.889099121],[110.51550293000001,18.893127441],[110.51507568400001,18.89630127],[110.51489257800002,18.89630127],[110.51489257800002,18.896484375],[110.51470947300001,18.896484375],[110.51470947300001,18.896911621],[110.51470947300001,18.89831543],[110.51428222700001,18.89831543],[110.51428222700001,18.898498535],[110.51428222700001,18.898681641],[110.51409912100002,18.898681641],[110.51409912100002,18.900085449],[110.51409912100002,18.903686523],[110.51367187500001,18.903686523],[110.51367187500001,18.904907227],[110.51348877,18.904907227],[110.51348877,18.907897949],[110.51330566400001,18.909301758],[110.51330566400001,18.909912109],[110.51312255900001,18.910522461],[110.51287841800001,18.910522461],[110.51287841800001,18.911682129],[110.51269531200002,18.914306641],[110.51232910200001,18.914306641],[110.51232910200001,18.914672852],[110.51208496100001,18.914672852],[110.51208496100001,18.91607666],[110.51190185500002,18.91607666],[110.51190185500002,18.918273926],[110.51147460900002,18.918273926],[110.51147460900002,18.921875],[110.51007080100001,18.932678223],[110.51007080100001,18.933288574],[110.51092529300001,18.940673828],[110.51068115200002,18.940673828],[110.51068115200002,18.94152832],[110.51092529300001,18.94152832],[110.51330566400001,18.966491699],[110.51330566400001,18.967285156],[110.51287841800001,18.967285156],[110.51287841800001,18.968505859],[110.51330566400001,18.968505859],[110.51330566400001,18.969909668],[110.51348877,18.969909668],[110.51348877,18.971679687],[110.51367187500001,18.971679687],[110.51367187500001,18.972473145],[110.51391601600001,18.972900391],[110.51409912100002,18.973510742],[110.51409912100002,18.974304199],[110.51428222700001,18.974304199],[110.51428222700001,18.974487305],[110.51428222700001,18.975708008],[110.51470947300001,18.975708008],[110.51470947300001,18.977478027],[110.51489257800002,18.977478027],[110.51489257800002,18.978881836],[110.51507568400001,18.978881836],[110.51507568400001,18.980285645],[110.51550293000001,18.980285645],[110.51550293000001,18.981323242],[110.51568603500002,18.981323242],[110.51568603500002,18.98248291],[110.51611328100002,18.98248291],[110.51611328100002,18.983886719],[110.51629638700001,18.983886719],[110.51629638700001,18.985290527],[110.51647949200002,18.985290527],[110.51647949200002,18.98651123],[110.51690673800002,18.98651123],[110.51690673800002,18.987915039],[110.51708984400001,18.987915039],[110.51708984400001,18.989685059],[110.51751709000001,18.989685059],[110.51751709000001,18.991088867],[110.51770019500002,18.991088867],[110.51770019500002,18.992675781],[110.51788330100001,18.992675781],[110.51788330100001,18.993896484],[110.51831054700001,18.993896484],[110.51831054700001,18.994689941],[110.51849365200002,18.994689941],[110.51849365200002,18.995483398],[110.51867675800001,18.995483398],[110.51867675800001,18.996276855],[110.51910400400001,18.996276855],[110.51910400400001,18.997070312],[110.51928710900002,18.997070312],[110.51928710900002,18.997924805],[110.51971435500002,18.997924805],[110.51971435500002,18.998901367],[110.51989746100001,18.998901367],[110.51989746100001,18.999694824],[110.52008056600002,18.999694824],[110.52008056600002,18.99987793],[110.52008056600002,19.00012207],[110.52008056600002,19.001525879],[110.52050781200002,19.001525879],[110.52050781200002,19.00189209],[110.52069091800001,19.00189209],[110.52069091800001,19.002685547],[110.52111816400001,19.002685547],[110.52111816400001,19.002929687],[110.52148437500001,19.002929687],[110.52148437500001,19.003479004],[110.52191162100002,19.003479004],[110.52191162100002,19.003723145],[110.52209472700001,19.003723145],[110.52209472700001,19.004089355],[110.52227783200001,19.004089355],[110.52227783200001,19.004699707],[110.52270507800002,19.004699707],[110.52270507800002,19.005126953],[110.52288818400001,19.005126953],[110.52288818400001,19.00567627],[110.52331543000001,19.00567627],[110.52331543000001,19.006530762],[110.52349853500002,19.006530762],[110.52349853500002,19.006896973],[110.52368164100001,19.006896973],[110.52368164100001,19.007080078],[110.52410888700001,19.007080078],[110.52410888700001,19.00769043],[110.52429199200002,19.00769043],[110.52429199200002,19.008300781],[110.52471923800002,19.008300781],[110.52471923800002,19.009277344],[110.52490234400001,19.009277344],[110.52490234400001,19.00970459],[110.52508544900002,19.00970459],[110.52508544900002,19.009887695],[110.52551269500002,19.009887695],[110.52551269500002,19.010070801],[110.52569580100001,19.010070801],[110.52569580100001,19.010498047],[110.52612304700001,19.010498047],[110.52612304700001,19.010681152],[110.52630615200002,19.010681152],[110.52630615200002,19.011108398],[110.52648925800001,19.011108398],[110.52648925800001,19.011901855],[110.52612304700001,19.011901855],[110.52612304700001,19.012512207],[110.52569580100001,19.012329102],[110.52569580100001,19.012695312],[110.52648925800001,19.012695312],[110.52648925800001,19.012329102],[110.52709960900002,19.012329102],[110.52709960900002,19.012695312],[110.52728271500001,19.012695312],[110.52728271500001,19.01348877],[110.52770996100001,19.01348877],[110.52770996100001,19.014282227],[110.52728271500001,19.014282227],[110.52728271500001,19.014709473],[110.52648925800001,19.014709473],[110.52648925800001,19.01550293],[110.52630615200002,19.01550293],[110.52630615200002,19.016113281],[110.52648925800001,19.016113281],[110.52648925800001,19.016906738],[110.52728271500001,19.016906738],[110.52728271500001,19.017272949],[110.52770996100001,19.017272949],[110.52770996100001,19.018310547],[110.52789306600002,19.018310547],[110.52789306600002,19.018493652],[110.52850341800001,19.018493652],[110.52850341800001,19.018676758],[110.52929687500001,19.018676758],[110.52929687500001,19.018310547],[110.52911377,19.018310547],[110.52911377,19.017700195],[110.52868652300002,19.017700195],[110.52868652300002,19.016479492],[110.52832031200002,19.016479492],[110.52832031200002,19.016113281],[110.52868652300002,19.016113281],[110.52868652300002,19.016296387],[110.52911377,19.016296387],[110.52911377,19.016906738],[110.52972412100002,19.016906738],[110.52972412100002,19.017089844],[110.53070068400001,19.017089844],[110.53070068400001,19.017272949],[110.53131103500002,19.017272949],[110.53131103500002,19.017883301],[110.53149414100001,19.017883301],[110.53149414100001,19.018493652],[110.53131103500002,19.018493652],[110.53131103500002,19.020080566],[110.53149414100001,19.020080566],[110.53149414100001,19.020507812],[110.53192138700001,19.020507812],[110.53192138700001,19.020690918],[110.53210449200002,19.020690918],[110.53210449200002,19.02130127],[110.53228759800001,19.02130127],[110.53228759800001,19.021484375],[110.53210449200002,19.021484375],[110.53210449200002,19.021911621],[110.53149414100001,19.021911621],[110.53149414100001,19.022094727],[110.53131103500002,19.022094727],[110.53131103500002,19.021911621],[110.53112793000001,19.021911621],[110.53112793000001,19.022094727],[110.53070068400001,19.022094727],[110.53070068400001,19.022888184],[110.53112793000001,19.022888184],[110.53112793000001,19.023498535],[110.53131103500002,19.023498535],[110.53131103500002,19.023681641],[110.53192138700001,19.023681641],[110.53192138700001,19.024108887],[110.53210449200002,19.024108887],[110.53210449200002,19.024719238],[110.53228759800001,19.024719238],[110.53228759800001,19.024902344],[110.53271484400001,19.024902344],[110.53271484400001,19.025085449],[110.53387451200001,19.025085449],[110.53387451200001,19.026123047],[110.53350830100001,19.026123047],[110.53350830100001,19.026489258],[110.53332519500002,19.026489258],[110.53332519500002,19.027282715],[110.53350830100001,19.027282715],[110.53350830100001,19.027893066],[110.53387451200001,19.027893066],[110.53387451200001,19.028320312],[110.53411865200002,19.028320312],[110.53411865200002,19.029907227],[110.53430175800001,19.029907227],[110.53430175800001,19.030273437],[110.53448486300002,19.030273437],[110.53448486300002,19.031677246],[110.53491210900002,19.031677246],[110.53491210900002,19.032897949],[110.53527832000002,19.032897949],[110.53527832000002,19.034118652],[110.53448486300002,19.034118652],[110.53448486300002,19.034301758],[110.53430175800001,19.034301758],[110.53430175800001,19.034729004],[110.53411865200002,19.034729004],[110.53411865200002,19.035705566],[110.53430175800001,19.035705566],[110.53430175800001,19.035888672],[110.53491210900002,19.035888672],[110.53491210900002,19.036315918],[110.53527832000002,19.036315918],[110.53527832000002,19.036499023],[110.53552246100001,19.036499023],[110.53552246100001,19.03729248],[110.53552246100001,19.037902832],[110.53527832000002,19.037902832],[110.53527832000002,19.038330078],[110.53430175800001,19.038330078],[110.53430175800001,19.038513184],[110.53411865200002,19.038513184],[110.53411865200002,19.038879395],[110.53350830100001,19.038879395],[110.53350830100001,19.039123535],[110.53332519500002,19.039123535],[110.53332519500002,19.039306641],[110.53289794900002,19.039306641],[110.53289794900002,19.039672852],[110.53210449200002,19.039672852],[110.53210449200002,19.039916992],[110.52728271500001,19.039916992],[110.52728271500001,19.040283203],[110.52691650400001,19.040283203],[110.52691650400001,19.040710449],[110.52630615200002,19.040710449],[110.52630615200002,19.04107666],[110.52569580100001,19.04107666],[110.52569580100001,19.040710449],[110.52508544900002,19.040710449],[110.52508544900002,19.040527344],[110.52471923800002,19.040527344],[110.52471923800002,19.040283203],[110.52410888700001,19.040283203],[110.52410888700001,19.040527344],[110.52368164100001,19.040527344],[110.52368164100001,19.041320801],[110.52349853500002,19.041320801],[110.52349853500002,19.042114258],[110.52331543000001,19.042114258],[110.52331543000001,19.042724609],[110.52288818400001,19.042724609],[110.52288818400001,19.043518066],[110.52331543000001,19.043518066],[110.52331543000001,19.045288086],[110.52288818400001,19.045288086],[110.52288818400001,19.045471191],[110.52270507800002,19.045471191],[110.52270507800002,19.045715332],[110.52227783200001,19.045715332],[110.52227783200001,19.046081543],[110.52209472700001,19.046081543],[110.52209472700001,19.046508789],[110.52270507800002,19.046508789],[110.52270507800002,19.046325684],[110.52288818400001,19.046325684],[110.52288818400001,19.046081543],[110.52331543000001,19.046081543],[110.52331543000001,19.045715332],[110.52368164100001,19.045715332],[110.52368164100001,19.045471191],[110.52410888700001,19.045471191],[110.52410888700001,19.045288086],[110.52429199200002,19.045288086],[110.52429199200002,19.044311523],[110.52471923800002,19.044311523],[110.52471923800002,19.044128418],[110.52490234400001,19.044128418],[110.52490234400001,19.043884277],[110.52551269500002,19.043884277],[110.52551269500002,19.043518066],[110.52612304700001,19.043518066],[110.52612304700001,19.043273926],[110.52648925800001,19.043273926],[110.52648925800001,19.042907715],[110.52709960900002,19.042907715],[110.52709960900002,19.042724609],[110.52728271500001,19.042724609],[110.52728271500001,19.041870117],[110.52789306600002,19.041870117],[110.52789306600002,19.041503906],[110.52868652300002,19.041503906],[110.52868652300002,19.041870117],[110.53387451200001,19.041870117],[110.53387451200001,19.041503906],[110.53411865200002,19.041503906],[110.53411865200002,19.04107666],[110.53430175800001,19.04107666],[110.53430175800001,19.040527344],[110.53448486300002,19.040527344],[110.53448486300002,19.040283203],[110.53491210900002,19.040283203],[110.53491210900002,19.039916992],[110.53552246100001,19.039916992],[110.53552246100001,19.039672852],[110.53570556600002,19.039672852],[110.53570556600002,19.039306641],[110.53588867200001,19.039306641],[110.53588867200001,19.039123535],[110.53692627,19.039123535],[110.53692627,19.038879395],[110.53747558600001,19.038879395],[110.53747558600001,19.039123535],[110.53790283200001,19.039123535],[110.53790283200001,19.039672852],[110.53851318400001,19.039672852],[110.53851318400001,19.039916992],[110.53912353500002,19.039916992],[110.53912353500002,19.040283203],[110.53930664100001,19.040283203],[110.53930664100001,19.040710449],[110.54028320300002,19.040710449],[110.54028320300002,19.04107666],[110.54052734400001,19.04107666],[110.54052734400001,19.041503906],[110.54071044900002,19.041503906],[110.54071044900002,19.042114258],[110.54107666000002,19.042114258],[110.54107666000002,19.042480469],[110.54132080100001,19.042480469],[110.54132080100001,19.042724609],[110.54150390600002,19.042724609],[110.54150390600002,19.042907715],[110.54327392600001,19.042907715],[110.54327392600001,19.043273926],[110.54388427700002,19.043273926],[110.54388427700002,19.043518066],[110.54431152300002,19.043518066],[110.54431152300002,19.043884277],[110.54467773400002,19.043884277],[110.54467773400002,19.044128418],[110.54528808600001,19.044128418],[110.54528808600001,19.044311523],[110.54608154300001,19.044311523],[110.54608154300001,19.044677734],[110.54650878900001,19.044677734],[110.54650878900001,19.044311523],[110.54711914100001,19.044311523],[110.54711914100001,19.044128418],[110.54772949200002,19.044128418],[110.54772949200002,19.043884277],[110.54888916000002,19.043884277],[110.54888916000002,19.044128418],[110.54931640600002,19.044128418],[110.54931640600002,19.044311523],[110.54992675800001,19.044311523],[110.54992675800001,19.044677734],[110.55047607400002,19.044677734],[110.55047607400002,19.044921875],[110.55108642600001,19.044921875],[110.55108642600001,19.045288086],[110.55352783200001,19.045288086],[110.55352783200001,19.045471191],[110.55432128900001,19.045471191],[110.55432128900001,19.045715332],[110.55548095700001,19.045715332],[110.55548095700001,19.046081543],[110.55627441400001,19.046081543],[110.55627441400001,19.046325684],[110.55712890600002,19.046325684],[110.55712890600002,19.046875],[110.55828857400002,19.046875],[110.55828857400002,19.047119141],[110.55908203100002,19.047119141],[110.55908203100002,19.047485352],[110.55969238300001,19.047485352],[110.55969238300001,19.047119141],[110.56011962900001,19.047119141],[110.56011962900001,19.046875],[110.56072998000002,19.046875],[110.56072998000002,19.046508789],[110.56292724600002,19.046508789],[110.56292724600002,19.046325684],[110.56329345700001,19.046325684],[110.56329345700001,19.046508789],[110.56512451200001,19.046508789],[110.56512451200001,19.046325684],[110.56567382800002,19.046325684],[110.56567382800002,19.046081543],[110.56628418000001,19.046081543],[110.56628418000001,19.046325684],[110.56671142600001,19.046325684],[110.56768798800002,19.047302246],[110.56768798800002,19.047729492],[110.56750488300001,19.047729492],[110.56750488300001,19.048522949],[110.56707763700001,19.048522949],[110.56707763700001,19.049926758],[110.56750488300001,19.049926758],[110.56750488300001,19.050476074],[110.56768798800002,19.050476074],[110.56768798800002,19.051086426],[110.56787109400001,19.051086426],[110.56787109400001,19.051513672],[110.56829834000001,19.051513672],[110.56829834000001,19.05291748],[110.56787109400001,19.05291748],[110.56787109400001,19.053527832],[110.56768798800002,19.053527832],[110.56768798800002,19.054077148],[110.56787109400001,19.054077148],[110.56787109400001,19.0546875],[110.56829834000001,19.0546875],[110.56829834000001,19.055725098],[110.56848144500002,19.055725098],[110.56848144500002,19.057678223],[110.56872558600001,19.057678223],[110.56872558600001,19.062927246],[110.56909179700001,19.062927246],[110.56909179700001,19.064880371],[110.56927490200002,19.064880371],[110.56927490200002,19.067077637],[110.56970214800002,19.067077637],[110.56970214800002,19.071105957],[110.56988525400001,19.071105957],[110.56988525400001,19.071289062],[110.56970214800002,19.071289062],[110.56970214800002,19.073303223],[110.56988525400001,19.073303223],[110.56988525400001,19.07409668],[110.570129395,19.07409668],[110.570129395,19.075073242],[110.56988525400001,19.075073242],[110.56988525400001,19.075500488],[110.570129395,19.075500488],[110.570129395,19.076721191],[110.570129395,19.077087402],[110.57049560500002,19.077087402],[110.57049560500002,19.079101562],[110.570129395,19.079101562],[110.570129395,19.07989502],[110.57049560500002,19.07989502],[110.57049560500002,19.084289551],[110.57067871100001,19.084289551],[110.57067871100001,19.085693359],[110.57128906200002,19.085693359],[110.57128906200002,19.086120605],[110.57147216800001,19.086120605],[110.57171630900001,19.086486816],[110.57189941400001,19.08972168],[110.57189941400001,19.092285156],[110.57208252,19.092285156],[110.57208252,19.093505859],[110.57208252,19.09588623],[110.57232666000002,19.09588623],[110.57250976600001,19.097290039],[110.57250976600001,19.099914551],[110.57269287100002,19.099914551],[110.57269287100002,19.101074219],[110.57269287100002,19.104309082],[110.57287597700001,19.104309082],[110.57287597700001,19.104919434],[110.57287597700001,19.107910156],[110.57269287100002,19.107910156],[110.57269287100002,19.11151123],[110.57348632800002,19.11151123],[110.57348632800002,19.111877441],[110.57373046900001,19.111877441],[110.57409668000001,19.114074707],[110.57409668000001,19.118896484],[110.57427978500002,19.118896484],[110.57427978500002,19.119689941],[110.57470703100002,19.119689941],[110.57470703100002,19.121276855],[110.57489013700001,19.121276855],[110.57489013700001,19.121887207],[110.57507324200002,19.121887207],[110.57507324200002,19.122680664],[110.57489013700001,19.122680664],[110.57489013700001,19.123291016],[110.57470703100002,19.123291016],[110.57470703100002,19.125671387],[110.57489013700001,19.125671387],[110.57489013700001,19.127929687],[110.57507324200002,19.127929687],[110.57507324200002,19.132324219],[110.57507324200002,19.132507324],[110.57489013700001,19.132507324],[110.57330322300001,19.12890625],[110.57067871100001,19.126098633],[110.56970214800002,19.12487793],[110.56909179700001,19.120727539],[110.56909179700001,19.11907959],[110.56872558600001,19.11907959],[110.56872558600001,19.118896484],[110.56707763700001,19.109130859],[110.56707763700001,19.108886719],[110.56750488300001,19.108886719],[110.56750488300001,19.108276367],[110.56768798800002,19.108276367],[110.56768798800002,19.107727051],[110.56750488300001,19.107727051],[110.56750488300001,19.107116699],[110.56707763700001,19.107116699],[110.56707763700001,19.106506348],[110.56689453100002,19.106506348],[110.56689453100002,19.106079102],[110.56671142600001,19.106079102],[110.56372070300002,19.088500977],[110.56030273400002,19.087890625],[110.56170654300001,19.08190918],[110.55908203100002,19.080322266],[110.55249023400002,19.07989502],[110.55151367200001,19.082702637],[110.55267334000001,19.089294434],[110.55090332000002,19.090881348],[110.54272460900002,19.089904785],[110.53649902300002,19.093505859],[110.53472900400001,19.097106934],[110.53430175800001,19.102478027],[110.53027343700002,19.107727051],[110.51788330100001,19.105102539],[110.51068115200002,19.097106934],[110.50787353500002,19.093078613],[110.50311279300001,19.084289551],[110.49731445300002,19.080871582],[110.49450683600001,19.081481934],[110.49072265600002,19.084289551],[110.48712158200001,19.088684082],[110.48107910200001,19.094116211],[110.47332763700001,19.098693848],[110.46527099600002,19.098693848],[110.45727539100001,19.093322754],[110.45867919900002,19.084716797],[110.46069335900002,19.07611084],[110.45471191400001,19.068481445],[110.44708252,19.062316895],[110.44110107400002,19.061523437],[110.43109130900001,19.061523437],[110.421875,19.057922363],[110.41467285200001,19.053527832],[110.40710449200002,19.050292969],[110.40087890600002,19.046081543],[110.39349365200002,19.040100098],[110.38012695300002,19.034729004],[110.36730957000002,19.03112793],[110.35772705100001,19.027526855],[110.35229492200001,19.026489258],[110.34631347700001,19.02532959],[110.34149169900002,19.019714355],[110.34252929700001,19.015686035],[110.34289550800001,19.012695312],[110.33508300800001,19.006896973],[110.32830810500002,19.002502441],[110.31988525400001,18.999328613],[110.31390380900001,19.002685547],[110.30328369100002,19.004882812],[110.30072021500001,19.001708984],[110.29907226600001,18.993530273],[110.29711914100001,18.990722656],[110.28930664100001,18.987915039],[110.27667236300002,18.984680176],[110.27032470700001,18.981506348],[110.25811767600001,18.976074219],[110.24890136700002,18.975524902],[110.24151611300002,18.978271484],[110.23687744100002,18.981689453],[110.23132324200002,18.988891602],[110.22827148400002,18.997314453],[110.22369384800001,19.002319336],[110.21752929700001,19.002929687],[110.21270752,19.000488281],[110.20709228500002,18.997314453],[110.19787597700001,18.995117187],[110.19067382800002,19.001281738],[110.187316895,19.000488281],[110.18267822300001,18.995117187],[110.17828369100002,18.989074707],[110.17633056600002,18.987915039],[110.17449951200001,18.986328125],[110.16949462900001,18.986694336],[110.16632080100001,18.988525391],[110.16430664100001,18.991271973],[110.16247558600001,18.994873047],[110.15972900400001,19.000915527],[110.15612793000001,19.007080078],[110.14672851600001,19.018127441],[110.14788818400001,19.012084961],[110.14788818400001,19.004882812],[110.14392089800002,18.999511719],[110.13629150400001,18.996887207],[110.13189697300001,18.992919922],[110.13110351600001,18.986877441],[110.13470459000001,18.981689453],[110.13989257800002,18.979675293],[110.14410400400001,18.973876953],[110.14410400400001,18.969726562],[110.14007568400001,18.964477539],[110.13531494100002,18.963317871],[110.10870361300002,18.950317383],[110.10388183600001,18.946289062],[110.10089111300002,18.938293457],[110.10211181600002,18.929321289],[110.10211181600002,18.925109863],[110.10009765600002,18.918884277],[110.09332275400001,18.913330078],[110.08972168000001,18.911315918],[110.08251953100002,18.908691406],[110.07672119100002,18.905883789],[110.07232666000002,18.902099609],[110.06707763700001,18.897705078],[110.05688476600001,18.889099121],[110.04608154300001,18.882873535],[110.04132080100001,18.879699707],[110.04107666000002,18.87689209],[110.04791259800001,18.86932373],[110.05828857400002,18.862487793],[110.06512451200001,18.856872559],[110.06909179700001,18.852905273],[110.07287597700001,18.848510742],[110.07788085900002,18.841125488],[110.07952880900001,18.834899902],[110.08331298800002,18.826293945],[110.08587646500001,18.822692871],[110.08868408200001,18.819274902],[110.09149169900002,18.813110352],[110.09051513700001,18.807495117],[110.08648681600002,18.802124023],[110.08251953100002,18.79888916],[110.07989502,18.795898437],[110.07348632800002,18.791870117],[110.06890869100002,18.787719727],[110.06530761700002,18.783874512],[110.06451416000002,18.780273437],[110.06347656200002,18.77532959],[110.06268310500002,18.77331543],[110.06091308600001,18.769287109],[110.05230712900001,18.76171875],[110.04791259800001,18.760314941],[110.03948974600002,18.759094238],[110.03167724600002,18.755310059],[110.02850341800001,18.749511719],[110.02667236300002,18.740905762],[110.02148437500001,18.736328125],[110.01428222700001,18.733093262],[110.00988769500002,18.731079102],[110.00628662100002,18.729675293],[110.00427246100001,18.724914551],[110.00427246100001,18.721923828],[110.00708007800002,18.712524414],[110.01007080100001,18.707519531],[110.01031494100002,18.702697754],[110.01007080100001,18.698303223],[110.00970459000001,18.696105957],[110.00891113300001,18.688293457],[110.00952148400002,18.682495117],[110.01110839800002,18.674926758],[110.01409912100002,18.668884277],[110.01812744100002,18.659912109],[110.01971435500002,18.656494141],[110.02227783200001,18.650085449],[110.02490234400001,18.642700195],[110.02752685500002,18.637084961],[110.03509521500001,18.631286621],[110.04107666000002,18.629882812],[110.04968261700002,18.629699707],[110.054504395,18.630493164],[110.06268310500002,18.63067627],[110.06848144500002,18.624694824],[110.07128906200002,18.619689941],[110.07330322300001,18.615905762],[110.08032226600001,18.611877441],[110.08251953100002,18.611083984],[110.09271240200002,18.608520508],[110.09771728500002,18.606323242],[110.10369873000002,18.599304199],[110.10772705100001,18.594299316],[110.10949707000002,18.593322754],[110.11407470700001,18.592529297],[110.11853027300002,18.594482422],[110.12432861300002,18.599121094],[110.13208007800002,18.603088379],[110.14007568400001,18.604309082],[110.14709472700001,18.602478027],[110.15332031200002,18.599304199],[110.16052246100001,18.596313477],[110.16571044900002,18.592895508],[110.16967773400002,18.590698242],[110.17510986300002,18.588317871]]],[[[110.55267334000001,19.089477539],[110.55468750000001,19.099914551],[110.55432128900001,19.099914551],[110.55432128900001,19.09967041],[110.55389404300001,19.09967041],[110.55389404300001,19.100280762],[110.55407714800002,19.100280762],[110.55407714800002,19.100708008],[110.55389404300001,19.100708008],[110.55389404300001,19.102905273],[110.55352783200001,19.102905273],[110.55352783200001,19.103271484],[110.55328369100002,19.103271484],[110.55328369100002,19.104125977],[110.55291748000002,19.104125977],[110.55291748000002,19.104309082],[110.55328369100002,19.104309082],[110.55328369100002,19.104919434],[110.55352783200001,19.104919434],[110.55352783200001,19.105285645],[110.55389404300001,19.105285645],[110.55389404300001,19.105712891],[110.55407714800002,19.105712891],[110.55407714800002,19.106506348],[110.55432128900001,19.106506348],[110.55432128900001,19.10748291],[110.55407714800002,19.10748291],[110.55407714800002,19.108520508],[110.55432128900001,19.108520508],[110.55432128900001,19.108886719],[110.55468750000001,19.108886719],[110.55468750000001,19.109130859],[110.55548095700001,19.109130859],[110.55548095700001,19.109313965],[110.55627441400001,19.109313965],[110.55627441400001,19.109680176],[110.55688476600001,19.109680176],[110.55688476600001,19.109313965],[110.55767822300001,19.109313965],[110.55767822300001,19.109130859],[110.55847168000001,19.109130859],[110.55847168000001,19.109313965],[110.55908203100002,19.109313965],[110.55908203100002,19.109680176],[110.55969238300001,19.109680176],[110.55969238300001,19.109924316],[110.55987548800002,19.109924316],[110.55987548800002,19.110290527],[110.56011962900001,19.110290527],[110.56011962900001,19.110473633],[110.56048584000001,19.110473633],[110.56048584000001,19.110717773],[110.56072998000002,19.110717773],[110.56072998000002,19.111083984],[110.56109619100002,19.111083984],[110.56109619100002,19.111328125],[110.56072998000002,19.111328125],[110.56072998000002,19.11151123],[110.55908203100002,19.11151123],[110.55908203100002,19.111328125],[110.55889892600001,19.111328125],[110.55889892600001,19.111877441],[110.55847168000001,19.111877441],[110.55847168000001,19.112121582],[110.55828857400002,19.112121582],[110.55828857400002,19.112915039],[110.55889892600001,19.112915039],[110.55889892600001,19.112670898],[110.55908203100002,19.112670898],[110.55908203100002,19.112487793],[110.55932617200001,19.112487793],[110.55932617200001,19.112670898],[110.55969238300001,19.112670898],[110.55969238300001,19.11328125],[110.55987548800002,19.11328125],[110.55987548800002,19.113891602],[110.56011962900001,19.113891602],[110.56011962900001,19.114074707],[110.56072998000002,19.114074707],[110.56072998000002,19.114685059],[110.56091308600001,19.114685059],[110.55889892600001,19.120727539],[110.55889892600001,19.12109375],[110.55828857400002,19.12109375],[110.55828857400002,19.120727539],[110.55792236300002,19.120727539],[110.55792236300002,19.120483398],[110.55828857400002,19.120483398],[110.55828857400002,19.119689941],[110.55847168000001,19.119689941],[110.55847168000001,19.118896484],[110.55889892600001,19.118896484],[110.55889892600001,19.118530273],[110.55908203100002,19.118530273],[110.55908203100002,19.117919922],[110.55932617200001,19.117919922],[110.55932617200001,19.117675781],[110.55828857400002,19.117675781],[110.55828857400002,19.117492676],[110.55749511700002,19.117492676],[110.55749511700002,19.117126465],[110.55712890600002,19.117126465],[110.55712890600002,19.117492676],[110.55572509800001,19.117492676],[110.55572509800001,19.117126465],[110.55487060500002,19.117126465],[110.55487060500002,19.117675781],[110.55468750000001,19.117675781],[110.55468750000001,19.118896484],[110.54931640600002,19.113525391],[110.55010986300002,19.105285645],[110.55029296900001,19.101074219],[110.55151367200001,19.092285156],[110.55267334000001,19.089477539]]]]}}
