{"type":"Feature","id":"bulk-99377448B7783934359243","bbox":[105.80133056600002,38.135498047,106.55187988300001,38.906677246],"properties":{"id":"bulk-99377448B7783934359243","name":"Yinchuan","nameEn":"Yinchuan","fullName":"Yinchuan","level":"city","boundaryRole":"administrative-extent","boundaryQuality":"generalized-source-2020","boundaryYearRepresented":"2020","bounds":[[105.80133056600002,38.135498047],[106.55187988300001,38.906677246]],"center":[106.17660522450001,38.5210876465],"centerMethod":"bounding-box midpoint; camera framing only","license":"CC-BY-3.0-IGO","attribution":"geoBoundaries / HDX, China administrative boundaries (2020)","source":{"provider":"geoBoundaries gbHumanitarian / HDX","url":"https://github.com/wmgeolab/geoBoundaries/raw/9469f09/releaseData/gbHumanitarian/CHN/ADM2/geoBoundaries-CHN-ADM2.geojson","metadataUrl":"https://www.geoboundaries.org/api/current/gbHumanitarian/CHN/ADM2/","shapeID":"99377448B7783934359243","shapeName":"Yinchuan","boundaryID":"CHN-ADM2-99377448","commit":"9469f09"},"geometryCounts":{"coordinates":50,"components":1,"holes":0},"boundaryNotice":"geoBoundaries / HDX 2020 年行政区数据，海岸和边界经过源数据概化，并非当前测绘成果。"},"geometry":{"type":"Polygon","coordinates":[[[105.80133056600002,38.263305664],[105.863098145,38.251281738],[105.90991210900002,38.234313965],[105.96429443400001,38.196472168],[106.00329589800002,38.183898926],[106.046875,38.18170166],[106.09692382800002,38.168701172],[106.14752197300001,38.153686523],[106.22790527300002,38.135498047],[106.25592041000002,38.194885254],[106.27667236300002,38.217895508],[106.30548095700001,38.24810791],[106.33111572300001,38.272521973],[106.37652587900001,38.340515137],[106.40832519500002,38.367675781],[106.42932128900001,38.381103516],[106.46728515600002,38.393127441],[106.52990722700001,38.444091797],[106.54290771500001,38.471923828],[106.55010986300002,38.526916504],[106.54907226600001,38.546875],[106.53332519500002,38.573913574],[106.52770996100001,38.592102051],[106.52587890600002,38.630493164],[106.55187988300001,38.690673828],[106.50628662100002,38.694885254],[106.46069335900002,38.708312988],[106.40869140600002,38.726501465],[106.38049316400001,38.743896484],[106.35290527300002,38.776672363],[106.31951904300001,38.760314941],[106.27752685500002,38.756103516],[106.24291992200001,38.768310547],[106.18908691400001,38.770874023],[106.13812255900001,38.778503418],[106.09851074200002,38.817321777],[106.07489013700001,38.843322754],[106.038879395,38.866882324],[105.99151611300002,38.906677246],[105.95391845700001,38.883728027],[105.92987060500002,38.821289062],[105.89990234400001,38.701293945],[105.89508056600002,38.689086914],[105.86187744100002,38.603515625],[105.85852050800001,38.531677246],[105.85687255900001,38.448120117],[105.84490966800001,38.412902832],[105.83551025400001,38.384887695],[105.85888671900001,38.329711914],[105.80133056600002,38.263305664]]]}}
