{"type":"Feature","id":"bulk-99377448B53758316881632","bbox":[99.18170166000002,22.028076172,102.32232666000002,24.870483398],"properties":{"id":"bulk-99377448B53758316881632","name":"Pu'er","nameEn":"Pu'er","fullName":"Pu'er","level":"city","boundaryRole":"administrative-extent","boundaryQuality":"generalized-source-2020","boundaryYearRepresented":"2020","bounds":[[99.18170166000002,22.028076172],[102.32232666000002,24.870483398]],"center":[100.75201416000002,23.449279785],"centerMethod":"bounding-box midpoint; camera framing only","license":"CC-BY-3.0-IGO","attribution":"geoBoundaries / HDX, China administrative boundaries (2020)","source":{"provider":"geoBoundaries gbHumanitarian / HDX","url":"https://github.com/wmgeolab/geoBoundaries/raw/9469f09/releaseData/gbHumanitarian/CHN/ADM2/geoBoundaries-CHN-ADM2.geojson","metadataUrl":"https://www.geoboundaries.org/api/current/gbHumanitarian/CHN/ADM2/","shapeID":"99377448B53758316881632","shapeName":"Pu'er","boundaryID":"CHN-ADM2-99377448","commit":"9469f09"},"geometryCounts":{"coordinates":526,"components":1,"holes":0},"boundaryNotice":"geoBoundaries / HDX 2020 年行政区数据，海岸和边界经过源数据概化，并非当前测绘成果。"},"geometry":{"type":"Polygon","coordinates":[[[100.74609375000001,24.843322754],[100.69787597700001,24.846496582],[100.67907714800002,24.870483398],[100.63928222700001,24.819519043],[100.62188720700001,24.791870117],[100.60168457000002,24.754882812],[100.570495605,24.738891602],[100.53369140600002,24.755126953],[100.49871826200001,24.772277832],[100.45269775400001,24.75970459],[100.39630127,24.762329102],[100.43072509800001,24.678894043],[100.437683105,24.652282715],[100.45367431600002,24.628112793],[100.47607421900001,24.607727051],[100.504882812,24.562683105],[100.51751709000001,24.537109375],[100.53369140600002,24.503479004],[100.54992675800001,24.468322754],[100.56512451200001,24.442687988],[100.538879395,24.426696777],[100.52148437500001,24.38067627],[100.53167724600002,24.33807373],[100.53472900400001,24.309875488],[100.53833007800002,24.281494141],[100.53308105500001,24.244689941],[100.53991699200002,24.201293945],[100.53350830100001,24.141906738],[100.52868652300002,24.113525391],[100.50927734400001,24.079711914],[100.47827148400002,24.071289062],[100.44372558600001,24.071899414],[100.40832519500002,24.074890137],[100.38128662100002,24.0625],[100.39727783200001,24.033691406],[100.41027832000002,24.000915527],[100.41851806600002,23.989318848],[100.44348144500002,23.868530273],[100.37927246100001,23.847717285],[100.36730957000002,23.814880371],[100.36029052700002,23.780883789],[100.36468505900001,23.753112793],[100.40393066400001,23.741516113],[100.43048095700001,23.728881836],[100.44970703100002,23.693908691],[100.44171142600001,23.659729004],[100.39569091800001,23.642883301],[100.35968017600001,23.648681641],[100.32427978500002,23.658081055],[100.29211425800001,23.671875],[100.25830078100002,23.678710937],[100.22808837900001,23.665100098],[100.20648193400001,23.63848877],[100.19989013700001,23.609924316],[100.20947265600002,23.563720703],[100.17047119100002,23.46270752],[100.14868164100001,23.432922363],[100.12768554700001,23.410522461],[100.12768554700001,23.383117676],[100.12310791000002,23.354675293],[100.10772705100001,23.32989502],[100.10168457000002,23.288513184],[100.11529541000002,23.251281738],[100.11151123,23.223327637],[100.08447265600002,23.202514648],[100.02111816400001,23.211120605],[99.99487304700001,23.237915039],[99.94689941400001,23.247924805],[99.92388916000002,23.245727539],[99.90228271500001,23.229125977],[99.88067627,23.212524414],[99.85748291000002,23.210327148],[99.83288574200002,23.222473145],[99.80969238300001,23.220275879],[99.76348877,23.215698242],[99.74188232400002,23.19909668],[99.71710205100001,23.211303711],[99.68829345700001,23.243713379],[99.65667724600002,23.194091797],[99.62451171900001,23.184326172],[99.57611084000001,23.170471191],[99.53112793000001,23.13067627],[99.48828125000001,23.08392334],[99.50952148400002,23.084289551],[99.51049804700001,23.084716797],[99.51129150400001,23.084472656],[99.52770996100001,23.084716797],[99.54071044900002,23.075927734],[99.54528808600001,23.044677734],[99.53771972700001,23.017089844],[99.538879395,22.991088867],[99.55108642600001,22.961486816],[99.55432128900001,22.959472656],[99.56048584000001,22.950683594],[99.562683105,22.946716309],[99.5625,22.945495605],[99.56372070300002,22.943725586],[99.57250976600001,22.931518555],[99.56512451200001,22.911315918],[99.56072998,22.910888672],[99.56072998,22.909301758],[99.55712890600002,22.906494141],[99.55249023400002,22.905273437],[99.54492187500001,22.908325195],[99.53649902300002,22.900878906],[99.52490234400001,22.902526855],[99.51892089800002,22.905883789],[99.50750732400002,22.90447998],[99.50128173800002,22.91027832],[99.495910645,22.912109375],[99.48687744100002,22.917297363],[99.48327636700002,22.921508789],[99.47308349600002,22.928894043],[99.46472168000001,22.923278809],[99.46508789100001,22.89630127],[99.46850585900002,22.850280762],[99.45288085900002,22.83190918],[99.429504395,22.829528809],[99.413085937,22.80090332],[99.39831543000001,22.768676758],[99.38531494100002,22.76171875],[99.36047363300001,22.754516602],[99.34631347700001,22.73248291],[99.33349609400001,22.715087891],[99.33471679700001,22.714904785],[99.33947753900001,22.711120605],[99.34149169900002,22.702087402],[99.34069824200002,22.699890137],[99.34307861300002,22.695678711],[99.34649658200001,22.689086914],[99.34887695300002,22.6796875],[99.34887695300002,22.678894043],[99.35351562500001,22.669311523],[99.35650634800001,22.667480469],[99.36132812500001,22.664123535],[99.35992431600002,22.658691406],[99.37847900400001,22.628112793],[99.39410400400001,22.597290039],[99.39251709000001,22.577514648],[99.39007568400001,22.52331543],[99.38928222700001,22.517883301],[99.38470459000001,22.485473633],[99.35467529300001,22.472717285],[99.35107421900001,22.470703125],[99.34552002,22.461486816],[99.33728027300002,22.455322266],[99.33428955100001,22.449279785],[99.32592773400002,22.444519043],[99.32067871100001,22.443908691],[99.31811523400002,22.442687988],[99.30950927700002,22.433288574],[99.30987548800002,22.430480957],[99.296875,22.414672852],[99.29327392600001,22.412719727],[99.28387451200001,22.398681641],[99.28271484400001,22.343688965],[99.27471923800002,22.311096191],[99.25988769500002,22.279724121],[99.24291992200001,22.24987793],[99.21173095700001,22.215087891],[99.19030761700002,22.171325684],[99.19067382800002,22.171081543],[99.19427490200002,22.172729492],[99.19470214800002,22.174499512],[99.20031738300001,22.175109863],[99.20129394500002,22.17388916],[99.19989013700001,22.171325684],[99.19470214800002,22.168273926],[99.18792724600002,22.166687012],[99.18170166000002,22.15411377],[99.18988037100002,22.142883301],[99.20831298800002,22.129882812],[99.21350097700001,22.131103516],[99.21429443400001,22.126708984],[99.21929931600002,22.12487793],[99.22027587900001,22.12512207],[99.22369384800001,22.123474121],[99.22412109400001,22.12310791],[99.23510742200001,22.118896484],[99.28588867200001,22.110473633],[99.29290771500001,22.11328125],[99.29528808600001,22.112304687],[99.29791259800001,22.109130859],[99.32092285200001,22.106506348],[99.34490966800001,22.102478027],[99.36328125000001,22.101928711],[99.36389160200001,22.102722168],[99.36407470700001,22.106689453],[99.37548828100002,22.105895996],[99.38189697300001,22.104125977],[99.38470459000001,22.103088379],[99.39947509800001,22.104675293],[99.41412353500002,22.105285645],[99.41448974600002,22.108886719],[99.42449951200001,22.110290527],[99.42749023400002,22.108886719],[99.42968750000001,22.105895996],[99.43432617200001,22.106079102],[99.43572998,22.111083984],[99.44110107400002,22.114074707],[99.44531250000001,22.11328125],[99.44989013700001,22.114929199],[99.45648193400001,22.11907959],[99.46228027300002,22.126281738],[99.47332763700001,22.136108398],[99.480285645,22.136474609],[99.48468017600001,22.134887695],[99.48352050800001,22.130126953],[99.48571777300002,22.12689209],[99.49407959000001,22.127075195],[99.50689697300001,22.133483887],[99.53009033200001,22.104125977],[99.53448486300002,22.108886719],[99.54351806600002,22.111328125],[99.55389404300001,22.109313965],[99.55627441400001,22.113708496],[99.561523437,22.117919922],[99.56390380900001,22.113708496],[99.56872558600001,22.115905762],[99.59149169900002,22.112304687],[99.59130859400001,22.11328125],[99.59228515600002,22.115478516],[99.59588623,22.11529541],[99.60052490200002,22.112487793],[99.60131835900002,22.110900879],[99.61968994100002,22.108093262],[99.63049316400001,22.102478027],[99.63470459000001,22.104309082],[99.64208984400001,22.105895996],[99.65148925800001,22.105712891],[99.64929199200002,22.100097656],[99.65191650400001,22.092529297],[99.66070556600002,22.091125488],[99.66271972700001,22.088684082],[99.70568847700001,22.075927734],[99.70971679700001,22.057678223],[99.72070312500001,22.049499512],[99.72131347700001,22.051330566],[99.72149658200001,22.057312012],[99.71850585900002,22.061523437],[99.72070312500001,22.065917969],[99.72808837900001,22.069519043],[99.73291015600002,22.068481445],[99.73571777300002,22.069702148],[99.74267578100002,22.074523926],[99.75592041000002,22.073486328],[99.76251220700001,22.070495605],[99.76593017600001,22.065917969],[99.76629638700001,22.065673828],[99.77648925800001,22.064697266],[99.82067871100001,22.055114746],[99.84027099600002,22.046081543],[99.86248779300001,22.028076172],[99.86590576200001,22.02911377],[99.86669921900001,22.035095215],[99.86871337900001,22.037719727],[99.87829589800002,22.038879395],[99.87847900400001,22.042724609],[99.87292480500001,22.043884277],[99.86871337900001,22.046875],[99.86529541000002,22.051513672],[99.86212158200001,22.059692383],[99.87469482400002,22.068908691],[99.879089355,22.070678711],[99.90393066400001,22.069702148],[99.90631103500002,22.067687988],[99.90789794900002,22.062927246],[99.91412353500002,22.058898926],[99.92108154300001,22.05871582],[99.92309570300002,22.057922363],[99.92407226600001,22.058105469],[99.92767334000001,22.061279297],[99.93432617200001,22.062072754],[99.93829345700001,22.062072754],[99.94250488300001,22.059692383],[99.94909668000001,22.056274414],[99.95489502,22.053710937],[99.96270752,22.05267334],[99.96911621100001,22.059326172],[99.96990966800001,22.059326172],[99.98413085900002,22.080505371],[100.00628662100002,22.107299805],[100.02447509800001,22.131286621],[100.04827880900001,22.160095215],[100.07427978500002,22.214294434],[100.10607910200001,22.246520996],[100.14831543000001,22.256713867],[100.17651367200001,22.267272949],[100.19232177700002,22.29510498],[100.20812988300001,22.322509766],[100.24432373,22.311523437],[100.27227783200001,22.296691895],[100.31030273400002,22.29888916],[100.34027099600002,22.262878418],[100.36492919900002,22.291320801],[100.37530517600001,22.323486328],[100.40008544900002,22.36151123],[100.39709472700001,22.394714355],[100.371276855,22.407287598],[100.34588623,22.420715332],[100.36291503900001,22.452270508],[100.39947509800001,22.453918457],[100.45129394500002,22.453674316],[100.47570800800001,22.468688965],[100.51007080100001,22.498474121],[100.53588867200001,22.514099121],[100.58551025400001,22.474121094],[100.629089355,22.492126465],[100.65948486300002,22.509887695],[100.69250488300001,22.521728516],[100.74688720700001,22.535705566],[100.78131103500002,22.547119141],[100.79827880900001,22.570678711],[100.78967285200001,22.598693848],[100.82647705100001,22.608520508],[100.86071777300002,22.589294434],[100.89770507800002,22.582885742],[100.92669677700002,22.568115234],[100.94989013700001,22.60168457],[100.97808837900001,22.591918945],[101.01928710900002,22.596923828],[101.05169677700002,22.60949707],[101.07452392600001,22.58807373],[101.10992431600002,22.562927246],[101.15069580100001,22.55291748],[101.187683105,22.551513672],[101.23687744100002,22.552490234],[101.27008056600002,22.550292969],[101.31188964800002,22.553100586],[101.34130859400001,22.563720703],[101.37487793000001,22.586730957],[101.42907714800002,22.621887207],[101.47131347700001,22.565307617],[101.48950195300002,22.51171875],[101.49548339800002,22.478515625],[101.54229736300002,22.41809082],[101.53991699200002,22.401916504],[101.56872558600001,22.381103516],[101.60687255900001,22.35369873],[101.64910888700001,22.362670898],[101.65008544900002,22.364074707],[101.65747070300002,22.364501953],[101.66149902300002,22.365478516],[101.66888427700002,22.368103027],[101.66912841800001,22.379882812],[101.66748046900001,22.383483887],[101.66107177700002,22.386108398],[101.65551757800002,22.394287109],[101.64410400400001,22.417724609],[101.65551757800002,22.414672852],[101.66827392600001,22.419128418],[101.66491699200002,22.428527832],[101.66491699200002,22.434509277],[101.66912841800001,22.441101074],[101.66650390600002,22.448303223],[101.67889404300001,22.460327148],[101.68988037100002,22.462890625],[101.69250488300001,22.472473145],[101.69567871100001,22.472900391],[101.69348144500002,22.480712891],[101.71069335900002,22.485900879],[101.730285645,22.496887207],[101.73669433600001,22.498474121],[101.73748779300001,22.499694824],[101.73950195300002,22.499328613],[101.75909423800002,22.504699707],[101.78271484400001,22.515075684],[101.81311035200001,22.504516602],[101.84051513700001,22.473327637],[101.85949707000002,22.437683105],[101.87188720700001,22.409118652],[101.89227294900002,22.401489258],[101.90911865200002,22.398071289],[101.91009521500001,22.399291992],[101.91247558600001,22.40612793],[101.91052246100001,22.413696289],[101.91412353500002,22.425292969],[101.91168212900001,22.431274414],[101.91247558600001,22.44128418],[101.94409179700001,22.439086914],[101.95031738300001,22.44329834],[101.99951171900001,22.442871094],[102.00549316400001,22.453491211],[102.00872802700002,22.455688477],[102.04052734400001,22.455871582],[102.04467773400002,22.458679199],[102.04968261700002,22.457885742],[102.05468750000001,22.451721191],[102.05749511700002,22.451904297],[102.09387207000002,22.449279785],[102.13092041000002,22.442871094],[102.14587402300002,22.420471191],[102.14709472700001,22.421508789],[102.15008544900002,22.426879883],[102.15350341800001,22.442077637],[102.16448974600002,22.437683105],[102.16949462900001,22.438110352],[102.17547607400002,22.440490723],[102.18310546900001,22.440490723],[102.18627929700001,22.444274902],[102.19549560500002,22.441101074],[102.20172119100002,22.436279297],[102.22772216800001,22.433898926],[102.23413085900002,22.431884766],[102.23950195300002,22.428100586],[102.26428222700001,22.428527832],[102.26428222700001,22.432312012],[102.25592041000002,22.449890137],[102.24871826200001,22.457092285],[102.24871826200001,22.46307373],[102.24468994100002,22.467529297],[102.25427246100001,22.470703125],[102.26989746100001,22.480285645],[102.26470947300001,22.487915039],[102.27630615200002,22.493896484],[102.27868652300002,22.49987793],[102.28430175800001,22.504089355],[102.28833007800002,22.504699707],[102.29107666000002,22.51348877],[102.30010986300002,22.531311035],[102.311523437,22.54107666],[102.32147216800001,22.548706055],[102.32232666000002,22.551696777],[102.32147216800001,22.5546875],[102.31610107400002,22.5546875],[102.29547119100002,22.574279785],[102.24951171900001,22.599914551],[102.21832275400001,22.600708008],[102.17327880900001,22.601074219],[102.14349365200002,22.609313965],[102.10888671900001,22.623901367],[102.08532714800002,22.640930176],[102.07452392600001,22.671081543],[102.06549072300001,22.701293945],[102.03448486300002,22.727478027],[101.99609375000001,22.765930176],[101.97668457000002,22.792480469],[101.92987060500002,22.804504395],[101.89288330100001,22.79510498],[101.85931396500001,22.801513672],[101.82568359400001,22.830688477],[101.80291748000002,22.851318359],[101.83227539100001,22.919921875],[101.83288574200002,22.950927734],[101.85687255900001,22.97088623],[101.85388183600001,23.002075195],[101.85992431600002,23.032287598],[101.90191650400001,23.054077148],[101.9375,23.043701172],[101.97009277300002,23.017089844],[102.00567627,23.015075684],[102.04089355500001,23.041503906],[102.04748535200001,23.080505371],[102.04608154300001,23.142700195],[102.02429199200002,23.164489746],[102.00311279300001,23.193908691],[101.96551513700001,23.196289062],[101.92272949200002,23.189697266],[101.88031005900001,23.181091309],[101.84527587900001,23.194274902],[101.82647705100001,23.228515625],[101.82287597700001,23.25769043],[101.83007812500001,23.284484863],[101.85247802700002,23.306884766],[101.87670898400002,23.326477051],[101.88330078100002,23.383483887],[101.82849121100001,23.397277832],[101.79547119100002,23.400085449],[101.76049804700001,23.407714844],[101.74389648400002,23.438476562],[101.75091552700002,23.477294922],[101.76452636700002,23.503295898],[101.75152587900001,23.538085937],[101.73968505900001,23.569274902],[101.71008300800001,23.593688965],[101.69567871100001,23.636108398],[101.686523437,23.691711426],[101.64648437500001,23.671508789],[101.60913085900002,23.669677734],[101.59271240200002,23.698120117],[101.58648681600002,23.725708008],[101.57470703100002,23.766113281],[101.55267334000001,23.796691895],[101.51593017600001,23.790893555],[101.488098145,23.777282715],[101.45129394500002,23.764099121],[101.41870117200001,23.749084473],[101.40509033200001,23.774719238],[101.42492675800001,23.827087402],[101.39569091800001,23.851074219],[101.44268798800002,23.864685059],[101.47912597700001,23.890075684],[101.49847412100002,23.913513184],[101.50549316400001,23.943115234],[101.49810791000002,23.991088867],[101.47607421900001,24.02947998],[101.44952392600001,24.041503906],[101.42987060500002,24.067321777],[101.42150878900001,24.093688965],[101.41247558600001,24.123901367],[101.39093017600001,24.157714844],[101.36889648400002,24.190917969],[101.34631347700001,24.232299805],[101.32287597700001,24.275878906],[101.30889892600001,24.300109863],[101.29309082000002,24.328918457],[101.22747802700002,24.357910156],[101.19873046900001,24.37689209],[101.18487548800002,24.405883789],[101.16009521500001,24.435913086],[101.12731933600001,24.457519531],[101.10211181600002,24.482299805],[101.06390380900001,24.541687012],[101.05987548800002,24.571289062],[101.03771972700001,24.602478027],[101.01409912100002,24.622070312],[101.00512695300002,24.652526855],[100.98687744100002,24.679321289],[100.96649169900002,24.708496094],[100.95867919900002,24.736328125],[100.92712402300002,24.767700195],[100.86187744100002,24.77331543],[100.81829834000001,24.768920898],[100.77990722700001,24.77911377],[100.75531005900001,24.812927246],[100.74609375000001,24.843322754]]]}}
