{"type":"Feature","id":"bulk-99377448B48013436802300","bbox":[113.11547851600001,22.219726562,113.57067871100001,22.785705566],"properties":{"id":"bulk-99377448B48013436802300","name":"Zhongshan","nameEn":"Zhongshan","fullName":"Zhongshan","level":"city","boundaryRole":"administrative-extent","boundaryQuality":"generalized-source-2020","boundaryYearRepresented":"2020","bounds":[[113.11547851600001,22.219726562],[113.57067871100001,22.785705566]],"center":[113.34307861350001,22.502716064],"centerMethod":"bounding-box midpoint; camera framing only","license":"CC-BY-3.0-IGO","attribution":"geoBoundaries / HDX, China administrative boundaries (2020)","source":{"provider":"geoBoundaries gbHumanitarian / HDX","url":"https://github.com/wmgeolab/geoBoundaries/raw/9469f09/releaseData/gbHumanitarian/CHN/ADM2/geoBoundaries-CHN-ADM2.geojson","metadataUrl":"https://www.geoboundaries.org/api/current/gbHumanitarian/CHN/ADM2/","shapeID":"99377448B48013436802300","shapeName":"Zhongshan","boundaryID":"CHN-ADM2-99377448","commit":"9469f09"},"geometryCounts":{"coordinates":108,"components":2,"holes":0},"boundaryNotice":"geoBoundaries / HDX 2020 年行政区数据，海岸和边界经过源数据概化，并非当前测绘成果。"},"geometry":{"type":"MultiPolygon","coordinates":[[[[113.34967041000002,22.288330078],[113.35131835900002,22.291687012],[113.34790039100001,22.298278809],[113.33990478500002,22.306518555],[113.34191894500002,22.300292969],[113.34967041000002,22.288330078]]],[[[113.11547851600001,22.701293945],[113.12469482400002,22.665710449],[113.120910645,22.626708984],[113.14172363300001,22.606872559],[113.16247558600001,22.572509766],[113.15667724600002,22.534912109],[113.17932128900001,22.500915527],[113.20690918000001,22.472473145],[113.22808837900001,22.439880371],[113.26593017600001,22.385681152],[113.28369140600002,22.377685547],[113.30291748000002,22.365112305],[113.30828857400002,22.359313965],[113.30688476600001,22.361328125],[113.30371093700002,22.371887207],[113.30468750000001,22.375488281],[113.30749511700002,22.383117676],[113.30731201200001,22.371887207],[113.30969238300001,22.363098145],[113.32867431600002,22.33392334],[113.32891845700001,22.333312988],[113.33288574200002,22.327270508],[113.33728027300002,22.314086914],[113.35467529300001,22.298706055],[113.35607910200001,22.293518066],[113.35308837900001,22.283081055],[113.35510253900001,22.280273437],[113.37548828100002,22.244689941],[113.39251709000001,22.224304199],[113.39288330100001,22.223693848],[113.39587402300002,22.219909668],[113.39868164100001,22.219726562],[113.41247558600001,22.226074219],[113.41467285200001,22.237670898],[113.41949462900001,22.246520996],[113.42407226600001,22.249511719],[113.42889404300001,22.251281738],[113.42089843700002,22.242492676],[113.41650390600002,22.228088379],[113.43548584000001,22.237121582],[113.46289062500001,22.272094727],[113.45672607400002,22.306884766],[113.45227050800001,22.355102539],[113.45971679700001,22.396911621],[113.46850585900002,22.439086914],[113.54467773400002,22.439086914],[113.55828857400002,22.462890625],[113.55529785200001,22.473876953],[113.55731201200001,22.478088379],[113.56811523400002,22.487915039],[113.57067871100001,22.493286133],[113.57049560500002,22.504516602],[113.57031250000001,22.516906738],[113.56567382800002,22.524902344],[113.5625,22.530883789],[113.56848144500002,22.551086426],[113.56768798800002,22.554504395],[113.54791259800001,22.569885254],[113.54852294900002,22.570678711],[113.53747558600001,22.573120117],[113.52032470700001,22.573303223],[113.47631835900002,22.569702148],[113.45788574200002,22.571899414],[113.45770263700001,22.574523926],[113.46588134800001,22.574707031],[113.44610595700001,22.589294434],[113.45227050800001,22.593078613],[113.46148681600002,22.584899902],[113.47912597700001,22.574523926],[113.48669433600001,22.574279785],[113.50628662100002,22.578918457],[113.54010009800001,22.580505371],[113.55468750000001,22.582885742],[113.56048584000001,22.594482422],[113.55407714800002,22.602478027],[113.54870605500001,22.60748291],[113.54888916000002,22.609130859],[113.54272460900002,22.617126465],[113.51971435500002,22.647888184],[113.51171875000001,22.658874512],[113.49072265600002,22.684875488],[113.48529052700002,22.691894531],[113.47808837900001,22.703125],[113.45349121100001,22.716674805],[113.44891357400002,22.719726562],[113.43609619100002,22.721923828],[113.40588378900001,22.726501465],[113.38568115200002,22.736328125],[113.36090087900001,22.764709473],[113.35992431600002,22.768676758],[113.35729980500001,22.769287109],[113.35467529300001,22.774902344],[113.35290527300002,22.780517578],[113.33709716800001,22.785705566],[113.31610107400002,22.783325195],[113.30731201200001,22.757873535],[113.27307128900001,22.756896973],[113.23828125000001,22.761474609],[113.20812988300001,22.741088867],[113.18707275400001,22.708496094],[113.14971923800002,22.694519043],[113.11547851600001,22.701293945]]]]}}
