{"type":"Feature","id":"bulk-99377448B44599324076681","bbox":[91.11492919900002,40.834106445,96.39569091800001,45.06628418],"properties":{"id":"bulk-99377448B44599324076681","name":"Hami","nameEn":"Hami","fullName":"Hami","level":"city","boundaryRole":"administrative-extent","boundaryQuality":"generalized-source-2020","boundaryYearRepresented":"2020","bounds":[[91.11492919900002,40.834106445],[96.39569091800001,45.06628418]],"center":[93.75531005850002,42.9501953125],"centerMethod":"bounding-box midpoint; camera framing only","license":"CC-BY-3.0-IGO","attribution":"geoBoundaries / HDX, China administrative boundaries (2020)","source":{"provider":"geoBoundaries gbHumanitarian / HDX","url":"https://github.com/wmgeolab/geoBoundaries/raw/9469f09/releaseData/gbHumanitarian/CHN/ADM2/geoBoundaries-CHN-ADM2.geojson","metadataUrl":"https://www.geoboundaries.org/api/current/gbHumanitarian/CHN/ADM2/","shapeID":"99377448B44599324076681","shapeName":"Hami","boundaryID":"CHN-ADM2-99377448","commit":"9469f09"},"geometryCounts":{"coordinates":310,"components":1,"holes":0},"boundaryNotice":"geoBoundaries / HDX 2020 年行政区数据，海岸和边界经过源数据概化，并非当前测绘成果。"},"geometry":{"type":"Polygon","coordinates":[[[96.39569091800001,42.718505859],[96.38629150400001,42.74407959],[96.38867187500001,42.795288086],[96.37109375000001,42.859130859],[96.36810302700002,42.915527344],[96.25653076200001,42.998718262],[96.20672607400002,43.03112793],[96.10888671900001,43.092102051],[96.07708740200002,43.122680664],[96.020507812,43.16229248],[95.97290039100001,43.18927002],[95.94128418000001,43.217895508],[95.89770507800002,43.260314941],[95.87750244100002,43.279724121],[95.87268066400001,43.302124023],[95.86431884800001,43.36151123],[95.85070800800001,43.402099609],[95.84808349600002,43.42767334],[95.75549316400001,43.574890137],[95.74987793000001,43.585083008],[95.73211669900002,43.612487793],[95.72650146500001,43.627929687],[95.643127441,43.780273437],[95.63153076200001,43.848876953],[95.62512207000002,43.862670898],[95.60272216800001,43.88848877],[95.55291748,43.97668457],[95.53167724600002,44.002685547],[95.42327880900001,44.002075195],[95.33850097700001,44.02947998],[95.34008789100001,44.038330078],[95.33911132800002,44.038513184],[95.32568359400001,44.044677734],[95.32470703100002,44.056884766],[95.34112548800002,44.074523926],[95.34069824200002,44.082885742],[95.35070800800001,44.113708496],[95.35748291000002,44.174072266],[95.36492919900002,44.193115234],[95.36712646500001,44.219116211],[95.36712646500001,44.228088379],[95.37707519500002,44.237121582],[95.413085937,44.25567627],[95.42248535200001,44.26348877],[95.42407226600001,44.291503906],[95.40832519500002,44.292480469],[95.17810058600001,44.264892578],[95.13507080100001,44.27130127],[95.05810546900001,44.255493164],[95.01068115200002,44.258483887],[94.97369384800001,44.284729004],[94.920471191,44.296081543],[94.88568115200002,44.29510498],[94.79510498,44.323486328],[94.77368164100001,44.330322266],[94.72607421900001,44.339477539],[94.71087646500001,44.360717773],[94.69207763700001,44.386108398],[94.68707275400001,44.394714355],[94.64288330100001,44.433898926],[94.604492187,44.450683594],[94.56689453100002,44.466491699],[94.53948974600002,44.484313965],[94.51611328100002,44.492492676],[94.50848388700001,44.498474121],[94.461120605,44.517883301],[94.44409179700001,44.518676758],[94.394714355,44.517700195],[94.36810302700002,44.520080566],[94.34411621100001,44.527526855],[94.34027099600002,44.560913086],[94.33227539100001,44.58392334],[94.30847168000001,44.59588623],[94.278686523,44.606079102],[94.26647949200002,44.619506836],[94.23107910200001,44.658691406],[94.17132568400001,44.684692383],[94.14270019500002,44.700683594],[94.10247802700002,44.721679687],[94.046875,44.745727539],[93.99572753900001,44.768127441],[93.94708252,44.785522461],[93.90789794900002,44.795471191],[93.86328125000001,44.816894531],[93.81829834000001,44.835510254],[93.73248291000002,44.864074707],[93.71331787100002,44.883911133],[93.66491699200002,44.899291992],[93.54272460900002,44.958312988],[93.51788330100001,44.952514648],[93.48590087900001,44.948486328],[93.428710937,44.967529297],[93.38092041000002,44.984680176],[93.32067871100001,44.978271484],[93.27587890600002,44.989501953],[93.22528076200001,45.001708984],[93.20349121100001,45.005493164],[93.06207275400001,45.00189209],[92.98468017600001,45.006103516],[92.93408203100002,45.018310547],[92.85791015600002,45.022705078],[92.77032470700001,45.019897461],[92.72528076200001,45.016113281],[92.69049072300001,45.018127441],[92.645080566,45.010681152],[92.60968017600001,45.004272461],[92.53308105500001,45.004699707],[92.47552490200002,44.993713379],[92.42468261700002,44.990905762],[92.319702148,45.014282227],[92.26312255900001,45.004089355],[92.21630859400001,45.006530762],[92.19348144500002,45.022888184],[92.14630127,45.056274414],[92.05908203100002,45.06628418],[91.993896484,45.063293457],[91.91552734400001,45.055725098],[91.82391357400002,45.057495117],[91.75653076200001,45.052307129],[91.70867919900002,45.057922363],[91.63568115200002,45.045288086],[91.579101562,45.05090332],[91.53247070300002,44.967102051],[91.562683105,44.931274414],[91.58111572300001,44.899475098],[91.59790039100001,44.867126465],[91.595092773,44.839477539],[91.560302734,44.814880371],[91.51452636700002,44.797302246],[91.47290039100001,44.77911377],[91.43670654300001,44.760314941],[91.410705566,44.720703125],[91.40087890600002,44.69329834],[91.39190673800002,44.651123047],[91.38287353500002,44.614074707],[91.37609863300001,44.587097168],[91.36090087900001,44.537475586],[91.34912109400001,44.496704102],[91.33709716800001,44.461303711],[91.33068847700001,44.421691895],[91.327514648,44.38269043],[91.32391357400002,44.346679687],[91.32611084000001,44.316101074],[91.32611084000001,44.288879395],[91.31750488300001,44.241088867],[91.32147216800001,44.190124512],[91.33148193400001,44.145690918],[91.31707763700001,44.08972168],[91.31927490200002,44.036499023],[91.31591796900001,44.007324219],[91.31671142600001,43.977294922],[91.335693359,43.946289062],[91.37768554700001,43.917297363],[91.429077148,43.894714355],[91.45971679700001,43.878723145],[91.50750732400002,43.841308594],[91.53009033200001,43.805725098],[91.54852294900002,43.774475098],[91.53308105500001,43.742492676],[91.493896484,43.719726562],[91.436096191,43.710876465],[91.36389160200001,43.665100098],[91.37231445300002,43.637329102],[91.38330078100002,43.59967041],[91.37689209000001,43.572509766],[91.33367919900002,43.558105469],[91.25671386700002,43.5546875],[91.21948242200001,43.541687012],[91.18908691400001,43.515319824],[91.13989257800002,43.490478516],[91.11492919900002,43.460876465],[91.119689941,43.427490234],[91.137695312,43.402282715],[91.18127441400001,43.386108398],[91.22271728500002,43.374084473],[91.24987793000001,43.354125977],[91.27148437500001,43.317687988],[91.28729248,43.284484863],[91.31549072300001,43.226074219],[91.328674316,43.200500488],[91.33770752,43.153686523],[91.33349609400001,43.116516113],[91.32849121100001,43.077270508],[91.32952880900001,43.045898437],[91.35888671900001,42.968078613],[91.36029052700002,42.928283691],[91.37188720700001,42.867126465],[91.38287353500002,42.839477539],[91.39672851600001,42.809326172],[91.41467285200001,42.766723633],[91.41412353500002,42.721130371],[91.41528320300002,42.678100586],[91.42108154300001,42.634887695],[91.43212890600002,42.603515625],[91.43572998,42.541687012],[91.43872070300002,42.492492676],[91.44171142600001,42.463500977],[91.462280273,42.397888184],[91.47052002,42.347106934],[91.47607421900001,42.3203125],[91.485717773,42.289306641],[91.51910400400001,42.244506836],[91.53070068400001,42.208679199],[91.54168701200001,42.159729004],[91.55267334000001,42.131103516],[91.571289062,42.097900391],[91.59332275400001,42.058288574],[91.62689209000001,42.031311035],[91.68469238300001,42.009277344],[91.71270752,41.988708496],[91.73950195300002,41.963684082],[91.761474609,41.924682617],[91.78149414100001,41.871887207],[91.786499023,41.834899902],[91.80267334000001,41.78692627],[91.821289062,41.738891602],[91.83190918000001,41.690307617],[91.828125,41.653686523],[91.82189941400001,41.614318848],[91.80950927700002,41.567077637],[91.82189941400001,41.519287109],[91.83709716800001,41.475524902],[91.85351562500001,41.439086914],[91.87927246100001,41.405273437],[91.90270996100001,41.380310059],[91.92108154300001,41.353515625],[91.91912841800001,41.326293945],[91.92132568400001,41.28729248],[91.972473145,41.278076172],[92.01751709000001,41.276672363],[92.144287109,41.264526367],[92.18267822300001,41.251708984],[92.21667480500001,41.231079102],[92.25311279300001,41.218505859],[92.29229736300002,41.207702637],[92.33007812500001,41.19708252],[92.37231445300002,41.193725586],[92.40789794900002,41.185302734],[92.44488525400001,41.172302246],[92.48651123,41.164306641],[92.53552246100001,41.163085937],[92.587280273,41.159912109],[92.65411377,41.154907227],[92.70269775400001,41.153076172],[92.74188232400002,41.151672363],[92.77947998,41.148498535],[92.84271240200002,41.146118164],[92.88092041000002,41.143676758],[92.91827392600001,41.139892578],[92.95349121100001,41.13269043],[92.99230957000002,41.115112305],[93.02471923800002,41.092712402],[93.06427002,41.065917969],[93.11328125000001,41.034912109],[93.15148925800001,41.012695312],[93.18829345700001,40.992126465],[93.23071289100001,40.971130371],[93.26989746100001,40.960876465],[93.34869384800001,40.94732666],[93.40032959000001,40.94708252],[93.444702148,40.94732666],[93.49212646500001,40.950683594],[93.52893066400001,40.913879395],[93.54327392600001,40.887878418],[93.57208252,40.858276367],[93.61328125000001,40.848083496],[93.65270996100001,40.843322754],[93.70391845700001,40.834106445],[93.81848144500002,40.835083008],[93.82550048800002,40.846923828],[93.82952880900001,40.856506348],[93.87628173800002,40.892700195],[93.944702148,40.979919434],[93.954101562,41.030517578],[94.02947998,41.087890625],[94.11108398400002,41.144287109],[94.20391845700001,41.206481934],[94.37188720700001,41.340087891],[94.444702148,41.371887207],[94.51251220700001,41.438903809],[94.621276855,41.555480957],[94.68548584000001,41.582519531],[94.78350830100001,41.642089844],[94.83111572300001,41.66192627],[94.88989257800002,41.686279297],[94.96331787100002,41.711486816],[95.203125,41.784484863],[95.280273437,41.792907715],[95.39129638700001,41.792297363],[95.53607177700002,41.850097656],[95.59307861300002,41.848876953],[95.59832763700001,41.848510742],[95.70947265600002,41.83972168],[95.79907226600001,41.834716797],[95.92028808600001,41.832092285],[96.086914062,41.963928223],[96.104492187,41.987304687],[96.05749511700002,42.006713867],[96.05590820300002,42.078308105],[96.07409668000001,42.142883301],[96.08508300800001,42.239074707],[96.086120605,42.30291748],[96.07373046900001,42.37890625],[96.05267334000001,42.486083984],[96.04089355500001,42.602478027],[96.10607910200001,42.631530762],[96.21667480500001,42.658874512],[96.28747558600001,42.68572998],[96.347473145,42.715881348],[96.39569091800001,42.718505859]]]}}
