{"type":"Feature","id":"bulk-99377448B18698331394705","bbox":[114.89849853500002,35.344116211,116.06109619100002,36.211486816],"properties":{"id":"bulk-99377448B18698331394705","name":"Puyang","nameEn":"Puyang","fullName":"Puyang","level":"city","boundaryRole":"administrative-extent","boundaryQuality":"generalized-source-2020","boundaryYearRepresented":"2020","bounds":[[114.89849853500002,35.344116211],[116.06109619100002,36.211486816]],"center":[115.47979736300002,35.777801513499995],"centerMethod":"bounding-box midpoint; camera framing only","license":"CC-BY-3.0-IGO","attribution":"geoBoundaries / HDX, China administrative boundaries (2020)","source":{"provider":"geoBoundaries gbHumanitarian / HDX","url":"https://github.com/wmgeolab/geoBoundaries/raw/9469f09/releaseData/gbHumanitarian/CHN/ADM2/geoBoundaries-CHN-ADM2.geojson","metadataUrl":"https://www.geoboundaries.org/api/current/gbHumanitarian/CHN/ADM2/","shapeID":"99377448B18698331394705","shapeName":"Puyang","boundaryID":"CHN-ADM2-99377448","commit":"9469f09"},"geometryCounts":{"coordinates":95,"components":1,"holes":0},"boundaryNotice":"geoBoundaries / HDX 2020 年行政区数据，海岸和边界经过源数据概化，并非当前测绘成果。"},"geometry":{"type":"Polygon","coordinates":[[[114.980285645,36.060119629],[114.972473145,35.999694824],[114.98730468700002,35.968688965],[114.98370361300002,35.93951416],[114.97070312500001,35.899475098],[114.96887207000002,35.867492676],[114.96990966800001,35.839477539],[114.97070312500001,35.810913086],[114.95709228500002,35.785522461],[114.93212890600002,35.758483887],[114.90649414100001,35.728881836],[114.89849853500002,35.701477051],[114.90332031200002,35.674682617],[114.90747070300002,35.623291016],[114.90991210900002,35.606872559],[114.92767334000001,35.569885254],[114.93292236300002,35.539672852],[114.92431640600002,35.513122559],[114.92089843700002,35.478881836],[114.94189453100002,35.448486328],[114.95227050800001,35.413696289],[114.93511962900001,35.383483887],[114.96069335900002,35.347290039],[114.97607421900001,35.344116211],[114.97668457000002,35.354125977],[115.14031982400002,35.425476074],[115.19030761700002,35.410888672],[115.29968261700002,35.479125977],[115.28247070300002,35.555297852],[115.35870361300002,35.549499512],[115.36572265600002,35.606872559],[115.40588378900001,35.635314941],[115.44970703100002,35.668701172],[115.46771240200002,35.698120117],[115.50128173800002,35.721679687],[115.53088378900001,35.732910156],[115.56347656200002,35.741516113],[115.58508300800001,35.730529785],[115.62292480500001,35.723876953],[115.67608642600001,35.796875],[115.71051025400001,35.830505371],[115.73669433600001,35.839294434],[115.80767822300001,35.846130371],[115.84112548800002,35.864685059],[115.83551025400001,35.920288086],[115.87652587900001,35.953491211],[116.01568603500002,35.972106934],[116.02148437500001,36.004516602],[116.06109619100002,36.103088379],[116.04290771500001,36.116516113],[116.02728271500001,36.122314453],[116.00988769500002,36.145690918],[115.99353027300002,36.144104004],[115.97210693400001,36.114929199],[115.98748779300001,36.063903809],[115.91668701200001,36.019470215],[115.83850097700001,35.960327148],[115.81890869100002,35.953674316],[115.79052734400001,35.960083008],[115.74511718700002,35.954528809],[115.70092773400002,35.961486816],[115.67468261700002,35.955078125],[115.65447998000002,35.941101074],[115.64752197300001,35.933898926],[115.62347412100002,35.909729004],[115.55328369100002,35.895324707],[115.49353027300002,35.882873535],[115.45050048800002,35.864685059],[115.39947509800001,35.821472168],[115.33911132800002,35.778930664],[115.32208252,35.786071777],[115.32067871100001,35.789916992],[115.304504395,35.835327148],[115.31469726600001,35.876525879],[115.31927490200002,35.899291992],[115.32110595700001,35.929321289],[115.33172607400002,35.958129883],[115.38049316400001,35.982910156],[115.39349365200002,35.993103027],[115.41333007800002,36.019470215],[115.41412353500002,36.079711914],[115.44232177700002,36.116088867],[115.41851806600002,36.13269043],[115.37548828100002,36.115722656],[115.34027099600002,36.090270996],[115.31170654300001,36.084289551],[115.26751709000001,36.105285645],[115.23791503900001,36.141723633],[115.19049072300001,36.186706543],[115.11029052700002,36.211486816],[115.10290527300002,36.207702637],[115.05230712900001,36.182495117],[115.02691650400001,36.132873535],[115.01269531200002,36.096313477],[114.980285645,36.060119629]]]}}
