{"type":"Feature","id":"bulk-99377448B38601811377091","bbox":[110.46527099600002,19.352294922,111.27227783200001,20.156494141],"properties":{"id":"bulk-99377448B38601811377091","name":"Sansha","nameEn":"Sansha","fullName":"Sansha","level":"city","boundaryRole":"administrative-extent","boundaryQuality":"generalized-source-2020","boundaryYearRepresented":"2020","bounds":[[110.46527099600002,19.352294922],[111.27227783200001,20.156494141]],"center":[110.86877441400001,19.754394531499997],"centerMethod":"bounding-box midpoint; camera framing only","license":"CC-BY-3.0-IGO","attribution":"geoBoundaries / HDX, China administrative boundaries (2020)","source":{"provider":"geoBoundaries gbHumanitarian / HDX","url":"https://github.com/wmgeolab/geoBoundaries/raw/9469f09/releaseData/gbHumanitarian/CHN/ADM2/geoBoundaries-CHN-ADM2.geojson","metadataUrl":"https://www.geoboundaries.org/api/current/gbHumanitarian/CHN/ADM2/","shapeID":"99377448B38601811377091","shapeName":"Sansha","boundaryID":"CHN-ADM2-99377448","commit":"9469f09"},"geometryCounts":{"coordinates":2259,"components":6,"holes":0},"boundaryNotice":"geoBoundaries / HDX 2020 年行政区数据，海岸和边界经过源数据概化，并非当前测绘成果。"},"geometry":{"type":"MultiPolygon","coordinates":[[[[110.54211425800001,19.470275879],[110.54632568400001,19.452270508],[110.54949951200001,19.447692871],[110.55871582000002,19.446289062],[110.56408691400001,19.444091797],[110.56951904300001,19.437072754],[110.57171630900001,19.433288574],[110.57531738300001,19.426879883],[110.57727050800001,19.421508789],[110.57751464800002,19.412475586],[110.57452392600001,19.403930664],[110.57531738300001,19.399475098],[110.58087158200001,19.395690918],[110.58367919900002,19.39050293],[110.58227539100001,19.381530762],[110.58172607400002,19.376525879],[110.58007812500001,19.369689941],[110.58129882800002,19.363891602],[110.58569335900002,19.35748291],[110.59350585900002,19.354309082],[110.60052490200002,19.352294922],[110.60949707000002,19.355712891],[110.61389160200001,19.358886719],[110.61810302700002,19.36151123],[110.62487793000001,19.366271973],[110.62469482400002,19.370483398],[110.62371826200001,19.378479004],[110.62408447300001,19.383483887],[110.62689209000001,19.390930176],[110.62927246100001,19.393310547],[110.63348388700001,19.39251709],[110.64068603500002,19.38848877],[110.64251709000001,19.392272949],[110.64410400400001,19.395874023],[110.64868164100001,19.397521973],[110.65472412100002,19.398498535],[110.66229248000002,19.397277832],[110.67028808600001,19.394287109],[110.67767334000001,19.391906738],[110.67791748000002,19.391906738],[110.67791748000002,19.392272949],[110.67828369100002,19.392272949],[110.67828369100002,19.392700195],[110.67852783200001,19.392700195],[110.67852783200001,19.392883301],[110.67889404300001,19.392883301],[110.67889404300001,19.393310547],[110.67932128900001,19.393310547],[110.67932128900001,19.393493652],[110.67968750000001,19.393493652],[110.67968750000001,19.393676758],[110.68011474600002,19.393676758],[110.68011474600002,19.394104004],[110.68072509800001,19.394104004],[110.68072509800001,19.394287109],[110.68109130900001,19.394287109],[110.68109130900001,19.394897461],[110.68127441400001,19.394897461],[110.68127441400001,19.394714355],[110.68151855500001,19.394714355],[110.68151855500001,19.394287109],[110.68212890600002,19.394287109],[110.68212890600002,19.394104004],[110.68231201200001,19.394104004],[110.68347168000001,19.395690918],[110.68292236300002,19.395690918],[110.68292236300002,19.39630127],[110.68292236300002,19.396911621],[110.68328857400002,19.396911621],[110.68328857400002,19.397277832],[110.68389892600001,19.397277832],[110.68389892600001,19.397705078],[110.68408203100002,19.397705078],[110.68408203100002,19.397888184],[110.68432617200001,19.397888184],[110.68432617200001,19.398681641],[110.68469238300001,19.398681641],[110.68469238300001,19.399108887],[110.68487548800002,19.399108887],[110.68487548800002,19.399291992],[110.68511962900001,19.399291992],[110.68511962900001,19.399719238],[110.68548584000001,19.399719238],[110.68548584000001,19.399902344],[110.68609619100002,19.399902344],[110.68609619100002,19.400085449],[110.68627929700001,19.400085449],[110.68627929700001,19.400512695],[110.68652343700002,19.400512695],[110.68652343700002,19.401123047],[110.68688964800002,19.401123047],[110.68688964800002,19.401306152],[110.68707275400001,19.401306152],[110.68707275400001,19.401489258],[110.6875,19.401489258],[110.6875,19.402099609],[110.68768310500002,19.402099609],[110.68768310500002,19.402282715],[110.68847656200002,19.402282715],[110.68847656200002,19.402709961],[110.68908691400001,19.402709961],[110.68908691400001,19.403320312],[110.68927002,19.403320312],[110.68927002,19.403503418],[110.68969726600001,19.403503418],[110.68969726600001,19.403686523],[110.68988037100002,19.403686523],[110.68988037100002,19.40411377],[110.69049072300001,19.40411377],[110.69049072300001,19.404296875],[110.69067382800002,19.404296875],[110.69067382800002,19.404724121],[110.69110107400002,19.404724121],[110.69110107400002,19.405273437],[110.69128418000001,19.405273437],[110.69128418000001,19.405517578],[110.69189453100002,19.405517578],[110.69189453100002,19.405700684],[110.69207763700001,19.405700684],[110.69207763700001,19.405883789],[110.69250488300001,19.405883789],[110.69250488300001,19.406311035],[110.69287109400001,19.406311035],[110.69287109400001,19.406677246],[110.69348144500002,19.406677246],[110.69348144500002,19.406921387],[110.69427490200002,19.406921387],[110.69427490200002,19.407104492],[110.69488525400001,19.407104492],[110.69488525400001,19.407287598],[110.69549560500002,19.407287598],[110.69549560500002,19.407714844],[110.69567871100001,19.407714844],[110.69567871100001,19.407897949],[110.69610595700001,19.407897949],[110.69610595700001,19.408325195],[110.69628906200002,19.408325195],[110.69628906200002,19.408508301],[110.69647216800001,19.408508301],[110.69647216800001,19.408874512],[110.69689941400001,19.408874512],[110.69689941400001,19.409118652],[110.69708252,19.409118652],[110.69708252,19.409301758],[110.69787597700001,19.409301758],[110.69787597700001,19.409729004],[110.69830322300001,19.409729004],[110.69830322300001,19.409912109],[110.69848632800002,19.409912109],[110.69848632800002,19.41027832],[110.69989013700001,19.41027832],[110.69989013700001,19.410522461],[110.70007324200002,19.410522461],[110.70007324200002,19.410705566],[110.70050048800002,19.410705566],[110.70050048800002,19.411682129],[110.70111084000001,19.411682129],[110.70111084000001,19.411315918],[110.70190429700001,19.411315918],[110.70190429700001,19.411682129],[110.70208740200002,19.411499023],[110.70208740200002,19.412109375],[110.70349121100001,19.412109375],[110.70349121100001,19.412475586],[110.70367431600002,19.412475586],[110.70367431600002,19.412719727],[110.70471191400001,19.412719727],[110.70471191400001,19.412902832],[110.70629882800002,19.412902832],[110.70629882800002,19.413330078],[110.70690918000001,19.413330078],[110.70690918000001,19.413513184],[110.70709228500002,19.413513184],[110.70709228500002,19.414306641],[110.70690918000001,19.414306641],[110.70690918000001,19.414672852],[110.70709228500002,19.414672852],[110.70709228500002,19.414916992],[110.70770263700001,19.414916992],[110.70770263700001,19.415283203],[110.70788574200002,19.415283203],[110.70788574200002,19.415527344],[110.70831298800002,19.415527344],[110.70831298800002,19.415710449],[110.70849609400001,19.415710449],[110.70849609400001,19.416320801],[110.70867919900002,19.416320801],[110.70867919900002,19.416870117],[110.70910644500002,19.416870117],[110.70910644500002,19.416503906],[110.70928955100001,19.416503906],[110.70928955100001,19.41607666],[110.70971679700001,19.41607666],[110.70971679700001,19.415527344],[110.70928955100001,19.415527344],[110.70928955100001,19.414916992],[110.70910644500002,19.414916992],[110.70910644500002,19.414123535],[110.70989990200002,19.414123535],[110.70989990200002,19.413879395],[110.71008300800001,19.413879395],[110.71008300800001,19.414123535],[110.71130371100001,19.414123535],[110.71209716800001,19.414306641],[110.71289062500001,19.414123535],[110.71411132800002,19.414123535],[110.71411132800002,19.414306641],[110.71551513700001,19.414306641],[110.71551513700001,19.414123535],[110.71771240200002,19.414123535],[110.71771240200002,19.414306641],[110.71850585900002,19.414306641],[110.71850585900002,19.414123535],[110.72052002,19.414123535],[110.72052002,19.414306641],[110.72070312500001,19.414306641],[110.72070312500001,19.414123535],[110.72131347700001,19.414123535],[110.72131347700001,19.413879395],[110.72192382800002,19.413879395],[110.72192382800002,19.413513184],[110.722473145,19.413513184],[110.722473145,19.413330078],[110.72351074200002,19.413330078],[110.72351074200002,19.412902832],[110.72430419900002,19.412902832],[110.72430419900002,19.412719727],[110.72467041000002,19.412719727],[110.72467041000002,19.412475586],[110.72552490200002,19.412475586],[110.72552490200002,19.412109375],[110.72570800800001,19.412109375],[110.72570800800001,19.41192627],[110.72607421900001,19.41192627],[110.72607421900001,19.411682129],[110.72631835900002,19.411682129],[110.72631835900002,19.411315918],[110.72692871100001,19.411315918],[110.72692871100001,19.410888672],[110.72711181600002,19.410888672],[110.72711181600002,19.410705566],[110.72747802700002,19.410705566],[110.72747802700002,19.410522461],[110.72772216800001,19.410522461],[110.72772216800001,19.409912109],[110.72790527300002,19.409912109],[110.72790527300002,19.409729004],[110.72827148400002,19.409729004],[110.72827148400002,19.409118652],[110.72851562500001,19.409118652],[110.72851562500001,19.408874512],[110.72869873000002,19.408874512],[110.72888183600001,19.408325195],[110.72912597700001,19.408325195],[110.72912597700001,19.407897949],[110.72930908200001,19.407897949],[110.72930908200001,19.407287598],[110.72967529300001,19.407287598],[110.72967529300001,19.407104492],[110.72991943400001,19.407104492],[110.72991943400001,19.406921387],[110.730285645,19.406921387],[110.730285645,19.406677246],[110.73052978500002,19.406677246],[110.73052978500002,19.406311035],[110.73071289100001,19.406311035],[110.73071289100001,19.405883789],[110.73107910200001,19.405883789],[110.73107910200001,19.407287598],[110.73071289100001,19.407287598],[110.73071289100001,19.408874512],[110.73107910200001,19.408874512],[110.73107910200001,19.409118652],[110.73132324200002,19.409118652],[110.73132324200002,19.409301758],[110.73150634800001,19.409301758],[110.73150634800001,19.409729004],[110.73187255900001,19.409729004],[110.73187255900001,19.409912109],[110.73272705100001,19.409912109],[110.73272705100001,19.41027832],[110.73388671900001,19.41027832],[110.73388671900001,19.410522461],[110.73431396500001,19.410522461],[110.73431396500001,19.410705566],[110.73468017600001,19.410705566],[110.73468017600001,19.410888672],[110.73492431600002,19.410888672],[110.73492431600002,19.411315918],[110.73510742200001,19.411315918],[110.73510742200001,19.411682129],[110.73547363300001,19.411682129],[110.73547363300001,19.41192627],[110.73571777300002,19.41192627],[110.73571777300002,19.412109375],[110.73608398400002,19.412109375],[110.73608398400002,19.412719727],[110.73712158200001,19.412719727],[110.73712158200001,19.412902832],[110.73767089800002,19.412902832],[110.73767089800002,19.413330078],[110.73828125000001,19.413330078],[110.73828125000001,19.413513184],[110.73968505900001,19.413513184],[110.73992919900002,19.413696289],[110.73992919900002,19.414123535],[110.74011230500001,19.414123535],[110.74011230500001,19.414306641],[110.74047851600001,19.414306641],[110.74047851600001,19.414916992],[110.74127197300001,19.414916992],[110.74127197300001,19.415283203],[110.74169921900001,19.415283203],[110.74212646500001,19.415527344],[110.74212646500001,19.415710449],[110.74230957000002,19.415710449],[110.74249267600001,19.415893555],[110.74249267600001,19.41607666],[110.74267578100002,19.41607666],[110.74688720700001,19.419494629],[110.75048828100002,19.422485352],[110.75891113300001,19.424926758],[110.75909423800002,19.424926758],[110.75909423800002,19.425292969],[110.75970459000001,19.425109863],[110.75970459000001,19.425720215],[110.75988769500002,19.425720215],[110.75988769500002,19.426330566],[110.76007080100001,19.426330566],[110.76007080100001,19.426513672],[110.76049804700001,19.426513672],[110.76049804700001,19.426879883],[110.76110839800002,19.426879883],[110.76110839800002,19.427124023],[110.76147460900002,19.427124023],[110.76147460900002,19.427307129],[110.76147460900002,19.427490234],[110.76190185500002,19.427490234],[110.76190185500002,19.42791748],[110.76208496100001,19.42791748],[110.76208496100001,19.428283691],[110.76208496100001,19.428527832],[110.76232910200001,19.428527832],[110.76232910200001,19.428894043],[110.76232910200001,19.429870605],[110.76269531200002,19.429870605],[110.76147460900002,19.433898926],[110.76690673800002,19.44732666],[110.76708984400001,19.450683594],[110.76690673800002,19.450683594],[110.76690673800002,19.450500488],[110.76647949200002,19.450500488],[110.76647949200002,19.450073242],[110.76470947300001,19.450073242],[110.76470947300001,19.449890137],[110.76428222700001,19.449890137],[110.76428222700001,19.449279785],[110.76409912100002,19.449279785],[110.76409912100002,19.448730469],[110.76367187500001,19.448730469],[110.76367187500001,19.448486328],[110.76348877,19.448486328],[110.76348877,19.448303223],[110.76330566400001,19.448303223],[110.76330566400001,19.447875977],[110.76287841800001,19.447875977],[110.76287841800001,19.446289062],[110.76269531200002,19.446289062],[110.76269531200002,19.444885254],[110.76208496100001,19.444885254],[110.76208496100001,19.445495605],[110.76190185500002,19.445495605],[110.76190185500002,19.446472168],[110.76208496100001,19.446472168],[110.76208496100001,19.448486328],[110.76232910200001,19.448486328],[110.76232910200001,19.450073242],[110.76269531200002,19.450073242],[110.76269531200002,19.45111084],[110.76348877,19.45111084],[110.76348877,19.451293945],[110.76409912100002,19.451293945],[110.76409912100002,19.451477051],[110.76470947300001,19.451477051],[110.76470947300001,19.451293945],[110.76489257800002,19.451293945],[110.76489257800002,19.451477051],[110.76708984400001,19.451477051],[110.76727294900002,19.451721191],[110.76727294900002,19.451904297],[110.76770019500002,19.452087402],[110.76788330100001,19.452087402],[110.76831054700001,19.452270508],[110.76831054700001,19.452514648],[110.76849365200002,19.452514648],[110.76849365200002,19.452697754],[110.76892089800002,19.452697754],[110.76910400400001,19.452880859],[110.76928710900002,19.452880859],[110.76928710900002,19.453308105],[110.76971435500002,19.453308105],[110.76989746100001,19.453308105],[110.77008056600002,19.453491211],[110.77032470700001,19.453491211],[110.77050781200002,19.453674316],[110.77069091800001,19.453674316],[110.77148437500001,19.454284668],[110.77148437500001,19.454711914],[110.77191162100002,19.454711914],[110.77191162100002,19.455078125],[110.77209472700001,19.455078125],[110.77209472700001,19.455688477],[110.77227783200001,19.455688477],[110.77227783200001,19.456298828],[110.77050781200002,19.456298828],[110.77050781200002,19.456481934],[110.77069091800001,19.456481934],[110.77069091800001,19.45690918],[110.77130127,19.45690918],[110.77130127,19.457092285],[110.77148437500001,19.457092285],[110.77148437500001,19.457275391],[110.77191162100002,19.457275391],[110.77191162100002,19.457702637],[110.77227783200001,19.457702637],[110.77227783200001,19.457885742],[110.77288818400001,19.457885742],[110.77288818400001,19.458312988],[110.77349853500002,19.458312988],[110.77349853500002,19.458496094],[110.77410888700001,19.458496094],[110.77410888700001,19.458679199],[110.77471923800002,19.458679199],[110.77471923800002,19.459106445],[110.77508544900002,19.459106445],[110.77508544900002,19.459289551],[110.77569580100001,19.459289551],[110.77569580100001,19.459716797],[110.77709960900002,19.459716797],[110.77709960900002,19.459899902],[110.77832031200002,19.459899902],[110.77832031200002,19.460083008],[110.77972412100002,19.460083008],[110.77972412100002,19.460510254],[110.78070068400001,19.460510254],[110.78070068400001,19.460693359],[110.78131103500002,19.460693359],[110.78131103500002,19.461120605],[110.78167724600002,19.461120605],[110.78192138700001,19.461303711],[110.78747558600001,19.466674805],[110.79150390600002,19.472106934],[110.79168701200001,19.472106934],[110.79492187500001,19.476501465],[110.80029296900001,19.487915039],[110.80590820300002,19.492919922],[110.80688476600001,19.497070312],[110.80291748000002,19.51348877],[110.80328369100002,19.522888184],[110.80828857400002,19.537475586],[110.81408691400001,19.540893555],[110.83007812500001,19.544311523],[110.83050537100002,19.546325684],[110.83087158200001,19.548278809],[110.82092285200001,19.563110352],[110.81329345700001,19.580078125],[110.81048584000001,19.583679199],[110.81011962900001,19.583679199],[110.81011962900001,19.584106445],[110.80407714800002,19.591918945],[110.80389404300001,19.592102051],[110.80389404300001,19.592285156],[110.80352783200001,19.592712402],[110.80187988300001,19.594909668],[110.80249023400002,19.599914551],[110.79248046900001,19.604919434],[110.79071044900002,19.610473633],[110.79168701200001,19.613891602],[110.79412841800001,19.612487793],[110.79412841800001,19.612915039],[110.79431152300002,19.612915039],[110.79431152300002,19.613891602],[110.79412841800001,19.613891602],[110.79412841800001,19.614318848],[110.79431152300002,19.614318848],[110.79431152300002,19.614929199],[110.79467773400002,19.614929199],[110.79467773400002,19.615478516],[110.79492187500001,19.615478516],[110.79492187500001,19.617126465],[110.79510498000002,19.617126465],[110.79510498000002,19.618530273],[110.79608154300001,19.618530273],[110.79608154300001,19.617919922],[110.79632568400001,19.617919922],[110.79632568400001,19.616882324],[110.79608154300001,19.616882324],[110.79608154300001,19.615722656],[110.79571533200001,19.615722656],[110.79571533200001,19.614685059],[110.79547119100002,19.614685059],[110.79547119100002,19.61151123],[110.80072021500001,19.608276367],[110.80212402300002,19.611694336],[110.80212402300002,19.611877441],[110.80328369100002,19.614318848],[110.80871582000002,19.617492676],[110.81372070300002,19.626098633],[110.82312011700002,19.627502441],[110.85369873000002,19.628723145],[110.85968017600001,19.627685547],[110.86010742200001,19.626281738],[110.85668945300002,19.62109375],[110.85791015600002,19.620483398],[110.85791015600002,19.620727539],[110.85852050800001,19.620727539],[110.85852050800001,19.62109375],[110.85913085900002,19.62109375],[110.85913085900002,19.621276855],[110.86010742200001,19.621276855],[110.86010742200001,19.620117187],[110.86047363300001,19.620117187],[110.86047363300001,19.61907959],[110.86090087900001,19.618713379],[110.86651611300002,19.618896484],[110.86749267600001,19.618103027],[110.86749267600001,19.618286133],[110.86828613300001,19.618286133],[110.86828613300001,19.618530273],[110.86932373000002,19.618530273],[110.86932373000002,19.618896484],[110.87048339800002,19.618896484],[110.87048339800002,19.61907959],[110.87188720700001,19.61907959],[110.87188720700001,19.617919922],[110.87152099600002,19.617919922],[110.87152099600002,19.617126465],[110.87188720700001,19.617126465],[110.87188720700001,19.616882324],[110.87768554700001,19.616882324],[110.87768554700001,19.616516113],[110.88250732400002,19.616516113],[110.88250732400002,19.616088867],[110.88269043000001,19.616088867],[110.88269043000001,19.615478516],[110.88287353500002,19.615478516],[110.88287353500002,19.614929199],[110.88208007800002,19.614929199],[110.88208007800002,19.614685059],[110.88128662100002,19.614685059],[110.88128662100002,19.614318848],[110.88049316400001,19.614318848],[110.88049316400001,19.613891602],[110.88012695300002,19.613891602],[110.88012695300002,19.613525391],[110.87969970700001,19.613525391],[110.87969970700001,19.61328125],[110.87908935500002,19.61328125],[110.87908935500002,19.612915039],[110.87628173800002,19.612915039],[110.87628173800002,19.612121582],[110.87609863300001,19.612121582],[110.87609863300001,19.61151123],[110.87567138700001,19.61151123],[110.87567138700001,19.611083984],[110.87432861300002,19.611083984],[110.87432861300002,19.611328125],[110.87408447300001,19.611328125],[110.87530517600001,19.608886719],[110.87469482400002,19.607116699],[110.87329101600001,19.60748291],[110.87329101600001,19.606079102],[110.87109375000001,19.606079102],[110.87109375000001,19.605712891],[110.86767578100002,19.605712891],[110.86767578100002,19.606079102],[110.86688232400002,19.606079102],[110.86688232400002,19.606323242],[110.86468505900001,19.606323242],[110.86468505900001,19.606079102],[110.86248779300001,19.606079102],[110.86248779300001,19.606323242],[110.86212158200001,19.606323242],[110.86212158200001,19.606506348],[110.86187744100002,19.606506348],[110.86187744100002,19.606872559],[110.86151123000002,19.606872559],[110.86151123000002,19.607116699],[110.85931396500001,19.607116699],[110.85931396500001,19.606323242],[110.85913085900002,19.606323242],[110.85913085900002,19.605712891],[110.85687255900001,19.605712891],[110.85687255900001,19.606079102],[110.85351562500001,19.606079102],[110.85351562500001,19.606323242],[110.85247802700002,19.606323242],[110.85247802700002,19.606506348],[110.85150146500001,19.606506348],[110.85150146500001,19.606872559],[110.85070800800001,19.606872559],[110.85070800800001,19.607116699],[110.84991455100001,19.607116699],[110.84991455100001,19.60748291],[110.84948730500001,19.60748291],[110.84948730500001,19.607727051],[110.84930419900002,19.607727051],[110.84930419900002,19.607910156],[110.84887695300002,19.607910156],[110.84887695300002,19.608276367],[110.84851074200002,19.608276367],[110.84851074200002,19.608520508],[110.84832763700001,19.608520508],[110.84832763700001,19.608886719],[110.84790039100001,19.608886719],[110.84790039100001,19.609130859],[110.84771728500002,19.609130859],[110.84771728500002,19.609313965],[110.847473145,19.609313965],[110.847473145,19.609680176],[110.84710693400001,19.609680176],[110.84710693400001,19.609924316],[110.84692382800002,19.609924316],[110.84692382800002,19.610473633],[110.84667968700002,19.610473633],[110.84667968700002,19.610717773],[110.84631347700001,19.610717773],[110.84631347700001,19.611083984],[110.84588623000002,19.611083984],[110.84588623000002,19.611328125],[110.84570312500001,19.611328125],[110.84570312500001,19.61151123],[110.84552002,19.61151123],[110.84552002,19.611877441],[110.84527587900001,19.611877441],[110.84527587900001,19.612121582],[110.84429931600002,19.612121582],[110.84429931600002,19.612487793],[110.84368896500001,19.612487793],[110.84368896500001,19.612670898],[110.84350585900002,19.612670898],[110.84350585900002,19.612915039],[110.84271240200002,19.612915039],[110.84271240200002,19.612670898],[110.84191894500002,19.612670898],[110.84191894500002,19.612487793],[110.84130859400001,19.612487793],[110.84130859400001,19.612121582],[110.84069824200002,19.612121582],[110.84069824200002,19.611877441],[110.84008789100001,19.611877441],[110.84008789100001,19.61151123],[110.83990478500002,19.61151123],[110.83990478500002,19.611328125],[110.83929443400001,19.611328125],[110.83929443400001,19.611083984],[110.83868408200001,19.611083984],[110.83868408200001,19.610717773],[110.83831787100002,19.610717773],[110.83831787100002,19.610473633],[110.83789062500001,19.610473633],[110.83789062500001,19.610290527],[110.83728027300002,19.610290527],[110.83728027300002,19.609924316],[110.83691406200002,19.609924316],[110.83691406200002,19.609680176],[110.83630371100001,19.609680176],[110.83630371100001,19.609313965],[110.83551025400001,19.609313965],[110.83551025400001,19.609130859],[110.83489990200002,19.609130859],[110.83489990200002,19.608886719],[110.83410644500002,19.608886719],[110.83410644500002,19.608520508],[110.83349609400001,19.608520508],[110.83349609400001,19.608276367],[110.83270263700001,19.608276367],[110.83270263700001,19.607910156],[110.83209228500002,19.607910156],[110.83209228500002,19.606872559],[110.83190918000001,19.606872559],[110.83190918000001,19.605712891],[110.83148193400001,19.605712891],[110.83148193400001,19.605529785],[110.83129882800002,19.605529785],[110.83129882800002,19.605285645],[110.83111572300001,19.605285645],[110.83111572300001,19.604919434],[110.83068847700001,19.604919434],[110.83068847700001,19.604675293],[110.83050537100002,19.604675293],[110.83050537100002,19.604309082],[110.83007812500001,19.604309082],[110.83007812500001,19.604125977],[110.82989502,19.604125977],[110.82989502,19.603881836],[110.82971191400001,19.603881836],[110.82971191400001,19.603515625],[110.82928466800001,19.603515625],[110.82928466800001,19.603271484],[110.82910156200002,19.603271484],[110.82910156200002,19.602905273],[110.82788085900002,19.602905273],[110.82788085900002,19.602722168],[110.82769775400001,19.602722168],[110.82769775400001,19.602478027],[110.82708740200002,19.602478027],[110.82708740200002,19.602111816],[110.82690429700001,19.602111816],[110.82690429700001,19.601928711],[110.82629394500002,19.601928711],[110.82629394500002,19.601501465],[110.82611084000001,19.601501465],[110.82611084000001,19.601318359],[110.82568359400001,19.601318359],[110.82568359400001,19.601074219],[110.82507324200002,19.601074219],[110.82507324200002,19.600708008],[110.82489013700001,19.600708008],[110.82489013700001,19.600524902],[110.82470703100002,19.600524902],[110.82470703100002,19.600280762],[110.82409668000001,19.600280762],[110.82409668000001,19.599914551],[110.82373046900001,19.599914551],[110.82373046900001,19.59967041],[110.82330322300001,19.59967041],[110.82330322300001,19.599304199],[110.82287597700001,19.599304199],[110.82287597700001,19.599121094],[110.82232666000002,19.599121094],[110.82232666000002,19.598876953],[110.82189941400001,19.598876953],[110.82189941400001,19.598510742],[110.82110595700001,19.598510742],[110.82110595700001,19.598327637],[110.82049560500002,19.598327637],[110.82049560500002,19.597900391],[110.81988525400001,19.597900391],[110.81988525400001,19.597717285],[110.820129395,19.597717285],[110.82049560500002,19.597717285],[110.82049560500002,19.597473145],[110.82427978500002,19.59588623],[110.82550048800002,19.593688965],[110.82629394500002,19.593688965],[110.82629394500002,19.593505859],[110.82647705100001,19.593505859],[110.82647705100001,19.592712402],[110.82629394500002,19.592712402],[110.82629394500002,19.592102051],[110.82647705100001,19.592102051],[110.82647705100001,19.591674805],[110.82690429700001,19.591674805],[110.82690429700001,19.591308594],[110.82708740200002,19.591308594],[110.82708740200002,19.590515137],[110.82751464800002,19.590515137],[110.82751464800002,19.589904785],[110.82769775400001,19.589904785],[110.82769775400001,19.589477539],[110.82769775400001,19.589294434],[110.82788085900002,19.589294434],[110.82788085900002,19.588928223],[110.82910156200002,19.586486816],[110.82928466800001,19.586486816],[110.82928466800001,19.586303711],[110.82971191400001,19.586303711],[110.82971191400001,19.586120605],[110.82989502,19.586120605],[110.82989502,19.585693359],[110.83050537100002,19.585693359],[110.83050537100002,19.585510254],[110.83068847700001,19.585510254],[110.83068847700001,19.585083008],[110.83129882800002,19.585083008],[110.83129882800002,19.583496094],[110.83148193400001,19.583496094],[110.83148193400001,19.58190918],[110.83129882800002,19.58190918],[110.83129882800002,19.580078125],[110.83111572300001,19.580078125],[110.83111572300001,19.579101562],[110.83068847700001,19.579101562],[110.83068847700001,19.578491211],[110.83050537100002,19.578491211],[110.83050537100002,19.577880859],[110.83007812500001,19.577880859],[110.83007812500001,19.577697754],[110.82989502,19.577697754],[110.82989502,19.577270508],[110.82928466800001,19.577270508],[110.82928466800001,19.577087402],[110.82910156200002,19.577087402],[110.82910156200002,19.576904297],[110.82867431600002,19.576904297],[110.82867431600002,19.576477051],[110.82849121100001,19.576477051],[110.82849121100001,19.576293945],[110.82788085900002,19.576293945],[110.82788085900002,19.57611084],[110.82769775400001,19.57611084],[110.82769775400001,19.575500488],[110.82751464800002,19.575500488],[110.82751464800002,19.574707031],[110.82708740200002,19.574707031],[110.82708740200002,19.573730469],[110.82690429700001,19.573730469],[110.82690429700001,19.572692871],[110.82647705100001,19.572692871],[110.82647705100001,19.57208252],[110.82629394500002,19.57208252],[110.82629394500002,19.571899414],[110.82611084000001,19.571899414],[110.82611084000001,19.570678711],[110.82647705100001,19.570678711],[110.82647705100001,19.570495605],[110.82690429700001,19.570495605],[110.82690429700001,19.570129395],[110.82751464800002,19.570129395],[110.82751464800002,19.569885254],[110.82769775400001,19.569885254],[110.82769775400001,19.569702148],[110.82788085900002,19.569702148],[110.82788085900002,19.569274902],[110.82849121100001,19.569274902],[110.82849121100001,19.569091797],[110.82867431600002,19.569091797],[110.82867431600002,19.568725586],[110.82910156200002,19.568725586],[110.82910156200002,19.568481445],[110.82928466800001,19.568481445],[110.82928466800001,19.56829834],[110.82989502,19.56829834],[110.82989502,19.567871094],[110.83007812500001,19.567871094],[110.83007812500001,19.567687988],[110.83111572300001,19.567687988],[110.83111572300001,19.567504883],[110.83148193400001,19.567504883],[110.83148193400001,19.567077637],[110.83227539100001,19.567077637],[110.83227539100001,19.566894531],[110.83551025400001,19.566894531],[110.83551025400001,19.565490723],[110.83489990200002,19.565490723],[110.83489990200002,19.565124512],[110.83428955100001,19.565124512],[110.83428955100001,19.564880371],[110.83410644500002,19.564880371],[110.83410644500002,19.56427002],[110.83367919900002,19.56427002],[110.83367919900002,19.564086914],[110.83349609400001,19.564086914],[110.83349609400001,19.563476562],[110.83331298800002,19.563476562],[110.83331298800002,19.5625],[110.83190918000001,19.5625],[110.83190918000001,19.563293457],[110.83270263700001,19.563293457],[110.83270263700001,19.564697266],[110.83288574200002,19.564697266],[110.83288574200002,19.566101074],[110.83270263700001,19.566101074],[110.83270263700001,19.565673828],[110.83190918000001,19.565673828],[110.83190918000001,19.565490723],[110.83148193400001,19.565490723],[110.83148193400001,19.565124512],[110.83111572300001,19.565124512],[110.83111572300001,19.564880371],[110.83068847700001,19.564880371],[110.83068847700001,19.564697266],[110.83007812500001,19.564697266],[110.83007812500001,19.56427002],[110.82989502,19.56427002],[110.82989502,19.564086914],[110.82928466800001,19.564086914],[110.82928466800001,19.56427002],[110.82910156200002,19.56427002],[110.82910156200002,19.564697266],[110.82867431600002,19.564697266],[110.82867431600002,19.565124512],[110.82849121100001,19.565124512],[110.82849121100001,19.565490723],[110.82989502,19.565490723],[110.82989502,19.566101074],[110.82971191400001,19.566101074],[110.82971191400001,19.56628418],[110.82830810500002,19.56628418],[110.82830810500002,19.56652832],[110.82769775400001,19.56652832],[110.82769775400001,19.566894531],[110.82751464800002,19.566894531],[110.82751464800002,19.567077637],[110.82690429700001,19.567077637],[110.82690429700001,19.567504883],[110.82647705100001,19.567504883],[110.82647705100001,19.565490723],[110.82690429700001,19.565490723],[110.82690429700001,19.564880371],[110.82708740200002,19.564880371],[110.82708740200002,19.56427002],[110.82751464800002,19.56427002],[110.82751464800002,19.563903809],[110.82769775400001,19.563903809],[110.82769775400001,19.563293457],[110.82788085900002,19.563293457],[110.82788085900002,19.562683105],[110.82830810500002,19.562683105],[110.82830810500002,19.562072754],[110.82849121100001,19.562072754],[110.82849121100001,19.561523437],[110.82867431600002,19.561523437],[110.82867431600002,19.561096191],[110.82910156200002,19.561096191],[110.82910156200002,19.56048584],[110.82928466800001,19.56048584],[110.82928466800001,19.560302734],[110.82928466800001,19.560119629],[110.82971191400001,19.560119629],[110.83850097700001,19.553894043],[110.84692382800002,19.545471191],[110.84887695300002,19.539306641],[110.84613037100002,19.530700684],[110.84692382800002,19.530700684],[110.84692382800002,19.530517578],[110.84771728500002,19.530517578],[110.84771728500002,19.530273437],[110.84851074200002,19.530273437],[110.84851074200002,19.529907227],[110.84930419900002,19.529907227],[110.84930419900002,19.529724121],[110.85028076200001,19.529724121],[110.85028076200001,19.529296875],[110.85052490200002,19.529296875],[110.85052490200002,19.52911377],[110.85070800800001,19.52911377],[110.85070800800001,19.528686523],[110.85107421900001,19.528686523],[110.85107421900001,19.528503418],[110.85247802700002,19.528503418],[110.85247802700002,19.528320312],[110.85290527300002,19.528320312],[110.85290527300002,19.527893066],[110.85327148400002,19.527893066],[110.85327148400002,19.527709961],[110.85388183600001,19.527709961],[110.85388183600001,19.527282715],[110.85412597700001,19.527282715],[110.85412597700001,19.527099609],[110.85467529300001,19.527099609],[110.85467529300001,19.526916504],[110.85491943400001,19.526916504],[110.85491943400001,19.526489258],[110.85552978500002,19.526489258],[110.85552978500002,19.526306152],[110.85571289100001,19.526306152],[110.85571289100001,19.526123047],[110.85607910200001,19.526123047],[110.85607910200001,19.525695801],[110.85650634800001,19.525695801],[110.85650634800001,19.525512695],[110.85748291000002,19.525512695],[110.86431884800001,19.528076172],[110.87432861300002,19.535705566],[110.87432861300002,19.536499023],[110.87469482400002,19.536499023],[110.87469482400002,19.537719727],[110.87432861300002,19.537719727],[110.87432861300002,19.538330078],[110.87469482400002,19.538330078],[110.87469482400002,19.538879395],[110.87487793000001,19.538879395],[110.87487793000001,19.539306641],[110.87512207000002,19.539306641],[110.87512207000002,19.539916992],[110.87548828100002,19.539916992],[110.87548828100002,19.540283203],[110.87567138700001,19.540283203],[110.87567138700001,19.540527344],[110.87609863300001,19.540527344],[110.87609863300001,19.540710449],[110.87652587900001,19.540710449],[110.87652587900001,19.54107666],[110.87707519500002,19.54107666],[110.87707519500002,19.541320801],[110.87750244100002,19.541320801],[110.87750244100002,19.541503906],[110.87768554700001,19.541503906],[110.87768554700001,19.541870117],[110.87829589800002,19.541870117],[110.87829589800002,19.542114258],[110.878723145,19.542114258],[110.878723145,19.542480469],[110.87908935500002,19.542480469],[110.87908935500002,19.542724609],[110.87969970700001,19.542724609],[110.87969970700001,19.542907715],[110.88067627,19.542907715],[110.88067627,19.543273926],[110.88128662100002,19.543273926],[110.88128662100002,19.543518066],[110.88189697300001,19.543518066],[110.88189697300001,19.543884277],[110.88250732400002,19.543884277],[110.88250732400002,19.544128418],[110.88269043000001,19.544128418],[110.88269043000001,19.544311523],[110.88287353500002,19.544311523],[110.88287353500002,19.544677734],[110.88372802700002,19.544677734],[110.88372802700002,19.544921875],[110.88409423800002,19.544921875],[110.88409423800002,19.545471191],[110.88427734400001,19.545471191],[110.88427734400001,19.545715332],[110.88470459000001,19.545715332],[110.88470459000001,19.546325684],[110.88488769500002,19.546325684],[110.88488769500002,19.547485352],[110.88507080100001,19.547485352],[110.88507080100001,19.547912598],[110.88549804700001,19.548095703],[110.88549804700001,19.549926758],[110.88568115200002,19.549926758],[110.88568115200002,19.550720215],[110.88610839800002,19.550720215],[110.88610839800002,19.551086426],[110.88629150400001,19.551696777],[110.88629150400001,19.551879883],[110.88647460900002,19.552490234],[110.90710449200002,19.577697754],[110.91650390600002,19.585327148],[110.91650390600002,19.585510254],[110.91687011700002,19.585510254],[110.91687011700002,19.585693359],[110.91711425800001,19.585693359],[110.91711425800001,19.586120605],[110.91748046900001,19.586120605],[110.91748046900001,19.586303711],[110.91772460900002,19.586303711],[110.91772460900002,19.586486816],[110.91790771500001,19.586486816],[110.91790771500001,19.586914062],[110.91851806600002,19.586914062],[110.91851806600002,19.587097168],[110.91888427700002,19.587097168],[110.91931152300002,19.587280273],[110.94732666000002,19.604919434],[110.96307373000002,19.62109375],[110.97448730500001,19.638122559],[110.98089599600002,19.643493652],[111.00231933600001,19.646118164],[111.01129150400001,19.643676758],[111.01831054700001,19.641723633],[111.03350830100001,19.641113281],[111.03790283200001,19.643310547],[111.03747558600001,19.644104004],[111.03747558600001,19.643676758],[111.03552246100001,19.643676758],[111.03552246100001,19.643493652],[111.03527832000002,19.643493652],[111.03527832000002,19.643310547],[111.03491210900002,19.643310547],[111.03491210900002,19.642883301],[111.03448486300002,19.642883301],[111.03448486300002,19.642700195],[111.03430175800001,19.64251709],[111.03430175800001,19.642089844],[111.03387451200001,19.642089844],[111.03387451200001,19.642272949],[111.03350830100001,19.642272949],[111.03350830100001,19.642700195],[111.03332519500002,19.642700195],[111.03332519500002,19.642883301],[111.03289794900002,19.642883301],[111.03289794900002,19.643310547],[111.03271484400001,19.643310547],[111.03271484400001,19.643676758],[111.03149414100001,19.643676758],[111.03149414100001,19.644104004],[111.03131103500002,19.644104004],[111.03131103500002,19.644714355],[111.03149414100001,19.644714355],[111.03149414100001,19.644897461],[111.03192138700001,19.644897461],[111.03192138700001,19.646118164],[111.03149414100001,19.646118164],[111.03149414100001,19.64630127],[111.03131103500002,19.64630127],[111.03131103500002,19.646911621],[111.03149414100001,19.646911621],[111.03149414100001,19.647094727],[111.03192138700001,19.647094727],[111.03192138700001,19.647705078],[111.03228759800001,19.647705078],[111.03228759800001,19.647277832],[111.03387451200001,19.647277832],[111.03387451200001,19.647705078],[111.03411865200002,19.647705078],[111.03411865200002,19.648071289],[111.03149414100001,19.649719238],[111.03027343700002,19.652709961],[111.02990722700001,19.652709961],[111.02990722700001,19.652893066],[111.02972412100002,19.652893066],[111.02972412100002,19.653320312],[111.02868652300002,19.653320312],[111.02868652300002,19.653503418],[111.02850341800001,19.653503418],[111.02850341800001,19.653686523],[111.02648925800001,19.653686523],[111.02648925800001,19.654296875],[111.02691650400001,19.654296875],[111.02691650400001,19.655273437],[111.02709960900002,19.655273437],[111.02709960900002,19.655517578],[111.02728271500001,19.655517578],[111.02728271500001,19.655700684],[111.02770996100001,19.655700684],[111.02770996100001,19.657104492],[111.02789306600002,19.657104492],[111.02789306600002,19.657287598],[111.02832031200002,19.657287598],[111.02832031200002,19.657714844],[111.02850341800001,19.657714844],[111.02709960900002,19.671325684],[111.02130127,19.679870605],[111.02008056600002,19.683898926],[111.01831054700001,19.683898926],[111.01831054700001,19.68347168],[111.01708984400001,19.68347168],[111.01708984400001,19.683898926],[111.01647949200002,19.683898926],[111.01647949200002,19.684082031],[111.01507568400001,19.684082031],[111.01507568400001,19.684875488],[111.01208496100001,19.684692383],[111.01068115200002,19.685913086],[111.01068115200002,19.684875488],[111.01049804700001,19.684875488],[111.01049804700001,19.683898926],[111.00970459000001,19.683898926],[111.00970459000001,19.684082031],[111.00927734400001,19.684082031],[111.00927734400001,19.684326172],[111.00909423800002,19.684326172],[111.00909423800002,19.685119629],[111.00927734400001,19.685119629],[111.00927734400001,19.68548584],[111.00970459000001,19.68548584],[111.00970459000001,19.686889648],[111.00927734400001,19.686889648],[111.00927734400001,19.687316895],[111.00909423800002,19.6875],[111.00848388700001,19.689697266],[111.00848388700001,19.689880371],[111.00769043000001,19.689880371],[111.00769043000001,19.69152832],[111.00750732400002,19.69152832],[111.00750732400002,19.691894531],[111.00708007800002,19.691894531],[111.00708007800002,19.693481445],[111.00689697300001,19.693481445],[111.00689697300001,19.694091797],[111.00653076200001,19.694091797],[111.00653076200001,19.694702148],[111.00628662100002,19.694702148],[111.00628662100002,19.695129395],[111.00610351600001,19.695129395],[111.00610351600001,19.695678711],[111.00567627,19.695678711],[111.00567627,19.696105957],[111.00549316400001,19.696105957],[111.00549316400001,19.699890137],[111.00512695300002,19.699890137],[111.00512695300002,19.70111084],[111.00488281200002,19.70111084],[111.00488281200002,19.701477051],[111.00469970700001,19.701477051],[111.00469970700001,19.703308105],[111.00427246100001,19.703308105],[111.00427246100001,19.704101562],[111.00408935500002,19.704101562],[111.00408935500002,19.70489502],[111.003723145,19.70489502],[111.003723145,19.705688477],[111.00347900400001,19.705688477],[111.00347900400001,19.706298828],[111.00329589800002,19.706298828],[111.00329589800002,19.708679199],[111.00292968700002,19.708679199],[111.00292968700002,19.711120605],[111.00268554700001,19.711120605],[111.00268554700001,19.71270752],[111.00250244100002,19.71270752],[111.00250244100002,19.713500977],[111.00207519500002,19.713500977],[111.00207519500002,19.713684082],[111.00189209000001,19.713684082],[111.00189209000001,19.716674805],[111.00152587900001,19.716674805],[111.00152587900001,19.719116211],[111.00128173800002,19.719116211],[111.00128173800002,19.721923828],[111.00109863300001,19.721923828],[111.00109863300001,19.723510742],[111.00067138700001,19.723510742],[111.00067138700001,19.726074219],[111.00048828100002,19.726074219],[111.00048828100002,19.726501465],[111.00012207000002,19.726501465],[111.00012207000002,19.730712891],[110.99987793000001,19.730712891],[110.99987793000001,19.731323242],[110.99969482400002,19.731323242],[110.99969482400002,19.731872559],[110.99987793000001,19.731872559],[110.99987793000001,19.73248291],[110.99969482400002,19.73248291],[110.99969482400002,19.732727051],[110.99932861300002,19.732727051],[110.99932861300002,19.735290527],[110.99908447300001,19.735290527],[110.99908447300001,19.735473633],[110.99871826200001,19.735473633],[110.99871826200001,19.736328125],[110.99908447300001,19.736328125],[110.99908447300001,19.737121582],[110.99932861300002,19.737121582],[110.99932861300002,19.737670898],[110.99908447300001,19.737670898],[110.99908447300001,19.738525391],[110.99932861300002,19.738525391],[110.99932861300002,19.741088867],[110.99908447300001,19.741088867],[110.99908447300001,19.743530273],[110.99871826200001,19.743530273],[110.99871826200001,19.74407959],[110.99847412100002,19.74407959],[110.99847412100002,19.744689941],[110.99829101600001,19.744689941],[110.99829101600001,19.745117187],[110.99792480500001,19.745117187],[110.99792480500001,19.745727539],[110.99768066400001,19.745727539],[110.99768066400001,19.746276855],[110.99749755900001,19.746276855],[110.99749755900001,19.747680664],[110.99707031200002,19.747680664],[110.99707031200002,19.748901367],[110.99847412100002,19.748901367],[110.99847412100002,19.75592041],[110.995910645,19.783081055],[110.99487304700001,19.78729248],[110.99249267600001,19.796691895],[110.99468994100002,19.812072754],[110.99291992200001,19.822509766],[110.96667480500001,19.909484863],[110.95910644500002,19.92590332],[110.95367431600002,19.947692871],[110.95031738300001,19.974914551],[110.94628906200002,19.986083984],[110.93829345700001,20.00012207],[110.93249511700002,20.010070801],[110.92791748000002,20.014526367],[110.92468261700002,20.015075684],[110.92468261700002,20.014892578],[110.92449951200001,20.014892578],[110.92431640600002,20.014709473],[110.92407226600001,20.014526367],[110.92407226600001,20.014282227],[110.92388916000002,20.014282227],[110.92352294900002,20.014099121],[110.92327880900001,20.013916016],[110.92309570300002,20.013916016],[110.92309570300002,20.013671875],[110.92291259800001,20.013305664],[110.92272949200002,20.013305664],[110.92272949200002,20.012878418],[110.92248535200001,20.012878418],[110.92248535200001,20.012695312],[110.92211914100001,20.012695312],[110.92211914100001,20.012329102],[110.92211914100001,20.012084961],[110.921875,20.012084961],[110.921875,20.011901855],[110.92150878900001,20.011901855],[110.92150878900001,20.011474609],[110.92108154300001,20.011474609],[110.92108154300001,20.011291504],[110.92071533200001,20.011291504],[110.92047119100002,20.011291504],[110.92047119100002,20.011474609],[110.92028808600001,20.011474609],[110.92010498000002,20.011474609],[110.91772460900002,20.00970459],[110.91772460900002,20.008911133],[110.91772460900002,20.008483887],[110.91790771500001,20.008483887],[110.91790771500001,20.007507324],[110.91772460900002,20.007507324],[110.91772460900002,20.007080078],[110.91748046900001,20.007080078],[110.91748046900001,20.006896973],[110.91711425800001,20.006896973],[110.91711425800001,20.006530762],[110.91687011700002,20.006530762],[110.91687011700002,20.006286621],[110.91571044900002,20.006286621],[110.91571044900002,20.006103516],[110.91467285200001,20.006103516],[110.91467285200001,20.004882812],[110.91430664100001,20.004882812],[110.91430664100001,20.003295898],[110.91412353500002,20.003295898],[110.91412353500002,20.002075195],[110.913879395,20.002075195],[110.913879395,20.00189209],[110.91333007800002,20.00189209],[110.91333007800002,20.001525879],[110.91271972700001,20.001525879],[110.91271972700001,20.001281738],[110.91247558600001,20.001281738],[110.91247558600001,20.001098633],[110.91210937500001,20.001098633],[110.91210937500001,20.001281738],[110.91192627,20.001281738],[110.91192627,20.001098633],[110.91027832000002,20.001098633],[110.91027832000002,20.000671387],[110.90887451200001,20.000671387],[110.90887451200001,19.99987793],[110.90887451200001,19.999328613],[110.90692138700001,19.999328613],[110.90692138700001,19.999084473],[110.90612793000001,19.999084473],[110.90332031200002,19.999084473],[110.89752197300001,19.996887207],[110.88909912100002,19.998291016],[110.88909912100002,19.997497559],[110.88769531200002,19.997497559],[110.88769531200002,19.997070312],[110.88488769500002,19.997070312],[110.88488769500002,19.996887207],[110.88470459000001,19.996887207],[110.88470459000001,19.996276855],[110.88427734400001,19.996276855],[110.88427734400001,19.99609375],[110.88409423800002,19.99609375],[110.88409423800002,19.995727539],[110.88348388700001,19.995727539],[110.88348388700001,19.995483398],[110.88153076200001,19.995483398],[110.88153076200001,19.995117187],[110.87988281200002,19.995117187],[110.87988281200002,19.994873047],[110.87792968700002,19.994873047],[110.87792968700002,19.994689941],[110.87609863300001,19.994689941],[110.87609863300001,19.99432373],[110.86853027300002,19.99432373],[110.86853027300002,19.994689941],[110.86749267600001,19.994689941],[110.86749267600001,19.994873047],[110.86627197300001,19.994873047],[110.86627197300001,19.995117187],[110.86492919900002,19.995300293],[110.85467529300001,19.995300293],[110.85748291000002,19.995117187],[110.85748291000002,19.994873047],[110.85992431600002,19.994873047],[110.85992431600002,19.994689941],[110.86248779300001,19.994689941],[110.86248779300001,19.99407959],[110.86187744100002,19.99407959],[110.86187744100002,19.993896484],[110.86108398400002,19.993896484],[110.86108398400002,19.993286133],[110.86071777300002,19.993286133],[110.86071777300002,19.992675781],[110.86108398400002,19.992675781],[110.86108398400002,19.992492676],[110.86132812500001,19.992492676],[110.86132812500001,19.992126465],[110.85852050800001,19.992126465],[110.85852050800001,19.991882324],[110.85772705100001,19.991882324],[110.85772705100001,19.991516113],[110.85650634800001,19.991516113],[110.85650634800001,19.991882324],[110.85491943400001,19.991882324],[110.85491943400001,19.992126465],[110.85467529300001,19.992126465],[110.85467529300001,19.992492676],[110.85430908200001,19.992492676],[110.85430908200001,19.992675781],[110.84948730500001,19.992675781],[110.84948730500001,19.992919922],[110.84887695300002,19.992919922],[110.84887695300002,19.993286133],[110.84771728500002,19.993286133],[110.84771728500002,19.993530273],[110.84692382800002,19.993530273],[110.84692382800002,19.993896484],[110.84570312500001,19.993896484],[110.84570312500001,19.99407959],[110.84472656200002,19.99407959],[110.84472656200002,19.99432373],[110.84429931600002,19.99432373],[110.84429931600002,19.994689941],[110.84350585900002,19.994689941],[110.84350585900002,19.99432373],[110.84289550800001,19.99432373],[110.84289550800001,19.99407959],[110.84130859400001,19.99407959],[110.84130859400001,19.99432373],[110.84069824200002,19.99432373],[110.84069824200002,19.994689941],[110.84008789100001,19.994689941],[110.84008789100001,19.994873047],[110.83972168000001,19.994873047],[110.83972168000001,19.995117187],[110.83850097700001,19.995117187],[110.83850097700001,19.995483398],[110.83648681600002,19.995483398],[110.83648681600002,19.995727539],[110.83612060500002,19.995727539],[110.83612060500002,19.996276855],[110.83551025400001,19.996276855],[110.83551025400001,19.996520996],[110.83489990200002,19.996520996],[110.83489990200002,19.996887207],[110.83471679700001,19.996887207],[110.83471679700001,19.997070312],[110.83367919900002,19.997070312],[110.83367919900002,19.997497559],[110.83288574200002,19.997497559],[110.83288574200002,19.997680664],[110.83227539100001,19.997680664],[110.83227539100001,19.997924805],[110.83190918000001,19.997924805],[110.83190918000001,19.998291016],[110.83050537100002,19.998291016],[110.83050537100002,19.998474121],[110.82928466800001,19.998474121],[110.82928466800001,19.998901367],[110.82867431600002,19.998901367],[110.82867431600002,19.999084473],[110.82788085900002,19.999084473],[110.82788085900002,19.999328613],[110.82751464800002,19.999328613],[110.82751464800002,19.999694824],[110.82672119100002,19.999694824],[110.82647705100001,19.999694824],[110.82647705100001,19.99987793],[110.82629394500002,19.99987793],[110.82629394500002,20.000488281],[110.82592773400002,20.000488281],[110.82373046900001,20.000488281],[110.82373046900001,20.000671387],[110.82330322300001,20.000671387],[110.82330322300001,20.001098633],[110.82269287100002,20.001098633],[110.82269287100002,20.001281738],[110.82232666000002,20.001281738],[110.82232666000002,20.001525879],[110.82147216800001,20.001525879],[110.82147216800001,20.002075195],[110.82110595700001,20.002075195],[110.82110595700001,20.002502441],[110.82067871100001,20.002502441],[110.82067871100001,20.002685547],[110.81988525400001,20.002685547],[110.81988525400001,20.002929687],[110.81927490200002,20.002929687],[110.81927490200002,20.003295898],[110.81829834000001,20.003295898],[110.81829834000001,20.003479004],[110.81689453100002,20.003479004],[110.81689453100002,20.003723145],[110.81628418000001,20.003723145],[110.81628418000001,20.004089355],[110.81610107400002,20.004089355],[110.81610107400002,20.004272461],[110.81567382800002,20.004272461],[110.81567382800002,20.004699707],[110.81549072300001,20.004699707],[110.81549072300001,20.004882812],[110.81488037100002,20.004882812],[110.81488037100002,20.005126953],[110.81469726600001,20.005126953],[110.81469726600001,20.005493164],[110.81408691400001,20.005493164],[110.81408691400001,20.00567627],[110.81268310500002,20.00567627],[110.81268310500002,20.006103516],[110.81207275400001,20.006103516],[110.81207275400001,20.006286621],[110.81152343700002,20.006286621],[110.81152343700002,20.006530762],[110.81072998000002,20.006530762],[110.81072998000002,20.006896973],[110.80987548800002,20.006896973],[110.80987548800002,20.007080078],[110.80847168000001,20.007080078],[110.80847168000001,20.007507324],[110.80468750000001,20.007507324],[110.80468750000001,20.00769043],[110.79968261700002,20.00769043],[110.79968261700002,20.007873535],[110.79772949200002,20.007873535],[110.79772949200002,20.00769043],[110.79748535200001,20.00769043],[110.79748535200001,20.007873535],[110.79467773400002,20.007873535],[110.79467773400002,20.008300781],[110.79327392600001,20.008300781],[110.79327392600001,20.008483887],[110.79187011700002,20.008483887],[110.79187011700002,20.008728027],[110.79052734400001,20.008728027],[110.79052734400001,20.009094238],[110.78912353500002,20.009094238],[110.78912353500002,20.009277344],[110.78833007800002,20.009277344],[110.78833007800002,20.009521484],[110.78833007800002,20.00970459],[110.78771972700001,20.00970459],[110.78771972700001,20.009887695],[110.78692627,20.009887695],[110.78692627,20.010070801],[110.78631591800001,20.010070801],[110.78631591800001,20.010498047],[110.78570556600002,20.010498047],[110.78570556600002,20.010681152],[110.78552246100001,20.010681152],[110.78552246100001,20.011108398],[110.78491210900002,20.011108398],[110.78491210900002,20.011291504],[110.78430175800001,20.011291504],[110.78430175800001,20.011474609],[110.78387451200001,20.011474609],[110.78387451200001,20.011901855],[110.78350830100001,20.011901855],[110.78350830100001,20.012084961],[110.78289794900002,20.012084961],[110.78289794900002,20.012512207],[110.78228759800001,20.012329102],[110.78228759800001,20.012695312],[110.78210449200002,20.012695312],[110.78210449200002,20.012878418],[110.78149414100001,20.012878418],[110.78149414100001,20.013305664],[110.78112793000001,20.013305664],[110.78112793000001,20.01348877],[110.78051757800002,20.01348877],[110.78051757800002,20.013671875],[110.78027343700002,20.013671875],[110.78027343700002,20.014099121],[110.77990722700001,20.014099121],[110.77990722700001,20.014282227],[110.77929687500001,20.014282227],[110.77929687500001,20.014709473],[110.77911377,20.014709473],[110.77911377,20.014892578],[110.77850341800001,20.014892578],[110.77850341800001,20.015075684],[110.77832031200002,20.015075684],[110.77832031200002,20.01550293],[110.77770996100001,20.01550293],[110.77770996100001,20.015686035],[110.77728271500001,20.015686035],[110.77728271500001,20.016113281],[110.77709960900002,20.016113281],[110.77709960900002,20.016296387],[110.77691650400001,20.016296387],[110.77691650400001,20.016479492],[110.77648925800001,20.016479492],[110.77648925800001,20.017089844],[110.77630615200002,20.017089844],[110.77630615200002,20.017272949],[110.77612304700001,20.017272949],[110.77612304700001,20.017700195],[110.77569580100001,20.017700195],[110.77569580100001,20.017883301],[110.77551269500002,20.017883301],[110.77551269500002,20.018310547],[110.77508544900002,20.018310547],[110.77508544900002,20.018676758],[110.77490234400001,20.018676758],[110.77490234400001,20.019104004],[110.77471923800002,20.019104004],[110.77447509800001,20.019287109],[110.77429199200002,20.019287109],[110.77429199200002,20.019714355],[110.77410888700001,20.019714355],[110.77410888700001,20.019897461],[110.77368164100001,20.019897461],[110.77368164100001,20.020080566],[110.77349853500002,20.020080566],[110.77349853500002,20.020507812],[110.77331543000001,20.020507812],[110.77331543000001,20.020690918],[110.77288818400001,20.020690918],[110.77288818400001,20.02130127],[110.77270507800002,20.02130127],[110.77270507800002,20.021484375],[110.77227783200001,20.021484375],[110.77227783200001,20.021911621],[110.77209472700001,20.021911621],[110.77209472700001,20.022094727],[110.77191162100002,20.022277832],[110.77148437500001,20.022521973],[110.77148437500001,20.022705078],[110.77130127,20.022705078],[110.77130127,20.023071289],[110.77111816400001,20.02331543],[110.77111816400001,20.023498535],[110.76849365200002,20.026306152],[110.76068115200002,20.040893555],[110.74468994100002,20.046875],[110.72747802700002,20.059875488],[110.71948242200001,20.068908691],[110.70928955100001,20.086914062],[110.70367431600002,20.100280762],[110.70208740200002,20.104309082],[110.70172119100002,20.120117187],[110.70129394500002,20.121887207],[110.70129394500002,20.122070312],[110.70129394500002,20.122497559],[110.70111084000001,20.122497559],[110.70111084000001,20.123291016],[110.70068359400001,20.123291016],[110.70068359400001,20.124694824],[110.70068359400001,20.12487793],[110.70050048800002,20.12487793],[110.70050048800002,20.125915527],[110.70031738300001,20.126525879],[110.70007324200002,20.127319336],[110.69989013700001,20.128479004],[110.69952392600001,20.13067627],[110.69207763700001,20.141479492],[110.69067382800002,20.145080566],[110.69067382800002,20.145324707],[110.69067382800002,20.145507812],[110.69049072300001,20.145507812],[110.69049072300001,20.146118164],[110.69012451200001,20.146118164],[110.69012451200001,20.147094727],[110.687316895,20.15612793],[110.68487548800002,20.156494141],[110.67492675800001,20.148498535],[110.67492675800001,20.144897461],[110.67529296900001,20.144897461],[110.67529296900001,20.144104004],[110.67547607400002,20.144104004],[110.67547607400002,20.143676758],[110.67572021500001,20.143676758],[110.67572021500001,20.141906738],[110.67608642600001,20.141906738],[110.67608642600001,20.140075684],[110.67572021500001,20.140075684],[110.67572021500001,20.138671875],[110.67547607400002,20.138671875],[110.67547607400002,20.13848877],[110.67529296900001,20.13848877],[110.67529296900001,20.138305664],[110.67547607400002,20.138305664],[110.67547607400002,20.136901855],[110.67529296900001,20.136901855],[110.67529296900001,20.13470459],[110.67407226600001,20.129882812],[110.66247558600001,20.125305176],[110.66168212900001,20.124328613],[110.66192627,20.123291016],[110.66149902300002,20.123291016],[110.66149902300002,20.122924805],[110.66131591800001,20.122924805],[110.66131591800001,20.122680664],[110.66088867200001,20.122680664],[110.66088867200001,20.122497559],[110.66070556600002,20.122497559],[110.66070556600002,20.122070312],[110.66027832000002,20.122070312],[110.65710449200002,20.117675781],[110.65710449200002,20.116271973],[110.65692138700001,20.116271973],[110.65692138700001,20.116088867],[110.65649414100001,20.116088867],[110.65649414100001,20.115722656],[110.65631103500002,20.115722656],[110.65631103500002,20.115478516],[110.65612793000001,20.115478516],[110.65612793000001,20.115112305],[110.65570068400001,20.115112305],[110.65570068400001,20.114685059],[110.65551757800002,20.114685059],[110.65551757800002,20.114318848],[110.65527343700002,20.114318848],[110.65527343700002,20.113891602],[110.65490722700001,20.113891602],[110.65490722700001,20.113525391],[110.65332031200002,20.113525391],[110.65332031200002,20.112915039],[110.65289306600002,20.112915039],[110.65289306600002,20.112487793],[110.65270996100001,20.112487793],[110.65270996100001,20.112121582],[110.65209960900002,20.112121582],[110.65209960900002,20.111877441],[110.65191650400001,20.111877441],[110.65191650400001,20.11151123],[110.65148925800001,20.11151123],[110.65148925800001,20.111328125],[110.65130615200002,20.111328125],[110.65112304700001,20.111328125],[110.65112304700001,20.111083984],[110.65051269500002,20.111083984],[110.65051269500002,20.110473633],[110.65008544900002,20.110473633],[110.65008544900002,20.110290527],[110.64971923800002,20.110290527],[110.64971923800002,20.109924316],[110.64910888700001,20.109924316],[110.64910888700001,20.109680176],[110.64868164100001,20.109680176],[110.64868164100001,20.109313965],[110.64849853500002,20.109313965],[110.64849853500002,20.109130859],[110.64831543000001,20.109130859],[110.64831543000001,20.108886719],[110.64770507800002,20.108886719],[110.64770507800002,20.108520508],[110.64727783200001,20.108520508],[110.64727783200001,20.107910156],[110.64691162100002,20.107910156],[110.64691162100002,20.107727051],[110.64648437500001,20.107727051],[110.64648437500001,20.10748291],[110.64630127,20.10748291],[110.64630127,20.107116699],[110.64550781200002,20.107116699],[110.64550781200002,20.106872559],[110.64489746100001,20.106872559],[110.64489746100001,20.106506348],[110.64471435500002,20.106506348],[110.64471435500002,20.106323242],[110.64428710900002,20.106323242],[110.64428710900002,20.106079102],[110.64410400400001,20.106079102],[110.64349365200002,20.106079102],[110.64349365200002,20.105712891],[110.64349365200002,20.105529785],[110.64288330100001,20.105529785],[110.64270019500002,20.105529785],[110.64270019500002,20.105285645],[110.64208984400001,20.105285645],[110.64208984400001,20.105529785],[110.64190673800002,20.105529785],[110.64190673800002,20.105285645],[110.64147949200002,20.105285645],[110.64147949200002,20.104919434],[110.63989257800002,20.104919434],[110.63732910200001,20.104919434],[110.63732910200001,20.104492187],[110.63732910200001,20.104309082],[110.63690185500002,20.104309082],[110.63690185500002,20.104675293],[110.63647460900002,20.104675293],[110.63647460900002,20.104919434],[110.63629150400001,20.104919434],[110.63287353500002,20.105102539],[110.63287353500002,20.104919434],[110.63250732400002,20.104919434],[110.63250732400002,20.105102539],[110.63153076200001,20.105102539],[110.63153076200001,20.104919434],[110.63110351600001,20.104919434],[110.63110351600001,20.105102539],[110.63067627,20.105102539],[110.63067627,20.104919434],[110.62969970700001,20.104919434],[110.62969970700001,20.105102539],[110.62268066400001,20.105285645],[110.59912109400001,20.109313965],[110.59570312500001,20.106323242],[110.59552002,20.106079102],[110.59552002,20.105529785],[110.59527587900001,20.105529785],[110.59527587900001,20.105285645],[110.59490966800001,20.105285645],[110.59490966800001,20.104675293],[110.59472656200002,20.104675293],[110.59472656200002,20.104309082],[110.59429931600002,20.104309082],[110.59429931600002,20.104125977],[110.59411621100001,20.104125977],[110.59411621100001,20.103881836],[110.59368896500001,20.103881836],[110.59368896500001,20.103515625],[110.59350585900002,20.103515625],[110.59350585900002,20.103271484],[110.59271240200002,20.103271484],[110.59271240200002,20.102905273],[110.59228515600002,20.102905273],[110.59228515600002,20.102722168],[110.59210205100001,20.102722168],[110.59210205100001,20.102478027],[110.59167480500001,20.102478027],[110.59167480500001,20.102111816],[110.59130859400001,20.102111816],[110.59130859400001,20.101501465],[110.59130859400001,20.101074219],[110.59088134800001,20.101074219],[110.59088134800001,20.100708008],[110.59069824200002,20.100708008],[110.59069824200002,20.100524902],[110.59008789100001,20.100524902],[110.59008789100001,20.100280762],[110.58990478500002,20.100280762],[110.58990478500002,20.099914551],[110.58929443400001,20.099914551],[110.58929443400001,20.09967041],[110.58911132800002,20.09967041],[110.58911132800002,20.099304199],[110.58850097700001,20.099304199],[110.58850097700001,20.099121094],[110.58770752,20.099121094],[110.58770752,20.098876953],[110.58691406200002,20.098876953],[110.58691406200002,20.098510742],[110.58612060500002,20.098510742],[110.58612060500002,20.098327637],[110.58508300800001,20.098327637],[110.58508300800001,20.097900391],[110.58471679700001,20.097900391],[110.58471679700001,20.097717285],[110.58367919900002,20.097717285],[110.58367919900002,20.097473145],[110.58331298800002,20.097473145],[110.58331298800002,20.097106934],[110.58288574200002,20.097106934],[110.58288574200002,20.096923828],[110.57971191400001,20.096923828],[110.57147216800001,20.090698242],[110.57147216800001,20.089904785],[110.57189941400001,20.089904785],[110.57189941400001,20.08972168],[110.57208252,20.08972168],[110.57208252,20.089294434],[110.57269287100002,20.089294434],[110.57269287100002,20.088684082],[110.57330322300001,20.088684082],[110.57330322300001,20.088500977],[110.57348632800002,20.088500977],[110.57348632800002,20.088317871],[110.57373046900001,20.088317871],[110.57373046900001,20.08770752],[110.57409668000001,20.08770752],[110.57409668000001,20.087280273],[110.57427978500002,20.087280273],[110.57427978500002,20.086914062],[110.57470703100002,20.086914062],[110.57470703100002,20.086303711],[110.57489013700001,20.086303711],[110.57489013700001,20.085327148],[110.57489013700001,20.084106445],[110.57507324200002,20.084106445],[110.57507324200002,20.082885742],[110.57550048800002,20.082519531],[110.57550048800002,20.075683594],[110.57287597700001,20.064697266],[110.57208252,20.051086426],[110.56988525400001,20.042480469],[110.56890869100002,20.038513184],[110.57147216800001,20.032287598],[110.57250976600001,20.032287598],[110.57250976600001,20.031921387],[110.57269287100002,20.031921387],[110.57269287100002,20.031311035],[110.57287597700001,20.031311035],[110.57287597700001,20.030517578],[110.57330322300001,20.030517578],[110.57330322300001,20.029907227],[110.57348632800002,20.029907227],[110.57348632800002,20.029296875],[110.57373046900001,20.029296875],[110.57373046900001,20.027893066],[110.57409668000001,20.027893066],[110.57409668000001,20.026672363],[110.57507324200002,20.024475098],[110.57971191400001,20.021728516],[110.58331298800002,20.021484375],[110.58367919900002,20.021484375],[110.58410644500002,20.021484375],[110.58471679700001,20.021484375],[110.58508300800001,20.02130127],[110.58508300800001,20.021484375],[110.58648681600002,20.021484375],[110.58691406200002,20.021484375],[110.58691406200002,20.02130127],[110.58789062500001,20.02130127],[110.58789062500001,20.021484375],[110.58831787100002,20.021484375],[110.58831787100002,20.021911621],[110.59411621100001,20.021911621],[110.59411621100001,20.021484375],[110.59472656200002,20.021484375],[110.59472656200002,20.02130127],[110.59490966800001,20.02130127],[110.59490966800001,20.021118164],[110.59527587900001,20.021118164],[110.59527587900001,20.020690918],[110.59552002,20.020690918],[110.59552002,20.020507812],[110.59570312500001,20.020507812],[110.59570312500001,20.020080566],[110.59588623000002,20.020080566],[110.59588623000002,20.019897461],[110.59667968700002,20.019897461],[110.59667968700002,20.019714355],[110.59710693400001,20.019714355],[110.59710693400001,20.019287109],[110.59771728500002,20.019287109],[110.59771728500002,20.018676758],[110.59790039100001,20.018676758],[110.59790039100001,20.018493652],[110.59832763700001,20.018493652],[110.59832763700001,20.018310547],[110.59851074200002,20.018310547],[110.59851074200002,20.017883301],[110.59887695300002,20.017883301],[110.59912109400001,20.017883301],[110.59930419900002,20.017883301],[110.60308837900001,20.018676758],[110.60772705100001,20.021484375],[110.60791015600002,20.021484375],[110.61828613300001,20.028076172],[110.62188720700001,20.028686523],[110.62371826200001,20.027526855],[110.61688232400002,20.021484375],[110.61169433600001,20.020324707],[110.60107421900001,20.011108398],[110.60247802700002,20.006530762],[110.60272216800001,20.006530762],[110.60272216800001,20.006103516],[110.60290527300002,20.006103516],[110.60290527300002,20.00567627],[110.60327148400002,20.00567627],[110.60327148400002,20.005493164],[110.60388183600001,20.005493164],[110.60388183600001,20.005126953],[110.60467529300001,20.005126953],[110.60467529300001,20.004882812],[110.60491943400001,20.004882812],[110.60491943400001,20.004699707],[110.605285645,20.004699707],[110.605285645,20.003723145],[110.60552978500002,20.003723145],[110.60552978500002,20.003479004],[110.60571289100001,20.003479004],[110.60571289100001,20.003295898],[110.60607910200001,20.003295898],[110.60607910200001,20.002929687],[110.60632324200002,20.002929687],[110.60632324200002,20.002685547],[110.60650634800001,20.002685547],[110.60650634800001,20.002075195],[110.60687255900001,20.002075195],[110.60687255900001,20.001525879],[110.60711669900002,20.001525879],[110.60711669900002,20.001281738],[110.60748291000002,20.001281738],[110.60748291000002,20.000671387],[110.60772705100001,20.000671387],[110.60772705100001,20.00012207],[110.60888671900001,20.00012207],[110.60888671900001,19.997680664],[110.60913085900002,19.997680664],[110.60913085900002,19.997497559],[110.60931396500001,19.997497559],[110.60931396500001,19.997070312],[110.60968017600001,19.997070312],[110.60968017600001,19.99609375],[110.60931396500001,19.99609375],[110.60931396500001,19.995117187],[110.60968017600001,19.995117187],[110.60968017600001,19.993896484],[110.60992431600002,19.993896484],[110.60992431600002,19.993286133],[110.61010742200001,19.993286133],[110.61010742200001,19.992919922],[110.61047363300001,19.992919922],[110.61047363300001,19.992675781],[110.61071777300002,19.992675781],[110.61071777300002,19.992492676],[110.61108398400002,19.992492676],[110.61108398400002,19.992126465],[110.61132812500001,19.992126465],[110.61132812500001,19.990722656],[110.61108398400002,19.990722656],[110.61108398400002,19.990478516],[110.61132812500001,19.990478516],[110.61132812500001,19.990112305],[110.61212158200001,19.990112305],[110.61212158200001,19.989074707],[110.61187744100002,19.989074707],[110.61187744100002,19.987915039],[110.61212158200001,19.987915039],[110.61212158200001,19.987487793],[110.61248779300001,19.987487793],[110.61248779300001,19.986083984],[110.61212158200001,19.986083984],[110.61212158200001,19.985473633],[110.61187744100002,19.985473633],[110.61187744100002,19.983520508],[110.61169433600001,19.983520508],[110.61248779300001,19.981872559],[110.61767578100002,19.975097656],[110.61791992200001,19.974914551],[110.61791992200001,19.97467041],[110.61810302700002,19.97467041],[110.61828613300001,19.97467041],[110.61828613300001,19.974304199],[110.61853027300002,19.974304199],[110.61853027300002,19.974121094],[110.61853027300002,19.973876953],[110.61871337900001,19.973876953],[110.61871337900001,19.973693848],[110.61889648400002,19.973510742],[110.61907959000001,19.973510742],[110.61907959000001,19.973327637],[110.61932373000002,19.973327637],[110.61932373000002,19.972900391],[110.61968994100002,19.972900391],[110.61968994100002,19.972473145],[110.62170410200001,19.969909668],[110.62170410200001,19.96887207],[110.62628173800002,19.969482422],[110.62768554700001,19.967529297],[110.63128662100002,19.961914062],[110.63891601600001,19.953125],[110.64410400400001,19.944274902],[110.64508056600002,19.94128418],[110.64251709000001,19.932678223],[110.64508056600002,19.92590332],[110.64849853500002,19.925109863],[110.65270996100001,19.923706055],[110.65991210900002,19.92010498],[110.66650390600002,19.914916992],[110.67071533200001,19.905090332],[110.67291259800001,19.894897461],[110.67529296900001,19.890319824],[110.67651367200001,19.887329102],[110.67468261700002,19.879699707],[110.67010498000002,19.877075195],[110.66827392600001,19.874084473],[110.67352294900002,19.866088867],[110.68048095700001,19.862304687],[110.68627929700001,19.860900879],[110.69049072300001,19.860473633],[110.69750976600001,19.859313965],[110.70111084000001,19.856872559],[110.70507812500001,19.85369873],[110.70867919900002,19.850891113],[110.71087646500001,19.843505859],[110.70831298800002,19.838500977],[110.70550537100002,19.837280273],[110.69909668000001,19.832519531],[110.69848632800002,19.823913574],[110.70190429700001,19.815917969],[110.70190429700001,19.807678223],[110.69708252,19.802490234],[110.68872070300002,19.797302246],[110.68109130900001,19.798706055],[110.67449951200001,19.803527832],[110.66650390600002,19.807312012],[110.65850830100001,19.805480957],[110.65307617200001,19.797729492],[110.64349365200002,19.792297363],[110.63848877,19.788879395],[110.63787841800001,19.785888672],[110.64727783200001,19.784484863],[110.64990234400001,19.778686523],[110.64447021500001,19.771118164],[110.64093017600001,19.767272949],[110.63690185500002,19.761901855],[110.63092041000002,19.754699707],[110.62792968700002,19.751098633],[110.62707519500002,19.748474121],[110.62628173800002,19.739685059],[110.62969970700001,19.728088379],[110.63452148400002,19.724487305],[110.63690185500002,19.724121094],[110.64288330100001,19.723693848],[110.64630127,19.719116211],[110.64532470700001,19.715698242],[110.64147949200002,19.708496094],[110.63470459000001,19.703491211],[110.62567138700001,19.703491211],[110.61749267600001,19.703674316],[110.61248779300001,19.702087402],[110.61108398400002,19.6953125],[110.61828613300001,19.692321777],[110.62432861300002,19.688293457],[110.62567138700001,19.684692383],[110.62792968700002,19.677124023],[110.62628173800002,19.671081543],[110.62371826200001,19.66607666],[110.62329101600001,19.662475586],[110.62731933600001,19.657470703],[110.63208007800002,19.654724121],[110.63549804700001,19.653076172],[110.64251709000001,19.65447998],[110.64508056600002,19.659118652],[110.64849853500002,19.664672852],[110.65087890600002,19.664123535],[110.65332031200002,19.659912109],[110.65789794900002,19.649719238],[110.66088867200001,19.647521973],[110.66650390600002,19.645874023],[110.66687011700002,19.641906738],[110.66168212900001,19.635498047],[110.65527343700002,19.629882812],[110.64990234400001,19.622680664],[110.64630127,19.614318848],[110.64172363300001,19.601074219],[110.63830566400001,19.591918945],[110.63531494100002,19.584289551],[110.63568115200002,19.573486328],[110.63970947300001,19.559509277],[110.64190673800002,19.551086426],[110.64367675800001,19.545288086],[110.64093017600001,19.536499023],[110.63488769500002,19.533325195],[110.62792968700002,19.530700684],[110.60949707000002,19.53112793],[110.60729980500001,19.530090332],[110.60009765600002,19.529296875],[110.58551025400001,19.530700684],[110.57867431600002,19.529724121],[110.57128906200002,19.531677246],[110.56707763700001,19.531677246],[110.56170654300001,19.534301758],[110.55871582000002,19.536071777],[110.55352783200001,19.539123535],[110.54992675800001,19.544921875],[110.54412841800001,19.553710937],[110.54107666000002,19.557312012],[110.53448486300002,19.563293457],[110.52752685500002,19.563293457],[110.52331543000001,19.565673828],[110.52008056600002,19.562072754],[110.51708984400001,19.561279297],[110.51092529300001,19.561096191],[110.50549316400001,19.56072998],[110.49810791000002,19.559082031],[110.49267578100002,19.556884766],[110.48791503900001,19.553527832],[110.48529052700002,19.549072266],[110.48309326200001,19.546325684],[110.47711181600002,19.541503906],[110.47052002,19.538330078],[110.46752929700001,19.535705566],[110.46551513700001,19.533081055],[110.46527099600002,19.527282715],[110.46667480500001,19.518676758],[110.46710205100001,19.512695312],[110.46868896500001,19.508483887],[110.47131347700001,19.50567627],[110.47448730500001,19.504089355],[110.47827148400002,19.50390625],[110.48150634800001,19.504089355],[110.48968505900001,19.507873535],[110.49829101600001,19.511474609],[110.503723145,19.51348877],[110.50988769500002,19.51348877],[110.51629638700001,19.511901855],[110.52532959000001,19.506713867],[110.53570556600002,19.49987793],[110.53930664100001,19.497314453],[110.54412841800001,19.492492676],[110.54711914100001,19.488708496],[110.54772949200002,19.484130859],[110.54711914100001,19.477478027],[110.54608154300001,19.473693848],[110.54211425800001,19.470275879]]],[[[110.85092163100002,19.99609375],[110.85131835900002,19.996000402],[110.85131835900002,19.99609375],[110.85092163100002,19.99609375]]],[[[110.85092163100002,19.99609375],[110.84832763700001,19.996704102],[110.84771728500002,19.996520996],[110.84771728500002,19.996276855],[110.84692382800002,19.996276855],[110.84692382800002,19.995727539],[110.84851074200002,19.995727539],[110.84851074200002,19.995483398],[110.84948730500001,19.995483398],[110.84948730500001,19.995727539],[110.85052490200002,19.995727539],[110.85052490200002,19.99609375],[110.85092163100002,19.99609375]]],[[[111.27130127,19.981506348],[111.27130127,19.981872559],[111.27111816400001,19.981872559],[111.27111816400001,19.982116699],[111.27069091800001,19.982299805],[111.26727294900002,19.981689453],[111.26751709000001,19.981689453],[111.26770019500002,19.981506348],[111.26770019500002,19.980529785],[111.26849365200002,19.980529785],[111.26849365200002,19.980285645],[111.26867675800001,19.980285645],[111.26867675800001,19.979919434],[111.26910400400001,19.979919434],[111.26910400400001,19.980285645],[111.26928710900002,19.980285645],[111.26928710900002,19.979675293],[111.26928710900002,19.979309082],[111.27008056600002,19.979309082],[111.27008056600002,19.979125977],[111.27050781200002,19.979125977],[111.27050781200002,19.978881836],[111.27069091800001,19.978881836],[111.27069091800001,19.977905273],[111.27130127,19.977905273],[111.27130127,19.977478027],[111.27209472700001,19.977478027],[111.27209472700001,19.977722168],[111.27227783200001,19.977722168],[111.27227783200001,19.978515625],[111.27209472700001,19.978515625],[111.27209472700001,19.979309082],[111.27191162100002,19.979309082],[111.27191162100002,19.979675293],[111.27209472700001,19.979675293],[111.27209472700001,19.980285645],[111.27191162100002,19.980285645],[111.27191162100002,19.980529785],[111.27148437500001,19.980529785],[111.27148437500001,19.981079102],[111.27130127,19.981079102],[111.27130127,19.981323242],[111.27111816400001,19.981323242],[111.27111816400001,19.981506348],[111.27130127,19.981506348]]],[[[110.85290527300002,19.995483398],[110.85351562500001,19.995483398],[110.85290527300002,19.995727539],[110.85290527300002,19.995483398]]],[[[110.85131835900002,19.996000402],[110.85131835900002,19.995727539],[110.85247802700002,19.995727539],[110.85131835900002,19.996000402]]]]}}
