{"type":"Feature","id":"bulk-99377448B62952375252362","bbox":[116.65209960900002,29.571716309,118.10772705100001,30.844482422],"properties":{"id":"bulk-99377448B62952375252362","name":"Chizhou","nameEn":"Chizhou","fullName":"Chizhou","level":"city","boundaryRole":"administrative-extent","boundaryQuality":"generalized-source-2020","boundaryYearRepresented":"2020","bounds":[[116.65209960900002,29.571716309],[118.10772705100001,30.844482422]],"center":[117.37991333000002,30.208099365499997],"centerMethod":"bounding-box midpoint; camera framing only","license":"CC-BY-3.0-IGO","attribution":"geoBoundaries / HDX, China administrative boundaries (2020)","source":{"provider":"geoBoundaries gbHumanitarian / HDX","url":"https://github.com/wmgeolab/geoBoundaries/raw/9469f09/releaseData/gbHumanitarian/CHN/ADM2/geoBoundaries-CHN-ADM2.geojson","metadataUrl":"https://www.geoboundaries.org/api/current/gbHumanitarian/CHN/ADM2/","shapeID":"99377448B62952375252362","shapeName":"Chizhou","boundaryID":"CHN-ADM2-99377448","commit":"9469f09"},"geometryCounts":{"coordinates":121,"components":1,"holes":0},"boundaryNotice":"geoBoundaries / HDX 2020 年行政区数据，海岸和边界经过源数据概化，并非当前测绘成果。"},"geometry":{"type":"Polygon","coordinates":[[[116.74749755900001,30.02911377],[116.75347900400001,30.025512695],[116.80731201200001,29.98449707],[116.84411621100001,29.97088623],[116.86511230500001,29.940490723],[116.84631347700001,29.895874023],[116.80511474600002,29.846496582],[116.73052978500002,29.782470703],[116.67352294900002,29.759521484],[116.65209960900002,29.722290039],[116.66790771500001,29.662475586],[116.69232177700002,29.604309082],[116.70031738300001,29.585083008],[116.75469970700001,29.600280762],[116.76031494100002,29.576904297],[116.78930664100001,29.571716309],[116.82269287100002,29.586120605],[116.84252929700001,29.601074219],[116.88012695300002,29.617919922],[116.91632080100001,29.641906738],[116.94287109400001,29.662719727],[116.98413085900002,29.668701172],[117.03289794900002,29.676696777],[117.06347656200002,29.685913086],[117.06591796900001,29.686523437],[117.08349609400001,29.740112305],[117.08068847700001,29.788330078],[117.07128906200002,29.805725098],[117.04809570300002,29.830078125],[117.07427978500002,29.844909668],[117.10571289100001,29.902893066],[117.11791992200001,29.912109375],[117.16448974600002,29.932678223],[117.18609619100002,29.924072266],[117.21850585900002,29.98651123],[117.24969482400002,29.999511719],[117.28771972700001,30.013305664],[117.33050537100002,30.015319824],[117.36590576200001,30.024108887],[117.39532470700001,30.033874512],[117.43487548800002,30.02947998],[117.47991943400001,30.039123535],[117.51647949200002,30.052490234],[117.52331543000001,30.081115723],[117.53271484400001,30.108703613],[117.57568359400001,30.107727051],[117.60467529300001,30.090087891],[117.663879395,30.110107422],[117.68768310500002,30.133728027],[117.71508789100001,30.153320312],[117.74829101600001,30.165100098],[117.79510498000002,30.184692383],[117.84387207000002,30.226074219],[117.82952880900001,30.258117676],[117.87048339800002,30.278076172],[117.90209960900002,30.287475586],[117.93011474600002,30.303894043],[117.95208740200002,30.33392334],[117.96148681600002,30.360107422],[117.94628906200002,30.387084961],[117.93829345700001,30.417724609],[117.929504395,30.451293945],[117.93347168000001,30.479675293],[117.95831298800002,30.522094727],[117.98510742200001,30.551879883],[118.01092529300001,30.581726074],[118.04370117200001,30.611877441],[118.07147216800001,30.635925293],[118.09112548800002,30.657104492],[118.10772705100001,30.68951416],[118.08892822300001,30.717712402],[118.05889892600001,30.736694336],[118.03430175800001,30.759521484],[118.00469970700001,30.781677246],[117.97631835900002,30.811279297],[117.94787597700001,30.844482422],[117.92132568400001,30.823913574],[117.88647460900002,30.81048584],[117.85650634800001,30.79107666],[117.83050537100002,30.775695801],[117.74511718700002,30.723693848],[117.70208740200002,30.785888672],[117.70367431600002,30.835876465],[117.66967773400002,30.791320801],[117.63427734400001,30.772277832],[117.58569335900002,30.757080078],[117.55047607400002,30.750488281],[117.51770019500002,30.734130859],[117.47387695300002,30.714294434],[117.42272949200002,30.716308594],[117.37310791000002,30.707519531],[117.32110595700001,30.695129395],[117.27807617200001,30.677124023],[117.24432373000002,30.650085449],[117.20251464800002,30.625915527],[117.20709228500002,30.588928223],[117.21508789100001,30.556274414],[117.21228027300002,30.524475098],[117.21051025400001,30.50189209],[117.19848632800002,30.488891602],[117.18530273400002,30.473327637],[117.13391113300001,30.466308594],[117.09851074200002,30.482299805],[117.06628418000001,30.489318848],[117.03088378900001,30.490905762],[116.99670410200001,30.478515625],[116.94427490200002,30.443481445],[116.91290283200001,30.420715332],[116.88708496100001,30.405090332],[116.88092041000002,30.369873047],[116.89587402300002,30.336486816],[116.90832519500002,30.308898926],[116.91632080100001,30.274475098],[116.90771484400001,30.248474121],[116.88867187500001,30.217285156],[116.86669921900001,30.187927246],[116.84667968700002,30.163879395],[116.82989502,30.139709473],[116.81329345700001,30.111328125],[116.79071044900002,30.087524414],[116.74749755900001,30.02911377]]]}}
