{"type":"Feature","id":"bulk-99377448B54839003647464","bbox":[110.57031250000001,23.673278809,112.03070068400001,25.145690918],"properties":{"id":"bulk-99377448B54839003647464","name":"Hezhou","nameEn":"Hezhou","fullName":"Hezhou","level":"city","boundaryRole":"administrative-extent","boundaryQuality":"generalized-source-2020","boundaryYearRepresented":"2020","bounds":[[110.57031250000001,23.673278809],[112.03070068400001,25.145690918]],"center":[111.300506592,24.409484863499998],"centerMethod":"bounding-box midpoint; camera framing only","license":"CC-BY-3.0-IGO","attribution":"geoBoundaries / HDX, China administrative boundaries (2020)","source":{"provider":"geoBoundaries gbHumanitarian / HDX","url":"https://github.com/wmgeolab/geoBoundaries/raw/9469f09/releaseData/gbHumanitarian/CHN/ADM2/geoBoundaries-CHN-ADM2.geojson","metadataUrl":"https://www.geoboundaries.org/api/current/gbHumanitarian/CHN/ADM2/","shapeID":"99377448B54839003647464","shapeName":"Hezhou","boundaryID":"CHN-ADM2-99377448","commit":"9469f09"},"geometryCounts":{"coordinates":191,"components":1,"holes":0},"boundaryNotice":"geoBoundaries / HDX 2020 年行政区数据，海岸和边界经过源数据概化，并非当前测绘成果。"},"geometry":{"type":"Polygon","coordinates":[[[111.07330322300001,24.952880859],[111.11669921900001,24.918884277],[111.15808105500001,24.918701172],[111.14630127,24.862304687],[111.15447998000002,24.829284668],[111.15570068400001,24.798278809],[111.13269043000001,24.776123047],[111.09631347700001,24.759521484],[111.07452392600001,24.726501465],[111.046691895,24.695678711],[111.00549316400001,24.68170166],[110.97308349600002,24.668884277],[110.95349121100001,24.647888184],[110.96472168000001,24.616088867],[110.99047851600001,24.587280273],[111.01269531200002,24.553710937],[111.02630615200002,24.518127441],[111.02307128900001,24.480102539],[111.00592041000002,24.442871094],[110.99151611300002,24.403076172],[111.00750732400002,24.380126953],[110.99450683600001,24.343505859],[110.95111084000001,24.324523926],[110.91308593700002,24.349121094],[110.89471435500002,24.323303223],[110.86267089800002,24.325683594],[110.85968017600001,24.371276855],[110.84448242200001,24.415283203],[110.81451416000002,24.425109863],[110.78509521500001,24.410888672],[110.77069091800001,24.38671875],[110.75292968700002,24.357116699],[110.72113037100002,24.34588623],[110.67669677700002,24.370910645],[110.65228271500001,24.395080566],[110.62231445300002,24.427124023],[110.57031250000001,24.421081543],[110.57928466800001,24.346679687],[110.57470703100002,24.300109863],[110.59869384800001,24.269104004],[110.63568115200002,24.247924805],[110.66967773400002,24.234680176],[110.69549560500002,24.212890625],[110.69689941400001,24.18347168],[110.671875,24.120300293],[110.66430664100001,24.090515137],[110.67791748000002,24.066101074],[110.71069335900002,24.059692383],[110.68768310500002,24.030883789],[110.67327880900001,24.004699707],[110.68707275400001,23.967285156],[110.72290039100001,23.958496094],[110.75012207000002,23.971496582],[110.78491210900002,23.953674316],[110.81610107400002,23.922302246],[110.84808349600002,23.907714844],[110.85589599600002,23.873291016],[110.82568359400001,23.852294922],[110.85589599600002,23.831298828],[110.86071777300002,23.793273926],[110.87908935500002,23.758117676],[110.86767578100002,23.725524902],[110.87927246100001,23.698913574],[110.91168212900001,23.673278809],[110.94067382800002,23.682312012],[110.94909668000001,23.724487305],[110.97369384800001,23.743713379],[110.98107910200001,23.77947998],[110.99792480500001,23.809509277],[111.00549316400001,23.843078613],[111.04632568400001,23.85369873],[111.07208252,23.879699707],[111.09167480500001,23.902526855],[111.11407470700001,23.936523437],[111.13867187500001,23.95892334],[111.17767334000001,23.974914551],[111.19989013700001,23.940124512],[111.22607421900001,23.915527344],[111.25787353500002,23.896728516],[111.29467773400002,23.891479492],[111.32672119100002,23.898681641],[111.36968994100002,23.913085937],[111.38208007800002,23.943725586],[111.37988281200002,23.992675781],[111.36547851600001,24.031921387],[111.37371826200001,24.070922852],[111.39349365200002,24.105712891],[111.42608642600001,24.129272461],[111.45788574200002,24.129089355],[111.45727539100001,24.162902832],[111.46148681600002,24.202270508],[111.49768066400001,24.212280273],[111.53472900400001,24.190307617],[111.56707763700001,24.155517578],[111.56567382800002,24.119873047],[111.55267334000001,24.089477539],[111.53851318400001,24.064086914],[111.53387451200001,24.028503418],[111.55828857400002,24.007324219],[111.58630371100001,23.996520996],[111.62408447300001,23.970275879],[111.63049316400001,23.930908203],[111.628723145,23.897888184],[111.63409423800002,23.866699219],[111.63989257800002,23.852905273],[111.64288330100001,23.856323242],[111.69189453100002,23.858703613],[111.72308349600002,23.844909668],[111.75610351600001,23.833679199],[111.79028320300002,23.83972168],[111.81311035200001,23.860290527],[111.81811523400002,23.876525879],[111.81347656200002,23.897277832],[111.81469726600001,23.93347168],[111.84710693400001,23.95489502],[111.87072753900001,23.961120605],[111.90307617200001,23.967102051],[111.91192627,23.97052002],[111.94049072300001,23.982910156],[111.93652343700002,23.996276855],[111.93572998000002,23.999328613],[111.91552734400001,24.03112793],[111.88751220700001,24.071105957],[111.86712646500001,24.090270996],[111.85968017600001,24.128295898],[111.85687255900001,24.160888672],[111.85607910200001,24.167114258],[111.84851074200002,24.188903809],[111.84289550800001,24.218688965],[111.86370849600002,24.243896484],[111.89929199200002,24.257873535],[111.94891357400002,24.269470215],[111.95129394500002,24.270080566],[111.99291992200001,24.297729492],[112.00970459000001,24.311096191],[112.02648925800001,24.324279785],[112.03070068400001,24.344299316],[112.02227783200001,24.372314453],[112.01672363300001,24.398498535],[112.01391601600001,24.418273926],[111.99169921900001,24.448486328],[111.98529052700002,24.489929199],[111.99652099600002,24.525085449],[111.98968505900001,24.545898437],[111.95251464800002,24.563476562],[111.92810058600001,24.578125],[111.90771484400001,24.603515625],[111.90209960900002,24.62890625],[111.90228271500001,24.648681641],[111.90332031200002,24.663085937],[111.91052246100001,24.694519043],[111.92547607400002,24.710693359],[111.97229003900001,24.739929199],[111.97888183600001,24.746887207],[111.96368408200001,24.76171875],[111.94689941400001,24.773498535],[111.91229248000002,24.768493652],[111.863098145,24.777893066],[111.81372070300002,24.777526855],[111.73492431600002,24.792480469],[111.68432617200001,24.766906738],[111.64172363300001,24.753723145],[111.60192871100001,24.710693359],[111.57232666000002,24.691101074],[111.54052734400001,24.674072266],[111.52868652300002,24.651489258],[111.51330566400001,24.654296875],[111.480285645,24.660095215],[111.46472168000001,24.687072754],[111.46228027300002,24.686279297],[111.42431640600002,24.672912598],[111.40747070300002,24.691894531],[111.44049072300001,24.769287109],[111.42211914100001,24.828918457],[111.41827392600001,24.877502441],[111.42071533200001,24.953308105],[111.43872070300002,24.995483398],[111.41912841800001,25.043273926],[111.41650390600002,25.056091309],[111.41247558600001,25.074890137],[111.38690185500002,25.138916016],[111.34729003900001,25.132873535],[111.32147216800001,25.118530273],[111.27893066400001,25.135681152],[111.27008056600002,25.145690918],[111.21051025400001,25.118896484],[111.16192627,25.079528809],[111.11907959000001,25.039916992],[111.08447265600002,25.016479492],[111.07250976600001,24.976928711],[111.07330322300001,24.952880859]]]}}
