{"type":"Feature","id":"bulk-99377448B84682569078360","bbox":[107.65252685500002,33.677124023,109.80987548800002,34.773498535],"properties":{"id":"bulk-99377448B84682569078360","name":"Xi'an","nameEn":"Xi'an","fullName":"Xi'an","level":"city","boundaryRole":"administrative-extent","boundaryQuality":"generalized-source-2020","boundaryYearRepresented":"2020","bounds":[[107.65252685500002,33.677124023],[109.80987548800002,34.773498535]],"center":[108.73120117150002,34.225311278999996],"centerMethod":"bounding-box midpoint; camera framing only","license":"CC-BY-3.0-IGO","attribution":"geoBoundaries / HDX, China administrative boundaries (2020)","source":{"provider":"geoBoundaries gbHumanitarian / HDX","url":"https://github.com/wmgeolab/geoBoundaries/raw/9469f09/releaseData/gbHumanitarian/CHN/ADM2/geoBoundaries-CHN-ADM2.geojson","metadataUrl":"https://www.geoboundaries.org/api/current/gbHumanitarian/CHN/ADM2/","shapeID":"99377448B84682569078360","shapeName":"Xi'an","boundaryID":"CHN-ADM2-99377448","commit":"9469f09"},"geometryCounts":{"coordinates":137,"components":1,"holes":0},"boundaryNotice":"geoBoundaries / HDX 2020 年行政区数据，海岸和边界经过源数据概化，并非当前测绘成果。"},"geometry":{"type":"Polygon","coordinates":[[[108.82092285200001,33.820129395],[108.86791992200001,33.815490723],[108.89392089800002,33.837524414],[108.93988037100002,33.85168457],[108.98687744100002,33.864685059],[109.01672363300001,33.887512207],[109.04467773400002,33.902099609],[109.10107421900001,33.88067627],[109.13372802700002,33.868713379],[109.21789550800001,33.870483398],[109.27667236300002,33.854675293],[109.31890869100002,33.850524902],[109.37188720700001,33.846130371],[109.42370605500001,33.830688477],[109.47052002,33.836914062],[109.51611328100002,33.852905273],[109.54327392600001,33.871887207],[109.57611084000001,33.89831543],[109.59429931600002,33.930908203],[109.56091308600001,33.949523926],[109.52868652300002,33.971313477],[109.53912353500002,34.002319336],[109.55407714800002,34.035522461],[109.57330322300001,34.06427002],[109.62548828100002,34.087890625],[109.67089843700002,34.094116211],[109.70489502,34.102478027],[109.74169921900001,34.128479004],[109.77349853500002,34.139709473],[109.80987548800002,34.152526855],[109.80847168000001,34.185119629],[109.76708984400001,34.186706543],[109.72772216800001,34.195922852],[109.72210693400001,34.237304687],[109.68029785200001,34.257873535],[109.605285645,34.242492676],[109.55352783200001,34.258483887],[109.50292968700002,34.280273437],[109.45330810500002,34.297912598],[109.41931152300002,34.3203125],[109.43609619100002,34.343322754],[109.45611572300001,34.377685547],[109.43151855500001,34.420288086],[109.39428710900002,34.449279785],[109.38427734400001,34.49029541],[109.38769531200002,34.529724121],[109.40991210900002,34.561706543],[109.42327880900001,34.593078613],[109.42749023400002,34.621276855],[109.41748046900001,34.68347168],[109.41351318400001,34.710083008],[109.41070556600002,34.773498535],[109.37487793000001,34.732116699],[109.33050537100002,34.700500488],[109.29107666000002,34.68347168],[109.25488281200002,34.683288574],[109.21691894500002,34.691894531],[109.16308593700002,34.678283691],[109.14508056600002,34.65032959],[109.13409423800002,34.61932373],[109.11029052700002,34.583679199],[109.06970214800002,34.584472656],[109.02252197300001,34.580322266],[108.98468017600001,34.573303223],[108.95471191400001,34.555114746],[108.96710205100001,34.526489258],[108.97027587900001,34.484130859],[108.96209716800001,34.448120117],[108.96032714800002,34.405517578],[108.91949462900001,34.389282227],[108.87030029300001,34.374084473],[108.83612060500002,34.355895996],[108.80590820300002,34.341674805],[108.78027343700002,34.317871094],[108.75769043000001,34.292724609],[108.72528076200001,34.285888672],[108.67608642600001,34.257324219],[108.63787841800001,34.229125977],[108.60913085900002,34.273681641],[108.55029296900001,34.235473633],[108.51531982400002,34.231079102],[108.45068359400001,34.201293945],[108.38531494100002,34.189880371],[108.35589599600002,34.204101562],[108.32727050800001,34.239685059],[108.26489257800002,34.209899902],[108.21807861300002,34.18347168],[108.18432617200001,34.205078125],[108.14648437500001,34.224304199],[108.10632324200002,34.222473145],[108.04772949200002,34.252075195],[107.99450683600001,34.216491699],[108.01971435500002,34.167114258],[108.01330566400001,34.139099121],[107.98449707000002,34.102294922],[107.95208740200002,34.072875977],[107.92828369100002,34.00567627],[107.91809082000002,33.977478027],[107.87951660200001,33.979125977],[107.84350585900002,33.960693359],[107.81170654300001,33.971679687],[107.76672363300001,33.938110352],[107.70928955100001,33.912902832],[107.69610595700001,33.88092041],[107.70111084000001,33.838317871],[107.67388916000002,33.814086914],[107.65252685500002,33.772705078],[107.67590332000002,33.715698242],[107.74328613300001,33.71307373],[107.79028320300002,33.698913574],[107.81732177700002,33.677124023],[107.85552978500002,33.699707031],[107.86627197300001,33.726074219],[107.90490722700001,33.740905762],[107.95367431600002,33.734313965],[108.00390625000001,33.719482422],[108.04052734400001,33.711914062],[108.09967041000002,33.714294434],[108.15887451200001,33.707702637],[108.19891357400002,33.710876465],[108.24029541000002,33.72869873],[108.27947998000002,33.762084961],[108.32373046900001,33.778503418],[108.36730957000002,33.794311523],[108.38269043000001,33.765686035],[108.42309570300002,33.75769043],[108.44647216800001,33.778930664],[108.47827148400002,33.797302246],[108.51971435500002,33.782897949],[108.55310058600001,33.760681152],[108.59069824200002,33.770324707],[108.61132812500001,33.80291748],[108.64251709000001,33.82208252],[108.703125,33.856079102],[108.73248291000002,33.83770752],[108.76129150400001,33.811889648],[108.82092285200001,33.820129395]]]}}
