{"type":"Feature","id":"bulk-99377448B75769722550982","bbox":[105.45568847700001,30.478088379,106.97967529300001,31.837280273],"properties":{"id":"bulk-99377448B75769722550982","name":"Nanchong","nameEn":"Nanchong","fullName":"Nanchong","level":"city","boundaryRole":"administrative-extent","boundaryQuality":"generalized-source-2020","boundaryYearRepresented":"2020","bounds":[[105.45568847700001,30.478088379],[106.97967529300001,31.837280273]],"center":[106.21768188500002,31.157684326000002],"centerMethod":"bounding-box midpoint; camera framing only","license":"CC-BY-3.0-IGO","attribution":"geoBoundaries / HDX, China administrative boundaries (2020)","source":{"provider":"geoBoundaries gbHumanitarian / HDX","url":"https://github.com/wmgeolab/geoBoundaries/raw/9469f09/releaseData/gbHumanitarian/CHN/ADM2/geoBoundaries-CHN-ADM2.geojson","metadataUrl":"https://www.geoboundaries.org/api/current/gbHumanitarian/CHN/ADM2/","shapeID":"99377448B75769722550982","shapeName":"Nanchong","boundaryID":"CHN-ADM2-99377448","commit":"9469f09"},"geometryCounts":{"coordinates":144,"components":1,"holes":0},"boundaryNotice":"geoBoundaries / HDX 2020 年行政区数据，海岸和边界经过源数据概化，并非当前测绘成果。"},"geometry":{"type":"Polygon","coordinates":[[[106.39752197300001,31.835327148],[106.347473145,31.837280273],[106.30688476600001,31.825317383],[106.27868652300002,31.801696777],[106.25311279300001,31.783691406],[106.21191406200002,31.778930664],[106.18530273400002,31.820678711],[106.12072753900001,31.799316406],[106.12347412100002,31.766723633],[106.10192871100001,31.733886719],[106.06988525400001,31.708496094],[106.04132080100001,31.686279297],[106.00811767600001,31.680725098],[105.97827148400002,31.66809082],[105.93890380900001,31.646728516],[105.91027832000002,31.629882812],[105.86572265600002,31.637878418],[105.85870361300002,31.605712891],[105.82269287100002,31.622497559],[105.80310058600001,31.652282715],[105.79052734400001,31.68572998],[105.78308105500001,31.720275879],[105.74127197300001,31.737487793],[105.72930908200001,31.709472656],[105.71850585900002,31.663696289],[105.70648193400001,31.63269043],[105.70910644500002,31.605712891],[105.65307617200001,31.610473633],[105.61511230500001,31.562072754],[105.57690429700001,31.573303223],[105.53869628900001,31.564697266],[105.503723145,31.575927734],[105.47888183600001,31.555908203],[105.45568847700001,31.533508301],[105.45788574200002,31.503723145],[105.50732421900001,31.439697266],[105.52008056600002,31.407470703],[105.53430175800001,31.381103516],[105.56671142600001,31.376281738],[105.60772705100001,31.385314941],[105.64068603500002,31.389282227],[105.65393066400001,31.357299805],[105.63189697300001,31.328491211],[105.60388183600001,31.307128906],[105.63452148400002,31.279724121],[105.65612793000001,31.256896973],[105.67712402300002,31.231689453],[105.68347168000001,31.186706543],[105.70190429700001,31.159118652],[105.72387695300002,31.137695312],[105.72009277300002,31.105102539],[105.72747802700002,31.064880371],[105.72570800800001,31.02532959],[105.68768310500002,31.006286621],[105.64868164100001,30.993896484],[105.62628173800002,30.966125488],[105.64990234400001,30.943725586],[105.65551757800002,30.915283203],[105.74731445300002,30.899902344],[105.74987793000001,30.851501465],[105.76928710900002,30.824523926],[105.78808593700002,30.791870117],[105.79272460900002,30.763305664],[105.79992675800001,30.725708008],[105.80548095700001,30.692871094],[105.81072998000002,30.663879395],[105.81628418000001,30.632080078],[105.84790039100001,30.627685547],[105.87249755900001,30.60168457],[105.85791015600002,30.573486328],[105.87731933600001,30.541320801],[105.86328125000001,30.507080078],[105.85729980500001,30.478088379],[105.92468261700002,30.485473633],[105.96008300800001,30.488891602],[106.00671386700002,30.491882324],[106.04730224600002,30.49407959],[106.07672119100002,30.517700195],[106.13128662100002,30.538085937],[106.15130615200002,30.56628418],[106.16748046900001,30.592285156],[106.18347168000001,30.634277344],[106.18389892600001,30.672485352],[106.21173095700001,30.699707031],[106.25769043000001,30.687927246],[106.29412841800001,30.700927734],[106.32269287100002,30.687072754],[106.35589599600002,30.707519531],[106.39147949200002,30.691894531],[106.43408203100002,30.710876465],[106.46148681600002,30.746887207],[106.50970459000001,30.75390625],[106.54150390600002,30.730285645],[106.57952880900001,30.749328613],[106.60369873000002,30.769104004],[106.62591552700002,30.799926758],[106.60913085900002,30.831726074],[106.63708496100001,30.84588623],[106.67791748000002,30.842529297],[106.68328857400002,30.87487793],[106.69067382800002,30.908874512],[106.73248291000002,30.920288086],[106.73730468700002,30.958679199],[106.77868652300002,30.966308594],[106.80731201200001,30.979675293],[106.82330322300001,31.017272949],[106.84252929700001,31.049072266],[106.87329101600001,31.080871582],[106.89611816400001,31.100097656],[106.93072509800001,31.12310791],[106.95111084000001,31.151489258],[106.95007324200002,31.184692383],[106.95129394500002,31.22467041],[106.97967529300001,31.268676758],[106.95172119100002,31.314086914],[106.94592285200001,31.341125488],[106.91668701200001,31.358703613],[106.89807128900001,31.381896973],[106.87188720700001,31.399291992],[106.86987304700001,31.433288574],[106.86370849600002,31.461486816],[106.84191894500002,31.491882324],[106.83569335900002,31.531311035],[106.79650878900001,31.536071777],[106.76568603500002,31.546691895],[106.72991943400001,31.563476562],[106.68927002,31.565307617],[106.65191650400001,31.582275391],[106.63812255900001,31.553710937],[106.64447021500001,31.523925781],[106.62371826200001,31.501281738],[106.59167480500001,31.507873535],[106.56390380900001,31.526123047],[106.54187011700002,31.547302246],[106.50030517600001,31.561096191],[106.46771240200002,31.585083008],[106.45629882800002,31.612487793],[106.42791748000002,31.63092041],[106.40930175800001,31.659118652],[106.38409423800002,31.682312012],[106.38171386700002,31.71270752],[106.40411377,31.740905762],[106.39709472700001,31.774902344],[106.39752197300001,31.835327148]]]}}
