{"type":"Feature","id":"bulk-99377448B52855856970340","bbox":[106.57891845700001,21.598693848,108.10369873000002,23.402709961],"properties":{"id":"bulk-99377448B52855856970340","name":"Chongzuo","nameEn":"Chongzuo","fullName":"Chongzuo","level":"city","boundaryRole":"administrative-extent","boundaryQuality":"generalized-source-2020","boundaryYearRepresented":"2020","bounds":[[106.57891845700001,21.598693848],[108.10369873000002,23.402709961]],"center":[107.34130859350002,22.500701904499998],"centerMethod":"bounding-box midpoint; camera framing only","license":"CC-BY-3.0-IGO","attribution":"geoBoundaries / HDX, China administrative boundaries (2020)","source":{"provider":"geoBoundaries gbHumanitarian / HDX","url":"https://github.com/wmgeolab/geoBoundaries/raw/9469f09/releaseData/gbHumanitarian/CHN/ADM2/geoBoundaries-CHN-ADM2.geojson","metadataUrl":"https://www.geoboundaries.org/api/current/gbHumanitarian/CHN/ADM2/","shapeID":"99377448B52855856970340","shapeName":"Chongzuo","boundaryID":"CHN-ADM2-99377448","commit":"9469f09"},"geometryCounts":{"coordinates":304,"components":1,"holes":0},"boundaryNotice":"geoBoundaries / HDX 2020 年行政区数据，海岸和边界经过源数据概化，并非当前测绘成果。"},"geometry":{"type":"Polygon","coordinates":[[[106.68011474600002,22.887084961],[106.68548584000001,22.88470459],[106.69152832000002,22.887695312],[106.70629882800002,22.889099121],[106.71148681600002,22.883117676],[106.71887207000002,22.879272461],[106.71368408200001,22.873718262],[106.71209716800001,22.87109375],[106.73730468700002,22.849121094],[106.76928710900002,22.832702637],[106.796691895,22.816711426],[106.79931640600002,22.819702148],[106.80792236300002,22.821289062],[106.81829834000001,22.8203125],[106.82672119100002,22.81628418],[106.83050537100002,22.81072998],[106.83190918000001,22.805908203],[106.83172607400002,22.804870605],[106.83349609400001,22.804504395],[106.83367919900002,22.79510498],[106.81048584000001,22.738098145],[106.80712890600002,22.737487793],[106.79107666000002,22.735473633],[106.76367187500001,22.682922363],[106.73828125000001,22.631103516],[106.72412109400001,22.605895996],[106.72991943400001,22.602294922],[106.730285645,22.595703125],[106.72711181600002,22.588500977],[106.72088623000002,22.583679199],[106.71771240200002,22.582275391],[106.72729492200001,22.563293457],[106.72967529300001,22.552307129],[106.69927978500002,22.554870605],[106.67309570300002,22.546508789],[106.64367675800001,22.568481445],[106.61730957000002,22.568481445],[106.61108398400002,22.551696777],[106.58807373000002,22.474121094],[106.57891845700001,22.457092285],[106.58392334000001,22.408325195],[106.60510253900001,22.392272949],[106.61547851600001,22.376098633],[106.597473145,22.343078613],[106.60827636700002,22.337890625],[106.61029052700002,22.338317871],[106.61791992200001,22.334899902],[106.62109375000001,22.334106445],[106.63348388700001,22.337890625],[106.63549804700001,22.340270996],[106.64172363300001,22.339294434],[106.65130615200002,22.340270996],[106.65808105500001,22.334716797],[106.65869140600002,22.332092285],[106.65728759800001,22.328918457],[106.65789794900002,22.325317383],[106.66552734400001,22.324279785],[106.68212890600002,22.30267334],[106.68530273400002,22.288879395],[106.68652343700002,22.288513184],[106.68609619100002,22.28527832],[106.68811035200001,22.276916504],[106.70611572300001,22.241516113],[106.69952392600001,22.20892334],[106.70227050800001,22.19732666],[106.70428466800001,22.18951416],[106.70788574200002,22.148925781],[106.72070312500001,22.145690918],[106.70989990200002,22.12487793],[106.72528076200001,22.076477051],[106.71569824200002,22.050109863],[106.70849609400001,21.988708496],[106.71691894500002,21.974121094],[106.71990966800001,21.973327637],[106.72607421900001,21.980712891],[106.72808837900001,21.985107422],[106.72888183600001,21.99230957],[106.73150634800001,22.001708984],[106.73413085900002,22.010681152],[106.74548339800002,22.014892578],[106.75427246100001,22.008300781],[106.76593017600001,22.006286621],[106.77069091800001,22.004089355],[106.78411865200002,22.005126953],[106.78448486300002,22.004089355],[106.78948974600002,22.010070801],[106.81408691400001,21.99987793],[106.83489990200002,21.991271973],[106.86511230500001,21.99230957],[106.88629150400001,22.000488281],[106.90350341800001,21.98248291],[106.91088867200001,21.977478027],[106.91351318400001,21.975524902],[106.91607666000002,21.975708008],[106.91967773400002,21.973876953],[106.92291259800001,21.968688965],[106.92449951200001,21.96307373],[106.92370605500001,21.961303711],[106.92828369100002,21.944274902],[106.93548584000001,21.929870605],[106.94268798800002,21.930725098],[106.94812011700002,21.928894043],[106.95391845700001,21.922912598],[106.95611572300001,21.920471191],[106.97149658200001,21.934692383],[106.98431396500001,21.93548584],[106.98468017600001,21.935913086],[106.98748779300001,21.941894531],[106.98748779300001,21.946472168],[106.98950195300002,21.950317383],[106.99212646500001,21.951477051],[107.00048828100002,21.944885254],[107.00628662100002,21.946472168],[107.02148437500001,21.944274902],[107.02709960900002,21.937072754],[107.03350830100001,21.937927246],[107.03668212900001,21.933898926],[107.04351806600002,21.933288574],[107.07287597700001,21.92590332],[107.06890869100002,21.902526855],[107.05670166000002,21.867919922],[107.02429199200002,21.848327637],[107.02368164100001,21.834472656],[107.06427002,21.81628418],[107.10052490200002,21.808105469],[107.113098145,21.793884277],[107.11767578100002,21.793884277],[107.12249755900001,21.785095215],[107.13568115200002,21.779907227],[107.14312744100002,21.768127441],[107.14788818400001,21.768127441],[107.16467285200001,21.751708984],[107.16851806600002,21.753295898],[107.17547607400002,21.749328613],[107.187316895,21.745727539],[107.19769287100002,21.726318359],[107.20672607400002,21.719726562],[107.21667480500001,21.715087891],[107.22027587900001,21.710510254],[107.22467041000002,21.708679199],[107.230285645,21.707702637],[107.24468994100002,21.707092285],[107.24530029300001,21.707275391],[107.24871826200001,21.710083008],[107.24932861300002,21.717102051],[107.25488281200002,21.721923828],[107.26428222700001,21.728271484],[107.27087402300002,21.731506348],[107.28027343700002,21.735290527],[107.28247070300002,21.732116699],[107.28631591800001,21.73248291],[107.28747558600001,21.737304687],[107.30389404300001,21.742126465],[107.30810546900001,21.730895996],[107.30950927700002,21.729675293],[107.32269287100002,21.731506348],[107.37347412100002,21.661499023],[107.37628173800002,21.642089844],[107.36968994100002,21.603881836],[107.38549804700001,21.598693848],[107.39129638700001,21.602905273],[107.39892578100002,21.610717773],[107.39447021500001,21.616088867],[107.39630127,21.618530273],[107.40771484400001,21.622924805],[107.40869140600002,21.627319336],[107.41711425800001,21.633117676],[107.41607666000002,21.638305664],[107.41809082000002,21.64050293],[107.42431640600002,21.643493652],[107.43212890600002,21.650085449],[107.43811035200001,21.650878906],[107.43969726600001,21.651489258],[107.44488525400001,21.65447998],[107.46148681600002,21.663513184],[107.46551513700001,21.663879395],[107.47088623000002,21.663330078],[107.47351074200002,21.662902832],[107.48272705100001,21.657287598],[107.48309326200001,21.653686523],[107.48352050800001,21.653503418],[107.49652099600002,21.67590332],[107.52307128900001,21.696105957],[107.54571533200001,21.72668457],[107.54071044900002,21.76171875],[107.53527832000002,21.79510498],[107.53387451200001,21.826477051],[107.53210449200002,21.865722656],[107.53570556600002,21.900085449],[107.54547119100002,21.92791748],[107.56188964800002,21.964477539],[107.58489990200002,21.997497559],[107.61212158200001,22.019470215],[107.64208984400001,22.054077148],[107.64508056600002,22.104309082],[107.62249755900001,22.137512207],[107.60992431600002,22.202880859],[107.66351318400001,22.207092285],[107.69909668000001,22.205688477],[107.74468994100002,22.207519531],[107.78308105500001,22.209472656],[107.82751464800002,22.210693359],[107.88092041000002,22.22088623],[107.90869140600002,22.231506348],[107.93652343700002,22.257507324],[107.95947265600002,22.284301758],[107.98828125000001,22.325927734],[108.02551269500002,22.356506348],[108.05169677700002,22.375488281],[108.07928466800001,22.38470459],[108.07409668000001,22.417724609],[108.07452392600001,22.45111084],[108.05987548800002,22.490112305],[108.03210449200002,22.510925293],[108.00292968700002,22.542114258],[107.99029541000002,22.568481445],[107.95947265600002,22.599304199],[107.98370361300002,22.61932373],[108.06152343700002,22.640319824],[108.09228515600002,22.664489746],[108.10369873000002,22.703674316],[108.07147216800001,22.713928223],[108.04968261700002,22.692077637],[108.00091552700002,22.681274414],[107.98571777300002,22.710693359],[107.99627685500002,22.737121582],[108.00872802700002,22.770324707],[108.00531005900001,22.807312012],[107.98132324200002,22.82611084],[107.95587158200001,22.854675293],[107.91992187500001,22.870483398],[107.87487793000001,22.87310791],[107.83911132800002,22.883483887],[107.80987548800002,22.888671875],[107.76849365200002,22.908874512],[107.73590087900001,22.934509277],[107.72631835900002,22.962280273],[107.75628662100002,22.965270996],[107.79248046900001,22.965881348],[107.82348632800002,22.975524902],[107.86047363300001,22.970092773],[107.89410400400001,22.98828125],[107.93212890600002,23.016906738],[107.96112060500002,23.052490234],[107.95532226600001,23.084472656],[107.93389892600001,23.123291016],[107.96270752,23.138671875],[107.99267578100002,23.130310059],[108.03167724600002,23.112670898],[108.07708740200002,23.116516113],[108.07049560500002,23.147094727],[108.05010986300002,23.18371582],[108.01690673800002,23.188476562],[107.98327636700002,23.203918457],[107.95208740200002,23.227905273],[107.92907714800002,23.255493164],[107.87292480500001,23.232116699],[107.86987304700001,23.267883301],[107.84832763700001,23.293273926],[107.84869384800001,23.33190918],[107.82928466800001,23.359924316],[107.81408691400001,23.396484375],[107.78051757800002,23.367492676],[107.73547363300001,23.350280762],[107.69689941400001,23.324279785],[107.65051269500002,23.306274414],[107.60888671900001,23.312316895],[107.57611084000001,23.319702148],[107.56488037100002,23.277099609],[107.56347656200002,23.246520996],[107.53051757800002,23.236694336],[107.49371337900001,23.256530762],[107.4375,23.271484375],[107.40771484400001,23.276916504],[107.36688232400002,23.290283203],[107.33947753900001,23.300476074],[107.32989502,23.328125],[107.33929443400001,23.363891602],[107.32727050800001,23.402709961],[107.26507568400001,23.396484375],[107.24267578100002,23.366882324],[107.22027587900001,23.337280273],[107.19787597700001,23.307678223],[107.17510986300002,23.292724609],[107.12890625000001,23.276916504],[107.08190918000001,23.290283203],[107.05871582000002,23.289489746],[107.01129150400001,23.317321777],[106.98828125000001,23.343688965],[106.93627929700001,23.317687988],[106.91448974600002,23.288085937],[106.90148925800001,23.259277344],[106.84991455100001,23.245117187],[106.82287597700001,23.232116699],[106.78527832000002,23.207519531],[106.76208496100001,23.182922363],[106.75891113300001,23.150512695],[106.80029296900001,23.110290527],[106.79528808600001,23.070922852],[106.76428222700001,23.035705566],[106.730285645,23.002685547],[106.70147705100001,22.974121094],[106.67791748000002,22.942871094],[106.68011474600002,22.887084961]]]}}
