{"type":"Feature","id":"bulk-99377448B66677494475625","bbox":[115.52893066400001,47.046081543,125.98730468700002,53.317504883],"properties":{"id":"bulk-99377448B66677494475625","name":"Hulunbuir","nameEn":"Hulunbuir","fullName":"Hulunbuir","level":"city","boundaryRole":"administrative-extent","boundaryQuality":"generalized-source-2020","boundaryYearRepresented":"2020","bounds":[[115.52893066400001,47.046081543],[125.98730468700002,53.317504883]],"center":[120.75811767550002,50.181793213],"centerMethod":"bounding-box midpoint; camera framing only","license":"CC-BY-3.0-IGO","attribution":"geoBoundaries / HDX, China administrative boundaries (2020)","source":{"provider":"geoBoundaries gbHumanitarian / HDX","url":"https://github.com/wmgeolab/geoBoundaries/raw/9469f09/releaseData/gbHumanitarian/CHN/ADM2/geoBoundaries-CHN-ADM2.geojson","metadataUrl":"https://www.geoboundaries.org/api/current/gbHumanitarian/CHN/ADM2/","shapeID":"99377448B66677494475625","shapeName":"Hulunbuir","boundaryID":"CHN-ADM2-99377448","commit":"9469f09"},"geometryCounts":{"coordinates":1362,"components":1,"holes":0},"boundaryNotice":"geoBoundaries / HDX 2020 年行政区数据，海岸和边界经过源数据概化，并非当前测绘成果。"},"geometry":{"type":"Polygon","coordinates":[[[122.39172363300001,47.325683594],[122.43951416000002,47.383117676],[122.47167968700002,47.413085937],[122.50048828100002,47.483093262],[122.52429199200002,47.524475098],[122.570129395,47.542297363],[122.68310546900001,47.57611084],[122.72448730500001,47.600097656],[122.77911377,47.625488281],[122.85968017600001,47.668273926],[122.87548828100002,47.67791748],[122.94128418000001,47.717529297],[122.99847412100002,47.721496582],[123.14587402300002,47.769104004],[123.23248291000002,47.834106445],[123.23992919900002,47.851501465],[123.26849365200002,47.919677734],[123.28332519500002,47.92767334],[123.31512451200001,47.93927002],[123.40209960900002,47.950500488],[123.49267578100002,47.986877441],[123.56372070300002,48.037475586],[123.62408447300001,48.082092285],[123.64587402300002,48.110107422],[123.67767334000001,48.160095215],[123.75848388700001,48.218078613],[123.81750488300001,48.260925293],[123.88812255900001,48.301696777],[123.97412109400001,48.362670898],[124.03088378900001,48.413879395],[124.10211181600002,48.44909668],[124.16210937500001,48.517089844],[124.24169921900001,48.483886719],[124.25689697300001,48.42767334],[124.24908447300001,48.391906738],[124.25207519500002,48.329528809],[124.26947021500001,48.309509277],[124.30712890600002,48.283874512],[124.34271240200002,48.247680664],[124.355285645,48.206298828],[124.41772460900002,48.145507812],[124.42132568400001,48.086730957],[124.45928955100001,48.137695312],[124.47851562500001,48.201477051],[124.51031494100002,48.223876953],[124.50909423800002,48.293273926],[124.46209716800001,48.400085449],[124.46887207000002,48.432312012],[124.49652099600002,48.484313965],[124.50152587900001,48.556884766],[124.53588867200001,48.590087891],[124.55670166000002,48.635498047],[124.56091308600001,48.704528809],[124.59252929700001,48.748901367],[124.59210205100001,48.796508789],[124.597473145,48.821472168],[124.64532470700001,48.889892578],[124.65148925800001,48.892883301],[124.69671630900001,48.925109863],[124.70690918000001,48.946105957],[124.72192382800002,49.014099121],[124.74652099600002,49.026306152],[124.74249267600001,49.081481934],[124.76489257800002,49.108703613],[124.82971191400001,49.153503418],[124.85272216800001,49.158508301],[124.87792968700002,49.148681641],[124.92529296900001,49.140075684],[124.97131347700001,49.150085449],[125.00769043000001,49.117126465],[125.03289794900002,49.107299805],[125.05511474600002,49.108520508],[125.10449218700002,49.132873535],[125.13928222700001,49.165893555],[125.14831543000001,49.205322266],[125.19287109400001,49.303527832],[125.20031738300001,49.383483887],[125.16632080100001,49.522888184],[125.12731933600001,49.593078613],[125.06768798800002,49.621276855],[125.07092285200001,49.635498047],[125.09570312500001,49.647705078],[125.14007568400001,49.62487793],[125.14807128900001,49.634887695],[125.17248535200001,49.764892578],[125.15130615200002,49.792907715],[125.13208007800002,49.805908203],[125.16412353500002,49.824707031],[125.171691895,49.856872559],[125.14068603500002,49.915283203],[125.14031982400002,49.9375],[125.18408203100002,49.958679199],[125.19989013700001,49.979309082],[125.20831298800002,50.015319824],[125.19989013700001,50.027099609],[125.22589111300002,50.042907715],[125.24829101600001,50.044311523],[125.25091552700002,50.055114746],[125.22027587900001,50.091308594],[125.23010253900001,50.108886719],[125.29931640600002,50.120117187],[125.28527832000002,50.154724121],[125.31292724600002,50.17767334],[125.36047363300001,50.19128418],[125.37188720700001,50.215881348],[125.37591552700002,50.256103516],[125.39648437500001,50.272277832],[125.429504395,50.294677734],[125.44732666000002,50.322509766],[125.45971679700001,50.398681641],[125.49627685500002,50.387512207],[125.50189209000001,50.434875488],[125.57910156200002,50.430480957],[125.63031005900001,50.480712891],[125.68572998000002,50.478515625],[125.72430419900002,50.522521973],[125.73669433600001,50.55090332],[125.71807861300002,50.58972168],[125.71508789100001,50.693725586],[125.68371582000002,50.726501465],[125.74108886700002,50.731689453],[125.76269531200002,50.773681641],[125.80529785200001,50.78771972700001],[125.86688232400002,50.855285645],[125.92810058600001,50.852478027],[125.97790527300002,50.917724609],[125.98510742200001,50.946472168],[125.98730468700002,51.00189209],[125.92852783200001,51.037902832],[125.91430664100001,51.095092773],[125.88488769500002,51.090698242],[125.81970214800002,51.101318359],[125.796691895,51.122314453],[125.76007080100001,51.181884766],[125.72332763700001,51.193115234],[125.68048095700001,51.249694824],[125.61090087900001,51.360900879],[125.51330566400001,51.445495605],[125.46710205100001,51.484680176],[125.41967773400002,51.518310547],[125.35968017600001,51.553283691],[125.32232666000002,51.569091797],[125.29028320300002,51.602294922],[125.25048828100002,51.608886719],[125.20147705100001,51.62512207],[125.14770507800002,51.638916016],[125.12670898400002,51.652099609],[125.06610107400002,51.674072266],[125.03912353500002,51.644104004],[125.02893066400001,51.600524902],[125.02209472700001,51.595703125],[125.01428222700001,51.562072754],[124.96728515600002,51.537902832],[124.91912841800001,51.520324707],[124.88909912100002,51.494506836],[124.89990234400001,51.480285645],[124.90747070300002,51.463684082],[124.89508056600002,51.44732666],[124.85369873000002,51.43371582],[124.81671142600001,51.403076172],[124.77050781200002,51.387084961],[124.71527099600002,51.381286621],[124.67431640600002,51.351074219],[124.65728759800001,51.3203125],[124.60388183600001,51.322692871],[124.53851318400001,51.353088379],[124.49627685500002,51.37951660200001],[124.43652343700002,51.372070312],[124.39727783200001,51.323913574],[124.40087890600002,51.282714844],[124.35968017600001,51.276489258],[124.29028320300002,51.275695801],[124.25567627,51.292907715],[124.20111084000001,51.334289551],[124.14251709000001,51.337890625],[124.08831787100002,51.31048584],[124.06567382800002,51.278320312],[123.99652099600002,51.305114746],[123.96411132800002,51.286682129],[123.91290283200001,51.29888916],[123.86853027300002,51.309509277],[123.84252929700001,51.326721191],[123.78192138700001,51.348083496],[123.67291259800001,51.408874512],[123.63787841800001,51.397277832],[123.61230468700002,51.343078613],[123.578125,51.32208252],[123.51727294900002,51.274719238],[123.40411377,51.241271973],[123.31311035200001,51.204101562],[123.24047851600001,51.215087891],[123.20410156200002,51.251525879],[123.15069580100001,51.280273437],[123.11450195300002,51.25567627],[123.05712890600002,51.265319824],[123.02551269500002,51.297729492],[123.00292968700002,51.332885742],[122.99291992200001,51.346679687],[122.95172119100002,51.35949707],[122.90850830100001,51.377075195],[122.90887451200001,51.412475586],[122.90930175800001,51.430725098],[122.92449951200001,51.46472168],[122.93048095700001,51.508728027],[122.91412353500002,51.547119141],[122.90051269500002,51.577880859],[122.86968994100002,51.629882812],[122.81372070300002,51.677307129],[122.78149414100001,51.715087891],[122.78228759800001,51.748474121],[122.77972412100002,51.778503418],[122.75671386700002,51.8203125],[122.73468017600001,51.845275879],[122.71691894500002,51.87109375],[122.70770263700001,51.904296875],[122.69470214800002,51.946289062],[122.69390869100002,51.985473633],[122.67230224600002,52.056884766],[122.62689209000001,52.110107422],[122.63732910200001,52.12689209],[122.69268798800002,52.145507812],[122.75469970700001,52.169128418],[122.75952148400002,52.207885742],[122.73089599600002,52.236694336],[122.72131347700001,52.246276855],[122.64630127,52.24432373],[122.57568359400001,52.24267578100001],[122.51690673800002,52.250305176],[122.44909668000001,52.233520508],[122.40069580100001,52.264526367],[122.42108154300001,52.296325684],[122.41308593700002,52.329528809],[122.34948730500001,52.327270508],[122.33752441400001,52.399108887],[122.29650878900001,52.43212890600001],[122.26770019500002,52.446716309],[122.203125,52.454711914],[122.17828369100002,52.468688965],[122.14929199200002,52.45892334],[122.12908935500002,52.428894043],[122.10247802700002,52.379699707],[122.06530761700002,52.341674805],[122.046875,52.304870605],[122.02288818400001,52.284484863],[121.99768066400001,52.256713867],[121.93572998000002,52.231872559],[121.85888671900001,52.227478027],[121.81127929700001,52.249084473],[121.78631591800001,52.276123047],[121.74468994100002,52.338684082],[121.72790527300002,52.362915039],[121.72210693400001,52.371276855],[121.71508789100001,52.381103516],[121.64367675800001,52.391296387],[121.52227783200001,52.402282715],[121.44927978500002,52.419921875],[121.41192627,52.443115234],[121.36029052700002,52.49267578100001],[121.33068847700001,52.512512207],[121.29992675800001,52.516723633],[121.26129150400001,52.50189209],[121.21667480500001,52.493896484],[121.20648193400001,52.501281738],[121.20330810500002,52.507080078],[121.24468994100002,52.538513184],[121.30133056600002,52.573486328],[121.35552978500002,52.603881836],[121.40887451200001,52.644714355],[121.44287109400001,52.681274414],[121.47467041000002,52.697509766],[121.52832031200002,52.723327637],[121.56988525400001,52.75390625],[121.60070800800001,52.796325684],[121.62811279300001,52.842712402],[121.66009521500001,52.891723633],[121.67510986300002,52.926086426],[121.70190429700001,52.953918457],[121.74169921900001,52.964904785],[121.77648925800001,52.981872559],[121.78350830100001,52.987915039],[121.80310058600001,53.015319824],[121.80187988300001,53.032287598],[121.76892089800002,53.058288574],[121.73510742200001,53.102905273],[121.68109130900001,53.12487793],[121.63989257800002,53.145690918],[121.61950683600001,53.177124023],[121.60748291000002,53.21472168],[121.55609130900001,53.227905273],[121.51751709000001,53.256103516],[121.47851562500001,53.298278809],[121.46527099600002,53.317504883],[121.34350585900002,53.287475586],[121.21691894500002,53.26428222700001],[121.14251709000001,53.252319336],[121.06347656200002,53.26550293],[120.99548339800002,53.254882812],[120.9375,53.253112793],[120.86828613300001,53.27130127],[120.83032226600001,53.270324707],[120.82147216800001,53.268127441],[120.81988525400001,53.264526367],[120.82067871100001,53.262084961],[120.82708740200002,53.253112793],[120.83789062500001,53.244506836],[120.83447265600002,53.239685059],[120.83392334000001,53.237670898],[120.82910156200002,53.23651123],[120.82348632800002,53.237121582],[120.81768798800002,53.238708496],[120.80987548800002,53.237670898],[120.80432128900001,53.232727051],[120.79968261700002,53.223693848],[120.79229736300002,53.219299316],[120.76330566400001,53.211120605],[120.75549316400001,53.210083008],[120.74328613300001,53.192321777],[120.71087646500001,53.183105469],[120.69488525400001,53.170288086],[120.69549560500002,53.168273926],[120.69567871100001,53.164489746],[120.69708252,53.160522461],[120.695129395,53.153320312],[120.69250488300001,53.148498535],[120.68988037100002,53.145080566],[120.68029785200001,53.140319824],[120.66992187500001,53.137084961],[120.66107177700002,53.13671875],[120.65509033200001,53.13470459],[120.65130615200002,53.128723145],[120.64770507800002,53.11932373],[120.64312744100002,53.110473633],[120.64068603500002,53.106323242],[120.62689209000001,53.101501465],[120.62408447300001,53.100708008],[120.59631347700001,53.08251953100001],[120.52569580100001,53.045288086],[120.50512695300002,53.031677246],[120.50488281200002,53.031494141],[120.50048828100002,53.027709961],[120.49487304700001,53.025085449],[120.45507812500001,52.998718262],[120.41467285200001,52.969482422],[120.41131591800001,52.965270996],[120.40130615200002,52.954101562],[120.38891601600001,52.94708252],[120.38311767600001,52.94592285200001],[120.34710693400001,52.915710449],[120.34710693400001,52.908081055],[120.34088134800001,52.901123047],[120.33508300800001,52.89892578100001],[120.32971191400001,52.897888184],[120.32531738300001,52.897521973],[120.31988525400001,52.892883301],[120.26287841800001,52.84552002],[120.21130371100001,52.814697266],[120.16748046900001,52.796691895],[120.09649658200001,52.782104492],[120.03308105500001,52.760314941],[120.03350830100001,52.759277344],[120.05151367200001,52.739685059],[120.05712890600002,52.725280762],[120.06268310500002,52.712890625],[120.06347656200002,52.706726074],[120.05230712900001,52.689086914],[120.04571533200001,52.681091309],[120.04168701200001,52.669494629],[120.03948974600002,52.663513184],[120.03668212900001,52.657470703],[120.03448486300002,52.651306152],[120.03472900400001,52.64050293],[120.038879395,52.632507324],[120.04071044900002,52.627502441],[120.04309082000002,52.622924805],[120.04351806600002,52.616516113],[120.04608154300001,52.60748291],[120.05029296900001,52.60009765600001],[120.05328369100002,52.594482422],[120.05969238300001,52.591125488],[120.07031250000001,52.58850097700001],[120.08789062500001,52.588684082],[120.10070800800001,52.58972168],[120.11151123000002,52.589904785],[120.13067627,52.589111328],[120.14691162100002,52.587280273],[120.16088867200001,52.58447265600001],[120.17407226600001,52.582275391],[120.18652343700002,52.581726074],[120.19787597700001,52.582885742],[120.22430419900002,52.596130371],[120.24072265600002,52.606506348],[120.25848388700001,52.61328125],[120.28491210900002,52.624084473],[120.29571533200001,52.624694824],[120.30548095700001,52.624511719],[120.31811523400002,52.623474121],[120.33947753900001,52.621276855],[120.37988281200002,52.61932373],[120.38568115200002,52.618103027],[120.39031982400002,52.618286133],[120.39807128900001,52.618103027],[120.40832519500002,52.620483398],[120.43627929700001,52.637878418],[120.44567871100001,52.64251709],[120.46069335900002,52.643493652],[120.47772216800001,52.636901855],[120.49652099600002,52.624328613],[120.51452636700002,52.615905762],[120.52728271500001,52.611877441],[120.54309082000002,52.60748291],[120.55847168000001,52.597717285],[120.57232666000002,52.593078613],[120.59613037100002,52.593078613],[120.60748291000002,52.590515137],[120.61370849600002,52.581481934],[120.61968994100002,52.575683594],[120.63067627,52.572692871],[120.64367675800001,52.571289062],[120.65692138700001,52.567871094],[120.66448974600002,52.564880371],[120.66827392600001,52.562316895],[120.671875,52.560119629],[120.67633056600002,52.555114746],[120.68707275400001,52.548522949],[120.69787597700001,52.54931640600001],[120.70947265600002,52.554321289],[120.72192382800002,52.553527832],[120.73309326200001,52.545898437],[120.73248291000002,52.538330078],[120.72949218700002,52.532470703],[120.71868896500001,52.528076172],[120.68829345700001,52.519897461],[120.68347168000001,52.517883301],[120.68151855500001,52.515319824],[120.68109130900001,52.511474609],[120.68469238300001,52.507080078],[120.69488525400001,52.499511719],[120.69989013700001,52.492126465],[120.69451904300001,52.485107422],[120.69067382800002,52.482299805],[120.67932128900001,52.476074219],[120.67810058600001,52.467895508],[120.67791748000002,52.461914062],[120.68170166000002,52.451293945],[120.68572998000002,52.443481445],[120.68652343700002,52.436889648],[120.68371582000002,52.430725098],[120.68151855500001,52.425720215],[120.67108154300001,52.417724609],[120.66210937500001,52.409912109],[120.65393066400001,52.400695801],[120.65148925800001,52.397521973],[120.64910888700001,52.393676758],[120.64630127,52.39111328100001],[120.64489746100001,52.387512207],[120.64569091800001,52.38092041],[120.64630127,52.370483398],[120.64172363300001,52.36529541],[120.63732910200001,52.364074707],[120.63012695300002,52.363708496],[120.62207031200002,52.362487793],[120.61547851600001,52.35949707],[120.61572265600002,52.354919434],[120.61907959000001,52.351074219],[120.62207031200002,52.34588623],[120.62567138700001,52.33807373],[120.62707519500002,52.321899414],[120.63250732400002,52.31652832],[120.64532470700001,52.30712890600001],[120.66888427700002,52.296875],[120.68469238300001,52.292724609],[120.69390869100002,52.284301758],[120.69689941400001,52.278686523],[120.69787597700001,52.272521973],[120.70788574200002,52.266723633],[120.72509765600002,52.264526367],[120.74310302700002,52.262084961],[120.74847412100002,52.259094238],[120.75091552700002,52.250671387],[120.73852539100001,52.236694336],[120.73510742200001,52.225524902],[120.73510742200001,52.215881348],[120.73748779300001,52.208679199],[120.74432373000002,52.204711914],[120.75012207000002,52.196105957],[120.76049804700001,52.184875488],[120.77648925800001,52.172119141],[120.77929687500001,52.165283203],[120.77447509800001,52.158508301],[120.76672363300001,52.152282715],[120.75671386700002,52.145080566],[120.75671386700002,52.138305664],[120.75988769500002,52.133117676],[120.76232910200001,52.127502441],[120.76330566400001,52.120910645],[120.75952148400002,52.112487793],[120.75347900400001,52.10748291],[120.74768066400001,52.104492187],[120.73712158200001,52.101074219],[120.73272705100001,52.096679687],[120.73687744100002,52.093322754],[120.74530029300001,52.085510254],[120.74468994100002,52.083312988],[120.738098145,52.08190918],[120.73291015600002,52.082885742],[120.72631835900002,52.082275391],[120.72027587900001,52.081298828],[120.71551513700001,52.077880859],[120.70867919900002,52.074523926],[120.69812011700002,52.065124512],[120.68627929700001,52.056274414],[120.67968750000001,52.045898437],[120.67968750000001,52.037902832],[120.68249511700002,52.034729004],[120.70111084000001,52.021484375],[120.71191406200002,52.010681152],[120.71173095700001,52.004699707],[120.71191406200002,52.00012207],[120.70831298800002,51.989501953],[120.69927978500002,51.981323242],[120.68652343700002,51.972717285],[120.66271972700001,51.959899902],[120.65771484400001,51.931091309],[120.64691162100002,51.924926758],[120.61132812500001,51.918273926],[120.60687255900001,51.917480469],[120.59210205100001,51.897521973],[120.53948974600002,51.875671387],[120.480285645,51.866516113],[120.47967529300001,51.855285645],[120.472473145,51.850280762],[120.45288085900002,51.845275879],[120.44207763700001,51.843505859],[120.43328857400002,51.841918945],[120.41790771500001,51.826293945],[120.40252685500002,51.823730469],[120.40728759800001,51.81628418],[120.39068603500002,51.811096191],[120.37768554700001,51.807922363],[120.36907959000001,51.803894043],[120.35913085900002,51.791503906],[120.35131835900002,51.788696289],[120.32830810500002,51.785888672],[120.30670166000002,51.768676758],[120.29931640600002,51.765075684],[120.29187011700002,51.752502441],[120.28051757800002,51.75012207],[120.27471923800002,51.750488281],[120.26867675800001,51.748474121],[120.26470947300001,51.746887207],[120.26049804700001,51.734924316],[120.25708007800002,51.730529785],[120.23071289100001,51.726928711],[120.22570800800001,51.721496582],[120.21472168000001,51.709289551],[120.19769287100002,51.702270508],[120.18988037100002,51.687683105],[120.17889404300001,51.681884766],[120.15692138700001,51.678100586],[120.14929199200002,51.676513672],[120.12969970700001,51.674926758],[120.12847900400001,51.675292969],[120.10668945300002,51.664123535],[120.09527587900001,51.661682129],[120.09832763700001,51.656921387],[120.09552002,51.651916504],[120.08508300800001,51.648498535],[120.06811523400002,51.641479492],[120.05609130900001,51.633911133],[120.05609130900001,51.62487793],[120.04888916000002,51.618896484],[120.04870605500001,51.613525391],[120.04071044900002,51.610473633],[120.04290771500001,51.596496582],[120.038879395,51.590881348],[120.03527832000002,51.588684082],[120.03747558600001,51.584472656],[120.04650878900001,51.579528809],[120.05010986300002,51.573730469],[120.04870605500001,51.57092285200001],[120.04571533200001,51.569274902],[120.04467773400002,51.562316895],[120.04370117200001,51.553710937],[120.03948974600002,51.54888916],[120.02789306600002,51.540710449],[120.02532959000001,51.53527832],[120.01831054700001,51.522521973],[120.00012207000002,51.514099121],[119.99151611300002,51.512695312],[119.98272705100001,51.508117676],[119.980285645,51.506530762],[119.97888183600001,51.505493164],[119.97790527300002,51.50451660200001],[119.97772216800001,51.498901367],[119.97808837900001,51.493286133],[119.97430419900002,51.489318848],[119.97149658200001,51.482727051],[119.97167968700002,51.48107910200001],[119.98229980500001,51.47131347700001],[119.98413085900002,51.467895508],[119.98907470700001,51.464294434],[119.99127197300001,51.460876465],[119.99450683600001,51.458679199],[119.99353027300002,51.452270508],[119.98352050800001,51.445129395],[119.97351074200002,51.439697266],[119.96508789100001,51.434082031],[119.95971679700001,51.429321289],[119.95928955100001,51.424072266],[119.96368408200001,51.420288086],[119.97570800800001,51.414306641],[119.97448730500001,51.407104492],[119.97113037100002,51.405517578],[119.96490478500002,51.395874023],[119.95452880900001,51.394897461],[119.95092773400002,51.394714355],[119.94671630900001,51.37689209],[119.91430664100001,51.366088867],[119.91711425800001,51.364929199],[119.93292236300002,51.36328125],[119.93609619100002,51.36151123],[119.93389892600001,51.355895996],[119.92767334000001,51.352478027],[119.92687988300001,51.351501465],[119.91711425800001,51.348083496],[119.90710449200002,51.346496582],[119.89672851600001,51.344726562],[119.89007568400001,51.341125488],[119.88671875000001,51.339904785],[119.88171386700002,51.336914062],[119.88067627,51.335876465],[119.87908935500002,51.335510254],[119.87469482400002,51.330078125],[119.87689209000001,51.319274902],[119.87530517600001,51.317871094],[119.87530517600001,51.317321777],[119.87927246100001,51.310913086],[119.88049316400001,51.304504395],[119.87707519500002,51.296081543],[119.86889648400002,51.292907715],[119.85589599600002,51.292480469],[119.84710693400001,51.293273926],[119.81072998000002,51.276672363],[119.80670166000002,51.269287109],[119.81951904300001,51.262695312],[119.81988525400001,51.257873535],[119.81152343700002,51.254272461],[119.80169677700002,51.250488281],[119.79730224600002,51.247497559],[119.79467773400002,51.24432373],[119.79412841800001,51.241882324],[119.79431152300002,51.24029541],[119.79730224600002,51.237915039],[119.80389404300001,51.234680176],[119.81030273400002,51.231506348],[119.81750488300001,51.225708008],[119.820129395,51.219482422],[119.81689453100002,51.214294434],[119.80767822300001,51.210083008],[119.80072021500001,51.209716797],[119.79467773400002,51.218505859],[119.78869628900001,51.22088623],[119.78808593700002,51.198486328],[119.77050781200002,51.195678711],[119.76409912100002,51.195678711],[119.76489257800002,51.193725586],[119.77368164100001,51.181518555],[119.77471923800002,51.179077148],[119.78027343700002,51.175292969],[119.78228759800001,51.169921875],[119.78051757800002,51.165527344],[119.77508544900002,51.163513184],[119.76031494100002,51.163513184],[119.75848388700001,51.16229248],[119.76269531200002,51.159484863],[119.76928710900002,51.155700684],[119.77648925800001,51.151489258],[119.77630615200002,51.146484375],[119.76849365200002,51.13848877],[119.76751709000001,51.131896973],[119.76568603500002,51.125671387],[119.75170898400002,51.12170410200001],[119.74792480500001,51.120483398],[119.74749755900001,51.115722656],[119.74792480500001,51.110473633],[119.74731445300002,51.105529785],[119.75347900400001,51.101928711],[119.75848388700001,51.099121094],[119.76110839800002,51.093322754],[119.75891113300001,51.088684082],[119.74328613300001,51.086120605],[119.73852539100001,51.084106445],[119.73748779300001,51.078674316],[119.74011230500001,51.073730469],[119.73211669900002,51.07232666],[119.72467041000002,51.07232666],[119.72369384800001,51.07232666],[119.71990966800001,51.065490723],[119.72113037100002,51.06427002],[119.72308349600002,51.056274414],[119.71691894500002,51.047729492],[119.70812988300001,51.04510498],[119.70507812500001,51.043884277],[119.69250488300001,51.027526855],[119.68170166000002,51.021118164],[119.679504395,51.018920898],[119.67248535200001,51.01550293],[119.65191650400001,51.002929687],[119.62487793000001,50.982116699],[119.58489990200002,50.965698242],[119.58428955100001,50.961914062],[119.58331298800002,50.960510254],[119.58209228500002,50.957092285],[119.57330322300001,50.945495605],[119.56970214800002,50.94128418],[119.56872558600001,50.938720703],[119.56091308600001,50.932312012],[119.55731201200001,50.929077148],[119.55047607400002,50.923278809],[119.54431152300002,50.919494629],[119.53851318400001,50.916503906],[119.53430175800001,50.914306641],[119.52972412100002,50.911499023],[119.51788330100001,50.902709961],[119.51171875000001,50.895507812],[119.50469970700001,50.88928222700001],[119.49932861300002,50.886474609],[119.49688720700001,50.883728027],[119.49310302700002,50.882324219],[119.49108886700002,50.882080078],[119.48870849600002,50.879699707],[119.48767089800002,50.876525879],[119.48712158200001,50.872924805],[119.48791503900001,50.87109375],[119.48828125000001,50.870117187],[119.49151611300002,50.868896484],[119.49389648400002,50.867492676],[119.49572753900001,50.866088867],[119.49652099600002,50.864685059],[119.49829101600001,50.86389160200001],[119.49871826200001,50.847106934],[119.49389648400002,50.844726562],[119.49230957000002,50.840881348],[119.49310302700002,50.836120605],[119.49432373000002,50.831298828],[119.49407959000001,50.825927734],[119.50012207000002,50.821472168],[119.50567627,50.816711426],[119.50549316400001,50.811096191],[119.50549316400001,50.80267334],[119.50769043000001,50.799926758],[119.51788330100001,50.795288086],[119.51867675800001,50.790893555],[119.50628662100002,50.788330078],[119.49609375000001,50.78527832],[119.49627685500002,50.782287598],[119.49810791000002,50.780883789],[119.50189209000001,50.780883789],[119.50488281200002,50.778686523],[119.50451660200001,50.776672363],[119.50109863300001,50.774475098],[119.49353027300002,50.774291992],[119.48828125000001,50.772888184],[119.48828125000001,50.770080566],[119.49230957000002,50.76751709],[119.49792480500001,50.765075684],[119.49871826200001,50.760681152],[119.49987793000001,50.754882812],[119.49731445300002,50.751098633],[119.49310302700002,50.748474121],[119.49291992200001,50.747680664],[119.48632812500001,50.74432373],[119.47711181600002,50.739685059],[119.46887207000002,50.73449707],[119.46527099600002,50.727722168],[119.46069335900002,50.718505859],[119.45532226600001,50.71350097700001],[119.44689941400001,50.712280273],[119.44189453100002,50.708312988],[119.44549560500002,50.701293945],[119.44470214800002,50.694702148],[119.43768310500002,50.688720703],[119.43011474600002,50.68572998],[119.42211914100001,50.687683105],[119.41412353500002,50.6875],[119.40570068400001,50.684875488],[119.39910888700001,50.683288574],[119.39672851600001,50.682495117],[119.39648437500001,50.682495117],[119.39587402300002,50.682128906],[119.38012695300002,50.670471191],[119.38330078100002,50.665710449],[119.38171386700002,50.661315918],[119.37548828100002,50.657470703],[119.36907959000001,50.653076172],[119.36389160200001,50.649475098],[119.35968017600001,50.645507812],[119.35552978500002,50.640075684],[119.35211181600002,50.633728027],[119.34771728500002,50.629089355],[119.34307861300002,50.630493164],[119.34191894500002,50.634521484],[119.33428955100001,50.623291016],[119.30889892600001,50.603271484],[119.29107666000002,50.587524414],[119.28509521500001,50.582885742],[119.28552246100001,50.579528809],[119.28588867200001,50.571289062],[119.27172851600001,50.568725586],[119.26428222700001,50.566711426],[119.26232910200001,50.565307617],[119.26129150400001,50.560302734],[119.26531982400002,50.554870605],[119.27227783200001,50.551696777],[119.27069091800001,50.546081543],[119.26171875000001,50.542114258],[119.25927734400001,50.539123535],[119.25811767600001,50.535888672],[119.25988769500002,50.531311035],[119.26049804700001,50.524902344],[119.25970459000001,50.516479492],[119.25872802700002,50.512084961],[119.25531005900001,50.508911133],[119.25091552700002,50.506286621],[119.24011230500001,50.502685547],[119.23107910200001,50.500915527],[119.22991943400001,50.497680664],[119.23413085900002,50.493286133],[119.24530029300001,50.489501953],[119.25170898400002,50.486877441],[119.25390625000001,50.482299805],[119.25128173800002,50.477294922],[119.25488281200002,50.469482422],[119.25091552700002,50.465698242],[119.24151611300002,50.462524414],[119.23748779300001,50.458129883],[119.24328613300001,50.449279785],[119.24267578100002,50.444091797],[119.23388671900001,50.436889648],[119.22192382800002,50.437072754],[119.21490478500002,50.436706543],[119.21368408200001,50.428710937],[119.20770263700001,50.424682617],[119.203125,50.420715332],[119.20532226600001,50.414672852],[119.20471191400001,50.409729004],[119.20129394500002,50.407897949],[119.195129395,50.410888672],[119.18951416000002,50.41607666],[119.18347168000001,50.417724609],[119.18212890600002,50.415893555],[119.163879395,50.404907227],[119.13708496100001,50.401916504],[119.13671875000001,50.400512695],[119.12988281200002,50.392883301],[119.12371826200001,50.387878418],[119.12072753900001,50.381103516],[119.12432861300002,50.380493164],[119.12768554700001,50.38067627],[119.13470459000001,50.383300781],[119.14172363300001,50.384277344],[119.14569091800001,50.382080078],[119.14849853500002,50.375671387],[119.16290283200001,50.377685547],[119.16607666000002,50.37689209],[119.16711425800001,50.374694824],[119.15069580100001,50.362121582],[119.15148925800001,50.358276367],[119.16967773400002,50.35949707],[119.18432617200001,50.361083984],[119.1875,50.360473633],[119.18212890600002,50.354309082],[119.17510986300002,50.349914551],[119.17547607400002,50.346679687],[119.18292236300002,50.345703125],[119.19171142600001,50.348510742],[119.20288085900002,50.357910156],[119.21130371100001,50.362915039],[119.21929931600002,50.363525391],[119.22570800800001,50.361694336],[119.22790527300002,50.358703613],[119.22808837900001,50.348876953],[119.22790527300002,50.342102051],[119.23388671900001,50.338928223],[119.24450683600001,50.338684082],[119.25170898400002,50.344726562],[119.25671386700002,50.352722168],[119.26049804700001,50.356689453],[119.26672363300001,50.360290527],[119.27227783200001,50.359924316],[119.27868652300002,50.357116699],[119.28271484400001,50.353515625],[119.28771972700001,50.349487305],[119.29107666000002,50.341308594],[119.29248046900001,50.340698242],[119.296691895,50.340087891],[119.30047607400002,50.342102051],[119.29888916000002,50.351318359],[119.29949951200001,50.35369873],[119.30529785200001,50.353515625],[119.31152343700002,50.350891113],[119.32452392600001,50.359924316],[119.33050537100002,50.359313965],[119.33868408200001,50.353515625],[119.35089111300002,50.357116699],[119.35552978500002,50.356506348],[119.35491943400001,50.351501465],[119.35992431600002,50.348083496],[119.35247802700002,50.34387207],[119.36248779300001,50.33770752],[119.35888671900001,50.332519531],[119.34948730500001,50.329101562],[119.35168457000002,50.324279785],[119.36187744100002,50.321716309],[119.37731933600001,50.323486328],[119.37951660200001,50.321105957],[119.37689209000001,50.317687988],[119.36712646500001,50.313476562],[119.36151123000002,50.310119629],[119.35791015600002,50.307495117],[119.34332275400001,50.302490234],[119.33691406200002,50.299499512],[119.33868408200001,50.292480469],[119.33831787100002,50.28692627],[119.33392334000001,50.285095215],[119.32232666000002,50.284118652],[119.31628418000001,50.281921387],[119.32250976600001,50.277526855],[119.32708740200002,50.274475098],[119.32928466800001,50.270874023],[119.32250976600001,50.264526367],[119.32611084000001,50.262084961],[119.33990478500002,50.258300781],[119.34271240200002,50.256103516],[119.33007812500001,50.254882812],[119.32531738300001,50.252502441],[119.32751464800002,50.249694824],[119.33007812500001,50.246276855],[119.32470703100002,50.241699219],[119.31628418000001,50.239074707],[119.31469726600001,50.235900879],[119.31188964800002,50.232910156],[119.31207275400001,50.226318359],[119.31091308600001,50.223083496],[119.31268310500002,50.220092773],[119.31488037100002,50.217285156],[119.31951904300001,50.215515137],[119.32592773400002,50.211120605],[119.33172607400002,50.208129883],[119.33947753900001,50.203918457],[119.34588623000002,50.200500488],[119.35607910200001,50.19732666],[119.35827636700002,50.194885254],[119.34930419900002,50.19152832],[119.33673095700001,50.189880371],[119.33050537100002,50.184692383],[119.32971191400001,50.179321289],[119.33569335900002,50.174316406],[119.34191894500002,50.17010498],[119.34167480500001,50.165893555],[119.32489013700001,50.165893555],[119.31451416000002,50.16607666],[119.30932617200001,50.163085937],[119.30828857400002,50.161071777],[119.31347656200002,50.155883789],[119.31488037100002,50.150512695],[119.31408691400001,50.146911621],[119.31072998000002,50.144470215],[119.30627441400001,50.14251709],[119.30169677700002,50.141296387],[119.29608154300001,50.141113281],[119.288879395,50.141479492],[119.28771972700001,50.13848877],[119.28747558600001,50.136291504],[119.28808593700002,50.133728027],[119.28649902300002,50.129272461],[119.28948974600002,50.125671387],[119.288879395,50.120727539],[119.28967285200001,50.115905762],[119.28729248000002,50.112915039],[119.28710937500001,50.110900879],[119.27929687500001,50.111877441],[119.27008056600002,50.115478516],[119.26409912100002,50.115112305],[119.26208496100001,50.108886719],[119.25689697300001,50.105712891],[119.24987793000001,50.104919434],[119.24511718700002,50.102905273],[119.24432373000002,50.095092773],[119.23510742200001,50.091918945],[119.23291015600002,50.086303711],[119.23309326200001,50.079284668],[119.23107910200001,50.075317383],[119.22369384800001,50.073730469],[119.21929931600002,50.077087402],[119.21612548800002,50.082092285],[119.20892334000001,50.077514648],[119.17669677700002,50.07232666],[119.18011474600002,50.070129395],[119.18511962900001,50.067321777],[119.18347168000001,50.06427002],[119.17791748000002,50.063476562],[119.17272949200002,50.05847168],[119.171691895,50.055725098],[119.16851806600002,50.053710937],[119.16748046900001,50.049499512],[119.16528320300002,50.046081543],[119.16351318400001,50.042724609],[119.16168212900001,50.040283203],[119.16070556600002,50.039306641],[119.15789794900002,50.038330078],[119.15551757800002,50.034484863],[119.15887451200001,50.026489258],[119.15588378900001,50.022705078],[119.14727783200001,50.028076172],[119.13830566400001,50.032287598],[119.13311767600001,50.029724121],[119.13348388700001,50.02532959],[119.13287353500002,50.021118164],[119.11950683600001,50.021911621],[119.11389160200001,50.019287109],[119.11352539100001,50.009887695],[119.11010742200001,50.004699707],[119.09967041000002,49.99987793],[119.08947753900001,49.996276855],[119.08068847700001,49.99407959],[119.07049560500002,49.99432373],[119.06188964800002,49.994689941],[119.05908203100002,49.99230957],[119.05371093700002,49.989685059],[119.05212402300002,49.98828125],[119.05108642600001,49.985290527],[119.04632568400001,49.985900879],[119.02447509800001,49.974914551],[118.93969726600001,49.968505859],[118.84808349600002,49.964477539],[118.82568359400001,49.942504883],[118.74572753900001,49.928527832],[118.67309570300002,49.9296875],[118.58551025400001,49.923278809],[118.55468750000001,49.918884277],[118.55847168000001,49.915100098],[118.55792236300002,49.912475586],[118.55328369100002,49.911315918],[118.54772949200002,49.911682129],[118.54168701200001,49.910522461],[118.54351806600002,49.907470703],[118.54907226600001,49.906311035],[118.55371093700002,49.903076172],[118.54992675800001,49.901489258],[118.54888916000002,49.901916504],[118.53607177700002,49.902282715],[118.53009033200001,49.903076172],[118.52508544900002,49.90411377],[118.52490234400001,49.901123047],[118.52770996100001,49.897521973],[118.53308105500001,49.895080566],[118.53350830100001,49.893127441],[118.52770996100001,49.889709473],[118.52569580100001,49.887512207],[118.52148437500001,49.886901855],[118.51171875000001,49.881530762],[118.50170898400002,49.878479004],[118.48748779300001,49.878479004],[118.48291015600002,49.876525879],[118.48010253900001,49.86932373],[118.48632812500001,49.863098145],[118.48767089800002,49.858886719],[118.48248291000002,49.855895996],[118.48071289100001,49.852294922],[118.48968505900001,49.847473145],[118.49011230500001,49.84387207],[118.48168945300002,49.843078613],[118.472473145,49.842529297],[118.46850585900002,49.841125488],[118.47027587900001,49.836914062],[118.47607421900001,49.834289551],[118.47827148400002,49.832275391],[118.47827148400002,49.829528809],[118.47552490200002,49.827270508],[118.46588134800001,49.826293945],[118.46087646500001,49.828308105],[118.45269775400001,49.838317871],[118.44592285200001,49.839294434],[118.445129395,49.83807373],[118.43029785200001,49.819519043],[118.37811279300001,49.825927734],[118.37707519500002,49.825927734],[118.37731933600001,49.824890137],[118.38128662100002,49.820922852],[118.39508056600002,49.813476562],[118.39508056600002,49.808898926],[118.38708496100001,49.805114746],[118.37408447300001,49.803100586],[118.38189697300001,49.798095703],[118.38787841800001,49.792907715],[118.38287353500002,49.79309082],[118.37329101600001,49.792907715],[118.36688232400002,49.793273926],[118.36450195300002,49.792480469],[118.36352539100001,49.790893555],[118.37591552700002,49.784729004],[118.37731933600001,49.783325195],[118.37548828100002,49.782104492],[118.36248779300001,49.781677246],[118.35388183600001,49.781921387],[118.35107421900001,49.780517578],[118.34869384800001,49.777526855],[118.34710693400001,49.775085449],[118.34667968700002,49.774475098],[118.34271240200002,49.774902344],[118.33770752,49.778503418],[118.33447265600002,49.778503418],[118.33251953100002,49.778320312],[118.33148193400001,49.774108887],[118.33087158200001,49.768127441],[118.32830810500002,49.767883301],[118.32690429700001,49.768310547],[118.30487060500002,49.75012207],[118.27612304700001,49.746276855],[118.25567627,49.743530273],[118.25189209000001,49.736694336],[118.24530029300001,49.736083984],[118.24029541000002,49.737121582],[118.23571777300002,49.740112305],[118.23492431600002,49.740478516],[118.22747802700002,49.739501953],[118.22711181600002,49.739074707],[118.22827148400002,49.73248291],[118.22869873000002,49.723083496],[118.22528076200001,49.719116211],[118.21929931600002,49.717529297],[118.20831298800002,49.717102051],[118.20690918000001,49.715270996],[118.21331787100002,49.709472656],[118.21051025400001,49.70489502],[118.20391845700001,49.696289062],[118.19592285200001,49.688903809],[118.18988037100002,49.684082031],[118.18389892600001,49.685302734],[118.18267822300001,49.689880371],[118.17907714800002,49.692504883],[118.17572021500001,49.692504883],[118.17291259800001,49.689880371],[118.16870117200001,49.681518555],[118.16229248000002,49.676879883],[118.15948486300002,49.673522949],[118.15771484400001,49.664123535],[118.15209960900002,49.661071777],[118.14288330100001,49.66192627],[118.13830566400001,49.664123535],[118.13391113300001,49.659912109],[118.11090087900001,49.657897949],[118.11071777300002,49.656677246],[118.10748291000002,49.653686523],[118.09930419900002,49.65447998],[118.09790039100001,49.652282715],[118.09869384800001,49.642883301],[118.09490966800001,49.640686035],[118.09088134800001,49.638122559],[118.08447265600002,49.634277344],[118.08129882800002,49.628295898],[118.07849121100001,49.623901367],[118.07391357400002,49.61907959],[118.06848144500002,49.618286133],[118.06610107400002,49.617675781],[118.06329345700001,49.617919922],[118.06188964800002,49.617919922],[118.05871582000002,49.618103027],[118.05590820300002,49.617675781],[118.05432128900001,49.61730957],[118.04827880900001,49.616882324],[118.04107666000002,49.615905762],[118.03747558600001,49.616271973],[118.03527832000002,49.616699219],[118.02148437500001,49.616699219],[118.01989746100001,49.616271973],[118.01831054700001,49.616699219],[118.01727294900002,49.616882324],[118.01550293000001,49.616882324],[118.01428222700001,49.617126465],[118.00848388700001,49.617492676],[117.99731445300002,49.608520508],[117.97332763700001,49.606872559],[117.94549560500002,49.603881836],[117.94287109400001,49.602478027],[117.93328857400002,49.600708008],[117.92687988300001,49.60168457],[117.90252685500002,49.599121094],[117.90209960900002,49.598876953],[117.90130615200002,49.598876953],[117.89868164100001,49.598693848],[117.85772705100001,49.583679199],[117.85772705100001,49.583129883],[117.85388183600001,49.574890137],[117.84069824200002,49.56829834],[117.83471679700001,49.563903809],[117.84252929700001,49.559875488],[117.84692382800002,49.55670166],[117.84289550800001,49.55291748],[117.83587646500001,49.54888916],[117.83447265600002,49.548095703],[117.83050537100002,49.542724609],[117.82287597700001,49.538330078],[117.81488037100002,49.533691406],[117.81207275400001,49.526306152],[117.80810546900001,49.520690918],[117.80310058600001,49.519104004],[117.80249023400002,49.519287109],[117.78088378900001,49.526306152],[117.76892089800002,49.518127441],[117.74108886700002,49.49029541],[117.70349121100001,49.505493164],[117.66088867200001,49.521484375],[117.58331298800002,49.549316406],[117.54827880900001,49.586303711],[117.50207519500002,49.59588623],[117.45147705100001,49.605712891],[117.36853027300002,49.609680176],[117.31689453100002,49.607299805],[117.304504395,49.60748291],[117.26269531200002,49.608093262],[117.20892334000001,49.612304687],[117.18469238300001,49.621887207],[117.11907959000001,49.632080078],[117.05010986300002,49.651916504],[117.00030517600001,49.68371582],[116.96191406200002,49.717895508],[116.91888427700002,49.734680176],[116.83087158200001,49.760681152],[116.75927734400001,49.798095703],[116.70367431600002,49.824523926],[116.03991699200002,48.862121582],[116.07391357400002,48.815673828],[115.78369140600002,48.514892578],[115.81268310500002,48.257324219],[115.66088867200001,48.193481445],[115.65887451200001,48.192321777],[115.65447998000002,48.190917969],[115.52893066400001,48.138122559],[115.54107666000002,48.123718262],[115.52893066400001,48.107299805],[115.53308105500001,48.070129395],[115.52893066400001,48.053710937],[115.55969238300001,47.926086426],[115.92028808600001,47.699279785],[115.93432617200001,47.71472168],[115.97387695300002,47.75189209],[116.01287841800001,47.784301758],[116.05072021500001,47.798278809],[116.08172607400002,47.815490723],[116.10052490200002,47.821105957],[116.11730957000002,47.835693359],[116.24688720700001,47.884887695],[116.42791748000002,47.850097656],[116.67907714800002,47.901489258],[116.84368896500001,47.903503418],[117.06567382800002,47.835693359],[117.35711669900002,47.660095215],[117.39807128900001,47.69152832],[117.42407226600001,47.712524414],[117.47729492200001,47.765686035],[117.58447265600002,47.853881836],[117.60308837900001,47.879882812],[117.63952636700002,47.902099609],[117.66668701200001,47.929077148],[117.71289062500001,47.967285156],[117.72851562500001,47.972900391],[117.72967529300001,47.973083496],[117.79010009800001,48.022888184],[117.87231445300002,48.03527832],[117.92590332000002,48.020874023],[118.038879395,48.022888184],[118.17071533200001,48.064086914],[118.27728271500001,48.019470215],[118.33612060500002,48.033325195],[118.41308593700002,48.022521973],[118.46569824200002,47.991699219],[118.48413085900002,47.999511719],[118.56127929700001,47.994873047],[118.76812744100002,47.772705078],[119.12152099600002,47.656921387],[119.14471435500002,47.521118164],[119.36071777300002,47.479492187],[119.33587646500001,47.451721191],[119.33752441400001,47.437683105],[119.37908935500002,47.389892578],[119.41772460900002,47.377502441],[119.46252441400001,47.334289551],[119.49908447300001,47.316101074],[119.56390380900001,47.319519043],[119.63031005900001,47.358093262],[119.67669677700002,47.375488281],[119.71490478500002,47.387084961],[119.74609375000001,47.404724121],[119.78912353500002,47.44329834],[119.81567382800002,47.464294434],[119.86529541000002,47.480102539],[119.92547607400002,47.476501465],[119.98327636700002,47.486083984],[120.03808593700002,47.504272461],[120.09332275400001,47.527099609],[120.12170410200001,47.56048584],[120.17028808600001,47.556091309],[120.20989990200002,47.567871094],[120.24249267600001,47.591308594],[120.27911377,47.569885254],[120.31390380900001,47.541503906],[120.35467529300001,47.524475098],[120.39587402300002,47.509094238],[120.47467041000002,47.495300293],[120.53149414100001,47.489074707],[120.57250976600001,47.482910156],[120.56268310500002,47.454284668],[120.57208252,47.426086426],[120.61511230500001,47.390319824],[120.65112304700001,47.370483398],[120.68670654300001,47.344299316],[120.69671630900001,47.317504883],[120.66369628900001,47.278320312],[120.62347412100002,47.26348877],[120.58508300800001,47.237304687],[120.59667968700002,47.1953125],[120.63891601600001,47.186706543],[120.70428466800001,47.180114746],[120.73767089800002,47.164306641],[120.79107666000002,47.144897461],[120.86370849600002,47.125488281],[120.89611816400001,47.108886719],[120.94531250000001,47.088500977],[120.988098145,47.083312988],[121.03509521500001,47.089294434],[121.09191894500002,47.096679687],[121.13848877,47.090881348],[121.19970703100002,47.084899902],[121.26232910200001,47.046081543],[121.29431152300002,47.079284668],[121.34167480500001,47.070678711],[121.37432861300002,47.086914062],[121.39868164100001,47.11151123],[121.46710205100001,47.123474121],[121.50872802700002,47.118713379],[121.55987548800002,47.111694336],[121.60308837900001,47.11529541],[121.62109375000001,47.149902344],[121.64709472700001,47.187683105],[121.68292236300002,47.202697754],[121.73590087900001,47.207519531],[121.79571533200001,47.196899414],[121.82727050800001,47.1796875],[121.88031005900001,47.178283691],[121.93249511700002,47.166870117],[121.98571777300002,47.151123047],[122.03869628900001,47.134094238],[122.08551025400001,47.150878906],[122.128723145,47.168701172],[122.17633056600002,47.181518555],[122.22290039100001,47.202514648],[122.24688720700001,47.236083984],[122.27471923800002,47.261901855],[122.31488037100002,47.271484375],[122.39172363300001,47.325683594]]]}}
