{"type":"Feature","id":"bulk-99377448B13699173265798","bbox":[105.14807128900001,27.68170166,106.37768554700001,29.322692871],"properties":{"id":"bulk-99377448B13699173265798","name":"Luzhou","nameEn":"Luzhou","fullName":"Luzhou","level":"city","boundaryRole":"administrative-extent","boundaryQuality":"generalized-source-2020","boundaryYearRepresented":"2020","bounds":[[105.14807128900001,27.68170166],[106.37768554700001,29.322692871]],"center":[105.76287841800001,28.5021972655],"centerMethod":"bounding-box midpoint; camera framing only","license":"CC-BY-3.0-IGO","attribution":"geoBoundaries / HDX, China administrative boundaries (2020)","source":{"provider":"geoBoundaries gbHumanitarian / HDX","url":"https://github.com/wmgeolab/geoBoundaries/raw/9469f09/releaseData/gbHumanitarian/CHN/ADM2/geoBoundaries-CHN-ADM2.geojson","metadataUrl":"https://www.geoboundaries.org/api/current/gbHumanitarian/CHN/ADM2/","shapeID":"99377448B13699173265798","shapeName":"Luzhou","boundaryID":"CHN-ADM2-99377448","commit":"9469f09"},"geometryCounts":{"coordinates":203,"components":1,"holes":0},"boundaryNotice":"geoBoundaries / HDX 2020 年行政区数据，海岸和边界经过源数据概化，并非当前测绘成果。"},"geometry":{"type":"Polygon","coordinates":[[[105.41290283200001,29.322692871],[105.36450195300002,29.283874512],[105.33532714800002,29.265075684],[105.31127929700001,29.24029541],[105.29187011700002,29.208679199],[105.27667236300002,29.184875488],[105.25970459000001,29.152709961],[105.24468994100002,29.117492676],[105.22808837900001,29.090515137],[105.20452880900001,29.07208252],[105.19927978500002,29.036071777],[105.23431396500001,29.022521973],[105.27191162100002,29.011901855],[105.28051757800002,28.983886719],[105.28051757800002,28.950500488],[105.24029541000002,28.94128418],[105.19909668000001,28.934692383],[105.16467285200001,28.950500488],[105.15747070300002,28.916687012],[105.21667480500001,28.848693848],[105.24450683600001,28.79107666],[105.23449707000002,28.76348877],[105.20648193400001,28.737304687],[105.195129395,28.710876465],[105.19567871100001,28.662109375],[105.17510986300002,28.635314941],[105.15808105500001,28.604675293],[105.16870117200001,28.579284668],[105.18988037100002,28.555114746],[105.21069335900002,28.516479492],[105.22570800800001,28.484313965],[105.24188232400002,28.461303711],[105.28051757800002,28.414916992],[105.30950927700002,28.371520996],[105.33312988300001,28.338684082],[105.33508300800001,28.29888916],[105.32830810500002,28.272277832],[105.32330322300001,28.24407959],[105.31811523400002,28.211120605],[105.33929443400001,28.182312012],[105.35552978500002,28.155883789],[105.34368896500001,28.127929687],[105.30249023400002,28.124511719],[105.25988769500002,28.110473633],[105.23492431600002,28.085876465],[105.20947265600002,28.068725586],[105.14807128900001,28.055297852],[105.17272949200002,28.033691406],[105.18951416000002,28.00567627],[105.21307373000002,28.008483887],[105.27752685500002,28.028320312],[105.296691895,27.977111816],[105.28668212900001,27.918273926],[105.26110839800002,27.879699707],[105.26947021500001,27.838684082],[105.33789062500001,27.840698242],[105.33831787100002,27.813903809],[105.29968261700002,27.770080566],[105.27148437500001,27.724304199],[105.27069091800001,27.723083496],[105.28332519500002,27.716491699],[105.33227539100001,27.711914062],[105.34387207000002,27.710876465],[105.38287353500002,27.725891113],[105.39190673800002,27.730712891],[105.42547607400002,27.75189209],[105.47668457000002,27.769104004],[105.51531982400002,27.749328613],[105.52728271500001,27.746887207],[105.53607177700002,27.732910156],[105.56091308600001,27.72668457],[105.57830810500002,27.705871582],[105.59472656200002,27.706481934],[105.61132812500001,27.700073242],[105.63568115200002,27.700927734],[105.65228271500001,27.694519043],[105.69372558600001,27.68170166],[105.72631835900002,27.682922363],[105.74230957000002,27.690673828],[105.75012207000002,27.698120117],[105.76568603500002,27.71307373],[105.79010009800001,27.713928223],[105.79791259800001,27.721496582],[105.81408691400001,27.722106934],[105.83068847700001,27.715515137],[105.855285645,27.716308594],[105.85552978500002,27.709289551],[105.86370849600002,27.709472656],[105.87152099600002,27.716918945],[105.87969970700001,27.717285156],[105.89312744100002,27.717712402],[105.89587402300002,27.717895508],[105.90112304700001,27.739685059],[105.93530273400002,27.747924805],[105.97711181600002,27.727905273],[106.00891113300001,27.743286133],[106.08227539100001,27.745910645],[106.08172607400002,27.760070801],[106.08947753900001,27.767700195],[106.097473145,27.767883301],[106.09729003900001,27.775085449],[106.10552978500002,27.77532959],[106.12127685500002,27.783081055],[106.13812255900001,27.776489258],[106.15527343700002,27.755493164],[106.17968750000001,27.756286621],[106.19671630900001,27.742675781],[106.253723145,27.744506836],[106.27752685500002,27.75970459],[106.29510498000002,27.77331543],[106.33807373000002,27.830505371],[106.31927490200002,27.883728027],[106.32128906200002,27.93572998],[106.29132080100001,27.989501953],[106.25030517600001,28.012329102],[106.25848388700001,28.035095215],[106.25830078100002,28.112670898],[106.16247558600001,28.147277832],[106.09448242200001,28.129882812],[105.99572753900001,28.091491699],[105.94451904300001,28.134521484],[105.87951660200001,28.141113281],[105.86248779300001,28.195129395],[105.86511230500001,28.228515625],[105.83709716800001,28.256103516],[105.81872558600001,28.280273437],[105.80731201200001,28.295288086],[105.77947998000002,28.317504883],[105.72668457000002,28.285095215],[105.69409179700001,28.261474609],[105.68231201200001,28.268493652],[105.64532470700001,28.290100098],[105.63488769500002,28.350708008],[105.65191650400001,28.402282715],[105.65789794900002,28.424926758],[105.62469482400002,28.468078613],[105.62371826200001,28.469299316],[105.62707519500002,28.505310059],[105.66467285200001,28.53527832],[105.68011474600002,28.576293945],[105.72271728500002,28.612670898],[105.80828857400002,28.613098145],[105.90008544900002,28.610290527],[105.89050293000001,28.681518555],[105.96148681600002,28.751098633],[105.98071289100001,28.75970459],[106.00408935500002,28.74810791],[106.00109863300001,28.722106934],[106.03808593700002,28.705322266],[106.06268310500002,28.683898926],[106.08068847700001,28.654907227],[106.10748291000002,28.63067627],[106.13909912100002,28.639099121],[106.17889404300001,28.62689209],[106.18188476600001,28.602905273],[106.21990966800001,28.562927246],[106.24151611300002,28.540283203],[106.25268554700001,28.53729248],[106.28948974600002,28.526672363],[106.29510498000002,28.491088867],[106.33929443400001,28.469299316],[106.37408447300001,28.49810791],[106.37768554700001,28.521728516],[106.32409668000001,28.542114258],[106.32910156200002,28.576721191],[106.32647705100001,28.604492187],[106.31469726600001,28.630493164],[106.31109619100002,28.659912109],[106.30609130900001,28.690490723],[106.29510498000002,28.729309082],[106.27270507800002,28.752685547],[106.25030517600001,28.77911377],[106.25750732400002,28.809692383],[106.25311279300001,28.841125488],[106.21429443400001,28.868713379],[106.17633056600002,28.895874023],[106.14068603500002,28.899902344],[106.09991455100001,28.892700195],[106.0625,28.897705078],[106.04327392600001,28.925292969],[106.01208496100001,28.938476562],[105.98388671900001,28.952697754],[105.95050048800002,28.934509277],[105.91912841800001,28.918273926],[105.91149902300002,28.891723633],[105.87628173800002,28.894897461],[105.83288574200002,28.903686523],[105.796875,28.922119141],[105.78631591800001,28.948303223],[105.74987793000001,29.011474609],[105.75952148400002,29.040100098],[105.73132324200002,29.06427002],[105.71868896500001,29.12487793],[105.71368408200001,29.153076172],[105.70611572300001,29.18347168],[105.70367431600002,29.21307373],[105.71087646500001,29.260681152],[105.64929199200002,29.239929199],[105.63848877,29.269287109],[105.57147216800001,29.271484375],[105.52490234400001,29.265075684],[105.48931884800001,29.277709961],[105.41290283200001,29.322692871]]]}}
