{"type":"Feature","id":"bulk-99377448B87075338236899","bbox":[107.18890380900001,36.815917969,111.25231933600001,39.580688477],"properties":{"id":"bulk-99377448B87075338236899","name":"Yulin","nameEn":"Yulin","fullName":"Yulin","level":"city","boundaryRole":"administrative-extent","boundaryQuality":"generalized-source-2020","boundaryYearRepresented":"2020","bounds":[[107.18890380900001,36.815917969],[111.25231933600001,39.580688477]],"center":[109.22061157250002,38.198303222999996],"centerMethod":"bounding-box midpoint; camera framing only","license":"CC-BY-3.0-IGO","attribution":"geoBoundaries / HDX, China administrative boundaries (2020)","source":{"provider":"geoBoundaries gbHumanitarian / HDX","url":"https://github.com/wmgeolab/geoBoundaries/raw/9469f09/releaseData/gbHumanitarian/CHN/ADM2/geoBoundaries-CHN-ADM2.geojson","metadataUrl":"https://www.geoboundaries.org/api/current/gbHumanitarian/CHN/ADM2/","shapeID":"99377448B87075338236899","shapeName":"Yulin","boundaryID":"CHN-ADM2-99377448","commit":"9469f09"},"geometryCounts":{"coordinates":321,"components":1,"holes":0},"boundaryNotice":"geoBoundaries / HDX 2020 年行政区数据，海岸和边界经过源数据概化，并非当前测绘成果。"},"geometry":{"type":"Polygon","coordinates":[[[110.90307617200001,38.713500977],[110.91131591800001,38.725708008],[110.93988037100002,38.759277344],[110.95269775400001,38.808288574],[110.97772216800001,38.851074219],[110.98608398400002,38.878479004],[110.97009277300002,38.897094727],[110.95849609400001,38.946105957],[110.97088623000002,38.970703125],[111.06909179700001,39.003479004],[111.11047363300001,39.055297852],[111.12750244100002,39.104309082],[111.13610839800002,39.131896973],[111.16168212900001,39.208312988],[111.17431640600002,39.235717773],[111.25231933600001,39.262695312],[111.24029541000002,39.284301758],[111.17510986300002,39.287902832],[111.20452880900001,39.34588623],[111.11431884800001,39.328308105],[111.09808349600002,39.331481934],[111.08612060500002,39.349914551],[111.13592529300001,39.401672363],[111.07507324200002,39.481689453],[111.10168457000002,39.538879395],[111.12707519500002,39.571472168],[111.09167480500001,39.580688477],[110.97668457000002,39.554870605],[110.93847656200002,39.523498535],[110.89068603500002,39.49987793],[110.81488037100002,39.469482422],[110.72790527300002,39.397277832],[110.71411132800002,39.315124512],[110.66308593700002,39.256286621],[110.52069091800001,39.309875488],[110.49267578100002,39.341674805],[110.48510742200001,39.341125488],[110.43591308600001,39.336730957],[110.38391113300001,39.292724609],[110.37109375000001,39.301330566],[110.33367919900002,39.329528809],[110.27252197300001,39.381896973],[110.21527099600002,39.440307617],[110.16632080100001,39.443481445],[110.09667968700002,39.461914062],[110.08032226600001,39.437316895],[110.07629394500002,39.406677246],[110.113098145,39.382080078],[110.12927246100001,39.360717773],[110.16192627,39.296081543],[110.11987304700001,39.275512695],[110.06207275400001,39.240905762],[109.95849609400001,39.216125488],[109.89849853500002,39.18347168],[109.84332275400001,39.12512207],[109.76348877,39.091308594],[109.671875,39.068908691],[109.63452148400002,38.995483398],[109.61248779300001,38.940673828],[109.58831787100002,38.881286621],[109.58312988300001,38.873718262],[109.54309082000002,38.81652832],[109.46569824200002,38.817077637],[109.39331054700001,38.792907715],[109.35552978500002,38.707885742],[109.30548095700001,38.684692383],[109.33068847700001,38.614074707],[109.25811767600001,38.616271973],[109.22912597700001,38.602111816],[109.16052246100001,38.570678711],[109.12152099600002,38.523498535],[109.06530761700002,38.447875977],[109.00952148400002,38.434326172],[108.93927002,38.375488281],[108.89770507800002,38.349487305],[108.89312744100002,38.276123047],[108.86389160200001,38.204101562],[108.95068359400001,38.143920898],[109.01049804700001,38.087890625],[109.01971435500002,38.002075195],[108.97631835900002,37.949707031],[108.93389892600001,37.895324707],[108.88287353500002,37.948913574],[108.80187988300001,38.020690918],[108.76409912100002,37.992919922],[108.76947021500001,37.948730469],[108.73547363300001,37.903320312],[108.74108886700002,37.843322754],[108.74328613300001,37.791870117],[108.78210449200002,37.67388916],[108.69128418000001,37.65447998],[108.52990722700001,37.662475586],[108.50067138700001,37.663879395],[108.42492675800001,37.647888184],[108.32647705100001,37.620117187],[108.28930664100001,37.631713867],[108.22308349600002,37.651489258],[108.17047119100002,37.628723145],[108.08532714800002,37.625671387],[108.05169677700002,37.633911133],[108.00909423800002,37.711120605],[107.98510742200001,37.792907715],[107.92547607400002,37.815917969],[107.79370117200001,37.854309082],[107.67608642600001,37.872680664],[107.63372802700002,37.876708984],[107.62408447300001,37.801879883],[107.58367919900002,37.765686035],[107.49267578100002,37.758728027],[107.45269775400001,37.741882324],[107.44927978500002,37.703918457],[107.36108398400002,37.68347168],[107.33349609400001,37.617492676],[107.27893066400001,37.566894531],[107.32672119100002,37.551086426],[107.30352783200001,37.49230957],[107.24212646500001,37.437927246],[107.20727539100001,37.401123047],[107.18890380900001,37.365478516],[107.22991943400001,37.316101074],[107.25671386700002,37.297485352],[107.25750732400002,37.278686523],[107.23828125000001,37.266906738],[107.21270752,37.254882812],[107.22052002,37.219909668],[107.25408935500002,37.194274902],[107.30047607400002,37.168273926],[107.30767822300001,37.153320312],[107.30212402300002,37.126281738],[107.29608154300001,37.111083984],[107.28369140600002,37.09588623],[107.27148437500001,37.069885254],[107.27331543000001,37.020507812],[107.26849365200002,36.977478027],[107.26367187500001,36.926513672],[107.28387451200001,36.908081055],[107.34307861300002,36.890075684],[107.41491699200002,36.876281738],[107.46667480500001,36.884887695],[107.48632812500001,36.881286621],[107.49310302700002,36.870300293],[107.49389648400002,36.846679687],[107.50109863300001,36.82409668],[107.51428222700001,36.817687988],[107.56951904300001,36.815917969],[107.65631103500002,36.824279785],[107.68347168000001,36.831726074],[107.71588134800001,36.852111816],[107.72369384800001,36.890075684],[107.703125,36.924926758],[107.68231201200001,36.948913574],[107.71630859400001,36.965698242],[107.67669677700002,37.002685547],[107.65710449200002,37.027526855],[107.68988037100002,37.042724609],[107.69207763700001,37.070678711],[107.66790771500001,37.104309082],[107.69732666000002,37.131530762],[107.73828125000001,37.147705078],[107.753723145,37.180480957],[107.78527832000002,37.22052002],[107.81469726600001,37.202880859],[107.855285645,37.191101074],[107.87329101600001,37.16607666],[107.87390136700002,37.131713867],[107.88067627,37.099121094],[107.91748046900001,37.080078125],[107.953125,37.081115723],[108.00207519500002,37.095703125],[108.04388427700002,37.103881836],[108.08673095700001,37.092895508],[108.10888671900001,37.116516113],[108.12048339800002,37.15612793],[108.15289306600002,37.166320801],[108.17572021500001,37.135681152],[108.23547363300001,37.173095703],[108.26867675800001,37.196289062],[108.23632812500001,37.237121582],[108.20568847700001,37.254089355],[108.19470214800002,37.28112793],[108.23547363300001,37.311706543],[108.27307128900001,37.327880859],[108.31549072300001,37.348693848],[108.35888671900001,37.38671875],[108.37567138700001,37.344299316],[108.40551757800002,37.362121582],[108.41949462900001,37.324890137],[108.43432617200001,37.295898437],[108.45849609400001,37.270690918],[108.46990966800001,37.24407959],[108.45770263700001,37.213500977],[108.48828125000001,37.200683594],[108.52252197300001,37.190673828],[108.52789306600002,37.154907227],[108.52972412100002,37.112121582],[108.53448486300002,37.075927734],[108.538879395,37.040710449],[108.50048828100002,36.987915039],[108.55187988300001,36.969482422],[108.58068847700001,36.999694824],[108.62207031200002,37.032470703],[108.663879395,37.010314941],[108.69787597700001,36.983276367],[108.72949218700002,36.960327148],[108.77172851600001,36.960083008],[108.80731201200001,36.986328125],[108.78912353500002,37.013305664],[108.75189209000001,37.028930664],[108.745910645,37.062072754],[108.79388427700002,37.096923828],[108.83428955100001,37.11328125],[108.85308837900001,37.150085449],[108.85272216800001,37.192077637],[108.92071533200001,37.165710449],[108.95208740200002,37.216491699],[108.96887207000002,37.24230957],[109.01147460900002,37.267700195],[109.05889892600001,37.277282715],[109.105285645,37.292480469],[109.14312744100002,37.291687012],[109.19287109400001,37.303894043],[109.22991943400001,37.310913086],[109.27508544900002,37.321472168],[109.31268310500002,37.330688477],[109.34649658200001,37.358886719],[109.37451171900001,37.390930176],[109.39007568400001,37.420715332],[109.42633056600002,37.421325684],[109.44891357400002,37.44152832],[109.50128173800002,37.460510254],[109.52752685500002,37.482299805],[109.56188964800002,37.476928711],[109.57049560500002,37.41809082],[109.60272216800001,37.402282715],[109.64471435500002,37.405273437],[109.68487548800002,37.40032959],[109.72308349600002,37.36730957],[109.76232910200001,37.339904785],[109.796875,37.328918457],[109.80871582000002,37.296875],[109.78967285200001,37.267700195],[109.83068847700001,37.270874023],[109.88012695300002,37.27331543],[109.90289306600002,37.29510498],[109.94268798800002,37.286315918],[109.98767089800002,37.254516602],[110.01330566400001,37.235473633],[110.02392578100002,37.204528809],[109.98211669900002,37.204711914],[109.94348144500002,37.197875977],[109.96228027300002,37.170715332],[109.96429443400001,37.138671875],[109.96771240200002,37.109680176],[110.00610351600001,37.124694824],[110.01788330100001,37.094299316],[110.01049804700001,37.067321777],[110.02947998000002,37.016906738],[110.078125,36.977478027],[110.11029052700002,36.957885742],[110.14947509800001,36.966491699],[110.16772460900002,36.989318848],[110.21368408200001,36.993103027],[110.24127197300001,36.971313477],[110.27087402300002,36.957519531],[110.30688476600001,36.966125488],[110.34411621100001,36.964904785],[110.41412353500002,36.978881836],[110.41070556600002,37.032897949],[110.43627929700001,37.038513184],[110.45489502,37.05267334],[110.50671386700002,37.123474121],[110.51788330100001,37.134887695],[110.55108642600001,37.151672363],[110.59948730500001,37.222473145],[110.64068603500002,37.264282227],[110.64788818400001,37.270690918],[110.65911865200002,37.296081543],[110.65191650400001,37.316101074],[110.60791015600002,37.358886719],[110.61547851600001,37.401489258],[110.61932373000002,37.412902832],[110.67852783200001,37.418273926],[110.70831298800002,37.449523926],[110.76092529300001,37.534484863],[110.76129150400001,37.562927246],[110.74291992200001,37.580078125],[110.74291992200001,37.597106934],[110.74310302700002,37.605712891],[110.75830078100002,37.639709473],[110.74353027300002,37.656677246],[110.68811035200001,37.682678223],[110.72552490200002,37.725097656],[110.71472168000001,37.74230957],[110.65551757800002,37.770874023],[110.63708496100001,37.788085937],[110.61492919900002,37.811096191],[110.58929443400001,37.868103027],[110.56347656200002,37.896484375],[110.52270507800002,37.910888672],[110.47070312500001,37.942504883],[110.45971679700001,37.956726074],[110.45611572300001,37.982299805],[110.47888183600001,38.061889648],[110.46807861300002,38.150085449],[110.50189209000001,38.183898926],[110.51690673800002,38.198120117],[110.53930664100001,38.261901855],[110.55548095700001,38.274108887],[110.61608886700002,38.298278809],[110.68090820300002,38.337890625],[110.738098145,38.423278809],[110.77447509800001,38.423095703],[110.80291748000002,38.432128906],[110.81909179700001,38.44128418],[110.83569335900002,38.471679687],[110.86468505900001,38.551330566],[110.86907959000001,38.591125488],[110.85729980500001,38.612670898],[110.86987304700001,38.64630127],[110.89050293000001,38.682922363],[110.90307617200001,38.713500977]]]}}
