{"type":"Feature","id":"bulk-99377448B16099921182332","bbox":[109.52111816400001,21.653503418,110.87811279300001,23.130310059],"properties":{"id":"bulk-99377448B16099921182332","name":"Yulin","nameEn":"Yulin","fullName":"Yulin","level":"city","boundaryRole":"administrative-extent","boundaryQuality":"generalized-source-2020","boundaryYearRepresented":"2020","bounds":[[109.52111816400001,21.653503418],[110.87811279300001,23.130310059]],"center":[110.19961547850002,22.391906738499998],"centerMethod":"bounding-box midpoint; camera framing only","license":"CC-BY-3.0-IGO","attribution":"geoBoundaries / HDX, China administrative boundaries (2020)","source":{"provider":"geoBoundaries gbHumanitarian / HDX","url":"https://github.com/wmgeolab/geoBoundaries/raw/9469f09/releaseData/gbHumanitarian/CHN/ADM2/geoBoundaries-CHN-ADM2.geojson","metadataUrl":"https://www.geoboundaries.org/api/current/gbHumanitarian/CHN/ADM2/","shapeID":"99377448B16099921182332","shapeName":"Yulin","boundaryID":"CHN-ADM2-99377448","commit":"9469f09"},"geometryCounts":{"coordinates":192,"components":1,"holes":0},"boundaryNotice":"geoBoundaries / HDX 2020 年行政区数据，海岸和边界经过源数据概化，并非当前测绘成果。"},"geometry":{"type":"Polygon","coordinates":[[[110.87811279300001,22.615112305],[110.86767578100002,22.642883301],[110.85687255900001,22.668273926],[110.84167480500001,22.694274902],[110.81530761700002,22.715881348],[110.78649902300002,22.712524414],[110.75811767600001,22.750488281],[110.75231933600001,22.781311035],[110.75909423800002,22.813110352],[110.78009033200001,22.840087891],[110.76470947300001,22.867675781],[110.73291015600002,22.860900879],[110.72088623000002,22.894897461],[110.71368408200001,22.924682617],[110.72167968700002,22.951721191],[110.73571777300002,22.994873047],[110.73327636700002,23.024475098],[110.71490478500002,23.077270508],[110.679504395,23.06829834],[110.65350341800001,23.100280762],[110.62750244100002,23.12310791],[110.59588623000002,23.118286133],[110.55950927700002,23.097290039],[110.54608154300001,23.130310059],[110.51672363300001,23.119506836],[110.48187255900001,23.10369873],[110.44171142600001,23.084106445],[110.41271972700001,23.077880859],[110.38568115200002,23.067504883],[110.35827636700002,23.053100586],[110.31927490200002,23.049682617],[110.28411865200002,23.012512207],[110.27172851600001,22.975524902],[110.25067138700001,22.954284668],[110.25329589800002,22.923095703],[110.26788330100001,22.886108398],[110.21130371100001,22.88848877],[110.17810058600001,22.906921387],[110.14349365200002,22.901489258],[110.10412597700001,22.908508301],[110.08288574200002,22.934509277],[110.03991699200002,22.936523437],[110.00268554700001,22.953125],[109.95751953100002,23.011474609],[109.91589355500001,23.038879395],[109.88171386700002,23.049926758],[109.85791015600002,23.026916504],[109.83770752,23.006530762],[109.82531738300001,22.972290039],[109.82189941400001,22.936279297],[109.82489013700001,22.906921387],[109.79888916000002,22.878723145],[109.77087402300002,22.859130859],[109.73907470700001,22.831115723],[109.73992919900002,22.796081543],[109.74310302700002,22.766296387],[109.73309326200001,22.73828125],[109.70788574200002,22.721496582],[109.68072509800001,22.706481934],[109.65069580100001,22.675476074],[109.66430664100001,22.629699707],[109.68249511700002,22.607727051],[109.71307373000002,22.582092285],[109.75091552700002,22.591918945],[109.77929687500001,22.612487793],[109.81927490200002,22.595092773],[109.84027099600002,22.553527832],[109.84588623000002,22.520507812],[109.82867431600002,22.467712402],[109.82208252,22.397277832],[109.83349609400001,22.361083984],[109.82128906200002,22.32409668],[109.79132080100001,22.320678711],[109.76171875000001,22.349304199],[109.72888183600001,22.376281738],[109.69390869100002,22.377075195],[109.66448974600002,22.341308594],[109.62591552700002,22.325073242],[109.57250976600001,22.30670166],[109.55328369100002,22.272521973],[109.55010986300002,22.228881836],[109.53509521500001,22.189880371],[109.52111816400001,22.158508301],[109.54327392600001,22.080688477],[109.56652832000002,22.046081543],[109.58227539100001,22.007324219],[109.55908203100002,21.986328125],[109.54968261700002,21.959716797],[109.58911132800002,21.931884766],[109.63830566400001,21.913330078],[109.66351318400001,21.899108887],[109.671875,21.866516113],[109.66851806600002,21.830078125],[109.67327880900001,21.78729248],[109.67230224600002,21.747497559],[109.65887451200001,21.711303711],[109.66552734400001,21.674926758],[109.69628906200002,21.653503418],[109.75567627,21.690673828],[109.79132080100001,21.67388916],[109.82952880900001,21.664306641],[109.88671875000001,21.683898926],[109.90447998000002,21.700500488],[109.90051269500002,21.72052002],[109.90771484400001,21.762512207],[109.92608642600001,21.837280273],[109.94671630900001,21.87487793],[109.96850585900002,21.896911621],[109.97412109400001,21.902282715],[110.01330566400001,21.906311035],[110.04968261700002,21.90032959],[110.08227539100001,21.899475098],[110.08807373000002,21.900512695],[110.10412597700001,21.913330078],[110.10412597700001,21.921691895],[110.11932373000002,21.924499512],[110.14129638700001,21.929077148],[110.15289306600002,21.925476074],[110.18267822300001,21.911315918],[110.20672607400002,21.907714844],[110.21948242200001,21.917297363],[110.22290039100001,21.919677734],[110.23608398400002,21.925292969],[110.25909423800002,21.930725098],[110.30230712900001,21.925476074],[110.32507324200002,21.92388916],[110.35668945300002,21.937683105],[110.36090087900001,21.950073242],[110.36151123000002,21.951293945],[110.36407470700001,21.975891113],[110.36212158200001,21.980529785],[110.35150146500001,21.994873047],[110.33911132800002,22.009521484],[110.33789062500001,22.02947998],[110.33190918000001,22.066711426],[110.33251953100002,22.114929199],[110.33532714800002,22.141479492],[110.33129882800002,22.155090332],[110.31872558600001,22.187683105],[110.31750488300001,22.208679199],[110.34527587900001,22.205078125],[110.36169433600001,22.205078125],[110.37030029300001,22.205322266],[110.38189697300001,22.203491211],[110.39331054700001,22.209899902],[110.42889404300001,22.210083008],[110.44329834000001,22.202880859],[110.46173095700001,22.190124512],[110.48187255900001,22.175720215],[110.50109863300001,22.178527832],[110.50592041000002,22.183898926],[110.52209472700001,22.196716309],[110.52770996100001,22.216674805],[110.546875,22.222290039],[110.56127929700001,22.225097656],[110.58251953100002,22.210510254],[110.59027099600002,22.19329834],[110.620910645,22.194274902],[110.63909912100002,22.227905273],[110.64093017600001,22.240722656],[110.63427734400001,22.257080078],[110.64752197300001,22.269897461],[110.65612793000001,22.296081543],[110.68127441400001,22.284484863],[110.722473145,22.277282715],[110.745910645,22.279724121],[110.76568603500002,22.281677246],[110.76867675800001,22.293701172],[110.76770019500002,22.298095703],[110.75610351600001,22.31628418],[110.73010253900001,22.333496094],[110.70788574200002,22.355285645],[110.72412109400001,22.425292969],[110.71728515600002,22.434509277],[110.69232177700002,22.454284668],[110.6875,22.465881348],[110.68048095700001,22.48248291],[110.70172119100002,22.495300293],[110.72589111300002,22.489929199],[110.74511718700002,22.492675781],[110.74108886700002,22.502502441],[110.73449707000002,22.523498535],[110.73150634800001,22.550720215],[110.74487304700001,22.571472168],[110.75750732400002,22.582519531],[110.76989746100001,22.600708008],[110.78430175800001,22.603515625],[110.80169677700002,22.603515625],[110.83831787100002,22.609680176],[110.85668945300002,22.600708008],[110.86907959000001,22.607910156],[110.87811279300001,22.615112305]]]}}
