{"type":"Feature","id":"bulk-99377448B95662744520321","bbox":[109.59808349600002,24.323303223,111.44348144500002,26.391113281],"properties":{"id":"bulk-99377448B95662744520321","name":"Guilin","nameEn":"Guilin","fullName":"Guilin","level":"city","boundaryRole":"administrative-extent","boundaryQuality":"generalized-source-2020","boundaryYearRepresented":"2020","bounds":[[109.59808349600002,24.323303223],[111.44348144500002,26.391113281]],"center":[110.52078247050002,25.357208252],"centerMethod":"bounding-box midpoint; camera framing only","license":"CC-BY-3.0-IGO","attribution":"geoBoundaries / HDX, China administrative boundaries (2020)","source":{"provider":"geoBoundaries gbHumanitarian / HDX","url":"https://github.com/wmgeolab/geoBoundaries/raw/9469f09/releaseData/gbHumanitarian/CHN/ADM2/geoBoundaries-CHN-ADM2.geojson","metadataUrl":"https://www.geoboundaries.org/api/current/gbHumanitarian/CHN/ADM2/","shapeID":"99377448B95662744520321","shapeName":"Guilin","boundaryID":"CHN-ADM2-99377448","commit":"9469f09"},"geometryCounts":{"coordinates":194,"components":1,"holes":0},"boundaryNotice":"geoBoundaries / HDX 2020 年行政区数据，海岸和边界经过源数据概化，并非当前测绘成果。"},"geometry":{"type":"Polygon","coordinates":[[[109.72387695300002,25.866516113],[109.71392822300001,25.841491699],[109.71630859400001,25.805908203],[109.74432373000002,25.783508301],[109.76129150400001,25.759094238],[109.76232910200001,25.72088623],[109.75109863300001,25.688293457],[109.73248291000002,25.651123047],[109.72747802700002,25.614074707],[109.75207519500002,25.56628418],[109.76269531200002,25.536315918],[109.76068115200002,25.500305176],[109.75250244100002,25.466918945],[109.73168945300002,25.424072266],[109.72387695300002,25.392883301],[109.71868896500001,25.34588623],[109.70489502,25.302490234],[109.69647216800001,25.25592041],[109.68890380900001,25.227722168],[109.65747070300002,25.208679199],[109.63311767600001,25.19152832],[109.63507080100001,25.156921387],[109.64587402300002,25.120483398],[109.63909912100002,25.078918457],[109.62207031200002,25.041687012],[109.60632324200002,25.002502441],[109.60168457000002,24.969116211],[109.60888671900001,24.937072754],[109.60632324200002,24.905090332],[109.59808349600002,24.878723145],[109.63592529300001,24.868713379],[109.70251464800002,24.871887207],[109.74389648400002,24.858703613],[109.77447509800001,24.856079102],[109.80371093700002,24.877319336],[109.83990478500002,24.884277344],[109.86529541000002,24.85949707],[109.87628173800002,24.828674316],[109.90551757800002,24.804321289],[109.93048095700001,24.781677246],[109.93371582000002,24.751525879],[109.96191406200002,24.725891113],[109.98712158200001,24.698303223],[110.02331543000001,24.693908691],[110.05187988300001,24.716918945],[110.07769775400001,24.702087402],[110.06011962900001,24.673278809],[110.13128662100002,24.669494629],[110.15008544900002,24.606506348],[110.15069580100001,24.572692871],[110.13031005900001,24.539489746],[110.10668945300002,24.511474609],[110.10192871100001,24.483886719],[110.12292480500001,24.463928223],[110.15887451200001,24.48248291],[110.18688964800002,24.46307373],[110.16333007800002,24.434692383],[110.19927978500002,24.400512695],[110.23168945300002,24.400512695],[110.25170898400002,24.376281738],[110.27630615200002,24.351501465],[110.33172607400002,24.352294922],[110.36187744100002,24.34588623],[110.40167236300002,24.364074707],[110.41809082000002,24.386901855],[110.453125,24.371520996],[110.49072265600002,24.384887695],[110.50769043000001,24.409484863],[110.57031250000001,24.421081543],[110.62231445300002,24.427124023],[110.65228271500001,24.395080566],[110.67669677700002,24.370910645],[110.72113037100002,24.34588623],[110.75292968700002,24.357116699],[110.77069091800001,24.38671875],[110.78509521500001,24.410888672],[110.81451416000002,24.425109863],[110.84448242200001,24.415283203],[110.85968017600001,24.371276855],[110.86267089800002,24.325683594],[110.89471435500002,24.323303223],[110.91308593700002,24.349121094],[110.95111084000001,24.324523926],[110.99450683600001,24.343505859],[111.00750732400002,24.380126953],[110.99151611300002,24.403076172],[111.00592041000002,24.442871094],[111.02307128900001,24.480102539],[111.02630615200002,24.518127441],[111.01269531200002,24.553710937],[110.99047851600001,24.587280273],[110.96472168000001,24.616088867],[110.95349121100001,24.647888184],[110.97308349600002,24.668884277],[111.00549316400001,24.68170166],[111.046691895,24.695678711],[111.07452392600001,24.726501465],[111.09631347700001,24.759521484],[111.13269043000001,24.776123047],[111.15570068400001,24.798278809],[111.15447998000002,24.829284668],[111.14630127,24.862304687],[111.15808105500001,24.918701172],[111.11669921900001,24.918884277],[111.07330322300001,24.952880859],[111.07348632800002,24.945495605],[110.98950195300002,24.914123535],[110.95288085900002,24.961914062],[110.93310546900001,25.057312012],[110.96270752,25.142883301],[110.98950195300002,25.169921875],[111.05108642600001,25.187683105],[111.08868408200001,25.206481934],[111.09667968700002,25.245300293],[111.10107421900001,25.284301758],[111.10369873000002,25.308288574],[111.16949462900001,25.366516113],[111.23907470700001,25.40411377],[111.28387451200001,25.449890137],[111.29351806600002,25.499084473],[111.29608154300001,25.512878418],[111.28851318400001,25.611694336],[111.27947998000002,25.706481934],[111.27893066400001,25.711486816],[111.29211425800001,25.743896484],[111.35308837900001,25.766113281],[111.41827392600001,25.826904297],[111.44171142600001,25.863708496],[111.44348144500002,25.866271973],[111.43872070300002,25.870300293],[111.39471435500002,25.907897949],[111.30169677700002,25.913696289],[111.25549316400001,25.877075195],[111.24151611300002,25.858093262],[111.17468261700002,25.944702148],[111.15991210900002,26.011108398],[111.20208740200002,26.050476074],[111.23907470700001,26.079101562],[111.24047851600001,26.132080078],[111.22552490200002,26.185119629],[111.24768066400001,26.206726074],[111.26367187500001,26.222717285],[111.25292968700002,26.26751709],[111.19171142600001,26.287475586],[111.14447021500001,26.327880859],[111.07531738300001,26.297729492],[110.97607421900001,26.38470459],[110.96868896500001,26.391113281],[110.91949462900001,26.381286621],[110.90252685500002,26.297912598],[110.88848877,26.277526855],[110.88153076200001,26.267272949],[110.82330322300001,26.261108398],[110.77612304700001,26.260070801],[110.74688720700001,26.264526367],[110.71368408200001,26.330078125],[110.64428710900002,26.330871582],[110.60729980500001,26.324523926],[110.57409668000001,26.313720703],[110.54309082000002,26.304504395],[110.53991699200002,26.301879883],[110.52111816400001,26.285705566],[110.51507568400001,26.254272461],[110.51428222700001,26.221923828],[110.49548339800002,26.190490723],[110.43847656200002,26.174072266],[110.38751220700001,26.146118164],[110.34692382800002,26.063293457],[110.33209228500002,26.024475098],[110.30828857400002,25.99029541],[110.27410888700001,25.982299805],[110.24951171900001,25.97668457],[110.23529052700002,26.006103516],[110.21588134800001,26.054504395],[110.17767334000001,26.065917969],[110.15692138700001,26.039672852],[110.12591552700002,26.032287598],[110.08367919900002,26.049072266],[110.05651855500001,26.166687012],[109.99609375000001,26.187683105],[109.96087646500001,26.18572998],[109.95690918000001,26.18548584],[109.93292236300002,26.184509277],[109.89111328100002,26.158081055],[109.87951660200001,26.127502441],[109.87689209000001,26.093322754],[109.87408447300001,26.069091797],[109.85150146500001,26.043701172],[109.80847168000001,26.034301758],[109.77807617200001,25.992675781],[109.78967285200001,25.944274902],[109.78228759800001,25.902893066],[109.75152587900001,25.883728027],[109.72387695300002,25.866516113]]]}}
