{"type":"Feature","id":"bulk-99377448B13509527707385","bbox":[104.58990478500002,34.082702637,106.65490722700001,35.163879395],"properties":{"id":"bulk-99377448B13509527707385","name":"Tianshui","nameEn":"Tianshui","fullName":"Tianshui","level":"city","boundaryRole":"administrative-extent","boundaryQuality":"generalized-source-2020","boundaryYearRepresented":"2020","bounds":[[104.58990478500002,34.082702637],[106.65490722700001,35.163879395]],"center":[105.622406006,34.623291015999996],"centerMethod":"bounding-box midpoint; camera framing only","license":"CC-BY-3.0-IGO","attribution":"geoBoundaries / HDX, China administrative boundaries (2020)","source":{"provider":"geoBoundaries gbHumanitarian / HDX","url":"https://github.com/wmgeolab/geoBoundaries/raw/9469f09/releaseData/gbHumanitarian/CHN/ADM2/geoBoundaries-CHN-ADM2.geojson","metadataUrl":"https://www.geoboundaries.org/api/current/gbHumanitarian/CHN/ADM2/","shapeID":"99377448B13509527707385","shapeName":"Tianshui","boundaryID":"CHN-ADM2-99377448","commit":"9469f09"},"geometryCounts":{"coordinates":153,"components":1,"holes":0},"boundaryNotice":"geoBoundaries / HDX 2020 年行政区数据，海岸和边界经过源数据概化，并非当前测绘成果。"},"geometry":{"type":"Polygon","coordinates":[[[106.48608398400002,35.041687012],[106.45727539100001,35.0703125],[106.42327880900001,35.08770752],[106.37310791000002,35.093505859],[106.35168457000002,35.121520996],[106.31927490200002,35.135070801],[106.28747558600001,35.157470703],[106.24890136700002,35.163879395],[106.203125,35.155273437],[106.17291259800001,35.143310547],[106.13647460900002,35.105285645],[106.09411621100001,35.084899902],[106.05572509800001,35.082519531],[106.00531005900001,35.085083008],[105.94287109400001,35.080505371],[105.89172363300001,35.072875977],[105.84991455100001,35.07208252],[105.79907226600001,35.075073242],[105.76092529300001,35.100524902],[105.72448730500001,35.100708008],[105.68951416000002,35.098510742],[105.66027832000002,35.116699219],[105.63110351600001,35.149475098],[105.58471679700001,35.133483887],[105.54327392600001,35.129882812],[105.53588867200001,35.099121094],[105.52307128900001,35.061523437],[105.48852539100001,35.068481445],[105.46807861300002,35.090270996],[105.44268798800002,35.112487793],[105.42749023400002,35.085327148],[105.41571044900002,35.050476074],[105.34771728500002,35.051086426],[105.29327392600001,35.039672852],[105.27752685500002,35.014282227],[105.26928710900002,34.971130371],[105.24890136700002,34.93371582],[105.21490478500002,34.933288574],[105.15612793000001,34.946899414],[105.11871337900001,34.925720215],[105.05670166000002,34.938903809],[104.97387695300002,34.945922852],[104.92510986300002,34.940307617],[104.87652587900001,34.950073242],[104.87792968700002,34.915100098],[104.86071777300002,34.860473633],[104.82232666000002,34.85949707],[104.77612304700001,34.856872559],[104.73168945300002,34.856323242],[104.67810058600001,34.860473633],[104.63427734400001,34.85748291],[104.59350585900002,34.84552002],[104.58990478500002,34.811096191],[104.59667968700002,34.782287598],[104.60308837900001,34.749328613],[104.60089111300002,34.709899902],[104.62548828100002,34.680908203],[104.65948486300002,34.67767334],[104.70208740200002,34.676086426],[104.72552490200002,34.651306152],[104.72149658200001,34.615905762],[104.70269775400001,34.58770752],[104.71209716800001,34.545715332],[104.74829101600001,34.536071777],[104.77691650400001,34.49987793],[104.78192138700001,34.469726562],[104.80712890600002,34.414489746],[104.84527587900001,34.41229248],[104.88208007800002,34.428894043],[104.91271972700001,34.439086914],[104.94592285200001,34.443481445],[104.99127197300001,34.440124512],[105.04589843700002,34.423706055],[105.07708740200002,34.441101074],[105.10668945300002,34.459899902],[105.13427734400001,34.483886719],[105.16650390600002,34.517883301],[105.16571044900002,34.553710937],[105.23413085900002,34.54107666],[105.29949951200001,34.514709473],[105.32751464800002,34.496704102],[105.34350585900002,34.463500977],[105.36651611300002,34.442077637],[105.41809082000002,34.43572998],[105.46112060500002,34.403503418],[105.50250244100002,34.377319336],[105.56091308600001,34.354919434],[105.58428955100001,34.335510254],[105.59252929700001,34.303894043],[105.56512451200001,34.283081055],[105.55291748000002,34.254882812],[105.55407714800002,34.205871582],[105.55609130900001,34.178894043],[105.55932617200001,34.144470215],[105.55712890600002,34.106689453],[105.59613037100002,34.10748291],[105.63287353500002,34.082702637],[105.65789794900002,34.106323242],[105.69171142600001,34.14050293],[105.72570800800001,34.160888672],[105.76593017600001,34.156677246],[105.79528808600001,34.142883301],[105.83770752,34.144714355],[105.88128662100002,34.132873535],[105.91827392600001,34.13092041],[105.95629882800002,34.149108887],[106.00292968700002,34.162109375],[106.04431152300002,34.163085937],[106.08972168000001,34.142883301],[106.12231445300002,34.133728027],[106.16027832000002,34.126098633],[106.19567871100001,34.118530273],[106.24389648400002,34.169921875],[106.26092529300001,34.192871094],[106.28771972700001,34.22088623],[106.31469726600001,34.240722656],[106.33648681600002,34.207275391],[106.34252929700001,34.180725098],[106.32189941400001,34.140319824],[106.33349609400001,34.103088379],[106.39849853500002,34.105285645],[106.44812011700002,34.124084473],[106.47009277300002,34.149291992],[106.48870849600002,34.181884766],[106.50708007800002,34.22052002],[106.51892089800002,34.253295898],[106.59771728500002,34.260681152],[106.63671875000001,34.269714355],[106.65490722700001,34.309875488],[106.65350341800001,34.338928223],[106.64208984400001,34.378112793],[106.59387207000002,34.421691895],[106.546691895,34.444274902],[106.52252197300001,34.469909668],[106.48852539100001,34.490112305],[106.45812988300001,34.505126953],[106.43170166000002,34.507080078],[106.37811279300001,34.52130127],[106.34112548800002,34.561096191],[106.33508300800001,34.596679687],[106.35931396500001,34.642272949],[106.40032959000001,34.68548584],[106.40911865200002,34.712280273],[106.44091796900001,34.739501953],[106.49230957000002,34.752319336],[106.52947998000002,34.760498047],[106.53491210900002,34.787109375],[106.53692627,34.816101074],[106.51812744100002,34.863098145],[106.48651123000002,34.90447998],[106.46710205100001,34.96472168],[106.46490478500002,35.014709473],[106.48608398400002,35.041687012]]]}}
