{"type":"Feature","id":"bulk-99377448B97083788965376","bbox":[111.09851074200002,33.583496094,112.94311523400002,35.084106445],"properties":{"id":"bulk-99377448B97083788965376","name":"Luoyang","nameEn":"Luoyang","fullName":"Luoyang","level":"city","boundaryRole":"administrative-extent","boundaryQuality":"generalized-source-2020","boundaryYearRepresented":"2020","bounds":[[111.09851074200002,33.583496094],[112.94311523400002,35.084106445]],"center":[112.02081298800002,34.3338012695],"centerMethod":"bounding-box midpoint; camera framing only","license":"CC-BY-3.0-IGO","attribution":"geoBoundaries / HDX, China administrative boundaries (2020)","source":{"provider":"geoBoundaries gbHumanitarian / HDX","url":"https://github.com/wmgeolab/geoBoundaries/raw/9469f09/releaseData/gbHumanitarian/CHN/ADM2/geoBoundaries-CHN-ADM2.geojson","metadataUrl":"https://www.geoboundaries.org/api/current/gbHumanitarian/CHN/ADM2/","shapeID":"99377448B97083788965376","shapeName":"Luoyang","boundaryID":"CHN-ADM2-99377448","commit":"9469f09"},"geometryCounts":{"coordinates":153,"components":1,"holes":0},"boundaryNotice":"geoBoundaries / HDX 2020 年行政区数据，海岸和边界经过源数据概化，并非当前测绘成果。"},"geometry":{"type":"Polygon","coordinates":[[[111.95568847700001,35.084106445],[111.937316895,35.06628418],[111.93572998000002,35.011901855],[111.95330810500002,34.98248291],[111.92272949200002,34.959106445],[111.878723145,34.94128418],[111.85510253900001,34.921875],[111.87310791000002,34.898681641],[111.90270996100001,34.87512207],[111.94268798800002,34.855895996],[111.988098145,34.829284668],[111.99847412100002,34.794311523],[111.99188232400002,34.756713867],[111.97991943400001,34.726501465],[111.99987793000001,34.685913086],[111.95367431600002,34.652282715],[111.86212158200001,34.618530273],[111.83251953100002,34.640930176],[111.78570556600002,34.622070312],[111.74890136700002,34.611328125],[111.71331787100002,34.607299805],[111.68792724600002,34.574707031],[111.67272949200002,34.54309082],[111.63031005900001,34.545715332],[111.58331298800002,34.555297852],[111.54431152300002,34.553100586],[111.49847412100002,34.546081543],[111.45550537100002,34.524475098],[111.41668701200001,34.496520996],[111.36547851600001,34.483520508],[111.33148193400001,34.484924316],[111.27893066400001,34.486083984],[111.24029541000002,34.472473145],[111.19592285200001,34.453918457],[111.14849853500002,34.40411377],[111.11151123000002,34.373718262],[111.09851074200002,34.343688965],[111.12207031200002,34.322692871],[111.13208007800002,34.254272461],[111.14849853500002,34.221496582],[111.17108154300001,34.200073242],[111.20947265600002,34.168518066],[111.24389648400002,34.147521973],[111.27728271500001,34.136291504],[111.32067871100001,34.12890625],[111.34692382800002,34.106872559],[111.33569335900002,34.075073242],[111.31152343700002,34.055725098],[111.31512451200001,34.018310547],[111.31512451200001,33.98828125],[111.26989746100001,33.948303223],[111.23669433600001,33.925720215],[111.21228027300002,33.906494141],[111.19750976600001,33.861694336],[111.21630859400001,33.828918457],[111.23449707000002,33.799926758],[111.31292724600002,33.776489258],[111.34667968700002,33.769104004],[111.38848877,33.750488281],[111.42132568400001,33.726928711],[111.45812988300001,33.717712402],[111.50012207000002,33.729675293],[111.53430175800001,33.734924316],[111.56689453100002,33.728515625],[111.60888671900001,33.714904785],[111.64648437500001,33.702880859],[111.67492675800001,33.686706543],[111.71069335900002,33.672912598],[111.74871826200001,33.66809082],[111.78588867200001,33.644104004],[111.80828857400002,33.593505859],[111.86853027300002,33.589294434],[111.91412353500002,33.583496094],[111.96008300800001,33.598510742],[111.995910645,33.614318848],[112.02392578100002,33.596923828],[112.05749511700002,33.606872559],[112.05090332000002,33.640319824],[112.04608154300001,33.673095703],[112.06347656200002,33.702697754],[112.08148193400001,33.726074219],[112.11987304700001,33.72869873],[112.17492675800001,33.723083496],[112.20812988300001,33.72668457],[112.24108886700002,33.719299316],[112.24310302700002,33.749511719],[112.24407959000001,33.78527832],[112.245910645,33.827514648],[112.29949951200001,33.832275391],[112.347473145,33.832702637],[112.37750244100002,33.821105957],[112.41149902300002,33.834289551],[112.44110107400002,33.853881836],[112.48968505900001,33.856689453],[112.49932861300002,33.883911133],[112.48449707000002,33.913513184],[112.48571777300002,33.94708252],[112.50732421900001,33.974121094],[112.53192138700001,33.99407959],[112.55047607400002,34.028503418],[112.58831787100002,34.051513672],[112.58850097700001,34.090515137],[112.58587646500001,34.122314453],[112.57611084000001,34.153076172],[112.55810546900001,34.178710937],[112.54528808600001,34.209716797],[112.52728271500001,34.243103027],[112.51831054700001,34.270324707],[112.51831054700001,34.300109863],[112.56048584000001,34.318481445],[112.59710693400001,34.319519043],[112.65948486300002,34.331481934],[112.72369384800001,34.356079102],[112.68127441400001,34.393310547],[112.68847656200002,34.423278809],[112.70751953100002,34.460083008],[112.70690918000001,34.489074707],[112.73828125000001,34.501281738],[112.77447509800001,34.493530273],[112.82189941400001,34.476928711],[112.88012695300002,34.467529297],[112.91271972700001,34.495300293],[112.94311523400002,34.550292969],[112.90429687500001,34.551330566],[112.87109375000001,34.557922363],[112.84112548800002,34.580505371],[112.81512451200001,34.622680664],[112.80792236300002,34.659912109],[112.82409668000001,34.697692871],[112.85650634800001,34.705688477],[112.88031005900001,34.726074219],[112.87731933600001,34.764282227],[112.80627441400001,34.794128418],[112.77130127,34.784912109],[112.68988037100002,34.80670166],[112.62768554700001,34.833129883],[112.58728027300002,34.85168457],[112.54968261700002,34.862487793],[112.52807617200001,34.872924805],[112.50329589800002,34.885925293],[112.43109130900001,34.902526855],[112.39648437500001,34.905700684],[112.34948730500001,34.919128418],[112.26147460900002,34.930725098],[112.22668457000002,34.931274414],[112.18927002,34.952087402],[112.17089843700002,34.970092773],[112.10552978500002,35.011291504],[112.07708740200002,35.014282227],[112.02331543000001,35.010070801],[112.00207519500002,35.043273926],[111.97430419900002,35.073730469],[111.95568847700001,35.084106445]]]}}
