{"type":"Feature","id":"bulk-99377448B49689660785928","bbox":[112.19427490200002,24.894104004,114.22552490200002,26.846679687],"properties":{"id":"bulk-99377448B49689660785928","name":"Chenzhou","nameEn":"Chenzhou","fullName":"Chenzhou","level":"city","boundaryRole":"administrative-extent","boundaryQuality":"generalized-source-2020","boundaryYearRepresented":"2020","bounds":[[112.19427490200002,24.894104004],[114.22552490200002,26.846679687]],"center":[113.20989990200002,25.870391845500002],"centerMethod":"bounding-box midpoint; camera framing only","license":"CC-BY-3.0-IGO","attribution":"geoBoundaries / HDX, China administrative boundaries (2020)","source":{"provider":"geoBoundaries gbHumanitarian / HDX","url":"https://github.com/wmgeolab/geoBoundaries/raw/9469f09/releaseData/gbHumanitarian/CHN/ADM2/geoBoundaries-CHN-ADM2.geojson","metadataUrl":"https://www.geoboundaries.org/api/current/gbHumanitarian/CHN/ADM2/","shapeID":"99377448B49689660785928","shapeName":"Chenzhou","boundaryID":"CHN-ADM2-99377448","commit":"9469f09"},"geometryCounts":{"coordinates":271,"components":1,"holes":0},"boundaryNotice":"geoBoundaries / HDX 2020 年行政区数据，海岸和边界经过源数据概化，并非当前测绘成果。"},"geometry":{"type":"Polygon","coordinates":[[[114.01110839800002,25.989074707],[114.00311279300001,26.021728516],[113.99072265600002,26.041687012],[114.03192138700001,26.072875977],[114.05548095700001,26.089294434],[114.10449218700002,26.112121582],[114.16491699200002,26.123901367],[114.21191406200002,26.147521973],[114.22552490200002,26.1875],[114.21447753900001,26.218505859],[114.15911865200002,26.212097168],[114.10168457000002,26.203918457],[114.06872558600001,26.182312012],[114.00927734400001,26.170471191],[113.96087646500001,26.166503906],[113.93951416000002,26.177307129],[113.87628173800002,26.136291504],[113.83752441400001,26.102905273],[113.79388427700002,26.094116211],[113.76330566400001,26.109680176],[113.75128173800002,26.078674316],[113.71850585900002,26.05871582],[113.66247558600001,26.050720215],[113.65747070300002,26.079101562],[113.66571044900002,26.110473633],[113.68151855500001,26.147521973],[113.69390869100002,26.191711426],[113.69049072300001,26.223083496],[113.66333007800002,26.248291016],[113.63067627,26.265075684],[113.57952880900001,26.293273926],[113.56591796900001,26.322692871],[113.56011962900001,26.356079102],[113.55670166000002,26.394714355],[113.56292724600002,26.435302734],[113.55627441400001,26.487121582],[113.56292724600002,26.517089844],[113.52929687500001,26.547119141],[113.52832031200002,26.582702637],[113.50408935500002,26.608093262],[113.46667480500001,26.600280762],[113.43768310500002,26.57989502],[113.39050293000001,26.583679199],[113.36212158200001,26.636474609],[113.35211181600002,26.67388916],[113.36108398400002,26.702087402],[113.37072753900001,26.736328125],[113.37329101600001,26.766906738],[113.30249023400002,26.814697266],[113.27368164100001,26.788330078],[113.24267578100002,26.77532959],[113.24072265600002,26.809326172],[113.19989013700001,26.846679687],[113.18811035200001,26.809082031],[113.15148925800001,26.819519043],[113.11791992200001,26.830688477],[113.11151123000002,26.802490234],[113.08331298800002,26.785522461],[113.06988525400001,26.755310059],[113.08972168000001,26.721496582],[113.13751220700001,26.681518555],[113.14672851600001,26.655273437],[113.14172363300001,26.61151123],[113.13568115200002,26.576721191],[113.13372802700002,26.53729248],[113.15667724600002,26.519470215],[113.19451904300001,26.502075195],[113.17211914100001,26.477111816],[113.15869140600002,26.452087402],[113.15332031200002,26.420898437],[113.12988281200002,26.391113281],[113.13488769500002,26.356872559],[113.11047363300001,26.337890625],[113.06872558600001,26.327697754],[113.04949951200001,26.30670166],[113.00469970700001,26.296508789],[112.97052002,26.292907715],[112.96972656200002,26.261474609],[112.98748779300001,26.23828125],[112.99609375000001,26.203674316],[112.98547363300001,26.166870117],[112.95428466800001,26.151916504],[112.93212890600002,26.1796875],[112.90209960900002,26.17590332],[112.87591552700002,26.161682129],[112.83831787100002,26.159912109],[112.81030273400002,26.170471191],[112.75732421900001,26.202880859],[112.75207519500002,26.153930664],[112.70788574200002,26.129089355],[112.671875,26.135681152],[112.65112304700001,26.174926758],[112.58050537100002,26.17590332],[112.55133056600002,26.158081055],[112.51928710900002,26.152099609],[112.49169921900001,26.164672852],[112.44628906200002,26.181274414],[112.40527343700002,26.188720703],[112.37170410200001,26.191101074],[112.33007812500001,26.190307617],[112.29052734400001,26.179321289],[112.25091552700002,26.165527344],[112.21929931600002,26.138305664],[112.19427490200002,26.114074707],[112.22552490200002,26.092285156],[112.26348877,26.097900391],[112.30529785200001,26.105895996],[112.32312011700002,26.082885742],[112.29388427700002,26.038513184],[112.27172851600001,26.007507324],[112.27508544900002,25.97467041],[112.26208496100001,25.934326172],[112.24627685500002,25.903686523],[112.27130127,25.883483887],[112.32952880900001,25.900085449],[112.34912109400001,25.854309082],[112.34790039100001,25.824707031],[112.36407470700001,25.796081543],[112.36151123000002,25.748474121],[112.347473145,25.722106934],[112.31152343700002,25.714477539],[112.28167724600002,25.733093262],[112.24932861300002,25.739685059],[112.21691894500002,25.725708008],[112.22070312500001,25.685302734],[112.21752929700001,25.643493652],[112.22491455100001,25.585876465],[112.24108886700002,25.560119629],[112.27551269500002,25.55267334],[112.30468750000001,25.547302246],[112.34088134800001,25.522705078],[112.37829589800002,25.514099121],[112.38708496100001,25.486694336],[112.39587402300002,25.459472656],[112.42852783200001,25.431884766],[112.44750976600001,25.38848877],[112.41369628900001,25.366088867],[112.37390136700002,25.340698242],[112.34649658200001,25.325927734],[112.30828857400002,25.30847168],[112.31311035200001,25.275085449],[112.31689453100002,25.246887207],[112.38067627,25.157287598],[112.39770507800002,25.185302734],[112.41369628900001,25.190490723],[112.42449951200001,25.18572998],[112.45489502,25.164672852],[112.48352050800001,25.151489258],[112.51892089800002,25.13848877],[112.546691895,25.138916016],[112.57727050800001,25.133911133],[112.60809326200001,25.131713867],[112.63568115200002,25.12310791],[112.63647460900002,25.122070312],[112.65789794900002,25.101074219],[112.65972900400001,25.090270996],[112.67492675800001,25.059326172],[112.69329834000001,25.029296875],[112.70989990200002,25.019104004],[112.722473145,25.002685547],[112.73388671900001,24.977294922],[112.75012207000002,24.950927734],[112.76348877,24.938110352],[112.77050781200002,24.93170166],[112.77667236300002,24.897277832],[112.80529785200001,24.894104004],[112.84210205100001,24.901489258],[112.87292480500001,24.909912109],[112.89093017600001,24.922302246],[112.91589355500001,24.929077148],[112.93847656200002,24.923095703],[112.96911621100001,24.923522949],[112.972473145,24.924926758],[112.97912597700001,24.92767334],[112.99127197300001,24.943725586],[112.98492431600002,24.965515137],[112.98107910200001,24.978088379],[112.97467041000002,24.999084473],[112.96569824200002,25.039672852],[112.97912597700001,25.062927246],[112.98352050800001,25.079101562],[112.97967529300001,25.090881348],[112.96929931600002,25.111694336],[112.95288085900002,25.134521484],[112.95129394500002,25.149902344],[112.95550537100002,25.15612793],[112.97351074200002,25.164672852],[112.98150634800001,25.170898437],[112.98889160200001,25.189697266],[112.99609375000001,25.200317383],[112.99731445300002,25.208496094],[112.98669433600001,25.218505859],[112.95007324200002,25.225524902],[112.90447998000002,25.233703613],[112.87609863300001,25.247680664],[112.85351562500001,25.259887695],[112.83892822300001,25.27532959],[112.83172607400002,25.306091309],[112.84692382800002,25.32208252],[112.87652587900001,25.316101074],[112.91510009800001,25.309875488],[112.9375,25.328491211],[112.96148681600002,25.344116211],[112.98547363300001,25.34552002],[113.01751709000001,25.354675293],[113.03948974600002,25.36328125],[113.06750488300001,25.369873047],[113.08288574200002,25.387695312],[113.11407470700001,25.409484863],[113.12072753900001,25.432678223],[113.11932373000002,25.459899902],[113.12768554700001,25.47668457],[113.14392089800002,25.485473633],[113.17089843700002,25.488525391],[113.19970703100002,25.489685059],[113.25268554700001,25.498474121],[113.25408935500002,25.499328613],[113.26788330100001,25.508911133],[113.28668212900001,25.502075195],[113.29510498000002,25.485717773],[113.30548095700001,25.458496094],[113.31311035200001,25.450317383],[113.33068847700001,25.43371582],[113.34588623000002,25.412719727],[113.37152099600002,25.403076172],[113.39990234400001,25.386291504],[113.42132568400001,25.368530273],[113.45288085900002,25.356079102],[113.46789550800001,25.363098145],[113.49987793000001,25.366699219],[113.52832031200002,25.356079102],[113.54290771500001,25.34588623],[113.56152343700002,25.332885742],[113.58892822300001,25.321289062],[113.61572265600002,25.319702148],[113.65368652300002,25.324279785],[113.65991210900002,25.334899902],[113.67791748000002,25.338928223],[113.70690918000001,25.346313477],[113.72369384800001,25.34387207],[113.75030517600001,25.332519531],[113.77947998000002,25.31829834],[113.81671142600001,25.328918457],[113.82727050800001,25.349304199],[113.83551025400001,25.358886719],[113.84887695300002,25.371276855],[113.85729980500001,25.388122559],[113.87011718700002,25.414672852],[113.88647460900002,25.426086426],[113.90551757800002,25.432678223],[113.92492675800001,25.443908691],[113.97271728500002,25.43951416],[113.93170166000002,25.469726562],[113.93951416000002,25.496520996],[113.94812011700002,25.547485352],[113.945129395,25.573730469],[113.93792724600002,25.596496582],[113.92669677700002,25.622924805],[113.90148925800001,25.645080566],[113.87591552700002,25.682678223],[113.88110351600001,25.720275879],[113.89752197300001,25.763122559],[113.93029785200001,25.789672852],[113.94567871100001,25.802124023],[113.96508789100001,25.846679687],[113.97167968700002,25.889526367],[113.98431396500001,25.908081055],[113.99768066400001,25.921875],[114.00390625000001,25.928100586],[114.01629638700001,25.968322754],[114.01110839800002,25.989074707]]]}}
