{"type":"Feature","id":"bulk-99377448B2056865657330","bbox":[73.55767822300001,37.715698242,78.88049316400001,41.406677246],"properties":{"id":"bulk-99377448B2056865657330","name":"Kizilsu Kirgiz Autonomous Prefecture","nameEn":"Kizilsu Kirgiz Autonomous Prefecture","fullName":"Kizilsu Kirgiz Autonomous Prefecture","level":"city","boundaryRole":"administrative-extent","boundaryQuality":"generalized-source-2020","boundaryYearRepresented":"2020","bounds":[[73.55767822300001,37.715698242],[78.88049316400001,41.406677246]],"center":[76.2190856935,39.561187744],"centerMethod":"bounding-box midpoint; camera framing only","license":"CC-BY-3.0-IGO","attribution":"geoBoundaries / HDX, China administrative boundaries (2020)","source":{"provider":"geoBoundaries gbHumanitarian / HDX","url":"https://github.com/wmgeolab/geoBoundaries/raw/9469f09/releaseData/gbHumanitarian/CHN/ADM2/geoBoundaries-CHN-ADM2.geojson","metadataUrl":"https://www.geoboundaries.org/api/current/gbHumanitarian/CHN/ADM2/","shapeID":"99377448B2056865657330","shapeName":"Kizilsu Kirgiz Autonomous Prefecture","boundaryID":"CHN-ADM2-99377448","commit":"9469f09"},"geometryCounts":{"coordinates":938,"components":1,"holes":0},"boundaryNotice":"geoBoundaries / HDX 2020 年行政区数据，海岸和边界经过源数据概化，并非当前测绘成果。"},"geometry":{"type":"Polygon","coordinates":[[[78.45269775400001,41.406677246],[78.43267822300001,41.400695801],[78.38391113300001,41.394104004],[78.37951660200001,41.361328125],[78.38012695300002,41.357910156],[78.38049316400001,41.355712891],[78.393127441,41.348510742],[78.39868164100001,41.332885742],[78.407897949,41.322875977],[78.408325195,41.319274902],[78.408691406,41.315673828],[78.40850830100001,41.315124512],[78.40808105500001,41.31451416],[78.40472412100002,41.307128906],[78.38812255900001,41.294128418],[78.38470459000001,41.286315918],[78.386474609,41.277709961],[78.386108398,41.275512695],[78.38549804700001,41.271118164],[78.37969970700001,41.265319824],[78.37731933600001,41.264282227],[78.36328125000001,41.259094238],[78.352478027,41.260070801],[78.342285156,41.261108398],[78.33630371100001,41.256286621],[78.333679199,41.254089355],[78.327880859,41.253112793],[78.302124023,41.237121582],[78.30108642600001,41.23651123],[78.296875,41.233703613],[78.27569580100001,41.216125488],[78.27252197300001,41.213317871],[78.26629638700001,41.204284668],[78.25970459000001,41.194885254],[78.26007080100001,41.191711426],[78.25708007800002,41.187927246],[78.21588134800001,41.13848877],[78.21368408200001,41.133300781],[78.21331787100002,41.132507324],[78.20648193400001,41.11730957],[78.19787597700001,41.103271484],[78.19689941400001,41.097290039],[78.19592285200001,41.091491699],[78.19012451200001,41.079101562],[78.183288574,41.074707031],[78.18109130900001,41.073303223],[78.17327880900001,41.07611084],[78.16510009800001,41.076721191],[78.16210937500001,41.075073242],[78.15667724600002,41.071899414],[78.15270996100001,41.071289062],[78.145874023,41.070495605],[78.127502441,41.071899414],[78.125915527,41.071472168],[78.11791992200001,41.069519043],[78.114929199,41.06829834],[78.10888671900001,41.065490723],[78.10827636700002,41.064880371],[78.10748291000002,41.06427002],[78.09387207,41.053710937],[78.08807373,41.050720215],[78.077880859,41.051513672],[78.07092285200001,41.047302246],[78.066894531,41.035888672],[78.059509277,41.032897949],[78.04711914100001,41.038879395],[78.04132080100001,41.042907715],[78.03790283200001,41.045288086],[78.03350830100001,41.050292969],[78.026672363,41.057678223],[78.01672363300001,41.06451416],[78.010314941,41.068908691],[78.00549316400001,41.06829834],[78.004882812,41.070922852],[78.00469970700001,41.071716309],[77.988098145,41.076477051],[77.986877441,41.076904297],[77.98327636700002,41.077880859],[77.952880859,41.069885254],[77.94207763700001,41.068481445],[77.937316895,41.065673828],[77.93591308600001,41.065490723],[77.92309570300002,41.062316895],[77.92132568400001,41.062072754],[77.913085937,41.061279297],[77.90447998,41.063110352],[77.903686523,41.063293457],[77.89007568400001,41.070129395],[77.88592529300001,41.07208252],[77.877502441,41.073303223],[77.86212158200001,41.068725586],[77.85192871100001,41.065673828],[77.83428955100001,41.05871582],[77.81091308600001,41.049316406],[77.79748535200001,41.046081543],[77.774719238,41.035705566],[77.773925781,41.034729004],[77.76831054700001,41.026672363],[77.75927734400001,41.023071289],[77.751281738,41.022277832],[77.72729492200001,41.028686523],[77.72192382800002,41.028076172],[77.70690918000001,41.024291992],[77.69830322300001,41.019470215],[77.692687988,41.013671875],[77.69250488300001,41.01348877],[77.686523437,41.008117676],[77.669311523,41.000915527],[77.663879395,40.998718262],[77.64331054700001,41.008300781],[77.62530517600001,41.012878418],[77.61669921900001,41.012329102],[77.610717773,41.00970459],[77.59771728500002,41.004089355],[77.570129395,40.995910645],[77.549316406,40.992675781],[77.53308105500001,40.991882324],[77.52270507800002,40.993530273],[77.50549316400001,40.99987793],[77.46990966800001,41.001098633],[77.467712402,41.002685547],[77.466918945,41.003112793],[77.46270752,41.012084961],[77.461120605,41.015319824],[77.45648193400001,41.017272949],[77.44848632800002,41.021118164],[77.44012451200001,41.022277832],[77.42327880900001,41.02130127],[77.39489746100001,41.026672363],[77.35150146500001,41.026306152],[77.33129882800002,41.002929687],[77.29528808600001,41.002502441],[77.23388671900001,41.00592041],[77.192687988,41.010681152],[77.111877441,41.016723633],[77.09051513700001,41.039672852],[77.033691406,41.049926758],[77.01831054700001,41.053894043],[77.01568603500002,41.05291748],[77.00067138700001,41.050476074],[76.98748779300001,41.048278809],[76.97869873,41.045715332],[76.97808837900001,41.045471191],[76.96289062500001,41.027099609],[76.94329834000001,41.01348877],[76.90472412100002,41.004516602],[76.86151123,41.010498047],[76.85351562500001,40.975891113],[76.788879395,40.956481934],[76.783691406,40.952514648],[76.777893066,40.933105469],[76.775085449,40.924499512],[76.77532959000001,40.922485352],[76.77532959000001,40.917907715],[76.786499023,40.869873047],[76.788879395,40.860107422],[76.78710937500001,40.851501465],[76.78247070300002,40.846313477],[76.78149414100001,40.845275879],[76.77069091800001,40.840881348],[76.74688720700001,40.831298828],[76.74108886700002,40.827880859],[76.73388671900001,40.823730469],[76.72290039100001,40.801879883],[76.68872070300002,40.778686523],[76.63427734400001,40.752075195],[76.64489746100001,40.730102539],[76.65887451200001,40.697509766],[76.67852783200001,40.651916504],[76.645874023,40.611877441],[76.60772705100001,40.586730957],[76.574707031,40.550476074],[76.568115234,40.510498047],[76.55072021500001,40.471679687],[76.530273437,40.44708252],[76.49908447300001,40.420715332],[76.46051025400001,40.399108887],[76.426696777,40.38067627],[76.39367675800001,40.37689209],[76.364929199,40.364501953],[76.34613037100002,40.339477539],[76.33911132800002,40.362121582],[76.33312988300001,40.360107422],[76.33190918000001,40.359680176],[76.33032226600001,40.362121582],[76.32489013700001,40.370727539],[76.32250976600001,40.397888184],[76.30432128900001,40.399108887],[76.29650878900001,40.428527832],[76.25811767600001,40.422119141],[76.23187255900001,40.407287598],[76.22052002,40.396728516],[76.20727539100001,40.390075684],[76.200500488,40.386901855],[76.187683105,40.382873535],[76.172729492,40.383300781],[76.16088867200001,40.385314941],[76.151306152,40.384277344],[76.10430908200001,40.387878418],[76.076721191,40.383483887],[76.07287597700001,40.351928711],[76.04992675800001,40.345703125],[75.97387695300002,40.366516113],[75.96368408200001,40.339904785],[75.93829345700001,40.301696777],[75.924316406,40.280517578],[75.91632080100001,40.286071777],[75.914916992,40.286071777],[75.91168212900001,40.286499023],[75.90728759800001,40.292114258],[75.88391113300001,40.307922363],[75.87811279300001,40.307678223],[75.83349609400001,40.304870605],[75.784484863,40.302490234],[75.77929687500001,40.299072266],[75.77111816400001,40.29888916],[75.758300781,40.298706055],[75.74749755900001,40.296508789],[75.74047851600001,40.294921875],[75.732910156,40.292297363],[75.722473145,40.288879395],[75.69989013700001,40.277282715],[75.69488525400001,40.283325195],[75.693908691,40.286682129],[75.693481445,40.288330078],[75.69689941400001,40.293884277],[75.69732666000002,40.294921875],[75.69647216800001,40.294921875],[75.69329834000001,40.309509277],[75.687316895,40.31652832],[75.68811035200001,40.321899414],[75.68890380900001,40.328125],[75.68090820300002,40.342285156],[75.667297363,40.348693848],[75.66448974600002,40.349914551],[75.66247558600001,40.352478027],[75.66088867200001,40.354309082],[75.66552734400001,40.359313965],[75.669311523,40.363525391],[75.669311523,40.363708496],[75.66607666000002,40.367919922],[75.66088867200001,40.371276855],[75.64709472700001,40.377075195],[75.64532470700001,40.379882812],[75.645080566,40.380310059],[75.64288330100001,40.383483887],[75.64849853500002,40.388916016],[75.66949462900001,40.401123047],[75.676696777,40.408325195],[75.678283691,40.412902832],[75.68127441400001,40.421081543],[75.69091796900001,40.428283691],[75.70928955100001,40.432312012],[75.711486816,40.434326172],[75.71527099600002,40.4375],[75.71588134800001,40.446716309],[75.716491699,40.457702637],[75.66949462900001,40.493286133],[75.666870117,40.498718262],[75.659484863,40.50012207],[75.64868164100001,40.502075195],[75.64093017600001,40.506896973],[75.640319824,40.510925293],[75.63787841800001,40.526123047],[75.626281738,40.547485352],[75.62292480500001,40.55847168],[75.62292480500001,40.55871582],[75.62109375000001,40.56427002],[75.620483398,40.580078125],[75.620483398,40.580505371],[75.602478027,40.633483887],[75.57269287100002,40.638671875],[75.43627929700001,40.56829834],[75.35949707,40.516723633],[75.31591796900001,40.50012207],[75.29107666000002,40.483520508],[75.28948974600002,40.481506348],[75.28790283200001,40.481323242],[75.21868896500001,40.435119629],[75.17687988300001,40.441101074],[75.09289550800001,40.427490234],[75.03387451200001,40.455505371],[75.024719238,40.454711914],[75.024291992,40.455078125],[74.98950195300002,40.44708252],[74.91131591800001,40.481079102],[74.84448242200001,40.512695312],[74.825073242,40.490112305],[74.82531738300001,40.489318848],[74.82373046900001,40.479492187],[74.82147216800001,40.466308594],[74.81488037100002,40.457702637],[74.81372070300002,40.456115723],[74.80969238300001,40.432922363],[74.855285645,40.414672852],[74.909484863,40.377075195],[74.94012451200001,40.342285156],[74.88909912100002,40.317504883],[74.87268066400001,40.327270508],[74.872070312,40.327087402],[74.86828613300001,40.323120117],[74.863098145,40.317687988],[74.86090087900001,40.317687988],[74.858276367,40.317687988],[74.842712402,40.325317383],[74.84167480500001,40.325683594],[74.837280273,40.330322266],[74.83587646500001,40.331726074],[74.82250976600001,40.340881348],[74.79107666000002,40.344299316],[74.743103027,40.344299316],[74.703674316,40.340087891],[74.69952392600001,40.330322266],[74.700500488,40.328125],[74.69787597700001,40.313476562],[74.69287109400001,40.305480957],[74.685302734,40.297912598],[74.68371582,40.294311523],[74.68310546900001,40.290527344],[74.685302734,40.280273437],[74.6875,40.270080566],[74.68469238300001,40.266113281],[74.68029785200001,40.264282227],[74.679077148,40.264526367],[74.67309570300002,40.265319824],[74.66351318400001,40.269287109],[74.64532470700001,40.268493652],[74.63891601600001,40.274719238],[74.59832763700001,40.269287109],[74.57690429700001,40.247924805],[74.552490234,40.221923828],[74.511474609,40.18548584],[74.444702148,40.145507812],[74.44128418000001,40.143127441],[74.440307617,40.142700195],[74.437316895,40.141113281],[74.42327880900001,40.13269043],[74.399291992,40.12310791],[74.39630127,40.12109375],[74.384887695,40.111328125],[74.383300781,40.110107422],[74.38092041000002,40.108886719],[74.36370849600002,40.100891113],[74.34991455100001,40.090881348],[74.34051513700001,40.08392334],[74.333679199,40.087097168],[74.31549072300001,40.103515625],[74.30090332,40.101074219],[74.29870605500001,40.101928711],[74.28588867200001,40.096130371],[74.277893066,40.102722168],[74.27410888700001,40.105712891],[74.27148437500001,40.111877441],[74.26867675800001,40.118286133],[74.26287841800001,40.12487793],[74.25549316400001,40.127502441],[74.25109863300001,40.12689209],[74.250915527,40.12689209],[74.241882324,40.120300293],[74.22888183600001,40.124084473],[74.21350097700001,40.120300293],[74.20727539100001,40.118713379],[74.19610595700001,40.118103027],[74.186889648,40.112915039],[74.17932128900001,40.108703613],[74.16448974600002,40.106323242],[74.159912109,40.103881836],[74.149719238,40.098876953],[74.14569091800001,40.099121094],[74.14251709000001,40.099487305],[74.136474609,40.101074219],[74.13049316400001,40.102905273],[74.127075195,40.102294922],[74.12371826200001,40.10168457],[74.116088867,40.092102051],[74.11328125000001,40.081115723],[74.11047363300001,40.078491211],[74.10968017600001,40.078491211],[74.10589599600002,40.077880859],[74.10107421900001,40.079711914],[74.09887695300002,40.080505371],[74.08868408200001,40.076293945],[74.08312988300001,40.073913574],[74.082885742,40.073913574],[74.07568359400001,40.073913574],[74.045471191,40.08770752],[74.04309082,40.08807373],[74.038879395,40.088684082],[74.02850341800001,40.083679199],[74.024291992,40.077880859],[74.02111816400001,40.073730469],[74.020080566,40.072509766],[74.01629638700001,40.067321777],[74.01092529300001,40.054870605],[73.99609375000001,40.043273926],[73.99249267600001,40.040283203],[73.950500488,40.027282715],[73.948120117,40.025512695],[73.966918945,40.010070801],[73.96868896500001,40.007324219],[73.97290039100001,40.006103516],[73.981323242,40.00012207],[73.98150634800001,40.00012207],[73.977111816,39.995117187],[73.97692871100001,39.995117187],[73.99011230500001,39.975280762],[73.950927734,39.945678711],[73.93627929700001,39.919311523],[73.91430664100001,39.896728516],[73.916870117,39.889526367],[73.919677734,39.881713867],[73.918518066,39.87109375],[73.91467285200001,39.866271973],[73.91271972700001,39.863891602],[73.894714355,39.859130859],[73.88427734400001,39.855712891],[73.88153076200001,39.854919434],[73.87927246100001,39.851928711],[73.859130859,39.834106445],[73.85888671900001,39.83392334],[73.852478027,39.824707031],[73.850891113,39.821472168],[73.84552002,39.811279297],[73.843078613,39.804321289],[73.836914062,39.76171875],[73.85949707,39.75567627],[73.89050293000001,39.748291016],[73.892700195,39.737670898],[73.89489746100001,39.736694336],[73.90148925800001,39.733886719],[73.90631103500002,39.729675293],[73.91027832,39.726501465],[73.91510009800001,39.71472168],[73.92230224600002,39.687683105],[73.93127441400001,39.65032959],[73.93872070300002,39.619506836],[73.94067382800002,39.607299805],[73.94128418000001,39.602905273],[73.93792724600002,39.594116211],[73.92852783200001,39.583129883],[73.92730712900001,39.581726074],[73.91009521500001,39.56451416],[73.89007568400001,39.545471191],[73.889526367,39.544921875],[73.884094238,39.536315918],[73.88189697300001,39.532470703],[73.88031005900001,39.529907227],[73.870910645,39.498291016],[73.86791992200001,39.489929199],[73.86389160200001,39.478881836],[73.85430908200001,39.469909668],[73.84912109400001,39.467285156],[73.84252929700001,39.463928223],[73.82147216800001,39.45892334],[73.79028320300002,39.458129883],[73.77691650400001,39.458312988],[73.76568603500002,39.458679199],[73.72088623,39.457885742],[73.66510009800001,39.464294434],[73.658325195,39.465087891],[73.65148925800001,39.454101562],[73.652526855,39.450073242],[73.653686523,39.444274902],[73.658691406,39.425292969],[73.65930175800001,39.423278809],[73.67010498,39.390930176],[73.66992187500001,39.378295898],[73.669311523,39.371276855],[73.66809082,39.360290527],[73.66052246100001,39.350524902],[73.655273437,39.344116211],[73.63391113300001,39.333496094],[73.61431884800001,39.323913574],[73.61370849600002,39.323486328],[73.605285645,39.30871582],[73.60388183600001,39.3046875],[73.59869384800001,39.291687012],[73.591125488,39.277282715],[73.575500488,39.270080566],[73.57067871100001,39.268676758],[73.56408691400001,39.266479492],[73.55767822300001,39.259277344],[73.558288574,39.255310059],[73.55889892600001,39.250915527],[73.55932617200001,39.250305176],[73.56909179700001,39.245483398],[73.586914062,39.237304687],[73.59252929700001,39.23828125],[73.59912109400001,39.239318848],[73.61627197300001,39.237915039],[73.62231445300002,39.232299805],[73.62408447300001,39.230712891],[73.63592529300001,39.217895508],[73.63787841800001,39.214111328],[73.64831543000001,39.192687988],[73.65747070300002,39.186279297],[73.66448974600002,39.181518555],[73.67370605500001,39.175292969],[73.67968750000001,39.170471191],[73.68231201200001,39.168518066],[73.69152832,39.156921387],[73.69488525400001,39.144714355],[73.69647216800001,39.138671875],[73.69848632800002,39.128112793],[73.70587158200001,39.116088867],[73.708312988,39.112121582],[73.710693359,39.108093262],[73.710327148,39.085083008],[73.71087646500001,39.079284668],[73.711486816,39.073303223],[73.71527099600002,39.069274902],[73.71868896500001,39.065307617],[73.729492187,39.055480957],[73.73309326200001,39.051330566],[73.73950195300002,39.043701172],[73.74487304700001,39.030517578],[73.75628662100002,39.026123047],[73.756713867,39.025878906],[73.759094238,39.026123047],[73.770507812,39.027282715],[73.78729248,39.035522461],[73.799316406,39.037109375],[73.800476074,39.037475586],[73.807495117,39.038696289],[73.81707763700001,39.034301758],[73.81988525400001,39.033081055],[73.82147216800001,39.028686523],[73.84027099600002,39.020874023],[73.840698242,38.986877441],[73.84167480500001,38.984924316],[73.84552002,38.977111816],[73.84771728500002,38.963684082],[73.84790039100001,38.963500977],[73.84710693400001,38.955688477],[73.84588623,38.949523926],[73.847473145,38.942077637],[73.82690429700001,38.917907715],[73.78869628900001,38.929870605],[73.744689941,38.930725098],[73.723510742,38.910888672],[73.70690918000001,38.885681152],[73.70532226600001,38.880126953],[73.711914062,38.863098145],[73.702880859,38.863891602],[73.70568847700001,38.854919434],[73.71472168000001,38.848083496],[73.727111816,38.842529297],[73.73309326200001,38.840087891],[73.737304687,38.834106445],[73.73931884800001,38.824279785],[73.741516113,38.813720703],[73.743103027,38.808288574],[73.74407959000001,38.804321289],[73.754089355,38.786499023],[73.75427246100001,38.78527832],[73.75628662100002,38.777709961],[73.75592041000002,38.768493652],[73.75531005900001,38.760681152],[73.75451660200001,38.748474121],[73.754089355,38.742919922],[73.753723145,38.733520508],[73.75549316400001,38.727905273],[73.75732421900001,38.721679687],[73.767700195,38.693908691],[73.77911377,38.685302734],[73.782897949,38.67791748],[73.78588867200001,38.675292969],[73.79028320300002,38.668273926],[73.79327392600001,38.663696289],[73.80267334000001,38.64831543],[73.80432128900001,38.64251709],[73.80670166000002,38.633483887],[73.80548095700001,38.62890625],[73.804870605,38.626281738],[73.81207275400001,38.611083984],[73.83508300800001,38.600524902],[73.86950683600001,38.585693359],[73.88208007800002,38.577880859],[73.88269043000001,38.577697754],[73.891906738,38.572875977],[73.89709472700001,38.568481445],[73.91809082,38.555480957],[73.950927734,38.531494141],[73.97869873,38.527893066],[73.97930908200001,38.527893066],[73.984924316,38.52911377],[74.00012207,38.532897949],[74.003295898,38.533874512],[74.01348877,38.53692627],[74.018127441,38.538085937],[74.019287109,38.538513184],[74.051696777,38.532470703],[74.068481445,38.53112793],[74.08087158200001,38.540710449],[74.06909179700001,38.554077148],[74.068481445,38.556518555],[74.068115234,38.55847168],[74.07067871100001,38.568725586],[74.07171630900001,38.569885254],[74.08111572300001,38.580078125],[74.08087158200001,38.582519531],[74.10308837900001,38.606323242],[74.11248779300001,38.620483398],[74.11248779300001,38.621887207],[74.11248779300001,38.628295898],[74.109924316,38.640319824],[74.111877441,38.651123047],[74.12451171900001,38.664672852],[74.133728027,38.668273926],[74.134094238,38.668518066],[74.136474609,38.668701172],[74.145874023,38.669128418],[74.17108154300001,38.670715332],[74.193115234,38.667114258],[74.218505859,38.652893066],[74.22607421900001,38.653320312],[74.22808837900001,38.653320312],[74.22888183600001,38.653686523],[74.23791503900001,38.658081055],[74.245117187,38.659301758],[74.26007080100001,38.652709961],[74.28729248,38.648681641],[74.295471191,38.649719238],[74.29907226600001,38.650085449],[74.34411621100001,38.655517578],[74.348510742,38.65411377],[74.35687255900001,38.65447998],[74.365722656,38.655090332],[74.36590576200001,38.655090332],[74.38232421900001,38.653076172],[74.40509033200001,38.646728516],[74.40667724600002,38.645080566],[74.40850830100001,38.643127441],[74.437683105,38.63092041],[74.444702148,38.631713867],[74.45471191400001,38.629882812],[74.45611572300001,38.629882812],[74.47308349600002,38.632507324],[74.48828125000001,38.629272461],[74.506713867,38.629882812],[74.511474609,38.627075195],[74.51470947300001,38.625488281],[74.520080566,38.61907959],[74.546691895,38.615905762],[74.62512207,38.600891113],[74.653320312,38.580078125],[74.68988037100002,38.554870605],[74.71588134800001,38.535522461],[74.745910645,38.526672363],[74.75708007800002,38.528503418],[74.76330566400001,38.528503418],[74.768493652,38.528503418],[74.780273437,38.525878906],[74.79571533200001,38.514282227],[74.803710937,38.49987793],[74.80969238300001,38.489685059],[74.81048584000001,38.489074707],[74.83129882800002,38.486694336],[74.83892822300001,38.485900879],[74.84008789100001,38.486877441],[74.84167480500001,38.48828125],[74.842712402,38.489074707],[74.84570312500001,38.491699219],[74.848510742,38.496704102],[74.85888671900001,38.504516602],[74.86212158200001,38.504089355],[74.86730957,38.498474121],[74.86712646500001,38.492919922],[74.86712646500001,38.489929199],[74.86151123,38.469909668],[74.861083984,38.461914062],[74.861083984,38.461486816],[74.86712646500001,38.445129395],[74.863098145,38.4296875],[74.86328125000001,38.428283691],[74.86907959000001,38.41229248],[74.86932373,38.408691406],[74.86950683600001,38.404724121],[74.86950683600001,38.40447998],[74.913879395,38.37689209],[74.94531250000001,38.347106934],[74.98388671900001,38.334716797],[75.03729248,38.315307617],[75.100097656,38.291870117],[75.136108398,38.283691406],[75.16589355500001,38.256286621],[75.16949462900001,38.219909668],[75.17852783200001,38.187072754],[75.21667480500001,38.174926758],[75.26049804700001,38.166503906],[75.30627441400001,38.1875],[75.35552978500002,38.188476562],[75.376281738,38.16192627],[75.403320312,38.121520996],[75.410705566,38.095092773],[75.43432617200001,38.050476074],[75.445129395,38.006103516],[75.446289062,37.957092285],[75.48632812500001,37.910705566],[75.53833007800002,37.896728516],[75.584106445,37.876708984],[75.627075195,37.856506348],[75.687683105,37.863708496],[75.74487304700001,37.876281738],[75.802124023,37.87487793],[75.84869384800001,37.877502441],[75.89672851600001,37.87487793],[75.92248535200001,37.848510742],[75.91528320300002,37.809875488],[75.895874023,37.770690918],[75.89532470700001,37.726074219],[75.93170166000002,37.715698242],[75.966491699,37.747070312],[76.017272949,37.760925293],[76.034118652,37.729492187],[76.075500488,37.718505859],[76.12731933600001,37.726074219],[76.168518066,37.717529297],[76.22131347700001,37.72869873],[76.27429199200002,37.72088623],[76.316894531,37.732116699],[76.328674316,37.762084961],[76.36389160200001,37.805908203],[76.398925781,37.80847168],[76.42572021500001,37.842712402],[76.45892334000001,37.859680176],[76.51129150400001,37.872680664],[76.51629638700001,37.906921387],[76.52947998,37.943908691],[76.56329345700001,37.977294922],[76.58990478500002,38.007080078],[76.60729980500001,38.042724609],[76.61431884800001,38.076904297],[76.61590576200001,38.110717773],[76.625488281,38.139709473],[76.65588378900001,38.166503906],[76.692687988,38.198486328],[76.70892334000001,38.222473145],[76.722473145,38.25567627],[76.72332763700001,38.283691406],[76.707519531,38.319091797],[76.696289062,38.358520508],[76.65850830100001,38.407104492],[76.62768554700001,38.448486328],[76.584472656,38.445678711],[76.551696777,38.461730957],[76.49768066400001,38.490722656],[76.46832275400001,38.50567627],[76.41668701200001,38.537475586],[76.38507080100001,38.554870605],[76.33068847700001,38.580871582],[76.29248046900001,38.600097656],[76.22088623,38.634277344],[76.184509277,38.652893066],[76.14691162100002,38.671081543],[76.11431884800001,38.694091797],[76.06451416000002,38.73449707],[76.03790283200001,38.752929687],[75.99090576200001,38.783874512],[75.960327148,38.811096191],[75.903320312,38.853515625],[75.879089355,38.87310791],[75.83349609400001,38.910095215],[75.86547851600001,38.938903809],[75.903686523,38.958496094],[75.93811035200001,38.978271484],[75.986877441,38.981689453],[76.046691895,38.98828125],[76.086486816,39.000671387],[76.129882812,39.00390625],[76.17370605500001,39.025085449],[76.177124023,39.061889648],[76.15411377,39.097717285],[76.12951660200001,39.118286133],[76.096679687,39.149291992],[76.13549804700001,39.214477539],[76.082885742,39.226501465],[76.026672363,39.25567627],[75.99951171900001,39.27331543],[75.932495117,39.3046875],[75.909912109,39.263916016],[75.902099609,39.221313477],[75.88909912100002,39.195129395],[75.85968017600001,39.170288086],[75.82727050800001,39.157287598],[75.79028320300002,39.143676758],[75.76831054700001,39.111083984],[75.75787353500002,39.063110352],[75.74047851600001,39.018676758],[75.693115234,38.987121582],[75.63970947300001,38.990478516],[75.620117187,39.01348877],[75.62811279300001,39.049072266],[75.63592529300001,39.080322266],[75.65692138700001,39.118530273],[75.68829345700001,39.144714355],[75.70068359400001,39.181274414],[75.69927978500002,39.212524414],[75.68029785200001,39.240478516],[75.637695312,39.248474121],[75.602478027,39.233520508],[75.59210205100001,39.204528809],[75.586914062,39.168273926],[75.57891845700001,39.127929687],[75.57092285200001,39.083312988],[75.548522949,39.045715332],[75.50689697300001,39.00390625],[75.45770263700001,38.992126465],[75.38812255900001,39.008300781],[75.364929199,39.038513184],[75.34967041000002,39.079528809],[75.34008789100001,39.115722656],[75.33911132800002,39.161499023],[75.33752441400001,39.210876465],[75.332885742,39.26550293],[75.332885742,39.294494629],[75.33709716800001,39.32232666],[75.33789062500001,39.373901367],[75.358276367,39.404296875],[75.384094238,39.42590332],[75.39611816400001,39.450927734],[75.39831543000001,39.480712891],[75.399291992,39.510681152],[75.409484863,39.554077148],[75.42932128900001,39.58807373],[75.46087646500001,39.618286133],[75.50390625000001,39.643493652],[75.600891113,39.67590332],[75.63427734400001,39.649902344],[75.65728759800001,39.629516602],[75.67590332,39.597900391],[75.71307373,39.580505371],[75.74987793000001,39.582519531],[75.81091308600001,39.565917969],[75.86291503900001,39.566711426],[75.900878906,39.571899414],[75.936523437,39.577087402],[75.992675781,39.572692871],[76.03527832,39.563110352],[76.07189941400001,39.554504395],[76.124328613,39.547729492],[76.182495117,39.551696777],[76.218078613,39.55871582],[76.261474609,39.577880859],[76.295898437,39.589477539],[76.34252929700001,39.591674805],[76.38909912100002,39.582885742],[76.436096191,39.574279785],[76.488098145,39.573486328],[76.55072021500001,39.580322266],[76.59210205100001,39.589477539],[76.620910645,39.610473633],[76.64648437500001,39.635070801],[76.67449951200001,39.655273437],[76.70849609400001,39.674316406],[76.75152587900001,39.69708252],[76.80108642600001,39.728088379],[76.84692382800002,39.75189209],[76.851318359,39.782470703],[76.850891113,39.826904297],[76.86907959000001,39.858276367],[76.87512207,39.886108398],[76.847473145,39.91809082],[76.82928466800001,39.944519043],[76.86047363300001,39.964904785],[76.902526855,39.964904785],[76.96270752,39.959472656],[77.00189209000001,39.955505371],[77.03912353500002,39.950073242],[77.08111572300001,39.940490723],[77.09912109400001,39.90447998],[77.08349609400001,39.875671387],[77.118530273,39.844909668],[77.170898437,39.838684082],[77.225524902,39.834289551],[77.28430175800001,39.838928223],[77.367675781,39.854675293],[77.39367675800001,39.91027832],[77.376281738,39.956481934],[77.40728759800001,39.972473145],[77.452514648,39.99029541],[77.496276855,39.998474121],[77.54327392600001,40.004882812],[77.600524902,40.012329102],[77.66949462900001,40.01751709],[77.70007324200002,40.044494629],[77.709106445,40.075500488],[77.71667480500001,40.129699707],[77.762695312,40.145507812],[77.80609130900001,40.156921387],[77.85467529300001,40.174316406],[77.90393066400001,40.196472168],[77.92968750000001,40.217102051],[77.96368408200001,40.23248291],[78.00848388700001,40.243713379],[78.08209228500002,40.252502441],[78.133300781,40.264892578],[78.16809082,40.288085937],[78.187316895,40.311889648],[78.19830322300001,40.339477539],[78.22229003900001,40.380493164],[78.243530273,40.41229248],[78.286499023,40.4453125],[78.334899902,40.462524414],[78.369689941,40.472290039],[78.42309570300002,40.489074707],[78.47351074200002,40.507080078],[78.516906738,40.520690918],[78.557128906,40.543273926],[78.58190918000001,40.574279785],[78.59649658200001,40.608886719],[78.60351562500001,40.651672363],[78.60430908200001,40.692504883],[78.59570312500001,40.726501465],[78.602111816,40.761901855],[78.635314941,40.778076172],[78.68951416000002,40.793273926],[78.74328613300001,40.813293457],[78.79528808600001,40.833129883],[78.837280273,40.854919434],[78.863098145,40.876525879],[78.88049316400001,40.916687012],[78.877929687,40.956481934],[78.85430908200001,40.992675781],[78.82489013700001,41.021118164],[78.79132080100001,41.050292969],[78.76947021500001,41.07611084],[78.750488281,41.111328125],[78.74249267600001,41.143676758],[78.72192382800002,41.169921875],[78.68469238300001,41.193481445],[78.659118652,41.224121094],[78.63470459000001,41.24987793],[78.593505859,41.275512695],[78.55291748,41.297729492],[78.50347900400001,41.326721191],[78.47607421900001,41.355285645],[78.45269775400001,41.406677246]]]}}
