{"type":"Feature","id":"bulk-99377448B87498049012711","bbox":[105.15368652300002,35.220092773,106.91931152300002,37.012695312],"properties":{"id":"bulk-99377448B87498049012711","name":"Guyuan","nameEn":"Guyuan","fullName":"Guyuan","level":"city","boundaryRole":"administrative-extent","boundaryQuality":"generalized-source-2020","boundaryYearRepresented":"2020","bounds":[[105.15368652300002,35.220092773],[106.91931152300002,37.012695312]],"center":[106.03649902300002,36.1163940425],"centerMethod":"bounding-box midpoint; camera framing only","license":"CC-BY-3.0-IGO","attribution":"geoBoundaries / HDX, China administrative boundaries (2020)","source":{"provider":"geoBoundaries gbHumanitarian / HDX","url":"https://github.com/wmgeolab/geoBoundaries/raw/9469f09/releaseData/gbHumanitarian/CHN/ADM2/geoBoundaries-CHN-ADM2.geojson","metadataUrl":"https://www.geoboundaries.org/api/current/gbHumanitarian/CHN/ADM2/","shapeID":"99377448B87498049012711","shapeName":"Guyuan","boundaryID":"CHN-ADM2-99377448","commit":"9469f09"},"geometryCounts":{"coordinates":156,"components":1,"holes":0},"boundaryNotice":"geoBoundaries / HDX 2020 年行政区数据，海岸和边界经过源数据概化，并非当前测绘成果。"},"geometry":{"type":"Polygon","coordinates":[[[105.78967285200001,35.608520508],[105.81347656200002,35.588928223],[105.84088134800001,35.554870605],[105.85888671900001,35.522521973],[105.86492919900002,35.497070312],[105.87908935500002,35.49407959],[105.88751220700001,35.508911133],[105.90747070300002,35.524108887],[105.93530273400002,35.525085449],[105.96350097700001,35.518676758],[105.98388671900001,35.486328125],[106.02349853500002,35.480285645],[106.03790283200001,35.469726562],[106.03369140600002,35.462280273],[106.00671386700002,35.446899414],[105.96807861300002,35.431091309],[105.92651367200001,35.4296875],[105.92150878900001,35.414672852],[105.93688964800002,35.408081055],[105.96691894500002,35.408874512],[106.01031494100002,35.421325684],[106.05810546900001,35.4375],[106.07708740200002,35.430725098],[106.07891845700001,35.394287109],[106.11090087900001,35.354919434],[106.13372802700002,35.363098145],[106.15972900400001,35.396728516],[106.18212890600002,35.412109375],[106.21649169900002,35.404724121],[106.25048828100002,35.369506836],[106.28387451200001,35.302307129],[106.328125,35.241516113],[106.37188720700001,35.220092773],[106.42309570300002,35.249694824],[106.44592285200001,35.314880371],[106.46392822300001,35.384521484],[106.46228027300002,35.396484375],[106.45532226600001,35.449707031],[106.41687011700002,35.505126953],[106.43231201200001,35.559692383],[106.41052246100001,35.614929199],[106.38549804700001,35.688720703],[106.44769287100002,35.736877441],[106.55969238300001,35.726928711],[106.61047363300001,35.69909668],[106.68109130900001,35.6796875],[106.72070312500001,35.724121094],[106.74670410200001,35.713684082],[106.78491210900002,35.698303223],[106.81512451200001,35.75390625],[106.89508056600002,35.751525879],[106.87487793000001,35.810302734],[106.83532714800002,35.895080566],[106.91931152300002,35.964477539],[106.91650390600002,36.090881348],[106.87988281200002,36.127929687],[106.86029052700002,36.163696289],[106.83532714800002,36.200073242],[106.82788085900002,36.210693359],[106.73071289100001,36.205505371],[106.65112304700001,36.237915039],[106.57592773400002,36.27130127],[106.49151611300002,36.264526367],[106.43548584000001,36.270080566],[106.45709228500002,36.292907715],[106.46447753900001,36.303710937],[106.48510742200001,36.349304199],[106.46588134800001,36.421325684],[106.42230224600002,36.454528809],[106.33007812500001,36.527099609],[106.42608642600001,36.567077637],[106.42791748000002,36.572509766],[106.35913085900002,36.600097656],[106.31988525400001,36.600097656],[106.24768066400001,36.586120605],[106.21368408200001,36.568115234],[106.15148925800001,36.558105469],[106.14227294900002,36.609130859],[106.11352539100001,36.644714355],[106.09851074200002,36.672119141],[106.09088134800001,36.703308105],[106.05108642600001,36.756713867],[106.02368164100001,36.778930664],[106.02227783200001,36.806091309],[105.98968505900001,36.821472168],[105.96990966800001,36.859680176],[105.94329834000001,36.898681641],[105.90649414100001,36.935913086],[105.86352539100001,36.948486328],[105.82128906200002,36.934082031],[105.79992675800001,36.908691406],[105.74749755900001,36.899291992],[105.70129394500002,36.935119629],[105.67089843700002,36.951904297],[105.64129638700001,36.93548584],[105.60369873000002,36.928894043],[105.55847168000001,36.92767334],[105.49847412100002,36.940917969],[105.44171142600001,36.950927734],[105.35870361300002,36.956115723],[105.34112548800002,36.979675293],[105.29992675800001,37.012695312],[105.25329589800002,37.003112793],[105.21008300800001,36.983886719],[105.15368652300002,36.964904785],[105.16870117200001,36.948913574],[105.16131591800001,36.868896484],[105.18847656200002,36.872497559],[105.25970459000001,36.900878906],[105.29150390600002,36.867492676],[105.31970214800002,36.817077637],[105.32330322300001,36.741882324],[105.238098145,36.698913574],[105.22290039100001,36.668273926],[105.24829101600001,36.608886719],[105.25909423800002,36.527893066],[105.34948730500001,36.515319824],[105.39752197300001,36.476318359],[105.42767334000001,36.407287598],[105.46911621100001,36.326904297],[105.48669433600001,36.296508789],[105.48687744100002,36.252502441],[105.49707031200002,36.198120117],[105.503723145,36.165283203],[105.50689697300001,36.110473633],[105.49267578100002,36.073486328],[105.45532226600001,36.035705566],[105.41632080100001,36.02331543],[105.35748291000002,35.991882324],[105.33251953100002,35.94329834],[105.32330322300001,35.902709961],[105.33288574200002,35.859313965],[105.38330078100002,35.833679199],[105.38409423800002,35.822692871],[105.37127685500002,35.800292969],[105.37731933600001,35.778503418],[105.41027832000002,35.772277832],[105.44769287100002,35.770080566],[105.48571777300002,35.756896973],[105.51550293000001,35.732116699],[105.52947998000002,35.721679687],[105.54827880900001,35.718688965],[105.57031250000001,35.701293945],[105.58929443400001,35.694702148],[105.60467529300001,35.709716797],[105.62030029300001,35.721313477],[105.63153076200001,35.728881836],[105.65710449200002,35.729919434],[105.69909668000001,35.727722168],[105.73187255900001,35.721496582],[105.74188232400002,35.710876465],[105.73309326200001,35.703125],[105.70770263700001,35.698730469],[105.71307373000002,35.684082031],[105.74072265600002,35.648498535],[105.78967285200001,35.608520508]]]}}
