{"type":"Feature","id":"bulk-99377448B95534908777799","bbox":[110.34411621100001,36.711914062,112.29229736300002,38.713500977],"properties":{"id":"bulk-99377448B95534908777799","name":"Lüliang","nameEn":"Lüliang","fullName":"Lüliang","level":"city","boundaryRole":"administrative-extent","boundaryQuality":"generalized-source-2020","boundaryYearRepresented":"2020","bounds":[[110.34411621100001,36.711914062],[112.29229736300002,38.713500977]],"center":[111.31820678700001,37.7127075195],"centerMethod":"bounding-box midpoint; camera framing only","license":"CC-BY-3.0-IGO","attribution":"geoBoundaries / HDX, China administrative boundaries (2020)","source":{"provider":"geoBoundaries gbHumanitarian / HDX","url":"https://github.com/wmgeolab/geoBoundaries/raw/9469f09/releaseData/gbHumanitarian/CHN/ADM2/geoBoundaries-CHN-ADM2.geojson","metadataUrl":"https://www.geoboundaries.org/api/current/gbHumanitarian/CHN/ADM2/","shapeID":"99377448B95534908777799","shapeName":"Lüliang","boundaryID":"CHN-ADM2-99377448","commit":"9469f09"},"geometryCounts":{"coordinates":209,"components":1,"holes":0},"boundaryNotice":"geoBoundaries / HDX 2020 年行政区数据，海岸和边界经过源数据概化，并非当前测绘成果。"},"geometry":{"type":"Polygon","coordinates":[[[112.29229736300002,37.457702637],[112.28747558600001,37.483886719],[112.27050781200002,37.525512695],[112.23468017600001,37.547302246],[112.19671630900001,37.55670166],[112.17767334000001,37.580078125],[112.17211914100001,37.606323242],[112.17468261700002,37.66809082],[112.11090087900001,37.681518555],[112.05969238300001,37.696289062],[112.02471923800002,37.707519531],[111.97332763700001,37.707885742],[111.92932128900001,37.704528809],[111.91729736300002,37.730285645],[111.89508056600002,37.752685547],[111.85552978500002,37.774902344],[111.82348632800002,37.789123535],[111.76708984400001,37.81427002],[111.68188476600001,37.861877441],[111.64349365200002,37.846679687],[111.59570312500001,37.831481934],[111.53869628900001,37.836914062],[111.55047607400002,37.865722656],[111.54827880900001,37.905700684],[111.52551269500002,37.936889648],[111.48571777300002,38.008911133],[111.47607421900001,38.041870117],[111.50927734400001,38.080871582],[111.54608154300001,38.082275391],[111.57672119100002,38.096313477],[111.60589599600002,38.114929199],[111.64172363300001,38.136901855],[111.67767334000001,38.153930664],[111.73791503900001,38.173522949],[111.77832031200002,38.205322266],[111.75189209000001,38.22467041],[111.73632812500001,38.25970459],[111.75067138700001,38.289489746],[111.78247070300002,38.31072998],[111.80511474600002,38.340515137],[111.77532959000001,38.365112305],[111.74188232400002,38.397521973],[111.73907470700001,38.434875488],[111.72113037100002,38.463500977],[111.70812988300001,38.507873535],[111.73950195300002,38.562927246],[111.68048095700001,38.575073242],[111.64849853500002,38.558898926],[111.60650634800001,38.538513184],[111.56390380900001,38.518920898],[111.53228759800001,38.505493164],[111.48107910200001,38.507873535],[111.44927978500002,38.492126465],[111.43048095700001,38.518493652],[111.41027832000002,38.556274414],[111.36932373000002,38.564086914],[111.32092285200001,38.582275391],[111.27728271500001,38.585327148],[111.23571777300002,38.591308594],[111.22668457000002,38.627929687],[111.21392822300001,38.667297363],[111.20410156200002,38.710083008],[111.14672851600001,38.695678711],[111.097473145,38.673095703],[111.03607177700002,38.644897461],[110.99151611300002,38.640075684],[110.95227050800001,38.67010498],[110.90307617200001,38.713500977],[110.89050293000001,38.682922363],[110.86987304700001,38.64630127],[110.85729980500001,38.612670898],[110.86907959000001,38.591125488],[110.86468505900001,38.551330566],[110.83569335900002,38.471679687],[110.81909179700001,38.44128418],[110.80291748000002,38.432128906],[110.77447509800001,38.423095703],[110.738098145,38.423278809],[110.68090820300002,38.337890625],[110.61608886700002,38.298278809],[110.55548095700001,38.274108887],[110.53930664100001,38.261901855],[110.51690673800002,38.198120117],[110.50189209000001,38.183898926],[110.46807861300002,38.150085449],[110.47888183600001,38.061889648],[110.45611572300001,37.982299805],[110.45971679700001,37.956726074],[110.47070312500001,37.942504883],[110.52270507800002,37.910888672],[110.56347656200002,37.896484375],[110.58929443400001,37.868103027],[110.61492919900002,37.811096191],[110.63708496100001,37.788085937],[110.65551757800002,37.770874023],[110.71472168000001,37.74230957],[110.72552490200002,37.725097656],[110.68811035200001,37.682678223],[110.74353027300002,37.656677246],[110.75830078100002,37.639709473],[110.74310302700002,37.605712891],[110.74291992200001,37.597106934],[110.74291992200001,37.580078125],[110.76129150400001,37.562927246],[110.76092529300001,37.534484863],[110.70831298800002,37.449523926],[110.67852783200001,37.418273926],[110.61932373000002,37.412902832],[110.61547851600001,37.401489258],[110.60791015600002,37.358886719],[110.65191650400001,37.316101074],[110.65911865200002,37.296081543],[110.64788818400001,37.270690918],[110.64068603500002,37.264282227],[110.59948730500001,37.222473145],[110.55108642600001,37.151672363],[110.51788330100001,37.134887695],[110.50671386700002,37.123474121],[110.45489502,37.05267334],[110.43627929700001,37.038513184],[110.41070556600002,37.032897949],[110.41412353500002,36.978881836],[110.34411621100001,36.964904785],[110.36230468700002,36.930725098],[110.36968994100002,36.902282715],[110.36950683600001,36.885070801],[110.43872070300002,36.864929199],[110.47991943400001,36.856323242],[110.52648925800001,36.850708008],[110.56292724600002,36.851074219],[110.60949707000002,36.867919922],[110.62072753900001,36.896911621],[110.63909912100002,36.922485352],[110.68548584000001,36.924682617],[110.71252441400001,36.905517578],[110.74450683600001,36.864685059],[110.77349853500002,36.841674805],[110.80432128900001,36.829711914],[110.84307861300002,36.842285156],[110.88867187500001,36.87109375],[110.92468261700002,36.883483887],[110.97808837900001,36.881286621],[111.00811767600001,36.895507812],[111.07751464800002,36.910522461],[111.10748291000002,36.858276367],[111.14208984400001,36.846496582],[111.17749023400002,36.830505371],[111.20172119100002,36.797729492],[111.23828125000001,36.74432373],[111.27807617200001,36.711914062],[111.31188964800002,36.718078613],[111.34851074200002,36.750671387],[111.39007568400001,36.78729248],[111.36907959000001,36.80871582],[111.36688232400002,36.837097168],[111.40948486300002,36.859313965],[111.46868896500001,36.869873047],[111.50567627,36.879516602],[111.51892089800002,36.907104492],[111.49169921900001,36.929077148],[111.47668457000002,36.982116699],[111.52490234400001,36.958129883],[111.56091308600001,36.937072754],[111.59667968700002,36.933898926],[111.63751220700001,36.947875977],[111.71588134800001,36.976501465],[111.77868652300002,37.003723145],[111.83850097700001,37.022277832],[111.86370849600002,37.034484863],[111.85913085900002,37.035095215],[111.86730957000002,37.062316895],[111.87951660200001,37.074707031],[111.88928222700001,37.082885742],[111.89630127,37.097106934],[111.90472412100002,37.10369873],[111.92089843700002,37.107116699],[111.92211914100001,37.121887207],[111.93988037100002,37.233276367],[111.94207763700001,37.242919922],[111.94470214800002,37.246887207],[111.937316895,37.252685547],[111.93688964800002,37.259521484],[111.94787597700001,37.258117676],[111.97729492200001,37.272888184],[111.995910645,37.280517578],[112.00872802700002,37.282470703],[112.01831054700001,37.288085937],[112.02191162100002,37.292114258],[112.02331543000001,37.297302246],[112.02630615200002,37.305725098],[112.02709960900002,37.31451416],[112.02868652300002,37.319519043],[112.03387451200001,37.325317383],[112.04211425800001,37.329284668],[112.05407714800002,37.325683594],[112.05969238300001,37.322875977],[112.06768798800002,37.313903809],[112.07409668000001,37.307495117],[112.08709716800001,37.305908203],[112.09808349600002,37.304504395],[112.10791015600002,37.301086426],[112.11572265600002,37.287719727],[112.12170410200001,37.28112793],[112.13549804700001,37.294921875],[112.18530273400002,37.340881348],[112.22149658200001,37.361083984],[112.25170898400002,37.398925781],[112.26611328100002,37.430297852],[112.29229736300002,37.457702637]]]}}
