{"type":"Feature","id":"bulk-99377448B93857480335291","bbox":[116.36889648400002,23.448730469,117.17211914100001,24.260070801],"properties":{"id":"bulk-99377448B93857480335291","name":"Chaozhou","nameEn":"Chaozhou","fullName":"Chaozhou","level":"city","boundaryRole":"administrative-extent","boundaryQuality":"generalized-source-2020","boundaryYearRepresented":"2020","bounds":[[116.36889648400002,23.448730469],[117.17211914100001,24.260070801]],"center":[116.77050781250001,23.854400635],"centerMethod":"bounding-box midpoint; camera framing only","license":"CC-BY-3.0-IGO","attribution":"geoBoundaries / HDX, China administrative boundaries (2020)","source":{"provider":"geoBoundaries gbHumanitarian / HDX","url":"https://github.com/wmgeolab/geoBoundaries/raw/9469f09/releaseData/gbHumanitarian/CHN/ADM2/geoBoundaries-CHN-ADM2.geojson","metadataUrl":"https://www.geoboundaries.org/api/current/gbHumanitarian/CHN/ADM2/","shapeID":"99377448B93857480335291","shapeName":"Chaozhou","boundaryID":"CHN-ADM2-99377448","commit":"9469f09"},"geometryCounts":{"coordinates":117,"components":1,"holes":0},"boundaryNotice":"geoBoundaries / HDX 2020 年行政区数据，海岸和边界经过源数据概化，并非当前测绘成果。"},"geometry":{"type":"Polygon","coordinates":[[[116.93029785200001,24.260070801],[116.87548828100002,24.20892334],[116.83990478500002,24.186889648],[116.80828857400002,24.184509277],[116.77947998000002,24.177490234],[116.75927734400001,24.147521973],[116.74951171900001,24.12109375],[116.73950195300002,24.078918457],[116.72271728500002,24.048278809],[116.67089843700002,24.034729004],[116.64569091800001,23.996887207],[116.61047363300001,23.939880371],[116.57391357400002,23.913513184],[116.54431152300002,23.906494141],[116.51287841800001,23.895080566],[116.49572753900001,23.86529541],[116.49468994100002,23.832275391],[116.495910645,23.797302246],[116.46069335900002,23.785888672],[116.41772460900002,23.78692627],[116.37847900400001,23.77532959],[116.36889648400002,23.737121582],[116.40667724600002,23.720275879],[116.43127441400001,23.694885254],[116.44268798800002,23.664672852],[116.47912597700001,23.649291992],[116.50872802700002,23.658081055],[116.52569580100001,23.632080078],[116.51171875000001,23.594909668],[116.54168701200001,23.560302734],[116.53967285200001,23.518127441],[116.56768798800002,23.491271973],[116.59790039100001,23.48248291],[116.62048339800002,23.457092285],[116.65289306600002,23.452087402],[116.68310546900001,23.448730469],[116.70391845700001,23.477478027],[116.71710205100001,23.517272949],[116.70892334000001,23.549499512],[116.70190429700001,23.592285156],[116.72949218700002,23.608520508],[116.76690673800002,23.603271484],[116.79791259800001,23.618103027],[116.83911132800002,23.653930664],[116.89569091800001,23.621887207],[116.89971923800002,23.623291016],[116.90447998000002,23.628479004],[116.90972900400001,23.637695312],[116.90887451200001,23.65032959],[116.91107177700002,23.655090332],[116.91149902300002,23.655517578],[116.91790771500001,23.66192627],[116.92132568400001,23.662902832],[116.93267822300001,23.658874512],[116.94091796900001,23.660705566],[116.94488525400001,23.658691406],[116.95428466800001,23.659912109],[116.95550537100002,23.658325195],[116.94592285200001,23.654724121],[116.93811035200001,23.647888184],[116.93048095700001,23.644104004],[116.92712402300002,23.641113281],[116.92730712900001,23.62487793],[116.93188476600001,23.621887207],[116.94311523400002,23.621704102],[116.94750976600001,23.620117187],[116.95489502,23.613525391],[116.95611572300001,23.612487793],[116.95989990200002,23.612915039],[116.96948242200001,23.634521484],[116.96887207000002,23.638671875],[116.96508789100001,23.644104004],[116.96551513700001,23.649291992],[116.96887207000002,23.648681641],[116.97430419900002,23.643493652],[116.98071289100001,23.641113281],[116.98492431600002,23.640930176],[116.98968505900001,23.645874023],[116.99291992200001,23.641479492],[116.99768066400001,23.640686035],[117.00152587900001,23.637512207],[117.00689697300001,23.63848877],[117.00848388700001,23.636474609],[117.01452636700002,23.637512207],[117.02789306600002,23.63470459],[117.02050781200002,23.64630127],[117.01507568400001,23.658081055],[117.01690673800002,23.660705566],[117.01910400400001,23.659301758],[117.02667236300002,23.644470215],[117.02868652300002,23.644714355],[117.02752685500002,23.655517578],[117.038879395,23.663330078],[117.04248046900001,23.66192627],[117.04748535200001,23.656677246],[117.05487060500002,23.65447998],[117.06488037100002,23.646911621],[117.06872558600001,23.635070801],[117.08807373000002,23.622924805],[117.09588623000002,23.593688965],[117.08612060500002,23.575073242],[117.08709716800001,23.57232666],[117.08630371100001,23.571105957],[117.11810302700002,23.586914062],[117.14093017600001,23.601074219],[117.17211914100001,23.62512207],[117.12292480500001,23.670471191],[117.05529785200001,23.712524414],[117.01647949200002,23.807128906],[116.99468994100002,23.875488281],[116.94647216800001,23.947875977],[116.95367431600002,24.014526367],[116.91210937500001,24.082885742],[116.95770263700001,24.150878906],[116.95489502,24.186706543],[116.95068359400001,24.23828125],[116.93029785200001,24.260070801]]]}}
