{"type":"Feature","id":"bulk-99377448B94271591547177","bbox":[101.93548584000001,28.843688965,103.38232421900001,30.94152832],"properties":{"id":"bulk-99377448B94271591547177","name":"Ya'an","nameEn":"Ya'an","fullName":"Ya'an","level":"city","boundaryRole":"administrative-extent","boundaryQuality":"generalized-source-2020","boundaryYearRepresented":"2020","bounds":[[101.93548584000001,28.843688965],[103.38232421900001,30.94152832]],"center":[102.6589050295,29.8926086425],"centerMethod":"bounding-box midpoint; camera framing only","license":"CC-BY-3.0-IGO","attribution":"geoBoundaries / HDX, China administrative boundaries (2020)","source":{"provider":"geoBoundaries gbHumanitarian / HDX","url":"https://github.com/wmgeolab/geoBoundaries/raw/9469f09/releaseData/gbHumanitarian/CHN/ADM2/geoBoundaries-CHN-ADM2.geojson","metadataUrl":"https://www.geoboundaries.org/api/current/gbHumanitarian/CHN/ADM2/","shapeID":"99377448B94271591547177","shapeName":"Ya'an","boundaryID":"CHN-ADM2-99377448","commit":"9469f09"},"geometryCounts":{"coordinates":192,"components":1,"holes":0},"boundaryNotice":"geoBoundaries / HDX 2020 年行政区数据，海岸和边界经过源数据概化，并非当前测绘成果。"},"geometry":{"type":"Polygon","coordinates":[[[103.03051757800002,30.788879395],[102.99749755900001,30.780700684],[102.96411132800002,30.768493652],[102.90710449200002,30.747497559],[102.89251709000001,30.772705078],[102.86907959000001,30.807922363],[102.87487793000001,30.834472656],[102.88372802700002,30.862304687],[102.88629150400001,30.897888184],[102.90228271500001,30.927490234],[102.84991455100001,30.94152832],[102.80767822300001,30.935119629],[102.77252197300001,30.927124023],[102.72808837900001,30.927490234],[102.70507812500001,30.905517578],[102.70007324200002,30.877075195],[102.66888427700002,30.853088379],[102.63287353500002,30.853271484],[102.60028076200001,30.851318359],[102.57110595700001,30.827697754],[102.53289794900002,30.819885254],[102.50030517600001,30.795715332],[102.48992919900002,30.768676758],[102.49389648400002,30.731506348],[102.46307373000002,30.713684082],[102.47448730500001,30.674072266],[102.45489502,30.643920898],[102.437316895,30.606323242],[102.43151855500001,30.572875977],[102.42712402300002,30.534484863],[102.42749023400002,30.49810791],[102.43011474600002,30.466308594],[102.43969726600001,30.43347168],[102.44390869100002,30.402709961],[102.44451904300001,30.368103027],[102.43188476600001,30.325073242],[102.41851806600002,30.27911377],[102.41192627,30.252502441],[102.38989257800002,30.230102539],[102.35711669900002,30.221923828],[102.35070800800001,30.194885254],[102.32647705100001,30.165893555],[102.31591796900001,30.134887695],[102.31530761700002,30.107727051],[102.27392578100002,30.070495605],[102.27630615200002,30.019470215],[102.296691895,29.989685059],[102.30291748000002,29.961486816],[102.28991699200002,29.926696777],[102.28430175800001,29.894714355],[102.28833007800002,29.868103027],[102.31872558600001,29.846496582],[102.34368896500001,29.810119629],[102.34729003900001,29.770874023],[102.34869384800001,29.741882324],[102.33148193400001,29.710327148],[102.30688476600001,29.671508789],[102.29309082000002,29.644104004],[102.28448486300002,29.617919922],[102.28411865200002,29.586486816],[102.31109619100002,29.568481445],[102.31512451200001,29.541870117],[102.26110839800002,29.494689941],[102.22308349600002,29.473327637],[102.19232177700002,29.463684082],[102.17468261700002,29.491882324],[102.14447021500001,29.49987793],[102.11572265600002,29.483093262],[102.07232666000002,29.487915039],[102.02569580100001,29.500305176],[101.93548584000001,29.489318848],[101.94812011700002,29.459289551],[101.96911621100001,29.4375],[101.98272705100001,29.409912109],[101.97149658200001,29.366882324],[101.96173095700001,29.335876465],[101.96551513700001,29.306091309],[102.01708984400001,29.303527832],[102.05712890600002,29.293884277],[102.08990478500002,29.277282715],[102.11810302700002,29.256103516],[102.13110351600001,29.225097656],[102.10150146500001,29.206481934],[102.06927490200002,29.185302734],[102.09570312500001,29.168273926],[102.13067627,29.163085937],[102.15167236300002,29.139526367],[102.16467285200001,29.110900879],[102.16949462900001,29.068481445],[102.16748046900001,29.035888672],[102.20031738300001,28.985900879],[102.21649169900002,28.954101562],[102.24871826200001,28.931274414],[102.25787353500002,28.904724121],[102.29431152300002,28.889892578],[102.32788085900002,28.872070312],[102.34851074200002,28.843688965],[102.38732910200001,28.853088379],[102.44470214800002,28.849121094],[102.47912597700001,28.902709961],[102.47930908200001,28.949890137],[102.48248291000002,28.988891602],[102.49951171900001,29.01348877],[102.51208496100001,29.044494629],[102.53448486300002,29.083312988],[102.52087402300002,29.108276367],[102.563476562,29.119506836],[102.58789062500001,29.15032959],[102.59631347700001,29.18170166],[102.61328125000001,29.205322266],[102.63848877,29.187683105],[102.66711425800001,29.166870117],[102.71008300800001,29.158691406],[102.74371337900001,29.158508301],[102.77148437500001,29.187072754],[102.77368164100001,29.218078613],[102.78930664100001,29.252502441],[102.82373046900001,29.239685059],[102.83892822300001,29.212890625],[102.877929687,29.201721191],[102.91510009800001,29.243713379],[102.93048095700001,29.280090332],[102.95507812500001,29.304077148],[103.00207519500002,29.296325684],[102.99652099600002,29.329284668],[102.99291992200001,29.36529541],[102.98510742200001,29.402526855],[102.945129395,29.401672363],[102.91027832000002,29.421875],[102.87048339800002,29.413696289],[102.85327148400002,29.436706543],[102.83587646500001,29.467102051],[102.85467529300001,29.489074707],[102.88232421900001,29.513916016],[102.90972900400001,29.542114258],[102.92572021500001,29.568908691],[102.94030761700002,29.603515625],[102.94891357400002,29.645874023],[102.94470214800002,29.695129395],[102.94250488300001,29.725891113],[102.97467041000002,29.727478027],[103.01049804700001,29.720703125],[103.04132080100001,29.696716309],[103.08349609400001,29.687927246],[103.11712646500001,29.681884766],[103.15588378900001,29.694274902],[103.15087890600002,29.725524902],[103.163879395,29.751281738],[103.16711425800001,29.788330078],[103.15087890600002,29.815124512],[103.12628173800002,29.862304687],[103.10729980500001,29.889892578],[103.12371826200001,29.922729492],[103.15631103500002,29.922729492],[103.19787597700001,29.968688965],[103.24792480500001,30.011474609],[103.252929687,30.047485352],[103.29107666000002,30.076721191],[103.33489990200002,30.071472168],[103.36108398400002,30.09387207],[103.38232421900001,30.129516602],[103.37530517600001,30.162109375],[103.37670898400002,30.196289062],[103.370117187,30.228515625],[103.32232666000002,30.238708496],[103.25109863300001,30.260070801],[103.24432373000002,30.231323242],[103.21472168000001,30.212097168],[103.18768310500002,30.238891602],[103.145507812,30.220092773],[103.120910645,30.202880859],[103.08447265600002,30.206298828],[103.06848144500002,30.238708496],[103.05969238300001,30.272521973],[103.08172607400002,30.309692383],[103.11511230500001,30.341125488],[103.13012695300002,30.370483398],[103.14892578100002,30.402526855],[103.17132568400001,30.434875488],[103.19372558600001,30.466125488],[103.21148681600002,30.495117187],[103.211914062,30.52331543],[103.21490478500002,30.552490234],[103.17388916000002,30.57208252],[103.14392089800002,30.584899902],[103.12969970700001,30.618286133],[103.12768554700001,30.656494141],[103.120117187,30.682495117],[103.10131835900002,30.71472168],[103.08227539100001,30.738525391],[103.05847168000001,30.76171875],[103.03051757800002,30.788879395]]]}}
