{"type":"Feature","id":"bulk-99377448B33789291002927","bbox":[111.99932861300002,21.757507324,113.22808837900001,22.848083496],"properties":{"id":"bulk-99377448B33789291002927","name":"Jiangmen","nameEn":"Jiangmen","fullName":"Jiangmen","level":"city","boundaryRole":"administrative-extent","boundaryQuality":"generalized-source-2020","boundaryYearRepresented":"2020","bounds":[[111.99932861300002,21.757507324],[113.22808837900001,22.848083496]],"center":[112.61370849600002,22.30279541],"centerMethod":"bounding-box midpoint; camera framing only","license":"CC-BY-3.0-IGO","attribution":"geoBoundaries / HDX, China administrative boundaries (2020)","source":{"provider":"geoBoundaries gbHumanitarian / HDX","url":"https://github.com/wmgeolab/geoBoundaries/raw/9469f09/releaseData/gbHumanitarian/CHN/ADM2/geoBoundaries-CHN-ADM2.geojson","metadataUrl":"https://www.geoboundaries.org/api/current/gbHumanitarian/CHN/ADM2/","shapeID":"99377448B33789291002927","shapeName":"Jiangmen","boundaryID":"CHN-ADM2-99377448","commit":"9469f09"},"geometryCounts":{"coordinates":372,"components":5,"holes":0},"boundaryNotice":"geoBoundaries / HDX 2020 年行政区数据，海岸和边界经过源数据概化，并非当前测绘成果。"},"geometry":{"type":"MultiPolygon","coordinates":[[[[112.47009277300002,21.943115234],[112.47351074200002,21.948730469],[112.46569824200002,21.948486328],[112.46032714800002,21.945129395],[112.47009277300002,21.943115234]]],[[[112.82849121100001,21.965515137],[112.83111572300001,21.967102051],[112.83508300800001,21.978271484],[112.83288574200002,21.980529785],[112.82690429700001,21.978515625],[112.82269287100002,21.972290039],[112.82489013700001,21.966918945],[112.82849121100001,21.965515137]]],[[[113.08551025400001,22.215515137],[113.08331298800002,22.225097656],[113.07989502,22.231079102],[113.08270263700001,22.216491699],[113.08551025400001,22.215515137]]],[[[113.00708007800002,22.446289062],[113.01031494100002,22.446716309],[113.01287841800001,22.451904297],[113.01068115200002,22.460083008],[113.01287841800001,22.477294922],[113.01129150400001,22.485107422],[113.00750732400002,22.491699219],[113.00012207000002,22.498718262],[112.99487304700001,22.501281738],[112.98791503900001,22.502319336],[112.98370361300002,22.50012207],[112.98327636700002,22.496704102],[112.98547363300001,22.489501953],[112.98431396500001,22.480102539],[112.99328613300001,22.465087891],[112.99749755900001,22.453308105],[112.99871826200001,22.449890137],[113.00268554700001,22.44708252],[113.00708007800002,22.446289062]]],[[[112.49328613300001,22.686096191],[112.49749755900001,22.645874023],[112.51269531200002,22.622497559],[112.47552490200002,22.600097656],[112.43371582000002,22.600708008],[112.41210937500001,22.625915527],[112.38909912100002,22.647705078],[112.35809326200001,22.624694824],[112.34649658200001,22.596679687],[112.32312011700002,22.558105469],[112.28411865200002,22.548278809],[112.24749755900001,22.519897461],[112.21990966800001,22.47668457],[112.21447753900001,22.444519043],[112.19848632800002,22.414123535],[112.16149902300002,22.392883301],[112.13732910200001,22.374694824],[112.10510253900001,22.363891602],[112.06909179700001,22.356323242],[112.03247070300002,22.329528809],[112.00750732400002,22.291687012],[111.99932861300002,22.253479004],[112.00787353500002,22.227111816],[112.01507568400001,22.198913574],[112.00451660200001,22.16809082],[112.00512695300002,22.138916016],[112.02893066400001,22.123291016],[112.0625,22.126098633],[112.09649658200001,22.125915527],[112.12390136700002,22.111328125],[112.14727783200001,22.090698242],[112.17749023400002,22.087890625],[112.19989013700001,22.063720703],[112.21270752,22.019470215],[112.23748779300001,21.989685059],[112.26892089800002,21.974487305],[112.36492919900002,21.946716309],[112.36071777300002,21.972106934],[112.36010742200001,21.993286133],[112.36352539100001,22.011901855],[112.36712646500001,22.01751709],[112.36889648400002,22.020507812],[112.36853027300002,22.023925781],[112.37347412100002,22.027709961],[112.37432861300002,22.02911377],[112.37628173800002,22.039306641],[112.37951660200001,22.037719727],[112.38568115200002,22.042297363],[112.38970947300001,22.041687012],[112.39129638700001,22.044494629],[112.39093017600001,22.048522949],[112.39331054700001,22.054321289],[112.39093017600001,22.059692383],[112.39208984400001,22.06652832],[112.38970947300001,22.075927734],[112.39172363300001,22.077087402],[112.39532470700001,22.073303223],[112.39447021500001,22.061279297],[112.39709472700001,22.055114746],[112.39947509800001,22.054870605],[112.40368652300002,22.059326172],[112.40710449200002,22.060302734],[112.413879395,22.054077148],[112.40747070300002,22.053894043],[112.39868164100001,22.051330566],[112.39709472700001,22.045471191],[112.40209960900002,22.048095703],[112.39788818400001,22.032470703],[112.38891601600001,22.015075684],[112.38452148400002,21.989318848],[112.38867187500001,21.958679199],[112.39349365200002,21.948303223],[112.40991210900002,21.933105469],[112.42431640600002,21.9375],[112.44970703100002,21.94732666],[112.45391845700001,21.946289062],[112.45629882800002,21.951904297],[112.46331787100002,21.953308105],[112.47192382800002,21.952880859],[112.47528076200001,21.951477051],[112.48291015600002,21.963684082],[112.48272705100001,21.963928223],[112.48413085900002,21.965698242],[112.49230957000002,21.978881836],[112.50750732400002,21.960083008],[112.50628662100002,21.950683594],[112.50830078100002,21.948120117],[112.50567627,21.943481445],[112.50311279300001,21.942321777],[112.50109863300001,21.937927246],[112.47851562500001,21.925292969],[112.44909668000001,21.913879395],[112.42547607400002,21.901306152],[112.41748046900001,21.892272949],[112.41967773400002,21.860717773],[112.42529296900001,21.838317871],[112.42871093700002,21.835510254],[112.43890380900001,21.830078125],[112.45129394500002,21.829101562],[112.49548339800002,21.8046875],[112.49969482400002,21.803527832],[112.50268554700001,21.80267334],[112.52551269500002,21.788513184],[112.54028320300002,21.781311035],[112.54650878900001,21.775878906],[112.55133056600002,21.774475098],[112.55767822300001,21.767272949],[112.55792236300002,21.759094238],[112.56188964800002,21.757507324],[112.56707763700001,21.761901855],[112.58831787100002,21.760314941],[112.60430908200001,21.765686035],[112.60949707000002,21.765686035],[112.61248779300001,21.768493652],[112.61212158200001,21.769714355],[112.61712646500001,21.774108887],[112.62652587900001,21.774291992],[112.62969970700001,21.777709961],[112.62707519500002,21.784912109],[112.63067627,21.788513184],[112.64093017600001,21.79107666],[112.64788818400001,21.788330078],[112.64990234400001,21.789672852],[112.65112304700001,21.796081543],[112.65148925800001,21.802490234],[112.64892578100002,21.808898926],[112.65112304700001,21.817321777],[112.64770507800002,21.840270996],[112.65270996100001,21.842712402],[112.65209960900002,21.843688965],[112.65228271500001,21.851318359],[112.65270996100001,21.851501465],[112.65850830100001,21.85369873],[112.66369628900001,21.853881836],[112.67071533200001,21.851501465],[112.68609619100002,21.858886719],[112.69329834000001,21.862487793],[112.69567871100001,21.872680664],[112.69848632800002,21.878723145],[112.72088623000002,21.89831543],[112.72570800800001,21.900085449],[112.72827148400002,21.899108887],[112.73492431600002,21.890075684],[112.74707031200002,21.91192627],[112.74627685500002,21.914489746],[112.75067138700001,21.91809082],[112.75091552700002,21.918518066],[112.75250244100002,21.923095703],[112.75811767600001,21.931518555],[112.75830078100002,21.93170166],[112.76190185500002,21.937927246],[112.76629638700001,21.938476562],[112.77447509800001,21.945495605],[112.78552246100001,21.949707031],[112.79467773400002,21.94708252],[112.79852294900002,21.947875977],[112.812316895,21.956481934],[112.81671142600001,21.956726074],[112.82330322300001,21.954528809],[112.82592773400002,21.956115723],[112.81970214800002,21.965270996],[112.81768798800002,21.971496582],[112.82391357400002,21.981506348],[112.83691406200002,21.985717773],[112.83752441400001,21.986694336],[112.83831787100002,21.987915039],[112.83489990200002,22.006103516],[112.83349609400001,22.009887695],[112.82647705100001,22.015686035],[112.81347656200002,22.021728516],[112.80572509800001,22.022277832],[112.80328369100002,22.025085449],[112.81390380900001,22.024475098],[112.83032226600001,22.019287109],[112.83312988300001,22.015075684],[112.83831787100002,22.006713867],[112.84350585900002,21.987121582],[112.84307861300002,21.982727051],[112.83892822300001,21.974121094],[112.83972168000001,21.970275879],[112.84887695300002,21.964477539],[112.85351562500001,21.959106445],[112.86389160200001,21.93572998],[112.87268066400001,21.930908203],[112.87371826200001,21.925476074],[112.87670898400002,21.922485352],[112.87609863300001,21.91607666],[112.87750244100002,21.910888672],[112.87652587900001,21.905883789],[112.87512207000002,21.899719238],[112.86907959000001,21.896484375],[112.87487793000001,21.890075684],[112.88909912100002,21.88848877],[112.89288330100001,21.885681152],[112.89068603500002,21.871520996],[112.89367675800001,21.867492676],[112.89508056600002,21.86151123],[112.90289306600002,21.855285645],[112.91589355500001,21.852905273],[112.91992187500001,21.854675293],[112.92510986300002,21.864685059],[112.94030761700002,21.86932373],[112.95050048800002,21.869873047],[112.95288085900002,21.869873047],[112.95867919900002,21.873474121],[112.96289062500001,21.88067627],[112.97589111300002,21.889099121],[112.98150634800001,21.889709473],[112.98431396500001,21.906921387],[112.98211669900002,21.910522461],[112.98168945300002,21.914672852],[112.98327636700002,21.918884277],[112.98950195300002,21.924926758],[112.99407959000001,21.926086426],[113.00012207000002,21.932128906],[113.00567627,21.93548584],[113.01568603500002,21.936279297],[113.01947021500001,21.941894531],[113.02410888700001,21.943481445],[113.01867675800001,21.962890625],[113.01812744100002,21.962890625],[113.01507568400001,21.966308594],[113.01367187500001,21.977478027],[113.01129150400001,21.981323242],[112.99407959000001,22.00390625],[113.00347900400001,22.022094727],[112.99450683600001,22.051879883],[112.99407959000001,22.074279785],[112.99511718700002,22.082092285],[112.99487304700001,22.084899902],[112.99548339800002,22.086730957],[112.99652099600002,22.094482422],[113.00128173800002,22.101074219],[113.00872802700002,22.119873047],[113.03369140600002,22.153503418],[113.04107666000002,22.163513184],[113.05328369100002,22.173706055],[113.06469726600001,22.198303223],[113.06848144500002,22.226928711],[113.05950927700002,22.260498047],[113.054504395,22.29107666],[113.05310058600001,22.31048584],[113.05389404300001,22.338317871],[113.05932617200001,22.362304687],[113.05511474600002,22.383728027],[113.04327392600001,22.417297363],[113.03210449200002,22.437072754],[113.02209472700001,22.440307617],[113.00512695300002,22.442321777],[112.99707031200002,22.445922852],[112.99151611300002,22.450927734],[112.98431396500001,22.470275879],[112.97607421900001,22.479125977],[112.96929931600002,22.483093262],[112.97113037100002,22.484924316],[112.97930908200001,22.48449707],[112.98052978500002,22.487670898],[112.97912597700001,22.493530273],[112.97149658200001,22.498474121],[112.96447753900001,22.497680664],[112.96331787100002,22.504699707],[112.98492431600002,22.507080078],[113.00067138700001,22.502685547],[113.01348877,22.49230957],[113.01751709000001,22.484680176],[113.01629638700001,22.46270752],[113.01727294900002,22.454284668],[113.02392578100002,22.449707031],[113.04888916000002,22.441101074],[113.06048584000001,22.442687988],[113.06512451200001,22.433898926],[113.06689453100002,22.43371582],[113.06951904300001,22.440490723],[113.07788085900002,22.469482422],[113.08007812500001,22.468505859],[113.08032226600001,22.462097168],[113.07049560500002,22.424926758],[113.07128906200002,22.421875],[113.07269287100002,22.419311523],[113.07330322300001,22.415100098],[113.07629394500002,22.40411377],[113.07629394500002,22.392883301],[113.07751464800002,22.383117676],[113.08312988300001,22.337524414],[113.08447265600002,22.311706543],[113.08032226600001,22.271911621],[113.08007812500001,22.269897461],[113.08471679700001,22.257507324],[113.08911132800002,22.225708008],[113.10131835900002,22.212280273],[113.12750244100002,22.223510742],[113.13067627,22.225891113],[113.13507080100001,22.227478027],[113.15191650400001,22.24432373],[113.13171386700002,22.230529785],[113.14929199200002,22.262512207],[113.14831543000001,22.298095703],[113.14971923800002,22.325683594],[113.14508056600002,22.353088379],[113.13452148400002,22.380493164],[113.14208984400001,22.414489746],[113.17248535200001,22.414123535],[113.20172119100002,22.410095215],[113.22808837900001,22.439880371],[113.20690918000001,22.472473145],[113.17932128900001,22.500915527],[113.15667724600002,22.534912109],[113.16247558600001,22.572509766],[113.14172363300001,22.606872559],[113.120910645,22.626708984],[113.12469482400002,22.665710449],[113.11547851600001,22.701293945],[113.08148193400001,22.715881348],[113.05688476600001,22.751525879],[113.02410888700001,22.804077148],[112.99029541000002,22.839477539],[112.95227050800001,22.814086914],[112.90808105500001,22.819885254],[112.85809326200001,22.848083496],[112.82550048800002,22.833496094],[112.80310058600001,22.813293457],[112.78350830100001,22.776672363],[112.77130127,22.751708984],[112.75250244100002,22.704284668],[112.71228027300002,22.688720703],[112.67291259800001,22.701293945],[112.66412353500002,22.743530273],[112.64447021500001,22.770507812],[112.60931396500001,22.783874512],[112.60388183600001,22.75592041],[112.57952880900001,22.738891602],[112.56671142600001,22.697875977],[112.56268310500002,22.665283203],[112.53332519500002,22.655090332],[112.49328613300001,22.686096191]]]]}}
