{"type":"Feature","id":"bulk-99377448B62954215666794","bbox":[117.48571777300002,39.038696289,119.22869873000002,40.417114258],"properties":{"id":"bulk-99377448B62954215666794","name":"Tangshan","nameEn":"Tangshan","fullName":"Tangshan","level":"city","boundaryRole":"administrative-extent","boundaryQuality":"generalized-source-2020","boundaryYearRepresented":"2020","bounds":[[117.48571777300002,39.038696289],[119.22869873000002,40.417114258]],"center":[118.35720825150003,39.7279052735],"centerMethod":"bounding-box midpoint; camera framing only","license":"CC-BY-3.0-IGO","attribution":"geoBoundaries / HDX, China administrative boundaries (2020)","source":{"provider":"geoBoundaries gbHumanitarian / HDX","url":"https://github.com/wmgeolab/geoBoundaries/raw/9469f09/releaseData/gbHumanitarian/CHN/ADM2/geoBoundaries-CHN-ADM2.geojson","metadataUrl":"https://www.geoboundaries.org/api/current/gbHumanitarian/CHN/ADM2/","shapeID":"99377448B62954215666794","shapeName":"Tangshan","boundaryID":"CHN-ADM2-99377448","commit":"9469f09"},"geometryCounts":{"coordinates":250,"components":3,"holes":0},"boundaryNotice":"geoBoundaries / HDX 2020 年行政区数据，海岸和边界经过源数据概化，并非当前测绘成果。"},"geometry":{"type":"MultiPolygon","coordinates":[[[[118.84149169900002,39.106323242],[118.84570312500001,39.106689453],[118.84710693400001,39.107299805],[118.84967041000002,39.108703613],[118.85467529300001,39.118713379],[118.85192871100001,39.118896484],[118.84332275400001,39.110717773],[118.84149169900002,39.106323242]]],[[[118.88372802700002,39.122680664],[118.91589355500001,39.128479004],[118.91967773400002,39.13092041],[118.93151855500001,39.140075684],[118.94567871100001,39.14831543],[118.94128418000001,39.150878906],[118.92828369100002,39.139282227],[118.89990234400001,39.129516602],[118.88427734400001,39.127319336],[118.88110351600001,39.123718262],[118.88372802700002,39.122680664]]],[[[118.01727294900002,39.22467041],[118.03350830100001,39.22668457],[118.06549072300001,39.227905273],[118.07287597700001,39.223510742],[118.09692382800002,39.217285156],[118.13830566400001,39.200927734],[118.15350341800001,39.18951416],[118.16247558600001,39.182495117],[118.18591308600001,39.151916504],[118.19647216800001,39.133483887],[118.23132324200002,39.095703125],[118.24328613300001,39.085693359],[118.25732421900001,39.072692871],[118.26208496100001,39.06628418],[118.26452636700002,39.065673828],[118.26531982400002,39.062072754],[118.27172851600001,39.054077148],[118.27508544900002,39.061889648],[118.28088378900001,39.058898926],[118.28527832000002,39.061279297],[118.29010009800001,39.05670166],[118.29547119100002,39.055114746],[118.29632568400001,39.052490234],[118.29272460900002,39.048522949],[118.31127929700001,39.039672852],[118.31628418000001,39.038696289],[118.36853027300002,39.059326172],[118.378723145,39.065917969],[118.38970947300001,39.079711914],[118.40551757800002,39.093078613],[118.42767334000001,39.108886719],[118.46807861300002,39.129089355],[118.51068115200002,39.147094727],[118.52630615200002,39.152099609],[118.52868652300002,39.155700684],[118.53430175800001,39.155090332],[118.54290771500001,39.163513184],[118.55187988300001,39.165893555],[118.56011962900001,39.16809082],[118.58172607400002,39.178100586],[118.60388183600001,39.185302734],[118.61090087900001,39.190124512],[118.61590576200001,39.193725586],[118.62530517600001,39.186889648],[118.65588378900001,39.184692383],[118.67108154300001,39.180908203],[118.68109130900001,39.174316406],[118.68292236300002,39.18548584],[118.68109130900001,39.192504883],[118.68292236300002,39.196289062],[118.68548584000001,39.195922852],[118.68768310500002,39.193115234],[118.69128418000001,39.164123535],[118.69610595700001,39.157897949],[118.70031738300001,39.152282715],[118.71691894500002,39.145874023],[118.72827148400002,39.142883301],[118.74072265600002,39.143127441],[118.77667236300002,39.146484375],[118.79052734400001,39.150512695],[118.80090332000002,39.156921387],[118.81127929700001,39.174316406],[118.83447265600002,39.169311523],[118.83612060500002,39.162109375],[118.84448242200001,39.159484863],[118.85052490200002,39.157470703],[118.85650634800001,39.156677246],[118.88549804700001,39.174072266],[118.91412353500002,39.182128906],[118.92431640600002,39.180480957],[118.92889404300001,39.181518555],[118.95227050800001,39.183898926],[118.96649169900002,39.189697266],[118.99328613300001,39.203308105],[119.01489257800002,39.224304199],[119.02008056600002,39.239318848],[119.02893066400001,39.263122559],[119.03411865200002,39.277282715],[119.05749511700002,39.28112793],[119.06890869100002,39.286682129],[119.08209228500002,39.296691895],[119.09912109400001,39.319091797],[119.11608886700002,39.341308594],[119.12371826200001,39.356079102],[119.12689209000001,39.37310791],[119.12707519500002,39.384887695],[119.14111328100002,39.392089844],[119.15289306600002,39.389526367],[119.17749023400002,39.384277344],[119.19049072300001,39.381286621],[119.18890380900001,39.387695312],[119.19268798800002,39.38848877],[119.19989013700001,39.38092041],[119.20227050800001,39.379882812],[119.21990966800001,39.385925293],[119.22869873000002,39.395507812],[119.16149902300002,39.446105957],[119.10229492200001,39.464111328],[119.09008789100001,39.464904785],[119.05749511700002,39.474121094],[119.02972412100002,39.473693848],[118.98431396500001,39.453674316],[118.95788574200002,39.462524414],[118.93072509800001,39.491882324],[118.92248535200001,39.526916504],[118.91467285200001,39.538879395],[118.90307617200001,39.544311523],[118.87207031200002,39.516479492],[118.83929443400001,39.52331543],[118.81951904300001,39.538513184],[118.80688476600001,39.562316895],[118.80651855500001,39.610473633],[118.78509521500001,39.621887207],[118.74407959000001,39.653686523],[118.73150634800001,39.67767334],[118.72711181600002,39.693908691],[118.72888183600001,39.707702637],[118.74328613300001,39.752685547],[118.77032470700001,39.799072266],[118.76770019500002,39.829284668],[118.78588867200001,39.853271484],[118.77789306600002,39.863098145],[118.80389404300001,39.914672852],[118.80987548800002,39.929870605],[118.81707763700001,39.954528809],[118.81549072300001,39.976501465],[118.81549072300001,40.011108398],[118.81951904300001,40.045288086],[118.82092285200001,40.057678223],[118.83850097700001,40.062683105],[118.87310791000002,40.069885254],[118.91192627,40.076721191],[118.96929931600002,40.097900391],[118.85571289100001,40.148071289],[118.81268310500002,40.167480469],[118.75891113300001,40.177490234],[118.71527099600002,40.18347168],[118.65252685500002,40.189086914],[118.58270263700001,40.210510254],[118.54510498000002,40.231323242],[118.52770996100001,40.256103516],[118.52087402300002,40.307678223],[118.52990722700001,40.343688965],[118.50268554700001,40.370483398],[118.46429443400001,40.38067627],[118.40429687500001,40.380493164],[118.36968994100002,40.393310547],[118.30847168000001,40.414306641],[118.24890136700002,40.417114258],[118.21209716800001,40.405883789],[118.17230224600002,40.404724121],[118.13928222700001,40.36328125],[118.10107421900001,40.340270996],[118.10211181600002,40.307678223],[118.06390380900001,40.30291748],[118.03027343700002,40.292907715],[117.99468994100002,40.274719238],[117.95428466800001,40.261901855],[117.91333007800002,40.249511719],[117.86132812500001,40.239929199],[117.81951904300001,40.235473633],[117.78350830100001,40.230529785],[117.74670410200001,40.221496582],[117.70568847700001,40.208312988],[117.64672851600001,40.194274902],[117.57489013700001,40.17010498],[117.59887695300002,40.122680664],[117.62310791000002,40.076721191],[117.65692138700001,40.055114746],[117.70190429700001,40.04888916],[117.73712158200001,40.039672852],[117.74951171900001,40.021118164],[117.73272705100001,39.998901367],[117.73828125000001,39.98248291],[117.75848388700001,39.97052002],[117.77252197300001,39.966125488],[117.77532959000001,39.946289062],[117.76568603500002,39.926696777],[117.70910644500002,39.933105469],[117.64068603500002,39.955322266],[117.50250244100002,39.967529297],[117.48748779300001,39.934692383],[117.48571777300002,39.913513184],[117.49468994100002,39.894287109],[117.49188232400002,39.875915527],[117.49389648400002,39.858093262],[117.51171875000001,39.817504883],[117.54827880900001,39.786315918],[117.54949951200001,39.75970459],[117.546875,39.745727539],[117.55651855500001,39.730285645],[117.55627441400001,39.728515625],[117.55267334000001,39.716308594],[117.55407714800002,39.705505371],[117.562316895,39.692504883],[117.58251953100002,39.680480957],[117.61791992200001,39.674926758],[117.62591552700002,39.66027832],[117.61767578100002,39.626708984],[117.59552002,39.59588623],[117.59448242200001,39.587097168],[117.59808349600002,39.57611084],[117.60711669900002,39.5703125],[117.66589355500001,39.568115234],[117.68267822300001,39.562316895],[117.65991210900002,39.526123047],[117.67108154300001,39.518310547],[117.69171142600001,39.533081055],[117.70031738300001,39.546875],[117.70727539100001,39.593078613],[117.75067138700001,39.59588623],[117.79510498000002,39.586120605],[117.85131835900002,39.575683594],[117.88110351600001,39.563110352],[117.88311767600001,39.540710449],[117.88549804700001,39.515686035],[117.87829589800002,39.463928223],[117.86029052700002,39.423095703],[117.85327148400002,39.397888184],[117.84667968700002,39.377929687],[117.84210205100001,39.366516113],[117.87249755900001,39.375488281],[117.92047119100002,39.382873535],[117.97808837900001,39.36730957],[118.00170898400002,39.35369873],[118.01092529300001,39.326477051],[118.01428222700001,39.288330078],[118.01831054700001,39.266906738],[118.02008056600002,39.260498047],[118.02630615200002,39.239929199],[118.01727294900002,39.22467041]]]]}}
