{"type":"Feature","id":"bulk-99377448B262066778249","bbox":[112.88592529300001,37.661499023,114.00988769500002,38.520080566],"properties":{"id":"bulk-99377448B262066778249","name":"Yangquan","nameEn":"Yangquan","fullName":"Yangquan","level":"city","boundaryRole":"administrative-extent","boundaryQuality":"generalized-source-2020","boundaryYearRepresented":"2020","bounds":[[112.88592529300001,37.661499023],[114.00988769500002,38.520080566]],"center":[113.44790649400002,38.0907897945],"centerMethod":"bounding-box midpoint; camera framing only","license":"CC-BY-3.0-IGO","attribution":"geoBoundaries / HDX, China administrative boundaries (2020)","source":{"provider":"geoBoundaries gbHumanitarian / HDX","url":"https://github.com/wmgeolab/geoBoundaries/raw/9469f09/releaseData/gbHumanitarian/CHN/ADM2/geoBoundaries-CHN-ADM2.geojson","metadataUrl":"https://www.geoboundaries.org/api/current/gbHumanitarian/CHN/ADM2/","shapeID":"99377448B262066778249","shapeName":"Yangquan","boundaryID":"CHN-ADM2-99377448","commit":"9469f09"},"geometryCounts":{"coordinates":81,"components":1,"holes":0},"boundaryNotice":"geoBoundaries / HDX 2020 年行政区数据，海岸和边界经过源数据概化，并非当前测绘成果。"},"geometry":{"type":"Polygon","coordinates":[[[113.52209472700001,38.520080566],[113.47607421900001,38.51550293],[113.42230224600002,38.519104004],[113.38531494100002,38.517700195],[113.33148193400001,38.504089355],[113.27807617200001,38.477905273],[113.24487304700001,38.448486328],[113.21209716800001,38.417114258],[113.16491699200002,38.407104492],[113.11212158200001,38.410522461],[113.12030029300001,38.376708984],[113.09332275400001,38.332092285],[113.06610107400002,38.291687012],[113.03411865200002,38.272521973],[112.99108886700002,38.252319336],[112.94671630900001,38.229675293],[112.90869140600002,38.198486328],[112.88592529300001,38.161499023],[112.88909912100002,38.123291016],[112.93609619100002,38.097473145],[112.99188232400002,38.092102051],[113.02069091800001,38.068725586],[113.05767822300001,38.072875977],[113.10192871100001,38.065124512],[113.14508056600002,38.046325684],[113.17449951200001,38.076477051],[113.20709228500002,38.089111328],[113.22650146500001,38.052307129],[113.24627685500002,38.009887695],[113.28833007800002,37.981689453],[113.31268310500002,37.948913574],[113.32312011700002,37.898071289],[113.33410644500002,37.862670898],[113.34613037100002,37.829528809],[113.36108398400002,37.803100586],[113.38848877,37.763671875],[113.42633056600002,37.739074707],[113.42889404300001,37.710693359],[113.47491455100001,37.680480957],[113.50988769500002,37.674499512],[113.55627441400001,37.678283691],[113.60192871100001,37.667297363],[113.65551757800002,37.66192627],[113.68707275400001,37.683288574],[113.73107910200001,37.676330566],[113.76568603500002,37.661499023],[113.79992675800001,37.667724609],[113.83990478500002,37.693908691],[113.89007568400001,37.695495605],[113.92211914100001,37.682922363],[113.96148681600002,37.718505859],[113.99389648400002,37.747680664],[114.00988769500002,37.77130127],[114.00952148400002,37.792480469],[113.99371337900001,37.79888916],[113.96191406200002,37.812927246],[113.93389892600001,37.835693359],[113.92669677700002,37.860717773],[113.90270996100001,37.899108887],[113.86328125000001,37.924682617],[113.84448242200001,37.950927734],[113.82910156200002,37.969726562],[113.83569335900002,38.022521973],[113.80432128900001,38.051513672],[113.78790283200001,38.094726562],[113.78747558600001,38.096130371],[113.79608154300001,38.141723633],[113.78027343700002,38.150878906],[113.70587158200001,38.150878906],[113.71868896500001,38.182312012],[113.66070556600002,38.219909668],[113.64770507800002,38.21307373],[113.57092285200001,38.210327148],[113.51568603500002,38.258300781],[113.50811767600001,38.274291992],[113.51452636700002,38.294494629],[113.50347900400001,38.344116211],[113.50848388700001,38.389892578],[113.52392578100002,38.431884766],[113.53332519500002,38.472473145],[113.52209472700001,38.520080566]]]}}
