{"type":"Feature","id":"bulk-99377448B88033695756728","bbox":[99.37689209000001,26.027709961,101.54187011700002,27.89630127],"properties":{"id":"bulk-99377448B88033695756728","name":"Lijiang","nameEn":"Lijiang","fullName":"Lijiang","level":"city","boundaryRole":"administrative-extent","boundaryQuality":"generalized-source-2020","boundaryYearRepresented":"2020","bounds":[[99.37689209000001,26.027709961],[101.54187011700002,27.89630127]],"center":[100.45938110350002,26.962005615499997],"centerMethod":"bounding-box midpoint; camera framing only","license":"CC-BY-3.0-IGO","attribution":"geoBoundaries / HDX, China administrative boundaries (2020)","source":{"provider":"geoBoundaries gbHumanitarian / HDX","url":"https://github.com/wmgeolab/geoBoundaries/raw/9469f09/releaseData/gbHumanitarian/CHN/ADM2/geoBoundaries-CHN-ADM2.geojson","metadataUrl":"https://www.geoboundaries.org/api/current/gbHumanitarian/CHN/ADM2/","shapeID":"99377448B88033695756728","shapeName":"Lijiang","boundaryID":"CHN-ADM2-99377448","commit":"9469f09"},"geometryCounts":{"coordinates":205,"components":1,"holes":0},"boundaryNotice":"geoBoundaries / HDX 2020 年行政区数据，海岸和边界经过源数据概化，并非当前测绘成果。"},"geometry":{"type":"Polygon","coordinates":[[[100.39093017600001,27.752685547],[100.36047363300001,27.727111816],[100.33129882800002,27.71307373],[100.30908203100002,27.690917969],[100.29791259800001,27.649291992],[100.27929687500001,27.620483398],[100.27191162100002,27.58807373],[100.24407959000001,27.565490723],[100.23413085900002,27.530273437],[100.22052002,27.505493164],[100.19689941400001,27.487304687],[100.20208740200002,27.459899902],[100.22027587900001,27.43548584],[100.22912597700001,27.403686523],[100.24169921900001,27.371887207],[100.25610351600001,27.336914062],[100.25152587900001,27.305297852],[100.22290039100001,27.27532959],[100.19311523400002,27.261474609],[100.163879395,27.247070312],[100.13470459000001,27.225524902],[100.10607910200001,27.19909668],[100.09271240200002,27.170288086],[100.097473145,27.130493164],[100.09552002,27.092895508],[100.09729003900001,27.06048584],[100.09088134800001,27.01751709],[100.07891845700001,26.981079102],[100.06427002,26.954284668],[100.05151367200001,26.920288086],[100.02947998,26.895507812],[100.00152587900001,26.884887695],[99.97210693400001,26.909729004],[99.96710205100001,26.938903809],[99.97650146500001,26.971496582],[99.98211669900002,27.001098633],[99.96209716800001,27.032287598],[99.93090820300002,27.069702148],[99.91070556600002,27.090515137],[99.89190673800002,27.112487793],[99.863098145,27.146911621],[99.84588623,27.175292969],[99.83068847700001,27.20111084],[99.79449462900001,27.233276367],[99.76391601600001,27.255310059],[99.71710205100001,27.289489746],[99.68908691400001,27.307678223],[99.67492675800001,27.33190918],[99.67230224600002,27.361328125],[99.65112304700001,27.390930176],[99.63287353500002,27.414306641],[99.62890625000001,27.441711426],[99.60247802700002,27.480285645],[99.58990478500002,27.514099121],[99.58007812500001,27.546325684],[99.56292724600002,27.579528809],[99.54272460900002,27.545288086],[99.52770996100001,27.521118164],[99.52069091800001,27.471923828],[99.49371337900001,27.451293945],[99.43310546900001,27.437927246],[99.40209960900002,27.426879883],[99.39270019500002,27.397888184],[99.39807128900001,27.360290527],[99.40350341800001,27.331481934],[99.40570068400001,27.294921875],[99.39947509800001,27.264892578],[99.39508056600002,27.233520508],[99.39648437500001,27.200927734],[99.37689209000001,27.17767334],[99.39532470700001,27.136901855],[99.42468261700002,27.10748291],[99.41589355500001,27.077087402],[99.41290283200001,27.044677734],[99.42712402300002,27.002075195],[99.44671630900001,26.96307373],[99.49072265600002,26.904296875],[99.51531982400002,26.869689941],[99.53271484400001,26.845275879],[99.56408691400001,26.79309082],[99.56628418000001,26.743530273],[99.59808349600002,26.706481934],[99.594726562,26.639282227],[99.688476562,26.698913574],[99.70928955100001,26.672729492],[99.73651123,26.65612793],[99.78051757800002,26.657714844],[99.82092285200001,26.658874512],[99.86791992200001,26.644714355],[99.90307617200001,26.658874512],[99.93408203100002,26.672485352],[99.96148681600002,26.658325195],[99.988098145,26.629882812],[100.02850341800001,26.609313965],[100.06988525400001,26.647705078],[100.09887695300002,26.635314941],[100.13751220700001,26.627685547],[100.16992187500001,26.647277832],[100.19372558600001,26.681884766],[100.22790527300002,26.707275391],[100.26391601600001,26.714111328],[100.27087402300002,26.674072266],[100.29431152300002,26.65032959],[100.33251953100002,26.655700684],[100.36492919900002,26.633300781],[100.386901855,26.596679687],[100.42712402300002,26.600891113],[100.43511962900001,26.549682617],[100.44812011700002,26.504516602],[100.46173095700001,26.466125488],[100.471679687,26.428710937],[100.44689941400001,26.400878906],[100.46789550800001,26.36730957],[100.44909668000001,26.34552002],[100.40930175800001,26.324279785],[100.42352294900002,26.288696289],[100.44427490200002,26.265075684],[100.45050048800002,26.229492187],[100.42608642600001,26.199890137],[100.42132568400001,26.170471191],[100.44091796900001,26.147521973],[100.48107910200001,26.152099609],[100.48327636700002,26.112121582],[100.487304687,26.065490723],[100.50927734400001,26.038330078],[100.54449462900001,26.043884277],[100.59027099600002,26.027709961],[100.63128662100002,26.033081055],[100.66052246100001,26.046081543],[100.64648437500001,26.076293945],[100.64392089800002,26.104675293],[100.67608642600001,26.133117676],[100.703125,26.162475586],[100.72088623,26.184692383],[100.75689697300001,26.211303711],[100.80090332000002,26.207092285],[100.83508300800001,26.194274902],[100.87170410200001,26.181274414],[100.92510986300002,26.205078125],[100.95507812500001,26.232910156],[100.97729492200001,26.25567627],[101.00469970700001,26.282897949],[101.04089355500001,26.305480957],[101.07330322300001,26.3203125],[101.11090087900001,26.338928223],[101.14068603500002,26.355712891],[101.16729736300002,26.369689941],[101.19787597700001,26.384277344],[101.23413085900002,26.372924805],[101.28088378900001,26.373718262],[101.31872558600001,26.382324219],[101.37969970700001,26.394287109],[101.42730712900001,26.402893066],[101.45690918000001,26.418273926],[101.47552490200002,26.440307617],[101.47491455100001,26.475524902],[101.47052002,26.520874023],[101.40051269500002,26.536682129],[101.436523437,26.624328613],[101.48931884800001,26.663513184],[101.52392578100002,26.744689941],[101.54187011700002,26.766723633],[101.51849365200002,26.774902344],[101.48852539100001,26.78527832],[101.46368408200001,26.758911133],[101.46447753900001,26.750915527],[101.420898437,26.721496582],[101.39849853500002,26.733276367],[101.42547607400002,26.819091797],[101.42327880900001,26.842529297],[101.39349365200002,26.886108398],[101.31372070300002,26.914306641],[101.26770019500002,26.916870117],[101.26031494100002,26.937683105],[101.25091552700002,26.963500977],[101.18811035200001,26.991882324],[101.17132568400001,27.059082031],[101.18927002,27.152282715],[101.16229248,27.187072754],[101.155273437,27.190673828],[101.07971191400001,27.228271484],[101.04791259800001,27.269897461],[101.04309082000002,27.31652832],[101.02709960900002,27.343078613],[101.01348877,27.366271973],[100.99548339800002,27.412475586],[100.97851562500001,27.457092285],[100.88732910200001,27.441711426],[100.88952636700002,27.518493652],[100.86987304700001,27.567321777],[100.86572265600002,27.627319336],[100.86267089800002,27.645080566],[100.81292724600002,27.680480957],[100.76068115200002,27.73828125],[100.738098145,27.805908203],[100.73632812500001,27.81048584],[100.71771240200002,27.861694336],[100.67712402300002,27.89630127],[100.63610839800002,27.886474609],[100.58868408200001,27.850280762],[100.53051757800002,27.810302734],[100.48571777300002,27.881286621],[100.436523437,27.842895508],[100.41967773400002,27.79107666],[100.39093017600001,27.752685547]]]}}
