{"type":"Feature","id":"bulk-99377448B65127381617983","bbox":[123.71649169900002,45.387512207,125.76507568400001,47.409484863],"properties":{"id":"bulk-99377448B65127381617983","name":"Daqing","nameEn":"Daqing","fullName":"Daqing","level":"city","boundaryRole":"administrative-extent","boundaryQuality":"generalized-source-2020","boundaryYearRepresented":"2020","bounds":[[123.71649169900002,45.387512207],[125.76507568400001,47.409484863]],"center":[124.74078369150001,46.398498535],"centerMethod":"bounding-box midpoint; camera framing only","license":"CC-BY-3.0-IGO","attribution":"geoBoundaries / HDX, China administrative boundaries (2020)","source":{"provider":"geoBoundaries gbHumanitarian / HDX","url":"https://github.com/wmgeolab/geoBoundaries/raw/9469f09/releaseData/gbHumanitarian/CHN/ADM2/geoBoundaries-CHN-ADM2.geojson","metadataUrl":"https://www.geoboundaries.org/api/current/gbHumanitarian/CHN/ADM2/","shapeID":"99377448B65127381617983","shapeName":"Daqing","boundaryID":"CHN-ADM2-99377448","commit":"9469f09"},"geometryCounts":{"coordinates":356,"components":1,"holes":0},"boundaryNotice":"geoBoundaries / HDX 2020 年行政区数据，海岸和边界经过源数据概化，并非当前测绘成果。"},"geometry":{"type":"Polygon","coordinates":[[[124.35308837900001,45.444274902],[124.40008544900002,45.442687988],[124.49749755900001,45.413085937],[124.55169677700002,45.446899414],[124.64532470700001,45.443908691],[124.70788574200002,45.450500488],[124.77569580100001,45.436889648],[124.81408691400001,45.43927002],[124.83392334000001,45.443908691],[124.84509277300002,45.452514648],[124.85308837900001,45.468078613],[124.86090087900001,45.503479004],[124.85388183600001,45.537109375],[124.86590576200001,45.54888916],[124.88830566400001,45.543273926],[124.93530273400002,45.498901367],[124.95849609400001,45.496520996],[125.01031494100002,45.474487305],[125.03948974600002,45.39251709],[125.05731201200001,45.387512207],[125.20452880900001,45.414306641],[125.27648925800001,45.419677734],[125.32568359400001,45.407897949],[125.34948730500001,45.408508301],[125.42608642600001,45.456115723],[125.429504395,45.491882324],[125.49011230500001,45.488525391],[125.57550048800002,45.531677246],[125.69671630900001,45.524902344],[125.76507568400001,45.518310547],[125.76031494100002,45.549072266],[125.74450683600001,45.577880859],[125.71990966800001,45.608093262],[125.6875,45.647521973],[125.68450927700002,45.677490234],[125.73388671900001,45.680297852],[125.71710205100001,45.710510254],[125.72491455100001,45.74407959],[125.73492431600002,45.776306152],[125.69390869100002,45.789916992],[125.67987060500002,45.823913574],[125.67852783200001,45.857299805],[125.65667724600002,45.886474609],[125.60888671900001,45.892700195],[125.54711914100001,45.885070801],[125.49652099600002,45.880126953],[125.45892334000001,45.872680664],[125.39129638700001,45.860717773],[125.35009765600002,45.871520996],[125.34552002,45.901489258],[125.35009765600002,45.928894043],[125.35107421900001,45.957885742],[125.35028076200001,45.991882324],[125.34912109400001,46.022094727],[125.33831787100002,46.068725586],[125.33447265600002,46.101501465],[125.32208252,46.127502441],[125.31732177700002,46.141479492],[125.31591796900001,46.141113281],[125.23767089800002,46.142272949],[125.20532226600001,46.144897461],[125.20391845700001,46.148925781],[125.20227050800001,46.162109375],[125.19067382800002,46.167297363],[125.15289306600002,46.187316895],[125.14129638700001,46.184509277],[125.12731933600001,46.1875],[125.10827636700002,46.18548584],[125.10711669900002,46.195678711],[125.11187744100002,46.20690918],[125.10949707000002,46.212097168],[125.09490966800001,46.212097168],[125.07287597700001,46.209899902],[125.06988525400001,46.190917969],[125.07928466800001,46.155273437],[125.13372802700002,46.158874512],[125.13568115200002,46.140075684],[125.14587402300002,46.132507324],[125.15490722700001,46.127319336],[125.16589355500001,46.128479004],[125.19427490200002,46.126281738],[125.22088623000002,46.129882812],[125.22387695300002,46.125671387],[125.14971923800002,46.065673828],[125.15008544900002,46.05267334],[125.10729980500001,46.020324707],[125.10229492200001,46.021911621],[125.09631347700001,46.024475098],[125.08587646500001,46.02947998],[125.08892822300001,46.035522461],[125.08947753900001,46.054870605],[125.06127929700001,46.049682617],[125.04888916000002,46.065307617],[125.04089355500001,46.069885254],[125.00872802700002,46.06072998],[124.98889160200001,46.060913086],[124.953125,46.064880371],[124.94390869100002,46.061523437],[124.93249511700002,46.063293457],[124.91870117200001,46.052307129],[124.90710449200002,46.05291748],[124.89831543000001,46.055114746],[124.89007568400001,46.059082031],[124.87011718700002,46.059082031],[124.87072753900001,46.061096191],[124.88507080100001,46.069885254],[124.90527343700002,46.083496094],[124.92248535200001,46.101318359],[124.92248535200001,46.114318848],[124.92749023400002,46.13092041],[124.92291259800001,46.138916016],[124.90032959000001,46.142883301],[124.89709472700001,46.150878906],[124.90991210900002,46.166687012],[124.91687011700002,46.195129395],[124.92767334000001,46.210083008],[124.94531250000001,46.214904785],[124.95648193400001,46.225280762],[124.95147705100001,46.236083984],[124.96228027300002,46.240112305],[124.97509765600002,46.247497559],[124.98327636700002,46.253723145],[124.99127197300001,46.253479004],[125.00732421900001,46.248474121],[125.01287841800001,46.250305176],[125.02770996100001,46.25390625],[125.04028320300002,46.265930176],[125.04632568400001,46.280700684],[125.05432128900001,46.321899414],[125.05047607400002,46.330688477],[125.04071044900002,46.33392334],[125.00469970700001,46.330688477],[125.00012207000002,46.336914062],[125.01910400400001,46.35168457],[125.01867675800001,46.36730957],[125.01007080100001,46.370300293],[124.98468017600001,46.375915527],[124.98413085900002,46.382080078],[124.99371337900001,46.382873535],[125.00653076200001,46.385498047],[125.00872802700002,46.388916016],[125.00610351600001,46.403076172],[124.99707031200002,46.417114258],[124.96948242200001,46.42388916],[124.96789550800001,46.431518555],[124.98089599600002,46.430480957],[124.99029541000002,46.430114746],[124.99810791000002,46.43371582],[125.01928710900002,46.441711426],[125.02728271500001,46.448730469],[125.03192138700001,46.463684082],[125.03491210900002,46.474304199],[125.03631591800001,46.47869873],[125.05029296900001,46.479492187],[125.05731201200001,46.477478027],[125.06451416000002,46.470092773],[125.07788085900002,46.46472168],[125.08831787100002,46.467895508],[125.10272216800001,46.467529297],[125.10711669900002,46.465087891],[125.10772705100001,46.461303711],[125.10211181600002,46.448303223],[125.10668945300002,46.436706543],[125.11010742200001,46.433288574],[125.120910645,46.433898926],[125.14788818400001,46.430908203],[125.15167236300002,46.429504395],[125.14489746100001,46.412719727],[125.17352294900002,46.409484863],[125.18249511700002,46.412109375],[125.22827148400002,46.405700684],[125.24353027300002,46.410888672],[125.25811767600001,46.410522461],[125.26770019500002,46.415710449],[125.27447509800001,46.421081543],[125.26208496100001,46.436706543],[125.24810791000002,46.452514648],[125.25067138700001,46.461303711],[125.25653076200001,46.464111328],[125.26092529300001,46.468078613],[125.26171875000001,46.475280762],[125.25970459000001,46.478271484],[125.25469970700001,46.479125977],[125.24487304700001,46.490722656],[125.23712158200001,46.491882324],[125.23272705100001,46.491516113],[125.22387695300002,46.491699219],[125.21447753900001,46.495910645],[125.20129394500002,46.497680664],[125.1875,46.495910645],[125.18090820300002,46.496887207],[125.17449951200001,46.501708984],[125.16687011700002,46.511901855],[125.17108154300001,46.517700195],[125.17767334000001,46.522277832],[125.19189453100002,46.523925781],[125.21130371100001,46.508117676],[125.21728515600002,46.501098633],[125.22668457000002,46.501525879],[125.23449707000002,46.506103516],[125.24432373000002,46.51550293],[125.22668457000002,46.524475098],[125.23150634800001,46.531311035],[125.25567627,46.532470703],[125.25048828100002,46.563476562],[125.24468994100002,46.570922852],[125.23632812500001,46.582092285],[125.24450683600001,46.587524414],[125.24908447300001,46.593322754],[125.24731445300002,46.597106934],[125.22009277300002,46.603515625],[125.21289062500001,46.62487793],[125.19769287100002,46.631713867],[125.19531250000001,46.637695312],[125.21710205100001,46.639099121],[125.24768066400001,46.642089844],[125.25207519500002,46.648681641],[125.25329589800002,46.652526855],[125.25750732400002,46.66192627],[125.26190185500002,46.666870117],[125.26507568400001,46.672912598],[125.26190185500002,46.680725098],[125.25189209000001,46.692077637],[125.23931884800001,46.698730469],[125.23150634800001,46.699890137],[125.20867919900002,46.703918457],[125.20031738300001,46.711486816],[125.19671630900001,46.713928223],[125.18707275400001,46.713500977],[125.17150878900001,46.71472168],[125.16369628900001,46.720275879],[125.15588378900001,46.734313965],[125.14208984400001,46.742675781],[125.13128662100002,46.750915527],[125.13208007800002,46.758117676],[125.14068603500002,46.767883301],[125.15167236300002,46.774475098],[125.15887451200001,46.775512695],[125.17492675800001,46.770324707],[125.17828369100002,46.772888184],[125.18591308600001,46.78527832],[125.18890380900001,46.791320801],[125.18511962900001,46.800109863],[125.18652343700002,46.8046875],[125.19067382800002,46.805908203],[125.19311523400002,46.809326172],[125.19311523400002,46.813720703],[125.18267822300001,46.819091797],[125.16491699200002,46.826904297],[125.15270996100001,46.835083008],[125.16333007800002,46.870483398],[125.17510986300002,46.869689941],[125.18408203100002,46.874084473],[125.19067382800002,46.886108398],[125.19067382800002,46.899902344],[125.20452880900001,46.931884766],[125.21630859400001,46.957885742],[125.26428222700001,47.009277344],[125.28167724600002,47.019470215],[125.26531982400002,47.030517578],[125.24389648400002,47.055480957],[125.24432373000002,47.087524414],[125.25030517600001,47.127319336],[125.25988769500002,47.158081055],[125.26531982400002,47.201477051],[125.28027343700002,47.255493164],[125.27587890600002,47.293701172],[125.23052978500002,47.307678223],[125.18927002,47.306274414],[125.14288330100001,47.298278809],[125.11047363300001,47.320495605],[125.07647705100001,47.33972168],[125.02832031200002,47.360717773],[124.98413085900002,47.409484863],[124.91229248000002,47.396728516],[124.84631347700001,47.370727539],[124.76947021500001,47.341308594],[124.71771240200002,47.314880371],[124.67907714800002,47.292907715],[124.61767578100002,47.262084961],[124.57751464800002,47.259887695],[124.55267334000001,47.283081055],[124.50750732400002,47.282287598],[124.44873046900001,47.282714844],[124.39367675800001,47.287902832],[124.36047363300001,47.238708496],[124.30871582000002,47.205871582],[124.27648925800001,47.163330078],[124.25610351600001,47.132324219],[124.23168945300002,47.10168457],[124.17230224600002,47.088684082],[124.13067627,47.079284668],[124.10308837900001,47.056884766],[124.09851074200002,47.01751709],[124.08673095700001,46.990905762],[124.05487060500002,46.965270996],[124.00531005900001,46.950073242],[123.97631835900002,46.921875],[123.95690918000001,46.897705078],[123.92633056600002,46.878723145],[123.89447021500001,46.848876953],[123.89007568400001,46.811889648],[123.92449951200001,46.776123047],[123.95147705100001,46.750915527],[123.95788574200002,46.723327637],[123.93847656200002,46.686889648],[123.90667724600002,46.663085937],[123.87188720700001,46.647705078],[123.82910156200002,46.649108887],[123.81671142600001,46.677307129],[123.77307128900001,46.694274902],[123.73089599600002,46.673706055],[123.71649169900002,46.63848877],[123.73291015600002,46.596923828],[123.75830078100002,46.565124512],[123.77111816400001,46.530517578],[123.77227783200001,46.483093262],[123.76910400400001,46.4453125],[123.81030273400002,46.414672852],[123.79229736300002,46.371887207],[123.79107666000002,46.365478516],[123.79632568400001,46.34588623],[123.80151367200001,46.32611084],[123.81732177700002,46.295471191],[123.84149169900002,46.273498535],[123.86407470700001,46.268127441],[123.89349365200002,46.271728516],[123.92669677700002,46.294921875],[123.94152832000002,46.273681641],[123.94689941400001,46.253479004],[123.94488525400001,46.243713379],[123.89770507800002,46.19909668],[123.95910644500002,46.15032959],[123.97070312500001,46.067077637],[123.99407959000001,46.041687012],[123.98950195300002,46.019104004],[123.92651367200001,45.966125488],[123.91790771500001,45.94732666],[123.92791748000002,45.926696777],[123.95568847700001,45.92388916],[123.97167968700002,45.909118652],[124.00231933600001,45.89630127],[124.01287841800001,45.87890625],[123.99450683600001,45.811706543],[123.96209716800001,45.768920898],[123.98608398400002,45.746887207],[124.04229736300002,45.721679687],[124.06628418000001,45.699523926],[124.08471679700001,45.674682617],[124.11328125000001,45.606323242],[124.15350341800001,45.618713379],[124.17730712900001,45.619506836],[124.19970703100002,45.614074707],[124.22552490200002,45.555480957],[124.30590820300002,45.534301758],[124.35308837900001,45.444274902]]]}}
