{"type":"Feature","id":"bulk-99377448B7792962709607","bbox":[119.50549316400001,31.119689941,120.60327148400002,31.96270752],"properties":{"id":"bulk-99377448B7792962709607","name":"Wuxi","nameEn":"Wuxi","fullName":"Wuxi","level":"city","boundaryRole":"administrative-extent","boundaryQuality":"generalized-source-2020","boundaryYearRepresented":"2020","bounds":[[119.50549316400001,31.119689941],[120.60327148400002,31.96270752]],"center":[120.05438232400002,31.5411987305],"centerMethod":"bounding-box midpoint; camera framing only","license":"CC-BY-3.0-IGO","attribution":"geoBoundaries / HDX, China administrative boundaries (2020)","source":{"provider":"geoBoundaries gbHumanitarian / HDX","url":"https://github.com/wmgeolab/geoBoundaries/raw/9469f09/releaseData/gbHumanitarian/CHN/ADM2/geoBoundaries-CHN-ADM2.geojson","metadataUrl":"https://www.geoboundaries.org/api/current/gbHumanitarian/CHN/ADM2/","shapeID":"99377448B7792962709607","shapeName":"Wuxi","boundaryID":"CHN-ADM2-99377448","commit":"9469f09"},"geometryCounts":{"coordinates":100,"components":1,"holes":0},"boundaryNotice":"geoBoundaries / HDX 2020 年行政区数据，海岸和边界经过源数据概化，并非当前测绘成果。"},"geometry":{"type":"Polygon","coordinates":[[[119.51593017600001,31.169677734],[119.53851318400001,31.147277832],[119.56329345700001,31.119689941],[119.59051513700001,31.124694824],[119.60827636700002,31.12310791],[119.61212158200001,31.138305664],[119.64410400400001,31.178710937],[119.70208740200002,31.19128418],[119.76391601600001,31.181274414],[119.80609130900001,31.176330566],[119.85272216800001,31.174682617],[119.88031005900001,31.167480469],[119.89129638700001,31.156677246],[119.89291468200001,31.153347035],[119.91632080100001,31.173278809],[120.12292480500001,31.293701172],[120.20910644500002,31.338928223],[120.27050781200002,31.383911133],[120.328125,31.41229248],[120.37908935500002,31.429504395],[120.39068603500002,31.437072754],[120.39770507800002,31.444274902],[120.42431640600002,31.44732666],[120.45928955100001,31.444702148],[120.49267578100002,31.442321777],[120.53247070300002,31.466491699],[120.55670166000002,31.494689941],[120.57171630900001,31.519104004],[120.57971191400001,31.551086426],[120.55487060500002,31.573913574],[120.52227783200001,31.575927734],[120.52868652300002,31.603881836],[120.56591796900001,31.608886719],[120.57952880900001,31.633911133],[120.55212402300002,31.662475586],[120.56091308600001,31.695922852],[120.60327148400002,31.723510742],[120.57690429700001,31.754516602],[120.56170654300001,31.781494141],[120.52172851600001,31.800720215],[120.50787353500002,31.826477051],[120.47808837900001,31.849914551],[120.44427490200002,31.875915527],[120.40789794900002,31.889709473],[120.36651611300002,31.902526855],[120.35247802700002,31.953491211],[120.31347656200002,31.944519043],[120.27087402300002,31.933288574],[120.26348877,31.946899414],[120.27008056600002,31.949890137],[120.17987060500002,31.921691895],[120.14129638700001,31.922729492],[120.07971191400001,31.94128418],[120.00091552700002,31.96270752],[120.00671386700002,31.922119141],[119.99847412100002,31.892883301],[119.99987793000001,31.860717773],[120.01647949200002,31.833679199],[120.054504395,31.844909668],[120.09552002,31.857727051],[120.128723145,31.86932373],[120.16912841800001,31.86907959],[120.15509033200001,31.839477539],[120.15551757800002,31.809326172],[120.17071533200001,31.78527832],[120.17547607400002,31.756530762],[120.13647460900002,31.749694824],[120.12927246100001,31.719909668],[120.12268066400001,31.679870605],[120.10467529300001,31.644104004],[120.07470703100002,31.616516113],[120.04907226600001,31.593078613],[120.05010986300002,31.5625],[120.06927490200002,31.540710449],[120.09649658200001,31.507507324],[120.04467773400002,31.478271484],[120.00732421900001,31.500488281],[119.97467041000002,31.50592041],[119.94427490200002,31.531494141],[119.92352294900002,31.558288574],[119.88592529300001,31.562927246],[119.84570312500001,31.545898437],[119.81268310500002,31.531921387],[119.77032470700001,31.534484863],[119.73107910200001,31.547912598],[119.69689941400001,31.570922852],[119.65551757800002,31.605285645],[119.61407470700001,31.573120117],[119.58129882800002,31.53729248],[119.55187988300001,31.507507324],[119.55468750000001,31.468505859],[119.58050537100002,31.43927002],[119.54010009800001,31.428283691],[119.51287841800001,31.388305664],[119.51611328100002,31.335693359],[119.51129150400001,31.295898437],[119.50549316400001,31.265075684],[119.51452636700002,31.237915039],[119.52947998000002,31.20690918],[119.51593017600001,31.169677734]]]}}
