{"type":"Feature","id":"bulk-99377448B7475732773396","bbox":[100.88348388700001,36.275878906,101.93890380900001,37.42010498],"properties":{"id":"bulk-99377448B7475732773396","name":"Xining","nameEn":"Xining","fullName":"Xining","level":"city","boundaryRole":"administrative-extent","boundaryQuality":"generalized-source-2020","boundaryYearRepresented":"2020","bounds":[[100.88348388700001,36.275878906],[101.93890380900001,37.42010498]],"center":[101.41119384800001,36.847991943],"centerMethod":"bounding-box midpoint; camera framing only","license":"CC-BY-3.0-IGO","attribution":"geoBoundaries / HDX, China administrative boundaries (2020)","source":{"provider":"geoBoundaries gbHumanitarian / HDX","url":"https://github.com/wmgeolab/geoBoundaries/raw/9469f09/releaseData/gbHumanitarian/CHN/ADM2/geoBoundaries-CHN-ADM2.geojson","metadataUrl":"https://www.geoboundaries.org/api/current/gbHumanitarian/CHN/ADM2/","shapeID":"99377448B7475732773396","shapeName":"Xining","boundaryID":"CHN-ADM2-99377448","commit":"9469f09"},"geometryCounts":{"coordinates":108,"components":1,"holes":0},"boundaryNotice":"geoBoundaries / HDX 2020 年行政区数据，海岸和边界经过源数据概化，并非当前测绘成果。"},"geometry":{"type":"Polygon","coordinates":[[[100.90447998,36.785888672],[100.913879395,36.744873047],[100.92590332000002,36.706115723],[100.94427490200002,36.672119141],[100.96392822300001,36.647705078],[100.99029541000002,36.607116699],[100.99932861300002,36.577697754],[101.01007080100001,36.544677734],[101.04412841800001,36.515930176],[101.06872558600001,36.492675781],[101.10028076200001,36.457275391],[101.13592529300001,36.419921875],[101.16668701200001,36.38671875],[101.19750976600001,36.358703613],[101.22192382800002,36.335876465],[101.28930664100001,36.353515625],[101.31707763700001,36.378112793],[101.36108398400002,36.408874512],[101.413879395,36.385681152],[101.45227050800001,36.361083984],[101.49407959000001,36.347290039],[101.53088378900001,36.343078613],[101.57312011700002,36.337524414],[101.58911132800002,36.301086426],[101.61468505900001,36.275878906],[101.68011474600002,36.280273437],[101.72570800800001,36.286682129],[101.77288818400001,36.291687012],[101.81787109400001,36.308288574],[101.84790039100001,36.345275879],[101.85668945300002,36.378295898],[101.86767578100002,36.404296875],[101.88372802700002,36.4296875],[101.90112304700001,36.459289551],[101.90911865200002,36.487121582],[101.91491699200002,36.531311035],[101.93890380900001,36.556884766],[101.93548584000001,36.584289551],[101.91088867200001,36.613708496],[101.87432861300002,36.627502441],[101.83612060500002,36.645690918],[101.81512451200001,36.672485352],[101.8125,36.712280273],[101.81329345700001,36.745300293],[101.81970214800002,36.780273437],[101.83111572300001,36.807312012],[101.84149169900002,36.83392334],[101.84167480500001,36.873291016],[101.83929443400001,36.914489746],[101.84051513700001,36.957092285],[101.86169433600001,37.003295898],[101.88452148400002,37.050476074],[101.905273437,37.09387207],[101.90728759800001,37.155273437],[101.86328125000001,37.159301758],[101.83508300800001,37.179321289],[101.80511474600002,37.20111084],[101.77410888700001,37.219726562],[101.73107910200001,37.237304687],[101.68487548800002,37.247924805],[101.61907959000001,37.246276855],[101.57971191400001,37.250305176],[101.54571533200001,37.269104004],[101.52429199200002,37.297485352],[101.50128173800002,37.321899414],[101.46667480500001,37.340270996],[101.42431640600002,37.347290039],[101.38671875000001,37.349914551],[101.34228515600002,37.351318359],[101.29968261700002,37.35369873],[101.25909423800002,37.356079102],[101.22027587900001,37.362304687],[101.16210937500001,37.37689209],[101.094726562,37.387084961],[101.04248046900001,37.399719238],[101.00909423800002,37.409301758],[100.945495605,37.42010498],[100.89990234400001,37.406311035],[100.88348388700001,37.362915039],[100.89788818400001,37.310302734],[100.91412353500002,37.284912109],[100.94671630900001,37.25567627],[100.97290039100001,37.237915039],[101.00653076200001,37.226074219],[101.05731201200001,37.21307373],[101.11090087900001,37.202087402],[101.14770507800002,37.179870605],[101.18151855500001,37.14831543],[101.20269775400001,37.115722656],[101.22888183600001,37.086120605],[101.24969482400002,37.060302734],[101.28570556600002,37.029296875],[101.31829834000001,37.004089355],[101.32867431600002,36.960083008],[101.28967285200001,36.938293457],[101.30529785200001,36.91229248],[101.321289062,36.878479004],[101.32348632800002,36.848327637],[101.29571533200001,36.828491211],[101.24871826200001,36.838684082],[101.20629882800002,36.848510742],[101.15832519500002,36.864318848],[101.11090087900001,36.863708496],[101.07287597700001,36.842285156],[101.02532959000001,36.821899414],[100.98309326200001,36.814086914],[100.94329834000001,36.80267334],[100.90447998,36.785888672]]]}}
