{"type":"Feature","id":"bulk-99377448B17682157904208","bbox":[123.07568359400001,43.966674805,126.14990234400001,45.54888916],"properties":{"id":"bulk-99377448B17682157904208","name":"Songyuan","nameEn":"Songyuan","fullName":"Songyuan","level":"city","boundaryRole":"administrative-extent","boundaryQuality":"generalized-source-2020","boundaryYearRepresented":"2020","bounds":[[123.07568359400001,43.966674805],[126.14990234400001,45.54888916]],"center":[124.61279296900001,44.7577819825],"centerMethod":"bounding-box midpoint; camera framing only","license":"CC-BY-3.0-IGO","attribution":"geoBoundaries / HDX, China administrative boundaries (2020)","source":{"provider":"geoBoundaries gbHumanitarian / HDX","url":"https://github.com/wmgeolab/geoBoundaries/raw/9469f09/releaseData/gbHumanitarian/CHN/ADM2/geoBoundaries-CHN-ADM2.geojson","metadataUrl":"https://www.geoboundaries.org/api/current/gbHumanitarian/CHN/ADM2/","shapeID":"99377448B17682157904208","shapeName":"Songyuan","boundaryID":"CHN-ADM2-99377448","commit":"9469f09"},"geometryCounts":{"coordinates":187,"components":1,"holes":0},"boundaryNotice":"geoBoundaries / HDX 2020 年行政区数据，海岸和边界经过源数据概化，并非当前测绘成果。"},"geometry":{"type":"Polygon","coordinates":[[[123.31951904300001,44.06652832],[123.38153076200001,44.06427002],[123.43029785200001,44.066711426],[123.49011230500001,44.06628418],[123.54229736300002,44.072875977],[123.59008789100001,44.083129883],[123.62792968700002,44.085083008],[123.68011474600002,44.075683594],[123.71972656200002,44.048706055],[123.74389648400002,44.020324707],[123.79272460900002,43.972717285],[123.83972168000001,43.967102051],[123.90771484400001,43.979125977],[123.98291015600002,44.004089355],[124.02709960900002,44.006103516],[124.08752441400001,43.997497559],[124.13269043000001,43.985107422],[124.17889404300001,43.971923828],[124.22149658200001,43.966674805],[124.27368164100001,43.973510742],[124.31207275400001,43.988708496],[124.33673095700001,44.012084961],[124.35089111300002,44.037475586],[124.38208007800002,44.065673828],[124.41552734400001,44.085510254],[124.44311523400002,44.105895996],[124.47448730500001,44.129516602],[124.51788330100001,44.138671875],[124.55670166000002,44.147094727],[124.60968017600001,44.163513184],[124.65191650400001,44.182312012],[124.71032714800002,44.202514648],[124.72747802700002,44.227294922],[124.69091796900001,44.242126465],[124.64691162100002,44.241882324],[124.60791015600002,44.254516602],[124.58648681600002,44.282470703],[124.56811523400002,44.31628418],[124.55651855500001,44.34588623],[124.55187988300001,44.384094238],[124.53332519500002,44.415527344],[124.50488281200002,44.439880371],[124.53430175800001,44.458679199],[124.570129395,44.471130371],[124.56567382800002,44.501281738],[124.52648925800001,44.512878418],[124.49951171900001,44.543884277],[124.52429199200002,44.568908691],[124.53790283200001,44.599304199],[124.55889892600001,44.62890625],[124.59448242200001,44.651123047],[124.63208007800002,44.66192627],[124.67852783200001,44.668701172],[124.72351074200002,44.677124023],[124.76947021500001,44.690490723],[124.81469726600001,44.71270752],[124.85412597700001,44.738525391],[124.88787841800001,44.755310059],[124.93408203100002,44.754089355],[124.96948242200001,44.779724121],[125.00671386700002,44.789672852],[125.04248046900001,44.774902344],[125.09252929700001,44.78692627],[125.13867187500001,44.801696777],[125.18530273400002,44.825073242],[125.20507812500001,44.859130859],[125.21051025400001,44.865478516],[125.27069091800001,44.862121582],[125.34167480500001,44.887329102],[125.40850830100001,44.893127441],[125.43908691400001,44.883117676],[125.51947021500001,44.887329102],[125.56567382800002,44.905273437],[125.62609863300001,44.944519043],[125.64508056600002,44.945678711],[125.67712402300002,44.942077637],[125.703125,44.932678223],[125.72167968700002,44.910888672],[125.730285645,44.886901855],[125.75109863300001,44.855102539],[125.79132080100001,44.847290039],[125.82928466800001,44.849487305],[125.88171386700002,44.77130127],[125.93188476600001,44.765686035],[126.00451660200001,44.777099609],[126.00927734400001,44.853088379],[126.00531005900001,44.88848877],[126.02569580100001,44.918273926],[126.06170654300001,44.928283691],[126.10192871100001,44.930725098],[126.14312744100002,44.938720703],[126.14990234400001,44.967712402],[126.14569091800001,44.995727539],[126.13909912100002,45.023925781],[126.13891601600001,45.063903809],[126.13287353500002,45.127075195],[126.08947753900001,45.122314453],[126.06127929700001,45.122070312],[125.929504395,45.183105469],[125.855285645,45.188293457],[125.80688476600001,45.223327637],[125.77630615200002,45.233276367],[125.75311279300001,45.255493164],[125.71173095700001,45.279907227],[125.65368652300002,45.335693359],[125.66070556600002,45.387512207],[125.66607666000002,45.452697754],[125.69671630900001,45.524902344],[125.57550048800002,45.531677246],[125.49011230500001,45.488525391],[125.429504395,45.491882324],[125.42608642600001,45.456115723],[125.34948730500001,45.408508301],[125.32568359400001,45.407897949],[125.27648925800001,45.419677734],[125.20452880900001,45.414306641],[125.05731201200001,45.387512207],[125.03948974600002,45.39251709],[125.01031494100002,45.474487305],[124.95849609400001,45.496520996],[124.93530273400002,45.498901367],[124.88830566400001,45.543273926],[124.86590576200001,45.54888916],[124.85388183600001,45.537109375],[124.86090087900001,45.503479004],[124.85308837900001,45.468078613],[124.84509277300002,45.452514648],[124.83392334000001,45.443908691],[124.81408691400001,45.43927002],[124.77569580100001,45.436889648],[124.70788574200002,45.450500488],[124.64532470700001,45.443908691],[124.55169677700002,45.446899414],[124.49749755900001,45.413085937],[124.40008544900002,45.442687988],[124.35308837900001,45.444274902],[124.25292968700002,45.411499023],[124.20410156200002,45.393127441],[124.15087890600002,45.367492676],[124.10791015600002,45.356506348],[124.07110595700001,45.326721191],[124.06127929700001,45.297119141],[124.046691895,45.262878418],[124.01031494100002,45.231079102],[123.96868896500001,45.216674805],[123.92687988300001,45.21307373],[123.86669921900001,45.202270508],[123.82452392600001,45.172302246],[123.79772949200002,45.147521973],[123.74627685500002,45.113525391],[123.69628906200002,45.08392334],[123.64270019500002,45.043518066],[123.61370849600002,45.019470215],[123.57092285200001,45.000915527],[123.53448486300002,44.980895996],[123.50048828100002,44.96307373],[123.45812988300001,44.961486816],[123.43347168000001,44.928283691],[123.40148925800001,44.902099609],[123.37988281200002,44.869873047],[123.41491699200002,44.836486816],[123.44873046900001,44.804077148],[123.47271728500002,44.782287598],[123.49169921900001,44.742919922],[123.50488281200002,44.708679199],[123.42889404300001,44.711303711],[123.38250732400002,44.696899414],[123.33508300800001,44.678710937],[123.29089355500001,44.667480469],[123.25732421900001,44.652893066],[123.230285645,44.628295898],[123.18927002,44.603515625],[123.14892578100002,44.590087891],[123.09112548800002,44.582275391],[123.07568359400001,44.512084961],[123.07910156200002,44.512512207],[123.11987304700001,44.498718262],[123.11071777300002,44.457275391],[123.09490966800001,44.413879395],[123.08947753900001,44.378479004],[123.13348388700001,44.3203125],[123.18188476600001,44.294311523],[123.20751953100002,44.234313965],[123.27508544900002,44.181091309],[123.31390380900001,44.150512695],[123.32708740200002,44.072875977],[123.31951904300001,44.06652832]]]}}
