{"type":"Feature","id":"bulk-99377448B62076333692267","bbox":[113.35650634800001,34.871704102,114.97607421900001,35.825317383],"properties":{"id":"bulk-99377448B62076333692267","name":"Xinxiang","nameEn":"Xinxiang","fullName":"Xinxiang","level":"city","boundaryRole":"administrative-extent","boundaryQuality":"generalized-source-2020","boundaryYearRepresented":"2020","bounds":[[113.35650634800001,34.871704102],[114.97607421900001,35.825317383]],"center":[114.16629028350002,35.3485107425],"centerMethod":"bounding-box midpoint; camera framing only","license":"CC-BY-3.0-IGO","attribution":"geoBoundaries / HDX, China administrative boundaries (2020)","source":{"provider":"geoBoundaries gbHumanitarian / HDX","url":"https://github.com/wmgeolab/geoBoundaries/raw/9469f09/releaseData/gbHumanitarian/CHN/ADM2/geoBoundaries-CHN-ADM2.geojson","metadataUrl":"https://www.geoboundaries.org/api/current/gbHumanitarian/CHN/ADM2/","shapeID":"99377448B62076333692267","shapeName":"Xinxiang","boundaryID":"CHN-ADM2-99377448","commit":"9469f09"},"geometryCounts":{"coordinates":107,"components":1,"holes":0},"boundaryNotice":"geoBoundaries / HDX 2020 年行政区数据，海岸和边界经过源数据概化，并非当前测绘成果。"},"geometry":{"type":"Polygon","coordinates":[[[113.51928710900002,35.806091309],[113.53448486300002,35.773925781],[113.53509521500001,35.725280762],[113.56927490200002,35.674072266],[113.56408691400001,35.614318848],[113.50592041000002,35.626098633],[113.49487304700001,35.596313477],[113.48132324200002,35.560302734],[113.45129394500002,35.52911377],[113.38830566400001,35.491516113],[113.37487793000001,35.491882324],[113.35650634800001,35.483520508],[113.38592529300001,35.458679199],[113.40747070300002,35.433105469],[113.42730712900001,35.406677246],[113.44049072300001,35.377502441],[113.44628906200002,35.341918945],[113.44647216800001,35.30847168],[113.49407959000001,35.284301758],[113.50152587900001,35.23248291],[113.49792480500001,35.203674316],[113.47448730500001,35.159118652],[113.54028320300002,35.126098633],[113.56512451200001,35.107116699],[113.58068847700001,35.070495605],[113.59088134800001,35.023071289],[113.58972168000001,34.995727539],[113.55328369100002,34.928100586],[113.66888427700002,34.902099609],[113.82287597700001,34.882507324],[113.89831543000001,34.87512207],[113.92388916000002,34.881896973],[114.00231933600001,34.934509277],[114.02770996100001,34.936279297],[114.09350585900002,34.926513672],[114.20507812500001,34.885070801],[114.22711181600002,34.884277344],[114.26190185500002,34.885681152],[114.29711914100001,34.894470215],[114.41650390600002,34.880310059],[114.45410156200002,34.876525879],[114.55670166000002,34.902893066],[114.62609863300001,34.90032959],[114.71008300800001,34.877075195],[114.72229003900001,34.871704102],[114.73608398400002,34.891113281],[114.73712158200001,34.908691406],[114.70428466800001,34.940124512],[114.77630615200002,34.98248291],[114.77447509800001,35.005310059],[114.77209472700001,35.017883301],[114.81347656200002,35.07409668],[114.81451416000002,35.089294434],[114.80609130900001,35.159912109],[114.86907959000001,35.205078125],[114.90789794900002,35.218688965],[114.95092773400002,35.247070312],[114.96887207000002,35.281677246],[114.97607421900001,35.344116211],[114.96069335900002,35.347290039],[114.93511962900001,35.383483887],[114.86547851600001,35.381896973],[114.82952880900001,35.371276855],[114.78851318400001,35.354125977],[114.74188232400002,35.335693359],[114.70251464800002,35.324279785],[114.66888427700002,35.307128906],[114.63610839800002,35.286315918],[114.58410644500002,35.259521484],[114.54028320300002,35.232116699],[114.50909423800002,35.216308594],[114.46392822300001,35.218322754],[114.42712402300002,35.236877441],[114.37890625000001,35.259521484],[114.37847900400001,35.301086426],[114.38372802700002,35.332885742],[114.39172363300001,35.362304687],[114.40087890600002,35.394470215],[114.41528320300002,35.426330566],[114.37390136700002,35.481689453],[114.31909179700001,35.463928223],[114.25347900400001,35.475524902],[114.25567627,35.502502441],[114.22070312500001,35.502929687],[114.18872070300002,35.512878418],[114.14508056600002,35.534729004],[114.11407470700001,35.551879883],[114.05529785200001,35.56652832],[114.02648925800001,35.586730957],[114.00488281200002,35.626098633],[114.00250244100002,35.661071777],[114.00592041000002,35.688293457],[113.97467041000002,35.717712402],[113.93768310500002,35.709106445],[113.89971923800002,35.694702148],[113.85449218700002,35.692077637],[113.77630615200002,35.67767334],[113.75207519500002,35.696899414],[113.75512695300002,35.728881836],[113.75268554700001,35.757873535],[113.74328613300001,35.791870117],[113.70709228500002,35.806091309],[113.66790771500001,35.819885254],[113.62249755900001,35.825317383],[113.58850097700001,35.806274414],[113.51751709000001,35.809509277],[113.51928710900002,35.806091309]]]}}
