{"type":"Feature","id":"bulk-99377448B9382066470800","bbox":[122.39007568400001,41.219482422,123.77532959000001,43.013122559],"properties":{"id":"bulk-99377448B9382066470800","name":"Shenyang","nameEn":"Shenyang","fullName":"Shenyang","level":"city","boundaryRole":"administrative-extent","boundaryQuality":"generalized-source-2020","boundaryYearRepresented":"2020","bounds":[[122.39007568400001,41.219482422],[123.77532959000001,43.013122559]],"center":[123.08270263700001,42.116302490500004],"centerMethod":"bounding-box midpoint; camera framing only","license":"CC-BY-3.0-IGO","attribution":"geoBoundaries / HDX, China administrative boundaries (2020)","source":{"provider":"geoBoundaries gbHumanitarian / HDX","url":"https://github.com/wmgeolab/geoBoundaries/raw/9469f09/releaseData/gbHumanitarian/CHN/ADM2/geoBoundaries-CHN-ADM2.geojson","metadataUrl":"https://www.geoboundaries.org/api/current/gbHumanitarian/CHN/ADM2/","shapeID":"99377448B9382066470800","shapeName":"Shenyang","boundaryID":"CHN-ADM2-99377448","commit":"9469f09"},"geometryCounts":{"coordinates":166,"components":1,"holes":0},"boundaryNotice":"geoBoundaries / HDX 2020 年行政区数据，海岸和边界经过源数据概化，并非当前测绘成果。"},"geometry":{"type":"Polygon","coordinates":[[[122.78649902300002,42.710693359],[122.753723145,42.670471191],[122.77087402300002,42.636291504],[122.80047607400002,42.610900879],[122.83270263700001,42.596496582],[122.86608886700002,42.582275391],[122.921691895,42.567077637],[122.97430419900002,42.552490234],[122.91149902300002,42.506103516],[122.87408447300001,42.489074707],[122.83892822300001,42.477111816],[122.79968261700002,42.456481934],[122.78131103500002,42.426879883],[122.80249023400002,42.401123047],[122.82788085900002,42.381286621],[122.84790039100001,42.358703613],[122.84613037100002,42.325683594],[122.82751464800002,42.299316406],[122.79229736300002,42.276489258],[122.76068115200002,42.262084961],[122.67590332000002,42.23248291],[122.63311767600001,42.214477539],[122.59167480500001,42.194274902],[122.54589843700002,42.174316406],[122.50610351600001,42.155273437],[122.45947265600002,42.134094238],[122.39007568400001,42.099121094],[122.39990234400001,42.082092285],[122.41448974600002,42.055297852],[122.43627929700001,42.034729004],[122.44488525400001,42.010925293],[122.45330810500002,41.966125488],[122.45947265600002,41.928527832],[122.453125,41.910705566],[122.43707275400001,41.891296387],[122.42687988300001,41.86907959],[122.43872070300002,41.844909668],[122.46990966800001,41.804870605],[122.53112793000001,41.732116699],[122.53070068400001,41.697509766],[122.51147460900002,41.660095215],[122.47747802700002,41.609924316],[122.45330810500002,41.57989502],[122.44348144500002,41.559875488],[122.47711181600002,41.533691406],[122.51989746100001,41.525085449],[122.54632568400001,41.494873047],[122.56469726600001,41.490905762],[122.56152343700002,41.472717285],[122.56951904300001,41.446472168],[122.60247802700002,41.38092041],[122.59588623000002,41.342285156],[122.58569335900002,41.320129395],[122.57971191400001,41.285888672],[122.59228515600002,41.25012207],[122.59967041000002,41.219482422],[122.63787841800001,41.257507324],[122.66809082000002,41.321716309],[122.69427490200002,41.363098145],[122.75927734400001,41.373291016],[122.77947998000002,41.380493164],[122.78192138700001,41.394104004],[122.77807617200001,41.408508301],[122.78131103500002,41.426696777],[122.83270263700001,41.431091309],[122.85272216800001,41.436096191],[122.86712646500001,41.446289062],[122.87567138700001,41.459289551],[122.90209960900002,41.500671387],[122.92370605500001,41.514892578],[122.98229980500001,41.523071289],[123.00250244100002,41.530517578],[123.01947021500001,41.554321289],[123.03771972700001,41.584899902],[123.06311035200001,41.619506836],[123.09210205100001,41.558105469],[123.10247802700002,41.527709961],[123.14172363300001,41.511474609],[123.18328857400002,41.518127441],[123.22070312500001,41.518310547],[123.26947021500001,41.49407959],[123.30627441400001,41.490478516],[123.34948730500001,41.488525391],[123.38812255900001,41.466308594],[123.437316895,41.454284668],[123.47430419900002,41.456298828],[123.51470947300001,41.461730957],[123.55572509800001,41.467712402],[123.60107421900001,41.477111816],[123.63732910200001,41.480529785],[123.69348144500002,41.502075195],[123.70092773400002,41.532714844],[123.73168945300002,41.552124023],[123.738098145,41.578674316],[123.72528076200001,41.610717773],[123.73852539100001,41.642700195],[123.76672363300001,41.664123535],[123.77532959000001,41.70489502],[123.76190185500002,41.736083984],[123.71868896500001,41.754272461],[123.67352294900002,41.756530762],[123.67608642600001,41.791870117],[123.68048095700001,41.823486328],[123.68127441400001,41.852294922],[123.67828369100002,41.881286621],[123.68371582000002,41.911315918],[123.71173095700001,41.944274902],[123.71490478500002,41.976074219],[123.703125,42.00390625],[123.68829345700001,42.031921387],[123.65393066400001,42.042724609],[123.64367675800001,42.07208252],[123.61352539100001,42.100891113],[123.57409668000001,42.114074707],[123.52832031200002,42.127075195],[123.49371337900001,42.139709473],[123.40209960900002,42.163085937],[123.42248535200001,42.187316895],[123.41992187500001,42.218078613],[123.44348144500002,42.24432373],[123.47229003900001,42.264892578],[123.49353027300002,42.294128418],[123.49908447300001,42.325683594],[123.49670410200001,42.357910156],[123.52032470700001,42.38092041],[123.54229736300002,42.413330078],[123.55627441400001,42.453491211],[123.57348632800002,42.486877441],[123.61828613300001,42.50012207],[123.66729736300002,42.508300781],[123.71472168000001,42.526306152],[123.68109130900001,42.569091797],[123.62988281200002,42.58807373],[123.60607910200001,42.632080078],[123.58032226600001,42.648681641],[123.53009033200001,42.672302246],[123.52209472700001,42.698486328],[123.52612304700001,42.753723145],[123.56787109400001,42.786682129],[123.54309082000002,42.842712402],[123.53588867200001,42.889709473],[123.55627441400001,42.945678711],[123.50988769500002,42.975524902],[123.48229980500001,42.997680664],[123.45172119100002,43.00390625],[123.40710449200002,43.008300781],[123.35791015600002,43.013122559],[123.30468750000001,42.995483398],[123.25830078100002,42.990112305],[123.20910644500002,42.994873047],[123.18212890600002,42.971496582],[123.15393066400001,42.94152832],[123.12908935500002,42.901672363],[123.12768554700001,42.867675781],[123.16070556600002,42.829711914],[123.16149902300002,42.794677734],[123.12530517600001,42.78112793],[123.07269287100002,42.779724121],[123.02728271500001,42.770690918],[122.99987793000001,42.74987793],[122.93249511700002,42.756286621],[122.88311767600001,42.759094238],[122.83508300800001,42.748474121],[122.82788085900002,42.723083496],[122.81030273400002,42.701477051],[122.78649902300002,42.710693359]]]}}
