{"type":"Feature","id":"bulk-99377448B47507042524754","bbox":[107.68151855500001,22.21472168,109.59191894500002,24.02947998],"properties":{"id":"bulk-99377448B47507042524754","name":"NanNing","nameEn":"NanNing","fullName":"NanNing","level":"city","boundaryRole":"administrative-extent","boundaryQuality":"generalized-source-2020","boundaryYearRepresented":"2020","bounds":[[107.68151855500001,22.21472168],[109.59191894500002,24.02947998]],"center":[108.63671875000001,23.12210083],"centerMethod":"bounding-box midpoint; camera framing only","license":"CC-BY-3.0-IGO","attribution":"geoBoundaries / HDX, China administrative boundaries (2020)","source":{"provider":"geoBoundaries gbHumanitarian / HDX","url":"https://github.com/wmgeolab/geoBoundaries/raw/9469f09/releaseData/gbHumanitarian/CHN/ADM2/geoBoundaries-CHN-ADM2.geojson","metadataUrl":"https://www.geoboundaries.org/api/current/gbHumanitarian/CHN/ADM2/","shapeID":"99377448B47507042524754","shapeName":"NanNing","boundaryID":"CHN-ADM2-99377448","commit":"9469f09"},"geometryCounts":{"coordinates":201,"components":1,"holes":0},"boundaryNotice":"geoBoundaries / HDX 2020 年行政区数据，海岸和边界经过源数据概化，并非当前测绘成果。"},"geometry":{"type":"Polygon","coordinates":[[[107.81408691400001,23.396484375],[107.82928466800001,23.359924316],[107.84869384800001,23.33190918],[107.84832763700001,23.293273926],[107.86987304700001,23.267883301],[107.87292480500001,23.232116699],[107.92907714800002,23.255493164],[107.95208740200002,23.227905273],[107.98327636700002,23.203918457],[108.01690673800002,23.188476562],[108.05010986300002,23.18371582],[108.07049560500002,23.147094727],[108.07708740200002,23.116516113],[108.03167724600002,23.112670898],[107.99267578100002,23.130310059],[107.96270752,23.138671875],[107.93389892600001,23.123291016],[107.95532226600001,23.084472656],[107.96112060500002,23.052490234],[107.93212890600002,23.016906738],[107.89410400400001,22.98828125],[107.86047363300001,22.970092773],[107.82348632800002,22.975524902],[107.79248046900001,22.965881348],[107.75628662100002,22.965270996],[107.72631835900002,22.962280273],[107.73590087900001,22.934509277],[107.76849365200002,22.908874512],[107.80987548800002,22.888671875],[107.83911132800002,22.883483887],[107.87487793000001,22.87310791],[107.91992187500001,22.870483398],[107.95587158200001,22.854675293],[107.98132324200002,22.82611084],[108.00531005900001,22.807312012],[108.00872802700002,22.770324707],[107.99627685500002,22.737121582],[107.98571777300002,22.710693359],[108.00091552700002,22.681274414],[108.04968261700002,22.692077637],[108.07147216800001,22.713928223],[108.10369873000002,22.703674316],[108.09228515600002,22.664489746],[108.06152343700002,22.640319824],[107.98370361300002,22.61932373],[107.95947265600002,22.599304199],[107.99029541000002,22.568481445],[108.00292968700002,22.542114258],[108.03210449200002,22.510925293],[108.05987548800002,22.490112305],[108.07452392600001,22.45111084],[108.07409668000001,22.417724609],[108.07928466800001,22.38470459],[108.11151123000002,22.357299805],[108.12249755900001,22.324890137],[108.14532470700001,22.29510498],[108.17767334000001,22.281677246],[108.19427490200002,22.259094238],[108.22448730500001,22.234680176],[108.25653076200001,22.21472168],[108.29730224600002,22.229675293],[108.32727050800001,22.245300293],[108.363098145,22.267883301],[108.39428710900002,22.282104492],[108.42388916000002,22.282714844],[108.45367431600002,22.268676758],[108.48651123000002,22.278686523],[108.51910400400001,22.307128906],[108.52569580100001,22.366088867],[108.53790283200001,22.397888184],[108.55932617200001,22.418884277],[108.60052490200002,22.425720215],[108.61889648400002,22.447692871],[108.65710449200002,22.445129395],[108.70288085900002,22.45111084],[108.73168945300002,22.472473145],[108.75427246100001,22.496704102],[108.77929687500001,22.513305664],[108.81372070300002,22.53527832],[108.84191894500002,22.54510498],[108.87792968700002,22.53112793],[108.92510986300002,22.548278809],[108.96752929700001,22.559875488],[108.99969482400002,22.549926758],[109.03332519500002,22.536682129],[109.08532714800002,22.538085937],[109.11608886700002,22.535705566],[109.16009521500001,22.531311035],[109.21130371100001,22.528503418],[109.25567627,22.522888184],[109.296691895,22.540100098],[109.29412841800001,22.579711914],[109.29888916000002,22.616699219],[109.32690429700001,22.648071289],[109.39752197300001,22.65612793],[109.43432617200001,22.633911133],[109.46728515600002,22.658325195],[109.49908447300001,22.661682129],[109.53131103500002,22.664672852],[109.56188964800002,22.677124023],[109.59191894500002,22.707275391],[109.58129882800002,22.748474121],[109.55529785200001,22.780090332],[109.52148437500001,22.800720215],[109.51593017600001,22.833679199],[109.48651123000002,22.848510742],[109.45727539100001,22.875671387],[109.45147705100001,22.910888672],[109.43170166000002,22.944519043],[109.39630127,22.949707031],[109.36370849600002,22.957092285],[109.33673095700001,22.987670898],[109.31768798800002,23.024108887],[109.31567382800002,23.067687988],[109.31329345700001,23.10168457],[109.28387451200001,23.115478516],[109.22430419900002,23.140930176],[109.23431396500001,23.202697754],[109.23931884800001,23.245117187],[109.23590087900001,23.281677246],[109.21990966800001,23.311889648],[109.17010498000002,23.306884766],[109.13208007800002,23.311279297],[109.10772705100001,23.328918457],[109.09350585900002,23.367492676],[109.05889892600001,23.367492676],[109.03051757800002,23.378112793],[108.99768066400001,23.396728516],[108.95391845700001,23.403320312],[108.91168212900001,23.402099609],[108.87670898400002,23.413879395],[108.85931396500001,23.442871094],[108.85870361300002,23.471313477],[108.855285645,23.513916016],[108.82830810500002,23.553527832],[108.812316895,23.578491211],[108.79931640600002,23.603515625],[108.78649902300002,23.637878418],[108.77709960900002,23.669311523],[108.76593017600001,23.711303711],[108.77349853500002,23.745483398],[108.76892089800002,23.778686523],[108.72027587900001,23.823486328],[108.68688964800002,23.809082031],[108.65087890600002,23.781311035],[108.62689209000001,23.765075684],[108.60009765600002,23.736694336],[108.57849121100001,23.717102051],[108.54528808600001,23.688903809],[108.50927734400001,23.675476074],[108.47631835900002,23.707519531],[108.47930908200001,23.745300293],[108.44628906200002,23.770507812],[108.42810058600001,23.797119141],[108.41607666000002,23.827880859],[108.41967773400002,23.865722656],[108.43609619100002,23.895507812],[108.41949462900001,23.932128906],[108.42987060500002,23.982299805],[108.43530273400002,24.02947998],[108.42388916000002,24.029296875],[108.38989257800002,24.014892578],[108.35607910200001,23.993286133],[108.33410644500002,23.957885742],[108.31127929700001,23.957519531],[108.27789306600002,23.928894043],[108.26672363300001,23.914672852],[108.22949218700002,23.87890625],[108.20727539100001,23.847106934],[108.17352294900002,23.839477539],[108.15069580100001,23.846130371],[108.12768554700001,23.852722168],[108.105285645,23.838317871],[108.09448242200001,23.817077637],[108.07208252,23.795471191],[108.03851318400001,23.780883789],[108.02770996100001,23.752685547],[108.01312255900001,23.724304199],[107.99090576200001,23.709899902],[107.95690918000001,23.709106445],[107.91748046900001,23.708129883],[107.88891601600001,23.700927734],[107.85150146500001,23.686096191],[107.82867431600002,23.692687988],[107.81652832000002,23.727478027],[107.80871582000002,23.734313965],[107.78808593700002,23.688293457],[107.75567627,23.678527832],[107.71771240200002,23.666687012],[107.68487548800002,23.637329102],[107.68151855500001,23.605895996],[107.68829345700001,23.577087402],[107.70349121100001,23.551513672],[107.72308349600002,23.515075684],[107.73651123000002,23.470703125],[107.76708984400001,23.448303223],[107.80950927700002,23.457092285],[107.85827636700002,23.487487793],[107.86010742200001,23.448120117],[107.83367919900002,23.429870605],[107.81408691400001,23.396484375]]]}}
