{"type":"Feature","id":"bulk-99377448B71879516830605","bbox":[112.921875,26.050720215,114.09948730500001,28.029296875],"properties":{"id":"bulk-99377448B71879516830605","name":"Zhuzhou","nameEn":"Zhuzhou","fullName":"Zhuzhou","level":"city","boundaryRole":"administrative-extent","boundaryQuality":"generalized-source-2020","boundaryYearRepresented":"2020","bounds":[[112.921875,26.050720215],[114.09948730500001,28.029296875]],"center":[113.51068115250001,27.040008545],"centerMethod":"bounding-box midpoint; camera framing only","license":"CC-BY-3.0-IGO","attribution":"geoBoundaries / HDX, China administrative boundaries (2020)","source":{"provider":"geoBoundaries gbHumanitarian / HDX","url":"https://github.com/wmgeolab/geoBoundaries/raw/9469f09/releaseData/gbHumanitarian/CHN/ADM2/geoBoundaries-CHN-ADM2.geojson","metadataUrl":"https://www.geoboundaries.org/api/current/gbHumanitarian/CHN/ADM2/","shapeID":"99377448B71879516830605","shapeName":"Zhuzhou","boundaryID":"CHN-ADM2-99377448","commit":"9469f09"},"geometryCounts":{"coordinates":180,"components":1,"holes":0},"boundaryNotice":"geoBoundaries / HDX 2020 年行政区数据，海岸和边界经过源数据概化，并非当前测绘成果。"},"geometry":{"type":"Polygon","coordinates":[[[113.88348388700001,26.94708252],[113.87371826200001,26.967285156],[113.85711669900002,26.982116699],[113.82232666000002,27.032287598],[113.80108642600001,27.064086914],[113.77392578100002,27.072875977],[113.74749755900001,27.102294922],[113.75231933600001,27.11730957],[113.76428222700001,27.153930664],[113.79968261700002,27.213684082],[113.81567382800002,27.233886719],[113.83447265600002,27.252319336],[113.83148193400001,27.285522461],[113.82147216800001,27.320678711],[113.85412597700001,27.356506348],[113.86090087900001,27.37512207],[113.85327148400002,27.37890625],[113.83392334000001,27.38848877],[113.81127929700001,27.38269043],[113.74792480500001,27.372680664],[113.65747070300002,27.338317871],[113.63012695300002,27.340698242],[113.58648681600002,27.382080078],[113.60168457000002,27.407714844],[113.59930419900002,27.413330078],[113.59307861300002,27.428527832],[113.57629394500002,27.442321777],[113.56652832000002,27.462280273],[113.58532714800002,27.476074219],[113.59332275400001,27.503723145],[113.59191894500002,27.522521973],[113.57427978500002,27.518493652],[113.55847168000001,27.534912109],[113.55133056600002,27.565490723],[113.54730224600002,27.599487305],[113.57110595700001,27.609680176],[113.58728027300002,27.611083984],[113.62048339800002,27.663085937],[113.64129638700001,27.707275391],[113.65631103500002,27.727478027],[113.67431640600002,27.752929687],[113.68487548800002,27.76348877],[113.69970703100002,27.780883789],[113.71069335900002,27.802124023],[113.72131347700001,27.817077637],[113.71612548800002,27.844116211],[113.69732666000002,27.864501953],[113.67132568400001,27.86151123],[113.63208007800002,27.863708496],[113.59051513700001,27.878295898],[113.57507324200002,27.901672363],[113.57189941400001,27.93927002],[113.53192138700001,27.940124512],[113.495910645,27.924499512],[113.45971679700001,27.906677246],[113.40930175800001,27.889282227],[113.37988281200002,27.866882324],[113.35992431600002,27.839477539],[113.32128906200002,27.82208252],[113.29089355500001,27.828308105],[113.26409912100002,27.84387207],[113.25988769500002,27.878295898],[113.24969482400002,27.92767334],[113.23107910200001,27.966674805],[113.21368408200001,27.988891602],[113.16711425800001,28.029296875],[113.14068603500002,28.008911133],[113.11791992200001,27.98828125],[113.11450195300002,27.954284668],[113.08227539100001,27.918273926],[113.05590820300002,27.940124512],[113.02789306600002,27.895690918],[113.00952148400002,27.86907959],[112.98309326200001,27.839477539],[112.96649169900002,27.807312012],[112.98370361300002,27.760681152],[112.99969482400002,27.722473145],[112.99932861300002,27.690307617],[112.96130371100001,27.671875],[112.97607421900001,27.635070801],[112.98748779300001,27.609130859],[112.96191406200002,27.581481934],[112.94049072300001,27.547729492],[112.921875,27.514892578],[112.92907714800002,27.482910156],[112.94250488300001,27.43927002],[112.96789550800001,27.375488281],[112.99212646500001,27.358703613],[113.00268554700001,27.31427002],[113.02111816400001,27.281921387],[113.046691895,27.250671387],[113.06030273400002,27.216918945],[113.11688232400002,27.236328125],[113.15631103500002,27.231323242],[113.19750976600001,27.24609375],[113.21752929700001,27.195678711],[113.21667480500001,27.156677246],[113.18188476600001,27.133483887],[113.14532470700001,27.122680664],[113.12670898400002,27.092895508],[113.13031005900001,27.06072998],[113.17370605500001,27.055725098],[113.18591308600001,27.021484375],[113.17767334000001,26.990478516],[113.18347168000001,26.963684082],[113.21447753900001,26.939880371],[113.21948242200001,26.90612793],[113.19567871100001,26.874084473],[113.19989013700001,26.846679687],[113.24072265600002,26.809326172],[113.24267578100002,26.77532959],[113.27368164100001,26.788330078],[113.30249023400002,26.814697266],[113.37329101600001,26.766906738],[113.37072753900001,26.736328125],[113.36108398400002,26.702087402],[113.35211181600002,26.67388916],[113.36212158200001,26.636474609],[113.39050293000001,26.583679199],[113.43768310500002,26.57989502],[113.46667480500001,26.600280762],[113.50408935500002,26.608093262],[113.52832031200002,26.582702637],[113.52929687500001,26.547119141],[113.56292724600002,26.517089844],[113.55627441400001,26.487121582],[113.56292724600002,26.435302734],[113.55670166000002,26.394714355],[113.56011962900001,26.356079102],[113.56591796900001,26.322692871],[113.57952880900001,26.293273926],[113.63067627,26.265075684],[113.66333007800002,26.248291016],[113.69049072300001,26.223083496],[113.69390869100002,26.191711426],[113.68151855500001,26.147521973],[113.66571044900002,26.110473633],[113.65747070300002,26.079101562],[113.66247558600001,26.050720215],[113.71850585900002,26.05871582],[113.75128173800002,26.078674316],[113.76330566400001,26.109680176],[113.79388427700002,26.094116211],[113.83752441400001,26.102905273],[113.87628173800002,26.136291504],[113.93951416000002,26.177307129],[113.93627929700001,26.178894043],[113.94232177700002,26.210083008],[113.95532226600001,26.24029541],[113.98529052700002,26.267272949],[113.99792480500001,26.281311035],[114.02508544900002,26.313720703],[114.03332519500002,26.344909668],[114.03570556600002,26.413085937],[114.04431152300002,26.422729492],[114.05230712900001,26.431518555],[114.06787109400001,26.444519043],[114.09948730500001,26.487487793],[114.08807373000002,26.534484863],[114.06909179700001,26.570678711],[114.06451416000002,26.579101562],[114.02392578100002,26.598327637],[113.97351074200002,26.630126953],[113.91790771500001,26.625488281],[113.88690185500002,26.632507324],[113.847473145,26.629089355],[113.83172607400002,26.63671875],[113.82568359400001,26.639526367],[113.81970214800002,26.672119141],[113.82128906200002,26.692687988],[113.81890869100002,26.743896484],[113.82708740200002,26.773498535],[113.828125,26.777709961],[113.83648681600002,26.820495605],[113.84710693400001,26.833679199],[113.85650634800001,26.840515137],[113.86791992200001,26.882324219],[113.88409423800002,26.909729004],[113.88989257800002,26.93371582],[113.88348388700001,26.94708252]]]}}
