{"type":"Feature","id":"bulk-99377448B87068666107694","bbox":[106.33508300800001,33.577697754,108.04772949200002,35.09967041],"properties":{"id":"bulk-99377448B87068666107694","name":"Baoji","nameEn":"Baoji","fullName":"Baoji","level":"city","boundaryRole":"administrative-extent","boundaryQuality":"generalized-source-2020","boundaryYearRepresented":"2020","bounds":[[106.33508300800001,33.577697754],[108.04772949200002,35.09967041]],"center":[107.19140625000001,34.338684082],"centerMethod":"bounding-box midpoint; camera framing only","license":"CC-BY-3.0-IGO","attribution":"geoBoundaries / HDX, China administrative boundaries (2020)","source":{"provider":"geoBoundaries gbHumanitarian / HDX","url":"https://github.com/wmgeolab/geoBoundaries/raw/9469f09/releaseData/gbHumanitarian/CHN/ADM2/geoBoundaries-CHN-ADM2.geojson","metadataUrl":"https://www.geoboundaries.org/api/current/gbHumanitarian/CHN/ADM2/","shapeID":"99377448B87068666107694","shapeName":"Baoji","boundaryID":"CHN-ADM2-99377448","commit":"9469f09"},"geometryCounts":{"coordinates":157,"components":1,"holes":0},"boundaryNotice":"geoBoundaries / HDX 2020 年行政区数据，海岸和边界经过源数据概化，并非当前测绘成果。"},"geometry":{"type":"Polygon","coordinates":[[[108.04772949200002,34.252075195],[108.03271484400001,34.276916504],[108.02227783200001,34.30871582],[108.03448486300002,34.34387207],[108.03112793000001,34.373718262],[108.01409912100002,34.418273926],[108.01849365200002,34.446289062],[107.98712158200001,34.482910156],[107.97369384800001,34.513671875],[107.98107910200001,34.557678223],[107.96887207000002,34.608276367],[108.02569580100001,34.632324219],[108.02227783200001,34.66229248],[108.00909423800002,34.697692871],[107.99389648400002,34.723876953],[107.97528076200001,34.766296387],[107.96032714800002,34.809082031],[107.94390869100002,34.857910156],[107.87048339800002,34.850280762],[107.84912109400001,34.876708984],[107.82568359400001,34.917297363],[107.81347656200002,34.943481445],[107.78430175800001,34.971130371],[107.73327636700002,34.959899902],[107.68408203100002,34.95111084],[107.64349365200002,34.94152832],[107.60192871100001,34.924072266],[107.59307861300002,34.922912598],[107.58551025400001,34.930725098],[107.58850097700001,34.952270508],[107.57830810500002,34.960083008],[107.56347656200002,34.960693359],[107.52270507800002,34.957092285],[107.48931884800001,34.956298828],[107.47827148400002,34.949279785],[107.47308349600002,34.921508789],[107.47607421900001,34.901916504],[107.47650146500001,34.893127441],[107.46429443400001,34.887878418],[107.421691895,34.898681641],[107.36108398400002,34.903076172],[107.23608398400002,34.916320801],[107.20428466800001,34.869689941],[107.12371826200001,34.881896973],[107.11828613300001,34.918701172],[107.11767578100002,34.923278809],[107.07489013700001,34.938293457],[107.04949951200001,34.959899902],[107.05792236300002,35.002502441],[107.03729248000002,35.015075684],[106.97570800800001,35.05267334],[106.88372802700002,35.09967041],[106.82373046900001,35.083496094],[106.75128173800002,35.081726074],[106.67028808600001,35.067077637],[106.55108642600001,35.061279297],[106.52307128900001,35.065673828],[106.48608398400002,35.041687012],[106.46490478500002,35.014709473],[106.46710205100001,34.96472168],[106.48651123000002,34.90447998],[106.51812744100002,34.863098145],[106.53692627,34.816101074],[106.53491210900002,34.787109375],[106.52947998000002,34.760498047],[106.49230957000002,34.752319336],[106.44091796900001,34.739501953],[106.40911865200002,34.712280273],[106.40032959000001,34.68548584],[106.35931396500001,34.642272949],[106.33508300800001,34.596679687],[106.34112548800002,34.561096191],[106.37811279300001,34.52130127],[106.43170166000002,34.507080078],[106.45812988300001,34.505126953],[106.48852539100001,34.490112305],[106.52252197300001,34.469909668],[106.546691895,34.444274902],[106.59387207000002,34.421691895],[106.64208984400001,34.378112793],[106.65350341800001,34.338928223],[106.65490722700001,34.309875488],[106.63671875000001,34.269714355],[106.59771728500002,34.260681152],[106.51892089800002,34.253295898],[106.50708007800002,34.22052002],[106.55792236300002,34.191101074],[106.59228515600002,34.155090332],[106.60308837900001,34.134277344],[106.59088134800001,34.11529541],[106.55169677700002,34.108886719],[106.51550293000001,34.107910156],[106.45269775400001,34.042907715],[106.44232177700002,33.981689453],[106.44750976600001,33.942321777],[106.43890380900001,33.915710449],[106.44030761700002,33.881286621],[106.45751953100002,33.865905762],[106.47448730500001,33.853271484],[106.46832275400001,33.771118164],[106.48767089800002,33.703125],[106.55090332000002,33.678283691],[106.57287597700001,33.620910645],[106.56689453100002,33.577697754],[106.61767578100002,33.592102051],[106.64251709000001,33.620483398],[106.66333007800002,33.64630127],[106.70007324200002,33.655883789],[106.71649169900002,33.686706543],[106.76068115200002,33.667724609],[106.78833007800002,33.703491211],[106.80047607400002,33.747497559],[106.79547119100002,33.783691406],[106.79827880900001,33.812683105],[106.82427978500002,33.830505371],[106.84350585900002,33.853271484],[106.88250732400002,33.857910156],[106.90148925800001,33.833129883],[106.95031738300001,33.804870605],[106.98547363300001,33.800292969],[107.01568603500002,33.815307617],[107.05151367200001,33.851928711],[107.10070800800001,33.81048584],[107.12652587900001,33.79107666],[107.15991210900002,33.790527344],[107.18450927700002,33.766906738],[107.23712158200001,33.769470215],[107.28448486300002,33.788085937],[107.32031250000001,33.798278809],[107.31329345700001,33.760314941],[107.26672363300001,33.705871582],[107.32092285200001,33.67590332],[107.36791992200001,33.675476074],[107.39849853500002,33.653930664],[107.43609619100002,33.642700195],[107.48309326200001,33.671691895],[107.546691895,33.686279297],[107.57910156200002,33.692077637],[107.62969970700001,33.701293945],[107.67590332000002,33.715698242],[107.65252685500002,33.772705078],[107.67388916000002,33.814086914],[107.70111084000001,33.838317871],[107.69610595700001,33.88092041],[107.70928955100001,33.912902832],[107.76672363300001,33.938110352],[107.81170654300001,33.971679687],[107.84350585900002,33.960693359],[107.87951660200001,33.979125977],[107.91809082000002,33.977478027],[107.92828369100002,34.00567627],[107.95208740200002,34.072875977],[107.98449707000002,34.102294922],[108.01330566400001,34.139099121],[108.01971435500002,34.167114258],[107.99450683600001,34.216491699],[108.04772949200002,34.252075195]]]}}
