{"type":"Feature","id":"bulk-99377448B22082069515305","bbox":[118.58349609400001,35.082519531,119.60668945300002,36.00390625],"properties":{"id":"bulk-99377448B22082069515305","name":"Rizhao","nameEn":"Rizhao","fullName":"Rizhao","level":"city","boundaryRole":"administrative-extent","boundaryQuality":"generalized-source-2020","boundaryYearRepresented":"2020","bounds":[[118.58349609400001,35.082519531],[119.60668945300002,36.00390625]],"center":[119.09509277350001,35.5432128905],"centerMethod":"bounding-box midpoint; camera framing only","license":"CC-BY-3.0-IGO","attribution":"geoBoundaries / HDX, China administrative boundaries (2020)","source":{"provider":"geoBoundaries gbHumanitarian / HDX","url":"https://github.com/wmgeolab/geoBoundaries/raw/9469f09/releaseData/gbHumanitarian/CHN/ADM2/geoBoundaries-CHN-ADM2.geojson","metadataUrl":"https://www.geoboundaries.org/api/current/gbHumanitarian/CHN/ADM2/","shapeID":"99377448B22082069515305","shapeName":"Rizhao","boundaryID":"CHN-ADM2-99377448","commit":"9469f09"},"geometryCounts":{"coordinates":129,"components":1,"holes":0},"boundaryNotice":"geoBoundaries / HDX 2020 年行政区数据，海岸和边界经过源数据概化，并非当前测绘成果。"},"geometry":{"type":"Polygon","coordinates":[[[119.19049072300001,35.104125977],[119.21173095700001,35.102722168],[119.22808837900001,35.094726562],[119.26788330100001,35.084472656],[119.28247070300002,35.082519531],[119.28649902300002,35.083129883],[119.28631591800001,35.084289551],[119.28332519500002,35.089477539],[119.28588867200001,35.096496582],[119.29052734400001,35.095092773],[119.29510498000002,35.090698242],[119.29547119100002,35.084472656],[119.30212402300002,35.085693359],[119.33270263700001,35.094299316],[119.34790039100001,35.107727051],[119.35607910200001,35.130493164],[119.36071777300002,35.160095215],[119.36627197300001,35.17791748],[119.36450195300002,35.177490234],[119.36492919900002,35.180480957],[119.36627197300001,35.18548584],[119.35192871100001,35.173278809],[119.33831787100002,35.164306641],[119.34350585900002,35.180114746],[119.35131835900002,35.208496094],[119.34851074200002,35.233886719],[119.35412597700001,35.254272461],[119.36627197300001,35.270507812],[119.38867187500001,35.277099609],[119.40472412100002,35.296691895],[119.39831543000001,35.300109863],[119.39031982400002,35.300476074],[119.39270019500002,35.303283691],[119.39349365200002,35.303283691],[119.40869140600002,35.308898926],[119.40850830100001,35.309692383],[119.41510009800001,35.311279297],[119.41851806600002,35.3125],[119.41668701200001,35.317077637],[119.41870117200001,35.321105957],[119.43048095700001,35.323120117],[119.43249511700002,35.317687988],[119.49047851600001,35.339294434],[119.49890136700002,35.381896973],[119.51910400400001,35.364685059],[119.52288818400001,35.370727539],[119.53009033200001,35.377075195],[119.53387451200001,35.378479004],[119.54150390600002,35.405090332],[119.55767822300001,35.446289062],[119.58630371100001,35.486694336],[119.60668945300002,35.513122559],[119.58569335900002,35.54888916],[119.60467529300001,35.565490723],[119.60028076200001,35.596496582],[119.57507324200002,35.576904297],[119.55731201200001,35.580688477],[119.53387451200001,35.585327148],[119.49407959000001,35.613708496],[119.49548339800002,35.643493652],[119.50091552700002,35.703674316],[119.49029541000002,35.735900879],[119.48352050800001,35.770874023],[119.47088623000002,35.801086426],[119.42749023400002,35.793273926],[119.39569091800001,35.769714355],[119.36029052700002,35.747924805],[119.33068847700001,35.765075684],[119.34307861300002,35.791320801],[119.34252929700001,35.822692871],[119.31988525400001,35.850708008],[119.29132080100001,35.865478516],[119.25671386700002,35.869506836],[119.20770263700001,35.86328125],[119.15771484400001,35.86529541],[119.13830566400001,35.89630127],[119.13031005900001,35.923706055],[119.09429931600002,35.949279785],[119.02667236300002,35.949279785],[118.99310302700002,35.954711914],[118.96752929700001,36.00390625],[118.92987060500002,35.989929199],[118.89129638700001,35.984313965],[118.88128662100002,35.957885742],[118.83892822300001,35.940307617],[118.79492187500001,35.931274414],[118.77148437500001,35.911071777],[118.75109863300001,35.88671875],[118.73248291000002,35.855102539],[118.71728515600002,35.821289062],[118.70788574200002,35.779296875],[118.71130371100001,35.745483398],[118.72851562500001,35.719299316],[118.77087402300002,35.72052002],[118.78430175800001,35.68951416],[118.76129150400001,35.66192627],[118.73168945300002,35.63067627],[118.69970703100002,35.580078125],[118.69030761700002,35.54309082],[118.69531250000001,35.512329102],[118.71411132800002,35.481872559],[118.69592285200001,35.455322266],[118.65747070300002,35.450500488],[118.62109375000001,35.44152832],[118.58349609400001,35.422912598],[118.58569335900002,35.380310059],[118.64007568400001,35.363708496],[118.67449951200001,35.359130859],[118.72491455100001,35.357910156],[118.76208496100001,35.353088379],[118.80230712900001,35.36529541],[118.83673095700001,35.347900391],[118.87207031200002,35.332519531],[118.92547607400002,35.308898926],[118.94567871100001,35.332885742],[118.95172119100002,35.364685059],[119.00653076200001,35.38470459],[119.04772949200002,35.33972168],[119.06988525400001,35.318115234],[119.120910645,35.322875977],[119.16632080100001,35.317321777],[119.17590332000002,35.289916992],[119.16351318400001,35.257324219],[119.15112304700001,35.229919434],[119.13269043000001,35.197875977],[119.11968994100002,35.169494629],[119.14172363300001,35.134521484],[119.18890380900001,35.104309082],[119.19049072300001,35.104125977]]]}}
