{"type":"Feature","id":"bulk-99377448B43756215664366","bbox":[109.27307128900001,40.219726562,111.40393066400001,42.736694336],"properties":{"id":"bulk-99377448B43756215664366","name":"Baotou","nameEn":"Baotou","fullName":"Baotou","level":"city","boundaryRole":"administrative-extent","boundaryQuality":"generalized-source-2020","boundaryYearRepresented":"2020","bounds":[[109.27307128900001,40.219726562],[111.40393066400001,42.736694336]],"center":[110.33850097650001,41.478210449],"centerMethod":"bounding-box midpoint; camera framing only","license":"CC-BY-3.0-IGO","attribution":"geoBoundaries / HDX, China administrative boundaries (2020)","source":{"provider":"geoBoundaries gbHumanitarian / HDX","url":"https://github.com/wmgeolab/geoBoundaries/raw/9469f09/releaseData/gbHumanitarian/CHN/ADM2/geoBoundaries-CHN-ADM2.geojson","metadataUrl":"https://www.geoboundaries.org/api/current/gbHumanitarian/CHN/ADM2/","shapeID":"99377448B43756215664366","shapeName":"Baotou","boundaryID":"CHN-ADM2-99377448","commit":"9469f09"},"geometryCounts":{"coordinates":246,"components":1,"holes":0},"boundaryNotice":"geoBoundaries / HDX 2020 年行政区数据，海岸和边界经过源数据概化，并非当前测绘成果。"},"geometry":{"type":"Polygon","coordinates":[[[111.02868652300002,40.283081055],[111.05810546900001,40.310302734],[111.07849121100001,40.332519531],[111.06787109400001,40.384277344],[111.08673095700001,40.41809082],[111.02429199200002,40.436706543],[110.98187255900001,40.461914062],[110.93432617200001,40.476318359],[110.88708496100001,40.488525391],[110.83911132800002,40.50970459],[110.81768798800002,40.534301758],[110.81207275400001,40.561889648],[110.79650878900001,40.594482422],[110.76690673800002,40.611877441],[110.74291992200001,40.644897461],[110.74951171900001,40.676879883],[110.75952148400002,40.704528809],[110.74652099600002,40.731506348],[110.71667480500001,40.770080566],[110.69171142600001,40.827880859],[110.69689941400001,40.857116699],[110.69708252,40.883728027],[110.68249511700002,40.923706055],[110.64068603500002,40.920288086],[110.597473145,40.91229248],[110.60150146500001,40.942077637],[110.61590576200001,40.97467041],[110.63250732400002,41.00189209],[110.64392089800002,41.033081055],[110.64208984400001,41.06451416],[110.61767578100002,41.096496582],[110.59991455100001,41.12310791],[110.59509277300002,41.159484863],[110.58172607400002,41.192077637],[110.55767822300001,41.214904785],[110.51269531200002,41.235473633],[110.47149658200001,41.258728027],[110.46148681600002,41.287902832],[110.53387451200001,41.305480957],[110.57928466800001,41.304321289],[110.62689209000001,41.319885254],[110.66967773400002,41.337890625],[110.70867919900002,41.361083984],[110.74731445300002,41.368286133],[110.79608154300001,41.360290527],[110.81829834000001,41.336486816],[110.84130859400001,41.313293457],[110.87567138700001,41.301330566],[110.91308593700002,41.309692383],[110.94427490200002,41.324279785],[110.98388671900001,41.326721191],[111.01171875000001,41.306518555],[111.04748535200001,41.294921875],[111.08929443400001,41.285705566],[111.12670898400002,41.271484375],[111.16107177700002,41.240905762],[111.20208740200002,41.228088379],[111.24108886700002,41.249328613],[111.29132080100001,41.278930664],[111.32427978500002,41.291870117],[111.37988281200002,41.296875],[111.38671875000001,41.346679687],[111.37652587900001,41.375488281],[111.38507080100001,41.405273437],[111.39508056600002,41.437927246],[111.40191650400001,41.477294922],[111.40393066400001,41.517089844],[111.39349365200002,41.551513672],[111.37628173800002,41.576904297],[111.34289550800001,41.607116699],[111.30749511700002,41.634521484],[111.26593017600001,41.639709473],[111.21209716800001,41.657470703],[111.17047119100002,41.674682617],[111.13330078100002,41.69329834],[111.09912109400001,41.721130371],[111.06707763700001,41.739074707],[111.04528808600001,41.761901855],[111.02508544900002,41.787475586],[111.00268554700001,41.81427002],[110.98309326200001,41.841308594],[110.96588134800001,41.868896484],[110.94689941400001,41.900878906],[110.92968750000001,41.930297852],[110.90728759800001,41.955322266],[110.88311767600001,41.991088867],[110.86828613300001,42.019714355],[110.85467529300001,42.050476074],[110.83868408200001,42.081298828],[110.82128906200002,42.108886719],[110.80590820300002,42.13848877],[110.79388427700002,42.165527344],[110.77972412100002,42.1953125],[110.75549316400001,42.253479004],[110.74371337900001,42.285705566],[110.73730468700002,42.32409668],[110.73413085900002,42.352722168],[110.71832275400001,42.400512695],[110.70428466800001,42.44708252],[110.67230224600002,42.478881836],[110.64007568400001,42.49987793],[110.60571289100001,42.522705078],[110.56787109400001,42.553710937],[110.53088378900001,42.586120605],[110.48468017600001,42.611694336],[110.45251464800002,42.645690918],[110.42889404300001,42.676879883],[110.39709472700001,42.695129395],[110.34588623000002,42.736694336],[110.34051513700001,42.734130859],[110.304504395,42.723876953],[110.29870605500001,42.721130371],[110.27172851600001,42.714477539],[110.15032959000001,42.679870605],[110.13848877,42.673706055],[110.11132812500001,42.639282227],[110.07208252,42.638305664],[110.05072021500001,42.62689209],[110.02709960900002,42.624084473],[109.99188232400002,42.62487793],[109.94787597700001,42.627502441],[109.85913085900002,42.614074707],[109.76892089800002,42.580078125],[109.67749023400002,42.5546875],[109.53027343700002,42.463317871],[109.51312255900001,42.466674805],[109.48748779300001,42.459899902],[109.47351074200002,42.457885742],[109.46051025400001,42.450927734],[109.42327880900001,42.43170166],[109.35827636700002,42.430297852],[109.35467529300001,42.428710937],[109.38153076200001,42.394897461],[109.43212890600002,42.351501465],[109.46472168000001,42.320922852],[109.48309326200001,42.285522461],[109.49047851600001,42.241699219],[109.48132324200002,42.209289551],[109.46789550800001,42.18371582],[109.45208740200002,42.152282715],[109.43249511700002,42.124694824],[109.39752197300001,42.090881348],[109.36968994100002,42.051879883],[109.34832763700001,42.01751709],[109.34948730500001,41.987487793],[109.34191894500002,41.944885254],[109.33392334000001,41.910705566],[109.31268310500002,41.884887695],[109.28192138700001,41.858886719],[109.27307128900001,41.8203125],[109.29711914100001,41.790100098],[109.31787109400001,41.761474609],[109.35052490200002,41.70489502],[109.36389160200001,41.669311523],[109.38568115200002,41.633911133],[109.40447998000002,41.600280762],[109.40930175800001,41.564880371],[109.40991210900002,41.535888672],[109.421691895,41.509887695],[109.46350097700001,41.492126465],[109.50872802700002,41.481506348],[109.554504395,41.472717285],[109.59307861300002,41.479309082],[109.63970947300001,41.457275391],[109.63470459000001,41.413085937],[109.64508056600002,41.387084961],[109.65832519500002,41.354309082],[109.671875,41.315307617],[109.66027832000002,41.282104492],[109.62591552700002,41.259277344],[109.61450195300002,41.23248291],[109.63049316400001,41.206481934],[109.65551757800002,41.18170166],[109.68688964800002,41.135925293],[109.67492675800001,41.098876953],[109.65930175800001,41.071289062],[109.66912841800001,41.043518066],[109.70428466800001,41.022094727],[109.73510742200001,41.004272461],[109.77569580100001,40.979125977],[109.79571533200001,40.956115723],[109.81927490200002,40.929504395],[109.84930419900002,40.898925781],[109.87207031200002,40.868530273],[109.87487793000001,40.836730957],[109.85052490200002,40.815307617],[109.81329345700001,40.789489746],[109.77069091800001,40.777709961],[109.73968505900001,40.757324219],[109.69488525400001,40.749084473],[109.65570068400001,40.749084473],[109.61108398400002,40.748291016],[109.55651855500001,40.750488281],[109.50567627,40.743286133],[109.46252441400001,40.730895996],[109.42572021500001,40.709472656],[109.40911865200002,40.668701172],[109.41772460900002,40.64050293],[109.44250488300001,40.615112305],[109.40887451200001,40.580871582],[109.39288330100001,40.556518555],[109.38867187500001,40.526672363],[109.38708496100001,40.519287109],[109.42028808600001,40.519470215],[109.44952392600001,40.510314941],[109.57391357400002,40.523071289],[109.60308837900001,40.520080566],[109.63629150400001,40.507873535],[109.65307617200001,40.492492676],[109.66149902300002,40.471130371],[109.67810058600001,40.455688477],[109.71551513700001,40.462097168],[109.77770996100001,40.492919922],[109.86889648400002,40.529724121],[109.88549804700001,40.520507812],[109.90228271500001,40.49609375],[109.93127441400001,40.49609375],[110.00592041000002,40.535888672],[110.03088378900001,40.532897949],[110.08489990200002,40.502075195],[110.11389160200001,40.492919922],[110.13470459000001,40.499084473],[110.13470459000001,40.551086426],[110.21368408200001,40.517272949],[110.23010253900001,40.471313477],[110.27587890600002,40.480285645],[110.29650878900001,40.449707031],[110.35028076200001,40.440307617],[110.39990234400001,40.391113281],[110.47052002,40.399902344],[110.56951904300001,40.322875977],[110.61090087900001,40.313476562],[110.67730712900001,40.33770752],[110.69787597700001,40.328308105],[110.70172119100002,40.279296875],[110.74291992200001,40.272888184],[110.76348877,40.254272461],[110.78851318400001,40.263305664],[110.81347656200002,40.284729004],[110.83850097700001,40.293701172],[110.85491943400001,40.287475586],[110.87109375000001,40.256713867],[110.87487793000001,40.222900391],[110.88732910200001,40.219726562],[110.96209716800001,40.253112793],[111.02868652300002,40.283081055]]]}}
