{"type":"Feature","id":"bulk-99377448B23397627602839","bbox":[112.92108154300001,30.09387207,113.83148193400001,30.536682129],"properties":{"id":"bulk-99377448B23397627602839","name":"Xiantao","nameEn":"Xiantao","fullName":"Xiantao","level":"city","boundaryRole":"administrative-extent","boundaryQuality":"generalized-source-2020","boundaryYearRepresented":"2020","bounds":[[112.92108154300001,30.09387207],[113.83148193400001,30.536682129]],"center":[113.37628173850001,30.3152770995],"centerMethod":"bounding-box midpoint; camera framing only","license":"CC-BY-3.0-IGO","attribution":"geoBoundaries / HDX, China administrative boundaries (2020)","source":{"provider":"geoBoundaries gbHumanitarian / HDX","url":"https://github.com/wmgeolab/geoBoundaries/raw/9469f09/releaseData/gbHumanitarian/CHN/ADM2/geoBoundaries-CHN-ADM2.geojson","metadataUrl":"https://www.geoboundaries.org/api/current/gbHumanitarian/CHN/ADM2/","shapeID":"99377448B23397627602839","shapeName":"Xiantao","boundaryID":"CHN-ADM2-99377448","commit":"9469f09"},"geometryCounts":{"coordinates":72,"components":1,"holes":0},"boundaryNotice":"geoBoundaries / HDX 2020 年行政区数据，海岸和边界经过源数据概化，并非当前测绘成果。"},"geometry":{"type":"Polygon","coordinates":[[[113.83148193400001,30.15447998],[113.78088378900001,30.221679687],[113.74029541000002,30.224914551],[113.745910645,30.253112793],[113.76489257800002,30.278930664],[113.74487304700001,30.303283691],[113.72631835900002,30.332519531],[113.71551513700001,30.361694336],[113.68487548800002,30.389282227],[113.62969970700001,30.435302734],[113.59667968700002,30.454101562],[113.57568359400001,30.468322754],[113.55352783200001,30.455322266],[113.53149414100001,30.442321777],[113.50872802700002,30.415710449],[113.50811767600001,30.402099609],[113.46392822300001,30.375915527],[113.44189453100002,30.362915039],[113.42028808600001,30.363525391],[113.39868164100001,30.364074707],[113.37768554700001,30.378479004],[113.35668945300002,30.392700195],[113.33569335900002,30.407104492],[113.31469726600001,30.421325684],[113.29309082000002,30.421875],[113.27111816400001,30.408874512],[113.24951171900001,30.409484863],[113.20568847700001,30.397094727],[113.18432617200001,30.397521973],[113.14111328100002,30.398681641],[113.12011718700002,30.413085937],[113.12152099600002,30.454101562],[113.10009765600002,30.454528809],[113.07849121100001,30.455078125],[113.05627441400001,30.442077637],[113.03491210900002,30.442687988],[113.05792236300002,30.483093262],[113.03668212900001,30.497314453],[113.01568603500002,30.511474609],[112.99407959000001,30.512084961],[112.972473145,30.512695312],[112.92932128900001,30.513671875],[112.92388916000002,30.536682129],[112.92608642600001,30.49987793],[112.94970703100002,30.465698242],[112.95092773400002,30.422485352],[112.93432617200001,30.390686035],[112.92108154300001,30.34967041],[112.94470214800002,30.319885254],[112.96630859400001,30.29888916],[112.98730468700002,30.165527344],[113.00891113300001,30.165100098],[113.03027343700002,30.164489746],[113.05090332000002,30.136474609],[113.09387207000002,30.135498047],[113.13690185500002,30.134277344],[113.17968750000001,30.133117676],[113.22271728500002,30.131896973],[113.26568603500002,30.13067627],[113.28771972700001,30.143676758],[113.30987548800002,30.156921387],[113.35272216800001,30.155700684],[113.37432861300002,30.155090332],[113.43768310500002,30.125671387],[113.50152587900001,30.110107422],[113.54388427700002,30.095275879],[113.58691406200002,30.09387207],[113.65191650400001,30.105529785],[113.69488525400001,30.104125977],[113.73828125000001,30.116516113],[113.78247070300002,30.14251709],[113.83148193400001,30.15447998]]]}}
