{"type":"Feature","id":"bulk-99377448B62072322264607","bbox":[104.54528808600001,24.605529785,106.59387207000002,26.204284668],"properties":{"id":"bulk-99377448B62072322264607","name":"Qianxinan Buyi and Miao Autonomous Prefecture","nameEn":"Qianxinan Buyi and Miao Autonomous Prefecture","fullName":"Qianxinan Buyi and Miao Autonomous Prefecture","level":"city","boundaryRole":"administrative-extent","boundaryQuality":"generalized-source-2020","boundaryYearRepresented":"2020","bounds":[[104.54528808600001,24.605529785],[106.59387207000002,26.204284668]],"center":[105.56958007800002,25.4049072265],"centerMethod":"bounding-box midpoint; camera framing only","license":"CC-BY-3.0-IGO","attribution":"geoBoundaries / HDX, China administrative boundaries (2020)","source":{"provider":"geoBoundaries gbHumanitarian / HDX","url":"https://github.com/wmgeolab/geoBoundaries/raw/9469f09/releaseData/gbHumanitarian/CHN/ADM2/geoBoundaries-CHN-ADM2.geojson","metadataUrl":"https://www.geoboundaries.org/api/current/gbHumanitarian/CHN/ADM2/","shapeID":"99377448B62072322264607","shapeName":"Qianxinan Buyi and Miao Autonomous Prefecture","boundaryID":"CHN-ADM2-99377448","commit":"9469f09"},"geometryCounts":{"coordinates":194,"components":1,"holes":0},"boundaryNotice":"geoBoundaries / HDX 2020 年行政区数据，海岸和边界经过源数据概化，并非当前测绘成果。"},"geometry":{"type":"Polygon","coordinates":[[[106.59387207000002,25.100891113],[106.55987548800002,25.122924805],[106.48992919900002,25.168884277],[106.47869873000002,25.216125488],[106.49328613300001,25.244873047],[106.49688720700001,25.275695801],[106.46807861300002,25.30670166],[106.45849609400001,25.344482422],[106.44488525400001,25.370117187],[106.41888427700002,25.399475098],[106.38372802700002,25.439086914],[106.34490966800001,25.403930664],[106.30511474600002,25.413085937],[106.28491210900002,25.440124512],[106.25048828100002,25.467712402],[106.21868896500001,25.479675293],[106.18267822300001,25.489074707],[106.14770507800002,25.516479492],[106.13549804700001,25.550109863],[106.13049316400001,25.591491699],[106.08892822300001,25.594116211],[106.05950927700002,25.586730957],[106.03668212900001,25.607299805],[106.00732421900001,25.635498047],[105.97888183600001,25.624328613],[105.98431396500001,25.593688965],[105.96307373000002,25.566894531],[105.93151855500001,25.555297852],[105.91070556600002,25.530700684],[105.91528320300002,25.489929199],[105.92291259800001,25.458312988],[105.89270019500002,25.443481445],[105.85290527300002,25.450500488],[105.82427978500002,25.475524902],[105.79492187500001,25.511291504],[105.76428222700001,25.550292969],[105.77130127,25.553283691],[105.74090576200001,25.572509766],[105.72430419900002,25.586303711],[105.70690918000001,25.614501953],[105.69769287100002,25.642883301],[105.67230224600002,25.670715332],[105.65649414100001,25.67010498],[105.59088134800001,25.703491211],[105.56707763700001,25.702514648],[105.53710937500001,25.687316895],[105.53588867200001,25.686889648],[105.49468994100002,25.713928223],[105.47851562500001,25.72052002],[105.46069335900002,25.75567627],[105.43572998000002,25.776306152],[105.40393066400001,25.775085449],[105.39508056600002,25.789123535],[105.37731933600001,25.824279785],[105.39172363300001,25.85369873],[105.38269043000001,25.87487793],[105.36627197300001,25.881286621],[105.33447265600002,25.880126953],[105.30212402300002,25.885925293],[105.27551269500002,25.935119629],[105.24169921900001,25.969726562],[105.23291015600002,25.983703613],[105.23132324200002,26.012329102],[105.22827148400002,26.069885254],[105.20727539100001,26.092712402],[105.19348144500002,26.136901855],[105.15270996100001,26.204284668],[105.13208007800002,26.180114746],[105.08569335900002,26.193908691],[105.05609130900001,26.188110352],[105.02911377,26.172912598],[105.00347900400001,26.153320312],[104.97491455100001,26.120483398],[104.96807861300002,26.091674805],[104.96228027300002,26.057678223],[104.94787597700001,26.018920898],[104.94152832000002,25.983703613],[104.94708252,25.950683594],[104.95367431600002,25.917907715],[104.93249511700002,25.882324219],[104.89270019500002,25.858886719],[104.88171386700002,25.821899414],[104.89093017600001,25.785888672],[104.89831543000001,25.757080078],[104.91027832000002,25.718078613],[104.90191650400001,25.690917969],[104.88208007800002,25.658691406],[104.86871337900001,25.617675781],[104.88610839800002,25.582092285],[104.91912841800001,25.561706543],[104.91491699200002,25.531677246],[104.89410400400001,25.510925293],[104.87451171900001,25.488098145],[104.85491943400001,25.451477051],[104.86108398400002,25.410888672],[104.79528808600001,25.374694824],[104.76428222700001,25.369873047],[104.73468017600001,25.373901367],[104.70068359400001,25.397888184],[104.54852294900002,25.399475098],[104.60968017600001,25.350280762],[104.65588378900001,25.262329102],[104.74230957000002,25.295288086],[104.80749511700002,25.283081055],[104.81610107400002,25.203918457],[104.79168701200001,25.163879395],[104.74652099600002,25.147521973],[104.73187255900001,25.12512207],[104.70989990200002,25.095275879],[104.69409179700001,25.094482422],[104.67047119100002,25.093322754],[104.64892578100002,25.093078613],[104.62908935500002,25.078491211],[104.65612793000001,25.039916992],[104.70428466800001,24.997924805],[104.66992187500001,24.926696777],[104.60992431600002,24.869506836],[104.55731201200001,24.825317383],[104.54528808600001,24.760498047],[104.56292724600002,24.742492676],[104.60430908200001,24.700073242],[104.62048339800002,24.678100586],[104.66729736300002,24.653320312],[104.69067382800002,24.642700195],[104.70452880900001,24.640686035],[104.70672607400002,24.605529785],[104.75250244100002,24.614929199],[104.78289794900002,24.649902344],[104.81591796900001,24.658508301],[104.89569091800001,24.6796875],[104.91192627,24.741882324],[104.99212646500001,24.808105469],[105.02392578100002,24.823120117],[105.046691895,24.858520508],[105.08648681600002,24.92388916],[105.09948730500001,24.925720215],[105.12292480500001,24.934082031],[105.14569091800001,24.949523926],[105.16027832000002,24.971679687],[105.18328857400002,24.987121582],[105.19830322300001,25.002319336],[105.20550537100002,25.017089844],[105.22912597700001,25.018127441],[105.24609375000001,24.997070312],[105.25592041000002,24.961486816],[105.26568603500002,24.92590332],[105.28967285200001,24.919677734],[105.32128906200002,24.921081543],[105.35290527300002,24.922302246],[105.37609863300001,24.930480957],[105.42352294900002,24.932495117],[105.45452880900001,24.929504395],[105.45611572300001,24.91229248],[105.47332763700001,24.884094238],[105.49047851600001,24.855895996],[105.50811767600001,24.820678711],[105.53247070300002,24.807128906],[105.57287597700001,24.787109375],[105.62030029300001,24.789123535],[105.64428710900002,24.782897949],[105.66027832000002,24.776306152],[105.66827392600001,24.776489258],[105.68469238300001,24.762695312],[105.70050048800002,24.763305664],[105.73187255900001,24.764709473],[105.74847412100002,24.750915527],[105.79052734400001,24.694702148],[105.83728027300002,24.703674316],[105.86071777300002,24.711914062],[105.89971923800002,24.72052002],[105.93908691400001,24.721923828],[105.96490478500002,24.672485352],[105.99047851600001,24.630126953],[106.03051757800002,24.617126465],[106.07568359400001,24.662109375],[106.10607910200001,24.692077637],[106.13708496100001,24.700317383],[106.19049072300001,24.745483398],[106.20428466800001,24.789306641],[106.21173095700001,24.804077148],[106.21868896500001,24.825927734],[106.23327636700002,24.855285645],[106.20007324200002,24.890075684],[106.16851806600002,24.942321777],[106.20532226600001,24.955322266],[106.23651123000002,24.963500977],[106.28308105500001,24.986877441],[106.32312011700002,24.973693848],[106.37829589800002,24.975524902],[106.40112304700001,24.997924805],[106.44787597700001,25.013916016],[106.49371337900001,25.05871582],[106.53210449200002,25.088684082],[106.59387207000002,25.100891113]]]}}
