{"type":"Feature","id":"bulk-99377448B45255438236612","bbox":[111.26409912100002,29.43548584,114.06530761700002,30.66229248],"properties":{"id":"bulk-99377448B45255438236612","name":"Jingzhou","nameEn":"Jingzhou","fullName":"Jingzhou","level":"city","boundaryRole":"administrative-extent","boundaryQuality":"generalized-source-2020","boundaryYearRepresented":"2020","bounds":[[111.26409912100002,29.43548584],[114.06530761700002,30.66229248]],"center":[112.66470336900002,30.04888916],"centerMethod":"bounding-box midpoint; camera framing only","license":"CC-BY-3.0-IGO","attribution":"geoBoundaries / HDX, China administrative boundaries (2020)","source":{"provider":"geoBoundaries gbHumanitarian / HDX","url":"https://github.com/wmgeolab/geoBoundaries/raw/9469f09/releaseData/gbHumanitarian/CHN/ADM2/geoBoundaries-CHN-ADM2.geojson","metadataUrl":"https://www.geoboundaries.org/api/current/gbHumanitarian/CHN/ADM2/","shapeID":"99377448B45255438236612","shapeName":"Jingzhou","boundaryID":"CHN-ADM2-99377448","commit":"9469f09"},"geometryCounts":{"coordinates":219,"components":1,"holes":0},"boundaryNotice":"geoBoundaries / HDX 2020 年行政区数据，海岸和边界经过源数据概化，并非当前测绘成果。"},"geometry":{"type":"Polygon","coordinates":[[[112.05810546900001,30.66229248],[112.00292968700002,30.641113281],[111.96551513700001,30.616088867],[111.96148681600002,30.586120605],[111.96191406200002,30.559326172],[111.95147705100001,30.531311035],[111.91888427700002,30.525512695],[111.88671875000001,30.499084473],[111.87371826200001,30.466491699],[111.88171386700002,30.440124512],[111.91632080100001,30.445678711],[111.94610595700001,30.434082031],[111.94647216800001,30.405273437],[111.953125,30.36907959],[111.97668457000002,30.343505859],[112.00750732400002,30.322875977],[112.01690673800002,30.260925293],[111.95648193400001,30.272888184],[111.92852783200001,30.296325684],[111.91528320300002,30.328308105],[111.89068603500002,30.348693848],[111.87207031200002,30.318115234],[111.84588623000002,30.302307129],[111.80468750000001,30.299926758],[111.75469970700001,30.316894531],[111.74108886700002,30.344726562],[111.74108886700002,30.373291016],[111.72991943400001,30.404296875],[111.69250488300001,30.394714355],[111.65228271500001,30.378112793],[111.61492919900002,30.351074219],[111.60809326200001,30.319274902],[111.59613037100002,30.288513184],[111.56689453100002,30.267700195],[111.58227539100001,30.241516113],[111.56768798800002,30.203674316],[111.56408691400001,30.166687012],[111.56390380900001,30.135681152],[111.54010009800001,30.114074707],[111.50708007800002,30.099304199],[111.46008300800001,30.094482422],[111.42828369100002,30.101928711],[111.39428710900002,30.116271973],[111.36029052700002,30.127929687],[111.32989502,30.113891602],[111.32891845700001,30.077514648],[111.30987548800002,30.043518066],[111.27850341800001,30.037902832],[111.26409912100002,29.997680664],[111.27709960900002,29.98828125],[111.28851318400001,29.965087891],[111.33050537100002,29.951477051],[111.33770752,29.931091309],[111.37011718700002,29.910522461],[111.43090820300002,29.936889648],[111.46850585900002,29.926086426],[111.52288818400001,29.904296875],[111.62432861300002,29.900085449],[111.67791748000002,29.914123535],[111.72912597700001,29.909301758],[111.76647949200002,29.891113281],[111.79150390600002,29.876525879],[111.80932617200001,29.865905762],[111.88311767600001,29.827087402],[111.99731445300002,29.759277344],[112.05133056600002,29.72088623],[112.06671142600001,29.708679199],[112.09552002,29.678100586],[112.11291503900001,29.657470703],[112.13787841800001,29.642089844],[112.14410400400001,29.646484375],[112.15368652300002,29.661499023],[112.20172119100002,29.647888184],[112.20892334000001,29.645690918],[112.24572753900001,29.598083496],[112.25988769500002,29.565917969],[112.24487304700001,29.545715332],[112.25488281200002,29.517883301],[112.27050781200002,29.52130127],[112.29608154300001,29.536499023],[112.30529785200001,29.542114258],[112.31909179700001,29.551879883],[112.34307861300002,29.564880371],[112.37567138700001,29.572509766],[112.39788818400001,29.591674805],[112.42669677700002,29.634094238],[112.46649169900002,29.635314941],[112.49011230500001,29.618103027],[112.51727294900002,29.620483398],[112.56530761700002,29.617126465],[112.58288574200002,29.608703613],[112.61407470700001,29.605712891],[112.64892578100002,29.627319336],[112.68170166000002,29.650878906],[112.70727539100001,29.675476074],[112.72991943400001,29.707885742],[112.73327636700002,29.713684082],[112.74389648400002,29.730895996],[112.75891113300001,29.743103027],[112.79272460900002,29.763916016],[112.83929443400001,29.793273926],[112.85888671900001,29.778686523],[112.84112548800002,29.734680176],[112.863098145,29.720092773],[112.89172363300001,29.748901367],[112.94268798800002,29.781677246],[112.96710205100001,29.80267334],[112.99810791000002,29.788879395],[112.98748779300001,29.776489258],[112.97167968700002,29.727905273],[112.95611572300001,29.688110352],[112.95629882800002,29.651489258],[112.89831543000001,29.62512207],[112.86828613300001,29.597106934],[112.88311767600001,29.512329102],[112.93530273400002,29.470275879],[112.98370361300002,29.492675781],[113.01452636700002,29.470703125],[113.03833007800002,29.440917969],[113.04272460900002,29.43548584],[113.07928466800001,29.479309082],[113.11712646500001,29.442321777],[113.12127685500002,29.456115723],[113.14831543000001,29.490478516],[113.17431640600002,29.52911377],[113.18511962900001,29.539489746],[113.23492431600002,29.608886719],[113.25549316400001,29.636108398],[113.30590820300002,29.656677246],[113.31207275400001,29.659118652],[113.30987548800002,29.66027832],[113.35369873000002,29.6953125],[113.40948486300002,29.748291016],[113.43847656200002,29.774475098],[113.47229003900001,29.770507812],[113.46649169900002,29.777893066],[113.51647949200002,29.82208252],[113.56048584000001,29.848083496],[113.58251953100002,29.861083984],[113.62652587900001,29.887084961],[113.66931152300002,29.885925293],[113.73431396500001,29.897521973],[113.79907226600001,29.909118652],[113.86712646500001,29.989074707],[113.88909912100002,30.002075195],[113.93328857400002,30.027893066],[113.97692871100001,30.040100098],[114.02050781200002,30.052307129],[114.06469726600001,30.078125],[114.06530761700002,30.091918945],[114.02368164100001,30.120727539],[113.98187255900001,30.149475098],[113.96112060500002,30.163879395],[113.87451171900001,30.153076172],[113.83148193400001,30.15447998],[113.78247070300002,30.14251709],[113.73828125000001,30.116516113],[113.69488525400001,30.104125977],[113.65191650400001,30.105529785],[113.58691406200002,30.09387207],[113.54388427700002,30.095275879],[113.50152587900001,30.110107422],[113.43768310500002,30.125671387],[113.37432861300002,30.155090332],[113.35272216800001,30.155700684],[113.30987548800002,30.156921387],[113.28771972700001,30.143676758],[113.26568603500002,30.13067627],[113.22271728500002,30.131896973],[113.17968750000001,30.133117676],[113.13690185500002,30.134277344],[113.09387207000002,30.135498047],[113.05090332000002,30.136474609],[113.03027343700002,30.164489746],[113.00891113300001,30.165100098],[112.98730468700002,30.165527344],[112.98632812500001,30.138305664],[112.94250488300001,30.111877441],[112.92108154300001,30.112487793],[112.89990234400001,30.126708984],[112.87890625000001,30.140930176],[112.83648681600002,30.155700684],[112.81451416000002,30.14251709],[112.79211425800001,30.115722656],[112.79107666000002,30.088317871],[112.76892089800002,30.061523437],[112.74731445300002,30.062072754],[112.70867919900002,30.059509277],[112.68487548800002,30.086914062],[112.64788818400001,30.096923828],[112.59851074200002,30.108703613],[112.56671142600001,30.125488281],[112.55151367200001,30.163085937],[112.54888916000002,30.20111084],[112.53308105500001,30.224487305],[112.51568603500002,30.247070312],[112.49212646500001,30.287719727],[112.48852539100001,30.318481445],[112.49908447300001,30.345703125],[112.49627685500002,30.38067627],[112.49291992200001,30.417297363],[112.45227050800001,30.430908203],[112.41851806600002,30.430114746],[112.36889648400002,30.436523437],[112.33892822300001,30.428283691],[112.31048584000001,30.408081055],[112.28387451200001,30.426086426],[112.27648925800001,30.457702637],[112.25067138700001,30.489318848],[112.22808837900001,30.514526367],[112.18670654300001,30.497924805],[112.16247558600001,30.474304199],[112.14648437500001,30.502685547],[112.14611816400001,30.52947998],[112.10748291000002,30.530273437],[112.09490966800001,30.555480957],[112.08947753900001,30.586730957],[112.07788085900002,30.622497559],[112.05810546900001,30.66229248]]]}}
