{"type":"Feature","id":"bulk-99377448B68125311323348","bbox":[116.78167724600002,34.44909668,117.804504395,35.319274902],"properties":{"id":"bulk-99377448B68125311323348","name":"Zaozhuang","nameEn":"Zaozhuang","fullName":"Zaozhuang","level":"city","boundaryRole":"administrative-extent","boundaryQuality":"generalized-source-2020","boundaryYearRepresented":"2020","bounds":[[116.78167724600002,34.44909668],[117.804504395,35.319274902]],"center":[117.2930908205,34.88418579099999],"centerMethod":"bounding-box midpoint; camera framing only","license":"CC-BY-3.0-IGO","attribution":"geoBoundaries / HDX, China administrative boundaries (2020)","source":{"provider":"geoBoundaries gbHumanitarian / HDX","url":"https://github.com/wmgeolab/geoBoundaries/raw/9469f09/releaseData/gbHumanitarian/CHN/ADM2/geoBoundaries-CHN-ADM2.geojson","metadataUrl":"https://www.geoboundaries.org/api/current/gbHumanitarian/CHN/ADM2/","shapeID":"99377448B68125311323348","shapeName":"Zaozhuang","boundaryID":"CHN-ADM2-99377448","commit":"9469f09"},"geometryCounts":{"coordinates":72,"components":1,"holes":0},"boundaryNotice":"geoBoundaries / HDX 2020 年行政区数据，海岸和边界经过源数据概化，并非当前测绘成果。"},"geometry":{"type":"Polygon","coordinates":[[[117.79168701200001,34.63269043],[117.80029296900001,34.680480957],[117.804504395,34.715698242],[117.80187988300001,34.748901367],[117.78491210900002,34.783691406],[117.77911377,34.829528809],[117.75469970700001,34.852478027],[117.72412109400001,34.87487793],[117.70007324200002,34.902526855],[117.68530273400002,34.932922363],[117.68951416000002,34.962524414],[117.72167968700002,34.993286133],[117.73968505900001,35.04107666],[117.69531250000001,35.050720215],[117.65972900400001,35.080322266],[117.62829589800002,35.101074219],[117.620910645,35.144287109],[117.53112793000001,35.152099609],[117.52612304700001,35.180908203],[117.48968505900001,35.193115234],[117.43829345700001,35.198486328],[117.41052246100001,35.223876953],[117.39312744100002,35.274719238],[117.36987304700001,35.299316406],[117.33471679700001,35.319274902],[117.30407714800002,35.29888916],[117.28271484400001,35.269104004],[117.23388671900001,35.252685547],[117.18927002,35.231506348],[117.15631103500002,35.220275879],[117.10711669900002,35.215515137],[117.06610107400002,35.215087891],[117.02368164100001,35.211486816],[116.98510742200001,35.198486328],[116.94128418000001,35.178894043],[116.90631103500002,35.171081543],[116.87152099600002,35.176696777],[116.83172607400002,35.17010498],[116.78167724600002,35.16229248],[116.82189941400001,35.123474121],[116.85748291000002,35.10168457],[116.88610839800002,35.071472168],[116.90747070300002,35.02947998],[116.94769287100002,34.988891602],[116.97131347700001,34.955322266],[117.00811767600001,34.930908203],[117.08648681600002,34.918884277],[117.14770507800002,34.887084961],[117.18212890600002,34.853881836],[117.18811035200001,34.825683594],[117.19427490200002,34.781311035],[117.22210693400001,34.746276855],[117.25170898400002,34.729675293],[117.31768798800002,34.702270508],[117.37890625000001,34.675109863],[117.39392089800002,34.634521484],[117.39068603500002,34.601074219],[117.37109375000001,34.572509766],[117.42291259800001,34.49230957],[117.45867919900002,34.455688477],[117.51690673800002,34.44909668],[117.54388427700002,34.468078613],[117.55908203100002,34.476074219],[117.58569335900002,34.487915039],[117.59472656200002,34.492919922],[117.63092041000002,34.512878418],[117.69030761700002,34.519287109],[117.76727294900002,34.509887695],[117.78387451200001,34.536315918],[117.77471923800002,34.571472168],[117.76849365200002,34.614318848],[117.79168701200001,34.63269043]]]}}
