{"type":"Feature","id":"bulk-99377448B35813385334274","bbox":[78.05187988300001,39.479919434,84.10168457,42.652709961],"properties":{"id":"bulk-99377448B35813385334274","name":"Aksu Prefecture","nameEn":"Aksu Prefecture","fullName":"Aksu Prefecture","level":"city","boundaryRole":"administrative-extent","boundaryQuality":"generalized-source-2020","boundaryYearRepresented":"2020","bounds":[[78.05187988300001,39.479919434],[84.10168457,42.652709961]],"center":[81.0767822265,41.066314697500005],"centerMethod":"bounding-box midpoint; camera framing only","license":"CC-BY-3.0-IGO","attribution":"geoBoundaries / HDX, China administrative boundaries (2020)","source":{"provider":"geoBoundaries gbHumanitarian / HDX","url":"https://github.com/wmgeolab/geoBoundaries/raw/9469f09/releaseData/gbHumanitarian/CHN/ADM2/geoBoundaries-CHN-ADM2.geojson","metadataUrl":"https://www.geoboundaries.org/api/current/gbHumanitarian/CHN/ADM2/","shapeID":"99377448B35813385334274","shapeName":"Aksu Prefecture","boundaryID":"CHN-ADM2-99377448","commit":"9469f09"},"geometryCounts":{"coordinates":500,"components":1,"holes":0},"boundaryNotice":"geoBoundaries / HDX 2020 年行政区数据，海岸和边界经过源数据概化，并非当前测绘成果。"},"geometry":{"type":"Polygon","coordinates":[[[79.79510498,39.556884766],[79.83148193400001,39.550109863],[79.86950683600001,39.539916992],[79.91027832,39.523681641],[79.957519531,39.503112793],[79.98992919900002,39.491699219],[80.068481445,39.481872559],[80.12231445300002,39.485107422],[80.179077148,39.489929199],[80.23510742200001,39.490905762],[80.27069091800001,39.493103027],[80.336120605,39.493103027],[80.418884277,39.495483398],[80.45507812500001,39.498901367],[80.495117187,39.501281738],[80.53967285200001,39.503479004],[80.585693359,39.506286621],[80.628723145,39.508911133],[80.67248535200001,39.510681152],[80.73211669900002,39.513122559],[80.784118652,39.514709473],[80.83050537100002,39.512695312],[80.872070312,39.506530762],[80.91247558600001,39.498718262],[80.91827392600001,39.501708984],[81.011901855,39.487304687],[81.05969238300001,39.48828125],[81.120117187,39.484313965],[81.24749755900001,39.496887207],[81.31488037100002,39.501708984],[81.359130859,39.500488281],[81.409912109,39.501525879],[81.44732666000002,39.502319336],[81.49029541000002,39.502929687],[81.533325195,39.503723145],[81.593505859,39.501708984],[81.67108154300001,39.506713867],[81.73187255900001,39.508483887],[81.774719238,39.510314941],[81.813476562,39.508483887],[81.86407470700001,39.508300781],[81.92132568400001,39.506103516],[81.95947265600002,39.504516602],[82.026306152,39.50390625],[82.08471679700001,39.504699707],[82.15789794900002,39.50769043],[82.22070312500001,39.504882812],[82.275512695,39.502502441],[82.33471679700001,39.50189209],[82.39569091800001,39.499084473],[82.44812011700002,39.496276855],[82.48712158200001,39.491882324],[82.60968017600001,39.486083984],[82.66168212900001,39.484924316],[82.72052002,39.486877441],[82.77850341800001,39.489929199],[82.83209228500002,39.489074707],[82.885681152,39.486328125],[82.94488525400001,39.483093262],[82.99127197300001,39.481689453],[83.043884277,39.480529785],[83.102905273,39.479919434],[83.177490234,39.483520508],[83.21649169900002,39.485107422],[83.26409912100002,39.483886719],[83.31707763700001,39.482727051],[83.353271484,39.483276367],[83.40447998,39.482727051],[83.444274902,39.485290527],[83.47509765600002,39.504089355],[83.51672363300001,39.546325684],[83.55572509800001,39.582702637],[83.59252929700001,39.614685059],[83.622070312,39.644104004],[83.658325195,39.676086426],[83.703674316,39.71472168],[83.73852539100001,39.745300293],[83.768493652,39.767272949],[83.809875488,39.792114258],[83.85607910200001,39.830322266],[83.89727783200001,39.864318848],[83.93188476600001,39.902893066],[83.96569824200002,39.931518555],[83.99108886700002,39.957275391],[84.01611328100002,39.999511719],[84.02850341800001,40.039123535],[84.035705566,40.073486328],[84.04632568400001,40.106689453],[84.062316895,40.146911621],[84.067687988,40.189086914],[84.068481445,40.220703125],[84.08551025400001,40.278686523],[84.09167480500001,40.319274902],[84.091125488,40.38067627],[84.09448242200001,40.419677734],[84.09729003900001,40.463317871],[84.09613037100002,40.516479492],[84.09808349600002,40.549682617],[84.09930419900002,40.57989502],[84.09851074200002,40.614501953],[84.09912109400001,40.644714355],[84.10168457,40.676086426],[84.09948730500001,40.709472656],[84.08990478500002,40.766113281],[84.08868408200001,40.804504395],[84.08709716800001,40.858703613],[84.086914062,40.889099121],[84.093505859,40.960693359],[84.094726562,40.988098145],[84.09552002,41.034301758],[84.09930419900002,41.062072754],[84.07147216800001,41.129882812],[84.04650878900001,41.156311035],[84.053283691,41.235473633],[84.04791259800001,41.291870117],[84.04650878900001,41.322692871],[84.042724609,41.371276855],[84.033325195,41.416320801],[84.020080566,41.446472168],[84.00268554700001,41.47467041],[83.97290039100001,41.50189209],[83.952880859,41.525512695],[83.93127441400001,41.55670166],[83.91632080100001,41.592895508],[83.91229248,41.623718262],[83.91687011700002,41.656494141],[83.92572021500001,41.694091797],[83.93432617200001,41.741088867],[83.94689941400001,41.772705078],[83.97509765600002,41.800292969],[83.98229980500001,41.830688477],[83.98229980500001,41.864501953],[83.97729492200001,41.900878906],[83.96649169900002,41.929077148],[83.952880859,41.955688477],[83.93951416000002,41.98828125],[83.92932128900001,42.014282227],[83.92407226600001,42.04510498],[83.92529296900001,42.072509766],[83.93829345700001,42.10949707],[83.95031738300001,42.13671875],[83.95928955100001,42.17388916],[83.97332763700001,42.207275391],[83.97888183600001,42.237304687],[83.966125488,42.272888184],[83.95391845700001,42.313476562],[83.944702148,42.35949707],[83.93231201200001,42.404724121],[83.93048095700001,42.437072754],[83.93188476600001,42.464904785],[83.94873046900001,42.537902832],[83.902099609,42.537475586],[83.83789062500001,42.537902832],[83.796875,42.537902832],[83.725524902,42.540710449],[83.67529296900001,42.52911377],[83.63092041000002,42.510498047],[83.59851074200002,42.495117187],[83.54528808600001,42.478881836],[83.49768066400001,42.481872559],[83.44128418000001,42.503295898],[83.39929199200002,42.518127441],[83.35272216800001,42.540100098],[83.31311035200001,42.571899414],[83.25848388700001,42.567077637],[83.20928955100001,42.590270996],[83.16711425800001,42.588928223],[83.13031005900001,42.578125],[83.07989502,42.56628418],[83.04089355500001,42.574279785],[83.00030517600001,42.596313477],[82.94287109400001,42.617919922],[82.90808105500001,42.599487305],[82.86132812500001,42.590881348],[82.83288574200002,42.623718262],[82.79931640600002,42.651123047],[82.75811767600001,42.652709961],[82.73748779300001,42.614685059],[82.69848632800002,42.601501465],[82.653686523,42.586914062],[82.59729003900001,42.570678711],[82.55267334000001,42.562927246],[82.51348877,42.558288574],[82.44451904300001,42.556274414],[82.38189697300001,42.555725098],[82.36151123,42.528076172],[82.347473145,42.499511719],[82.30389404300001,42.483886719],[82.26208496100001,42.482727051],[82.22027587900001,42.484313965],[82.178710937,42.493286133],[82.13787841800001,42.481689453],[82.13989257800002,42.452087402],[82.13867187500001,42.422119141],[82.09729003900001,42.435302734],[82.05688476600001,42.440124512],[82.00653076200001,42.432922363],[81.938476562,42.432922363],[81.87768554700001,42.435119629],[81.81451416000002,42.441711426],[81.750488281,42.459289551],[81.74188232400002,42.432312012],[81.709899902,42.41192627],[81.67767334000001,42.395324707],[81.62390136700002,42.373718262],[81.58752441400001,42.363891602],[81.54107666000002,42.353515625],[81.46252441400001,42.348083496],[81.39788818400001,42.363098145],[81.35650634800001,42.366516113],[81.31750488300001,42.364318848],[81.268127441,42.36730957],[81.219726562,42.373901367],[81.19171142600001,42.342529297],[81.20867919900002,42.306518555],[81.182128906,42.275085449],[81.143920898,42.268127441],[81.094299316,42.27130127],[81.05627441400001,42.27911377],[81.02069091800001,42.298095703],[80.98712158200001,42.332092285],[80.95611572300001,42.366882324],[80.91247558600001,42.374511719],[80.85192871100001,42.371276855],[80.77990722700001,42.37109375],[80.73010253900001,42.371887207],[80.66552734400001,42.379516602],[80.60571289100001,42.355529785],[80.55932617200001,42.345275879],[80.508300781,42.344116211],[80.46588134800001,42.332092285],[80.40612793000001,42.324523926],[80.36511230500001,42.327880859],[80.27508544900002,42.319519043],[80.27508544900002,42.317504883],[80.27307128900001,42.31427002],[80.288879395,42.284912109],[80.295898437,42.247680664],[80.28271484400001,42.223876953],[80.25347900400001,42.210693359],[80.26312255900001,42.204101562],[80.26568603500002,42.196289062],[80.26452636700002,42.193725586],[80.26348877,42.19152832],[80.26232910200001,42.189086914],[80.258728027,42.18170166],[80.25653076200001,42.171325684],[80.25628662100002,42.17010498],[80.25811767600001,42.162475586],[80.26831054700001,42.145690918],[80.270080566,42.134277344],[80.26593017600001,42.127502441],[80.26129150400001,42.123718262],[80.25427246100001,42.118286133],[80.252502441,42.114685059],[80.25311279300001,42.110473633],[80.25347900400001,42.108093262],[80.249328613,42.098693848],[80.24951171900001,42.093322754],[80.25231933600001,42.090087891],[80.25469970700001,42.089294434],[80.26550293000001,42.085876465],[80.266113281,42.085510254],[80.27111816400001,42.082275391],[80.27508544900002,42.079711914],[80.27728271500001,42.077087402],[80.28088378900001,42.072875977],[80.28192138700001,42.0703125],[80.283325195,42.06652832],[80.28289794900002,42.062683105],[80.28271484400001,42.059692383],[80.278686523,42.057678223],[80.250915527,42.057922363],[80.24810791000002,42.057922363],[80.22912597700001,42.055725098],[80.217285156,42.053100586],[80.19750976600001,42.04107666],[80.17407226600001,42.040893555],[80.16607666000002,42.039489746],[80.15570068400001,42.037902832],[80.15032959000001,42.03692627],[80.14569091800001,42.036315918],[80.13507080100001,42.035522461],[80.12652587900001,42.034729004],[80.11547851600001,42.037109375],[80.08508300800001,42.043518066],[80.03167724600002,42.051696777],[80.02648925800001,42.050720215],[80.01550293000001,42.048522949],[80.00012207,42.04309082],[79.99371337900001,42.040893555],[79.99328613300001,42.040893555],[79.992675781,42.040893555],[79.98852539100001,42.040527344],[79.982910156,42.039916992],[79.97668457,42.040100098],[79.97668457,42.039672852],[79.95507812500001,42.038696289],[79.91351318400001,42.02911377],[79.902099609,41.983886719],[79.87811279300001,42.008728027],[79.836120605,41.944091797],[79.80651855500001,41.887084961],[79.76751709000001,41.891906738],[79.76629638700001,41.88848877],[79.76452636700002,41.883117676],[79.76568603500002,41.869873047],[79.76251220700001,41.862304687],[79.76208496100001,41.862121582],[79.75427246100001,41.858886719],[79.740722656,41.855712891],[79.737670898,41.853515625],[79.735717773,41.852111816],[79.73168945300002,41.847106934],[79.73187255900001,41.844116211],[79.73211669900002,41.836914062],[79.727111816,41.827087402],[79.720092773,41.822509766],[79.692321777,41.804321289],[79.67388916000002,41.792480469],[79.670471191,41.790100098],[79.65850830100001,41.787475586],[79.617675781,41.784301758],[79.60369873,41.780883789],[79.552490234,41.781311035],[79.54571533200001,41.783325195],[79.53967285200001,41.785095215],[79.536499023,41.78527832],[79.53387451200001,41.785522461],[79.525512695,41.785888672],[79.511474609,41.786499023],[79.500915527,41.784118652],[79.48449707,41.780517578],[79.47869873,41.781677246],[79.475524902,41.783874512],[79.460693359,41.794311523],[79.461120605,41.795471191],[79.46173095700001,41.796875],[79.46252441400001,41.797302246],[79.46447753900001,41.798095703],[79.471679687,41.797729492],[79.47692871100001,41.797485352],[79.47991943400001,41.798706055],[79.48010253900001,41.800476074],[79.47412109400001,41.805114746],[79.47570800800001,41.80670166],[79.476318359,41.807128906],[79.477905273,41.806884766],[79.48089599600002,41.80670166],[79.48712158200001,41.809326172],[79.486877441,41.810913086],[79.486877441,41.812927246],[79.484130859,41.815490723],[79.483703613,41.816101074],[79.48510742200001,41.817504883],[79.48669433600001,41.819274902],[79.49407959000001,41.821716309],[79.49407959000001,41.822875977],[79.49450683600001,41.825317383],[79.48632812500001,41.827697754],[79.485717773,41.827880859],[79.48388671900001,41.828491211],[79.47650146500001,41.830871582],[79.476318359,41.831115723],[79.47412109400001,41.837097168],[79.47692871100001,41.840270996],[79.477111816,41.842102051],[79.477111816,41.843505859],[79.47412109400001,41.845703125],[79.47229003900001,41.846923828],[79.40612793000001,41.809082031],[79.36547851600001,41.805480957],[79.36352539100001,41.803527832],[79.36328125000001,41.803100586],[79.36248779300001,41.802490234],[79.35272216800001,41.799072266],[79.352478027,41.799072266],[79.34490966800001,41.799316406],[79.335327148,41.802490234],[79.30029296900001,41.777526855],[79.267700195,41.739501953],[79.18328857400002,41.715881348],[79.11151123,41.684509277],[79.057922363,41.676513672],[79.01867675800001,41.656677246],[78.99407959000001,41.635681152],[78.929870605,41.599487305],[78.87109375000001,41.57409668],[78.83050537100002,41.563476562],[78.80072021500001,41.554321289],[78.71710205100001,41.549499512],[78.72448730500001,41.504699707],[78.68572998,41.492492676],[78.65570068400001,41.464477539],[78.61047363300001,41.471313477],[78.60272216800001,41.468078613],[78.58471679700001,41.46887207],[78.56628418000001,41.457885742],[78.50012207,41.420898437],[78.45269775400001,41.406677246],[78.47607421900001,41.355285645],[78.50347900400001,41.326721191],[78.55291748,41.297729492],[78.593505859,41.275512695],[78.63470459000001,41.24987793],[78.659118652,41.224121094],[78.68469238300001,41.193481445],[78.72192382800002,41.169921875],[78.74249267600001,41.143676758],[78.750488281,41.111328125],[78.76947021500001,41.07611084],[78.79132080100001,41.050292969],[78.82489013700001,41.021118164],[78.85430908200001,40.992675781],[78.877929687,40.956481934],[78.88049316400001,40.916687012],[78.863098145,40.876525879],[78.837280273,40.854919434],[78.79528808600001,40.833129883],[78.74328613300001,40.813293457],[78.68951416000002,40.793273926],[78.635314941,40.778076172],[78.602111816,40.761901855],[78.59570312500001,40.726501465],[78.60430908200001,40.692504883],[78.60351562500001,40.651672363],[78.59649658200001,40.608886719],[78.58190918000001,40.574279785],[78.557128906,40.543273926],[78.516906738,40.520690918],[78.47351074200002,40.507080078],[78.42309570300002,40.489074707],[78.369689941,40.472290039],[78.334899902,40.462524414],[78.286499023,40.4453125],[78.243530273,40.41229248],[78.22229003900001,40.380493164],[78.19830322300001,40.339477539],[78.187316895,40.311889648],[78.16809082,40.288085937],[78.133300781,40.264892578],[78.08209228500002,40.252502441],[78.08087158200001,40.215270996],[78.075500488,40.181274414],[78.06451416000002,40.144104004],[78.05187988300001,40.102722168],[78.074707031,40.062316895],[78.10968017600001,40.04888916],[78.150878906,40.05267334],[78.20147705100001,40.058105469],[78.245483398,40.057678223],[78.28790283200001,40.047729492],[78.33111572300001,40.02947998],[78.37347412100002,40.009094238],[78.40570068400001,39.996887207],[78.461486816,40.008117676],[78.499694824,40.026672363],[78.53167724600002,40.049316406],[78.575500488,40.079711914],[78.63848877,40.113708496],[78.69067382800002,40.139892578],[78.72369384800001,40.163085937],[78.761474609,40.18170166],[78.78948974600002,40.201477051],[78.82489013700001,40.219482422],[78.872070312,40.232299805],[78.93109130900001,40.24609375],[78.96832275400001,40.231506348],[79.00970459000001,40.21887207],[79.05511474600002,40.220275879],[79.093505859,40.225097656],[79.134094238,40.227905273],[79.20269775400001,40.224487305],[79.269714355,40.216674805],[79.32611084000001,40.208129883],[79.38012695300002,40.192321777],[79.42272949200002,40.171875],[79.46948242200001,40.150878906],[79.51367187500001,40.133300781],[79.54968261700002,40.125671387],[79.58673095700001,40.120300293],[79.65069580100001,40.106506348],[79.68890380900001,40.098510742],[79.72692871100001,40.092529297],[79.80090332,40.085876465],[79.84210205100001,40.099121094],[79.86212158200001,40.045288086],[79.85467529300001,40.012695312],[79.84790039100001,39.983276367],[79.84130859400001,39.953918457],[79.83587646500001,39.917724609],[79.832519531,39.884277344],[79.82928466800001,39.849914551],[79.82147216800001,39.809875488],[79.820495605,39.775085449],[79.817321777,39.733886719],[79.80932617200001,39.691711426],[79.804077148,39.655273437],[79.80029296900001,39.604309082],[79.79510498,39.556884766]]]}}
