{"type":"Feature","id":"bulk-99377448B93538289119611","bbox":[109.52691650400001,18.726074219,110.14788818400001,19.423278809],"properties":{"id":"bulk-99377448B93538289119611","name":"Qiongzhong Li and Miao Autonomous County","nameEn":"Qiongzhong Li and Miao Autonomous County","fullName":"Qiongzhong Li and Miao Autonomous County","level":"city","boundaryRole":"administrative-extent","boundaryQuality":"generalized-source-2020","boundaryYearRepresented":"2020","bounds":[[109.52691650400001,18.726074219],[110.14788818400001,19.423278809]],"center":[109.83740234400001,19.074676514],"centerMethod":"bounding-box midpoint; camera framing only","license":"CC-BY-3.0-IGO","attribution":"geoBoundaries / HDX, China administrative boundaries (2020)","source":{"provider":"geoBoundaries gbHumanitarian / HDX","url":"https://github.com/wmgeolab/geoBoundaries/raw/9469f09/releaseData/gbHumanitarian/CHN/ADM2/geoBoundaries-CHN-ADM2.geojson","metadataUrl":"https://www.geoboundaries.org/api/current/gbHumanitarian/CHN/ADM2/","shapeID":"99377448B93538289119611","shapeName":"Qiongzhong Li and Miao Autonomous County","boundaryID":"CHN-ADM2-99377448","commit":"9469f09"},"geometryCounts":{"coordinates":366,"components":1,"holes":0},"boundaryNotice":"geoBoundaries / HDX 2020 年行政区数据，海岸和边界经过源数据概化，并非当前测绘成果。"},"geometry":{"type":"Polygon","coordinates":[[[109.53710937500001,19.046325684],[109.53710937500001,19.028686523],[109.53228759800001,19.02130127],[109.52691650400001,19.015686035],[109.52691650400001,19.010314941],[109.52947998000002,19.002075195],[109.53167724600002,18.991271973],[109.53228759800001,18.979675293],[109.54187011700002,18.963928223],[109.56909179700001,18.942077637],[109.58489990200002,18.92767334],[109.59368896500001,18.914672852],[109.60192871100001,18.909301758],[109.60949707000002,18.910705566],[109.61547851600001,18.914123535],[109.62908935500002,18.919677734],[109.63531494100002,18.921691895],[109.64770507800002,18.922302246],[109.65850830100001,18.920898437],[109.67150878900001,18.922302246],[109.69207763700001,18.922912598],[109.70568847700001,18.928527832],[109.73370361300002,18.930480957],[109.73907470700001,18.929077148],[109.74389648400002,18.925720215],[109.74249267600001,18.919677734],[109.730285645,18.914123535],[109.71447753900001,18.908691406],[109.70849609400001,18.90447998],[109.70568847700001,18.899108887],[109.70709228500002,18.889526367],[109.71112060500002,18.879882812],[109.71447753900001,18.850708008],[109.71307373000002,18.837097168],[109.70788574200002,18.825683594],[109.71130371100001,18.825683594],[109.72009277300002,18.823913574],[109.72692871100001,18.820678711],[109.73712158200001,18.814880371],[109.74450683600001,18.814086914],[109.75610351600001,18.813720703],[109.76428222700001,18.811096191],[109.76593017600001,18.804870605],[109.77508544900002,18.802490234],[109.77972412100002,18.795898437],[109.78509521500001,18.790710449],[109.79492187500001,18.78527832],[109.80010986300002,18.781677246],[109.80468750000001,18.775878906],[109.80670166000002,18.770690918],[109.80712890600002,18.765930176],[109.80749511700002,18.758483887],[109.80889892600001,18.748901367],[109.812316895,18.739929199],[109.81652832000002,18.73651123],[109.81988525400001,18.731689453],[109.82592773400002,18.728271484],[109.83349609400001,18.726074219],[109.84552002,18.728088379],[109.85272216800001,18.729919434],[109.85931396500001,18.73449707],[109.86431884800001,18.739685059],[109.87127685500002,18.747497559],[109.87792968700002,18.751708984],[109.88372802700002,18.75189209],[109.88732910200001,18.748474121],[109.89093017600001,18.741516113],[109.89288330100001,18.737915039],[109.89691162100002,18.73828125],[109.90588378900001,18.747924805],[109.91107177700002,18.751281738],[109.92108154300001,18.75769043],[109.93072509800001,18.762512207],[109.94030761700002,18.768127441],[109.95007324200002,18.771118164],[109.95587158200001,18.77331543],[109.96612548800002,18.769104004],[109.97589111300002,18.763916016],[109.98168945300002,18.757873535],[109.98590087900001,18.752685547],[109.99230957000002,18.745727539],[109.99890136700002,18.737304687],[110.00427246100001,18.733276367],[110.00531005900001,18.731689453],[110.00628662100002,18.729675293],[110.00988769500002,18.731079102],[110.01428222700001,18.733093262],[110.02148437500001,18.736328125],[110.02667236300002,18.740905762],[110.02850341800001,18.749511719],[110.03167724600002,18.755310059],[110.03948974600002,18.759094238],[110.04791259800001,18.760314941],[110.05230712900001,18.76171875],[110.06091308600001,18.769287109],[110.06268310500002,18.77331543],[110.06347656200002,18.77532959],[110.06451416000002,18.780273437],[110.06530761700002,18.783874512],[110.06890869100002,18.787719727],[110.07348632800002,18.791870117],[110.07989502,18.795898437],[110.08251953100002,18.79888916],[110.08648681600002,18.802124023],[110.09051513700001,18.807495117],[110.09149169900002,18.813110352],[110.08868408200001,18.819274902],[110.08587646500001,18.822692871],[110.08331298800002,18.826293945],[110.07952880900001,18.834899902],[110.07788085900002,18.841125488],[110.07287597700001,18.848510742],[110.06909179700001,18.852905273],[110.06512451200001,18.856872559],[110.05828857400002,18.862487793],[110.04791259800001,18.86932373],[110.04107666000002,18.87689209],[110.04132080100001,18.879699707],[110.04608154300001,18.882873535],[110.05688476600001,18.889099121],[110.06707763700001,18.897705078],[110.07232666000002,18.902099609],[110.07672119100002,18.905883789],[110.08251953100002,18.908691406],[110.08972168000001,18.911315918],[110.09332275400001,18.913330078],[110.10009765600002,18.918884277],[110.10211181600002,18.925109863],[110.10211181600002,18.929321289],[110.10089111300002,18.938293457],[110.10388183600001,18.946289062],[110.10870361300002,18.950317383],[110.13531494100002,18.963317871],[110.14007568400001,18.964477539],[110.14410400400001,18.969726562],[110.14410400400001,18.973876953],[110.13989257800002,18.979675293],[110.13470459000001,18.981689453],[110.13110351600001,18.986877441],[110.13189697300001,18.992919922],[110.13629150400001,18.996887207],[110.14392089800002,18.999511719],[110.14788818400001,19.004882812],[110.14788818400001,19.012084961],[110.14672851600001,19.018127441],[110.14691162100002,19.024291992],[110.14447021500001,19.027099609],[110.14190673800002,19.029296875],[110.13928222700001,19.031494141],[110.13610839800002,19.033325195],[110.12988281200002,19.035888672],[110.12829589800002,19.03692627],[110.120910645,19.042724609],[110.11590576200001,19.053100586],[110.11547851600001,19.059875488],[110.11712646500001,19.066711426],[110.12030029300001,19.072509766],[110.12127685500002,19.080505371],[110.12030029300001,19.084716797],[110.11871337900001,19.090087891],[110.11688232400002,19.098510742],[110.11651611300002,19.106323242],[110.11712646500001,19.113525391],[110.11468505900001,19.121704102],[110.11248779300001,19.13067627],[110.11090087900001,19.13470459],[110.105285645,19.139526367],[110.10229492200001,19.140075684],[110.097473145,19.141479492],[110.09027099600002,19.141906738],[110.08007812500001,19.141723633],[110.07373046900001,19.140319824],[110.06469726600001,19.138122559],[110.06152343700002,19.137084961],[110.05291748000002,19.136291504],[110.046875,19.140075684],[110.04431152300002,19.143920898],[110.04351806600002,19.146484375],[110.04272460900002,19.151672363],[110.03948974600002,19.159729004],[110.03491210900002,19.163330078],[110.02911377,19.166870117],[110.02368164100001,19.17388916],[110.02252197300001,19.177490234],[110.01928710900002,19.184875488],[110.01428222700001,19.187683105],[110.00872802700002,19.18951416],[110.00292968700002,19.190490723],[109.99749755900001,19.19128418],[109.99310302700002,19.192321777],[109.99090576200001,19.193481445],[109.97332763700001,19.193908691],[109.96929931600002,19.192687988],[109.95367431600002,19.190490723],[109.94970703100002,19.197875977],[109.94927978500002,19.200500488],[109.94989013700001,19.205688477],[109.95092773400002,19.210083008],[109.95031738300001,19.21472168],[109.94671630900001,19.221313477],[109.94110107400002,19.228271484],[109.93389892600001,19.234130859],[109.92651367200001,19.236694336],[109.91967773400002,19.241516113],[109.91333007800002,19.242919922],[109.90728759800001,19.241516113],[109.89630127,19.240722656],[109.89251709000001,19.241088867],[109.88787841800001,19.244873047],[109.88348388700001,19.249694824],[109.88153076200001,19.252319336],[109.87530517600001,19.259277344],[109.87170410200001,19.265319824],[109.86608886700002,19.272094727],[109.86267089800002,19.274719238],[109.85852050800001,19.276916504],[109.85211181600002,19.277893066],[109.84552002,19.277709961],[109.84008789100001,19.276306152],[109.83471679700001,19.276489258],[109.83007812500001,19.278686523],[109.82647705100001,19.282470703],[109.82330322300001,19.287109375],[109.81610107400002,19.292480469],[109.81530761700002,19.296081543],[109.81890869100002,19.305480957],[109.81909179700001,19.31427002],[109.82049560500002,19.320678711],[109.81890869100002,19.326477051],[109.82049560500002,19.33392334],[109.82067871100001,19.337890625],[109.81628418000001,19.340515137],[109.82391357400002,19.34588623],[109.82788085900002,19.349487305],[109.83288574200002,19.350524902],[109.83929443400001,19.355285645],[109.83972168000001,19.361877441],[109.83947753900001,19.365905762],[109.84191894500002,19.373474121],[109.84527587900001,19.378112793],[109.84832763700001,19.383728027],[109.85192871100001,19.385681152],[109.85589599600002,19.388305664],[109.86407470700001,19.389526367],[109.86688232400002,19.391296387],[109.86407470700001,19.397094727],[109.86608886700002,19.407897949],[109.85949707000002,19.412719727],[109.85552978500002,19.414916992],[109.85888671900001,19.421875],[109.85491943400001,19.423278809],[109.85028076200001,19.421325684],[109.84912109400001,19.414672852],[109.84832763700001,19.41192627],[109.84613037100002,19.409729004],[109.83892822300001,19.405700684],[109.83990478500002,19.400878906],[109.84490966800001,19.398498535],[109.84667968700002,19.391479492],[109.84448242200001,19.38848877],[109.83807373000002,19.388122559],[109.83007812500001,19.393493652],[109.82128906200002,19.398071289],[109.81390380900001,19.39630127],[109.80871582000002,19.392089844],[109.80187988300001,19.388305664],[109.79107666000002,19.384277344],[109.79071044900002,19.379516602],[109.78747558600001,19.373718262],[109.78112793000001,19.377075195],[109.77728271500001,19.378723145],[109.76947021500001,19.387084961],[109.77252197300001,19.391296387],[109.77087402300002,19.397521973],[109.76269531200002,19.401306152],[109.75848388700001,19.402099609],[109.75292968700002,19.401916504],[109.74572753900001,19.403686523],[109.738098145,19.406494141],[109.73571777300002,19.41192627],[109.72930908200001,19.414672852],[109.72570800800001,19.414123535],[109.72088623000002,19.409729004],[109.71588134800001,19.40411377],[109.71032714800002,19.404296875],[109.70611572300001,19.407470703],[109.69927978500002,19.412719727],[109.69470214800002,19.415527344],[109.68829345700001,19.417724609],[109.68048095700001,19.416320801],[109.67370605500001,19.413085937],[109.663879395,19.408081055],[109.65789794900002,19.408081055],[109.65368652300002,19.409118652],[109.64611816400001,19.40612793],[109.64068603500002,19.400085449],[109.64093017600001,19.391479492],[109.64447021500001,19.38269043],[109.64532470700001,19.372314453],[109.64312744100002,19.364929199],[109.64251709000001,19.363098145],[109.64190673800002,19.359130859],[109.64447021500001,19.354125977],[109.65069580100001,19.353881836],[109.65850830100001,19.355712891],[109.66589355500001,19.352722168],[109.67327880900001,19.347900391],[109.67828369100002,19.347473145],[109.68212890600002,19.347900391],[109.68548584000001,19.348083496],[109.69232177700002,19.347473145],[109.69708252,19.344909668],[109.70007324200002,19.342102051],[109.70489502,19.332519531],[109.70611572300001,19.322509766],[109.70507812500001,19.310302734],[109.70190429700001,19.301330566],[109.69927978500002,19.294677734],[109.69671630900001,19.287902832],[109.69531250000001,19.281921387],[109.69592285200001,19.273681641],[109.69787597700001,19.265075684],[109.69927978500002,19.256286621],[109.70288085900002,19.245483398],[109.70269775400001,19.236083984],[109.703125,19.230529785],[109.70227050800001,19.224304199],[109.70031738300001,19.218505859],[109.69812011700002,19.213928223],[109.69390869100002,19.20892334],[109.68927002,19.201477051],[109.6875,19.198303223],[109.68487548800002,19.194702148],[109.67791748000002,19.184082031],[109.68151855500001,19.180480957],[109.68127441400001,19.176086426],[109.68310546900001,19.166503906],[109.687316895,19.159484863],[109.69128418000001,19.156677246],[109.69549560500002,19.153320312],[109.69689941400001,19.147888184],[109.69812011700002,19.140930176],[109.69812011700002,19.132873535],[109.69171142600001,19.123901367],[109.68548584000001,19.11932373],[109.67968750000001,19.120483398],[109.67370605500001,19.127075195],[109.66070556600002,19.127929687],[109.65368652300002,19.120117187],[109.65087890600002,19.110473633],[109.64489746100001,19.101318359],[109.628723145,19.096923828],[109.61730957000002,19.093322754],[109.60949707000002,19.08770752],[109.60791015600002,19.079284668],[109.60949707000002,19.070678711],[109.60772705100001,19.06048584],[109.60107421900001,19.054870605],[109.59271240200002,19.054321289],[109.58807373000002,19.05670166],[109.58148193400001,19.063110352],[109.57550048800002,19.067687988],[109.56591796900001,19.072509766],[109.55432128900001,19.071716309],[109.54150390600002,19.057678223],[109.53710937500001,19.046325684]]]}}
