{"type":"Feature","id":"bulk-99377448B42583358798125","bbox":[115.33288574200002,23.386901855,116.93029785200001,24.925720215],"properties":{"id":"bulk-99377448B42583358798125","name":"Meizhou","nameEn":"Meizhou","fullName":"Meizhou","level":"city","boundaryRole":"administrative-extent","boundaryQuality":"generalized-source-2020","boundaryYearRepresented":"2020","bounds":[[115.33288574200002,23.386901855],[116.93029785200001,24.925720215]],"center":[116.13159179700001,24.156311035],"centerMethod":"bounding-box midpoint; camera framing only","license":"CC-BY-3.0-IGO","attribution":"geoBoundaries / HDX, China administrative boundaries (2020)","source":{"provider":"geoBoundaries gbHumanitarian / HDX","url":"https://github.com/wmgeolab/geoBoundaries/raw/9469f09/releaseData/gbHumanitarian/CHN/ADM2/geoBoundaries-CHN-ADM2.geojson","metadataUrl":"https://www.geoboundaries.org/api/current/gbHumanitarian/CHN/ADM2/","shapeID":"99377448B42583358798125","shapeName":"Meizhou","boundaryID":"CHN-ADM2-99377448","commit":"9469f09"},"geometryCounts":{"coordinates":137,"components":1,"holes":0},"boundaryNotice":"geoBoundaries / HDX 2020 年行政区数据，海岸和边界经过源数据概化，并非当前测绘成果。"},"geometry":{"type":"Polygon","coordinates":[[[115.86968994100002,24.885498047],[115.85809326200001,24.865112305],[115.79528808600001,24.895874023],[115.75451660200001,24.832885742],[115.72351074200002,24.751281738],[115.75427246100001,24.682128906],[115.76647949200002,24.614685059],[115.74389648400002,24.553894043],[115.74011230500001,24.543701172],[115.65832519500002,24.57989502],[115.56488037100002,24.604675293],[115.54510498000002,24.635925293],[115.50268554700001,24.595092773],[115.48168945300002,24.572875977],[115.48150634800001,24.541320801],[115.48907470700001,24.50769043],[115.52270507800002,24.511291504],[115.55249023400002,24.499694824],[115.57788085900002,24.468688965],[115.57672119100002,24.437927246],[115.56451416000002,24.405700684],[115.54248046900001,24.381896973],[115.53967285200001,24.348510742],[115.55212402300002,24.322509766],[115.56970214800002,24.294311523],[115.58489990200002,24.269104004],[115.58190918000001,24.229309082],[115.52050781200002,24.216918945],[115.49468994100002,24.181091309],[115.50628662100002,24.152709961],[115.51849365200002,24.120300293],[115.48547363300001,24.11529541],[115.47430419900002,24.147277832],[115.44348144500002,24.153503418],[115.42388916000002,24.123718262],[115.41748046900001,24.096313477],[115.42327880900001,24.05267334],[115.42492675800001,24.019470215],[115.41467285200001,23.980895996],[115.40350341800001,23.953491211],[115.38830566400001,23.92590332],[115.37750244100002,23.896728516],[115.36151123000002,23.864929199],[115.33288574200002,23.804321289],[115.38067627,23.770690918],[115.38708496100001,23.743286133],[115.42028808600001,23.728271484],[115.45129394500002,23.706726074],[115.45190429700001,23.669494629],[115.44091796900001,23.633117676],[115.43927002,23.593322754],[115.44012451200001,23.557922363],[115.44128418000001,23.522888184],[115.44207763700001,23.492126465],[115.44390869100002,23.450683594],[115.44610595700001,23.417114258],[115.45629882800002,23.386901855],[115.49511718700002,23.408081055],[115.51489257800002,23.429321289],[115.53991699200002,23.448120117],[115.56530761700002,23.464294434],[115.59832763700001,23.499511719],[115.62249755900001,23.532470703],[115.64508056600002,23.552307129],[115.67468261700002,23.548278809],[115.703125,23.539123535],[115.73309326200001,23.530517578],[115.76507568400001,23.536499023],[115.77868652300002,23.564697266],[115.78692627,23.597473145],[115.79492187500001,23.625671387],[115.81292724600002,23.650085449],[115.84667968700002,23.660888672],[115.86767578100002,23.637084961],[115.89990234400001,23.638916016],[115.94372558600001,23.647094727],[115.97692871100001,23.647277832],[116.01928710900002,23.645507812],[116.09088134800001,23.639099121],[116.15991210900002,23.632324219],[116.17987060500002,23.656494141],[116.18408203100002,23.68371582],[116.19012451200001,23.720092773],[116.21032714800002,23.74432373],[116.23651123000002,23.759887695],[116.26568603500002,23.769714355],[116.30151367200001,23.783874512],[116.34210205100001,23.772094727],[116.37847900400001,23.77532959],[116.41772460900002,23.78692627],[116.46069335900002,23.785888672],[116.495910645,23.797302246],[116.49468994100002,23.832275391],[116.49572753900001,23.86529541],[116.51287841800001,23.895080566],[116.54431152300002,23.906494141],[116.57391357400002,23.913513184],[116.61047363300001,23.939880371],[116.64569091800001,23.996887207],[116.67089843700002,24.034729004],[116.72271728500002,24.048278809],[116.73950195300002,24.078918457],[116.74951171900001,24.12109375],[116.75927734400001,24.147521973],[116.77947998000002,24.177490234],[116.80828857400002,24.184509277],[116.83990478500002,24.186889648],[116.87548828100002,24.20892334],[116.93029785200001,24.260070801],[116.88171386700002,24.311706543],[116.86889648400002,24.364501953],[116.85388183600001,24.427124023],[116.82312011700002,24.485900879],[116.75592041000002,24.53112793],[116.79870605500001,24.657897949],[116.72229003900001,24.667480469],[116.64587402300002,24.662475586],[116.57672119100002,24.647277832],[116.52972412100002,24.61932373],[116.51531982400002,24.610717773],[116.48669433600001,24.661071777],[116.45770263700001,24.717712402],[116.40209960900002,24.763916016],[116.36108398400002,24.780700684],[116.33929443400001,24.789672852],[116.38153076200001,24.832519531],[116.378723145,24.833312988],[116.32391357400002,24.847290039],[116.31127929700001,24.850524902],[116.24407959000001,24.79888916],[116.17669677700002,24.850097656],[116.10607910200001,24.844482422],[116.06927490200002,24.848876953],[116.02069091800001,24.854919434],[115.96728515600002,24.907897949],[115.89288330100001,24.925720215],[115.86968994100002,24.885498047]]]}}
