{"type":"Feature","id":"bulk-99377448B24434605169468","bbox":[119.85430908200001,29.209472656,121.24291992200001,30.178283691],"properties":{"id":"bulk-99377448B24434605169468","name":"Shaoxing","nameEn":"Shaoxing","fullName":"Shaoxing","level":"city","boundaryRole":"administrative-extent","boundaryQuality":"generalized-source-2020","boundaryYearRepresented":"2020","bounds":[[119.85430908200001,29.209472656],[121.24291992200001,30.178283691]],"center":[120.54861450200002,29.6938781735],"centerMethod":"bounding-box midpoint; camera framing only","license":"CC-BY-3.0-IGO","attribution":"geoBoundaries / HDX, China administrative boundaries (2020)","source":{"provider":"geoBoundaries gbHumanitarian / HDX","url":"https://github.com/wmgeolab/geoBoundaries/raw/9469f09/releaseData/gbHumanitarian/CHN/ADM2/geoBoundaries-CHN-ADM2.geojson","metadataUrl":"https://www.geoboundaries.org/api/current/gbHumanitarian/CHN/ADM2/","shapeID":"99377448B24434605169468","shapeName":"Shaoxing","boundaryID":"CHN-ADM2-99377448","commit":"9469f09"},"geometryCounts":{"coordinates":158,"components":1,"holes":0},"boundaryNotice":"geoBoundaries / HDX 2020 年行政区数据，海岸和边界经过源数据概化，并非当前测绘成果。"},"geometry":{"type":"Polygon","coordinates":[[[119.93890380900001,29.680480957],[119.98132324200002,29.632873535],[119.99951171900001,29.592895508],[120.02252197300001,29.56652832],[120.04949951200001,29.552307129],[120.05627441400001,29.522277832],[120.06408691400001,29.489074707],[120.10992431600002,29.482299805],[120.13610839800002,29.499084473],[120.15631103500002,29.530090332],[120.18927002,29.54309082],[120.20568847700001,29.519470215],[120.22967529300001,29.50189209],[120.25451660200001,29.477478027],[120.26208496100001,29.442871094],[120.26550293000001,29.406921387],[120.29449462900001,29.368103027],[120.33227539100001,29.385681152],[120.36767578100002,29.401123047],[120.40032959000001,29.421875],[120.41528320300002,29.445495605],[120.46832275400001,29.500671387],[120.50311279300001,29.452270508],[120.51751709000001,29.408874512],[120.52587890600002,29.381286621],[120.53851318400001,29.352478027],[120.55969238300001,29.326477051],[120.60308837900001,29.319702148],[120.63592529300001,29.31829834],[120.69708252,29.326293945],[120.73712158200001,29.300292969],[120.75292968700002,29.276672363],[120.74450683600001,29.238891602],[120.76910400400001,29.209472656],[120.80108642600001,29.221923828],[120.82592773400002,29.243896484],[120.85748291000002,29.225708008],[120.87951660200001,29.246520996],[120.89428710900002,29.278076172],[120.92730712900001,29.27911377],[120.96569824200002,29.292297363],[120.99328613300001,29.321899414],[121.02050781200002,29.303100586],[121.0625,29.299926758],[121.12408447300001,29.318725586],[121.179504395,29.337524414],[121.20568847700001,29.360107422],[121.21331787100002,29.396484375],[121.24291992200001,29.451904297],[121.19952392600001,29.456481934],[121.20770263700001,29.492919922],[121.19989013700001,29.520324707],[121.16528320300002,29.535705566],[121.09832763700001,29.550109863],[121.09808349600002,29.597290039],[121.07928466800001,29.62487793],[121.06707763700001,29.66607666],[121.01788330100001,29.666687012],[120.99652099600002,29.695129395],[120.99310302700002,29.740478516],[121.06292724600002,29.758483887],[121.09350585900002,29.767272949],[121.12072753900001,29.789489746],[121.10809326200001,29.819702148],[121.08471679700001,29.840698242],[121.05151367200001,29.855895996],[121.02069091800001,29.877319336],[121.00927734400001,29.903076172],[121.02972412100002,29.931518555],[121.06030273400002,29.963500977],[121.05987548800002,29.990478516],[121.02331543000001,29.99029541],[120.99450683600001,30.002685547],[120.97192382800002,30.026916504],[120.95989990200002,30.054077148],[120.945129395,30.093322754],[120.93609619100002,30.12109375],[120.91888427700002,30.158691406],[120.89093017600001,30.148498535],[120.89068603500002,30.148498535],[120.86810302700002,30.140319824],[120.86047363300001,30.137512207],[120.86010742200001,30.133911133],[120.85809326200001,30.131286621],[120.85388183600001,30.131286621],[120.85168457000002,30.134277344],[120.82910156200002,30.125915527],[120.83172607400002,30.12310791],[120.82708740200002,30.121276855],[120.82409668000001,30.122314453],[120.82287597700001,30.123718262],[120.81628418000001,30.121276855],[120.76611328100002,30.113098145],[120.722473145,30.117675781],[120.72229003900001,30.117492676],[120.70709228500002,30.112487793],[120.69171142600001,30.112487793],[120.68432617200001,30.114685059],[120.66748046900001,30.122924805],[120.65948486300002,30.127929687],[120.65008544900002,30.127502441],[120.66107177700002,30.117126465],[120.66967773400002,30.11151123],[120.67633056600002,30.102294922],[120.68170166000002,30.097717285],[120.67828369100002,30.093688965],[120.66607666000002,30.100280762],[120.65808105500001,30.10168457],[120.65667724600002,30.101928711],[120.64410400400001,30.106506348],[120.63452148400002,30.104675293],[120.62908935500002,30.105285645],[120.61987304700001,30.110473633],[120.61151123000002,30.118896484],[120.60791015600002,30.119689941],[120.59692382800002,30.115112305],[120.59289550800001,30.115478516],[120.59387207000002,30.118286133],[120.60913085900002,30.126098633],[120.61529541000002,30.135498047],[120.61352539100001,30.140075684],[120.60809326200001,30.144714355],[120.59771728500002,30.149108887],[120.55072021500001,30.129699707],[120.52227783200001,30.145507812],[120.49810791000002,30.167114258],[120.46508789100001,30.178283691],[120.45532226600001,30.151489258],[120.42572021500001,30.138671875],[120.39068603500002,30.137878418],[120.35552978500002,30.14251709],[120.32067871100001,30.142700195],[120.30230712900001,30.11529541],[120.31732177700002,30.087524414],[120.32232666000002,30.056274414],[120.32672119100002,30.02947998],[120.34149169900002,30.004882812],[120.32989502,29.974914551],[120.29412841800001,29.95111084],[120.25970459000001,29.94152832],[120.22271728500002,29.936523437],[120.18969726600001,29.929077148],[120.16009521500001,29.919921875],[120.13128662100002,29.896911621],[120.11431884800001,29.869689941],[120.08648681600002,29.854492187],[120.07330322300001,29.82409668],[120.03967285200001,29.832092285],[120.01348877,29.817077637],[120.01611328100002,29.787109375],[120.00268554700001,29.758300781],[119.96472168000001,29.758300781],[119.93249511700002,29.743286133],[119.89788818400001,29.749084473],[119.85430908200001,29.74810791],[119.878723145,29.720703125],[119.90869140600002,29.703491211],[119.93890380900001,29.680480957]]]}}
