{"type":"Feature","id":"bulk-99377448B45579365357816","bbox":[117.39312744100002,34.386108398,119.18890380900001,36.177490234],"properties":{"id":"bulk-99377448B45579365357816","name":"Linyi","nameEn":"Linyi","fullName":"Linyi","level":"city","boundaryRole":"administrative-extent","boundaryQuality":"generalized-source-2020","boundaryYearRepresented":"2020","bounds":[[117.39312744100002,34.386108398],[119.18890380900001,36.177490234]],"center":[118.29101562500001,35.281799316],"centerMethod":"bounding-box midpoint; camera framing only","license":"CC-BY-3.0-IGO","attribution":"geoBoundaries / HDX, China administrative boundaries (2020)","source":{"provider":"geoBoundaries gbHumanitarian / HDX","url":"https://github.com/wmgeolab/geoBoundaries/raw/9469f09/releaseData/gbHumanitarian/CHN/ADM2/geoBoundaries-CHN-ADM2.geojson","metadataUrl":"https://www.geoboundaries.org/api/current/gbHumanitarian/CHN/ADM2/","shapeID":"99377448B45579365357816","shapeName":"Linyi","boundaryID":"CHN-ADM2-99377448","commit":"9469f09"},"geometryCounts":{"coordinates":198,"components":1,"holes":0},"boundaryNotice":"geoBoundaries / HDX 2020 年行政区数据，海岸和边界经过源数据概化，并非当前测绘成果。"},"geometry":{"type":"Polygon","coordinates":[[[119.18890380900001,35.104309082],[119.14172363300001,35.134521484],[119.11968994100002,35.169494629],[119.13269043000001,35.197875977],[119.15112304700001,35.229919434],[119.16351318400001,35.257324219],[119.17590332000002,35.289916992],[119.16632080100001,35.317321777],[119.120910645,35.322875977],[119.06988525400001,35.318115234],[119.04772949200002,35.33972168],[119.00653076200001,35.38470459],[118.95172119100002,35.364685059],[118.94567871100001,35.332885742],[118.92547607400002,35.308898926],[118.87207031200002,35.332519531],[118.83673095700001,35.347900391],[118.80230712900001,35.36529541],[118.76208496100001,35.353088379],[118.72491455100001,35.357910156],[118.67449951200001,35.359130859],[118.64007568400001,35.363708496],[118.58569335900002,35.380310059],[118.58349609400001,35.422912598],[118.62109375000001,35.44152832],[118.65747070300002,35.450500488],[118.69592285200001,35.455322266],[118.71411132800002,35.481872559],[118.69531250000001,35.512329102],[118.69030761700002,35.54309082],[118.69970703100002,35.580078125],[118.73168945300002,35.63067627],[118.76129150400001,35.66192627],[118.78430175800001,35.68951416],[118.77087402300002,35.72052002],[118.72851562500001,35.719299316],[118.71130371100001,35.745483398],[118.70788574200002,35.779296875],[118.71728515600002,35.821289062],[118.73248291000002,35.855102539],[118.75109863300001,35.88671875],[118.77148437500001,35.911071777],[118.79492187500001,35.931274414],[118.83892822300001,35.940307617],[118.88128662100002,35.957885742],[118.89129638700001,35.984313965],[118.92987060500002,35.989929199],[118.96752929700001,36.00390625],[119.01910400400001,36.033508301],[119.02770996100001,36.062316895],[118.99707031200002,36.076293945],[118.95727539100001,36.086486816],[118.91870117200001,36.085876465],[118.87609863300001,36.080688477],[118.83630371100001,36.08392334],[118.82867431600002,36.111083984],[118.82507324200002,36.147277832],[118.81469726600001,36.174682617],[118.75152587900001,36.177490234],[118.70812988300001,36.133117676],[118.66070556600002,36.134277344],[118.62310791000002,36.148681641],[118.58807373000002,36.155883789],[118.55908203100002,36.139892578],[118.52587890600002,36.107116699],[118.48748779300001,36.069091797],[118.51208496100001,36.042114258],[118.50451660200001,36.015930176],[118.47552490200002,36.001281738],[118.46508789100001,35.973083496],[118.48992919900002,35.943115234],[118.45428466800001,35.934509277],[118.421691895,35.955688477],[118.37231445300002,35.96472168],[118.32788085900002,35.958496094],[118.28509521500001,35.943908691],[118.22131347700001,35.918273926],[118.18969726600001,35.94732666],[118.17327880900001,35.977478027],[118.16210937500001,36.008728027],[118.14630127,36.035705566],[118.10607910200001,36.041503906],[118.06567382800002,36.017883301],[118.01208496100001,35.974487305],[117.97467041000002,35.952514648],[117.96411132800002,35.907287598],[117.94909668000001,35.872070312],[117.91607666000002,35.848876953],[117.87127685500002,35.838684082],[117.83087158200001,35.830322266],[117.81768798800002,35.795471191],[117.82330322300001,35.758728027],[117.81909179700001,35.72869873],[117.78649902300002,35.704101562],[117.73712158200001,35.700317383],[117.69470214800002,35.699279785],[117.65808105500001,35.694091797],[117.62310791000002,35.684082031],[117.60308837900001,35.66027832],[117.58587646500001,35.629882812],[117.57470703100002,35.592102051],[117.57647705100001,35.558898926],[117.56292724600002,35.530517578],[117.52770996100001,35.528320312],[117.49371337900001,35.52532959],[117.50610351600001,35.487304687],[117.45867919900002,35.463500977],[117.41827392600001,35.44708252],[117.42651367200001,35.406494141],[117.44207763700001,35.381103516],[117.44268798800002,35.349304199],[117.44189453100002,35.313476562],[117.46447753900001,35.291320801],[117.44689941400001,35.266906738],[117.39312744100002,35.274719238],[117.41052246100001,35.223876953],[117.43829345700001,35.198486328],[117.48968505900001,35.193115234],[117.52612304700001,35.180908203],[117.53112793000001,35.152099609],[117.620910645,35.144287109],[117.62829589800002,35.101074219],[117.65972900400001,35.080322266],[117.69531250000001,35.050720215],[117.73968505900001,35.04107666],[117.72167968700002,34.993286133],[117.68951416000002,34.962524414],[117.68530273400002,34.932922363],[117.70007324200002,34.902526855],[117.72412109400001,34.87487793],[117.75469970700001,34.852478027],[117.77911377,34.829528809],[117.78491210900002,34.783691406],[117.80187988300001,34.748901367],[117.804504395,34.715698242],[117.80029296900001,34.680480957],[117.79168701200001,34.63269043],[117.79467773400002,34.634887695],[117.90771484400001,34.668518066],[117.99389648400002,34.65032959],[118.06372070300002,34.63470459],[118.06268310500002,34.633117676],[118.04272460900002,34.59967041],[118.06048584000001,34.563110352],[118.09008789100001,34.545471191],[118.14007568400001,34.532897949],[118.11572265600002,34.49609375],[118.12548828100002,34.470703125],[118.13671875000001,34.422302246],[118.15551757800002,34.398681641],[118.16552734400001,34.386108398],[118.20031738300001,34.401672363],[118.26770019500002,34.422485352],[118.30010986300002,34.426696777],[118.33911132800002,34.416503906],[118.36810302700002,34.4296875],[118.370910645,34.433288574],[118.39428710900002,34.460876465],[118.40429687500001,34.495483398],[118.40130615200002,34.525878906],[118.40551757800002,34.565917969],[118.43109130900001,34.629699707],[118.43267822300001,34.674926758],[118.44067382800002,34.68951416],[118.45471191400001,34.703674316],[118.49908447300001,34.701477051],[118.50610351600001,34.701293945],[118.54327392600001,34.695495605],[118.59289550800001,34.702087402],[118.65069580100001,34.688903809],[118.68969726600001,34.701477051],[118.72308349600002,34.713500977],[118.73132324200002,34.738708496],[118.71789550800001,34.751098633],[118.69732666000002,34.76751709],[118.69671630900001,34.784301758],[118.69769287100002,34.78692627],[118.70129394500002,34.796508789],[118.71728515600002,34.812316895],[118.71850585900002,34.823730469],[118.71569824200002,34.840698242],[118.75048828100002,34.866088867],[118.75750732400002,34.879699707],[118.78912353500002,34.906921387],[118.81927490200002,34.929870605],[118.82208252,34.957092285],[118.812316895,34.993286133],[118.80249023400002,35.017883301],[118.80468750000001,35.019470215],[118.83752441400001,35.043884277],[118.89410400400001,35.039489746],[118.93988037100002,35.050720215],[118.97692871100001,35.05090332],[119.03869628900001,35.053100586],[119.08312988300001,35.073120117],[119.12487793000001,35.097106934],[119.17388916000002,35.105285645],[119.18890380900001,35.104309082]]]}}
