{"type":"Feature","id":"bulk-99377448B51279799939168","bbox":[111.95770263700001,35.806091309,113.71130371100001,37.11151123],"properties":{"id":"bulk-99377448B51279799939168","name":"Changzhi","nameEn":"Changzhi","fullName":"Changzhi","level":"city","boundaryRole":"administrative-extent","boundaryQuality":"generalized-source-2020","boundaryYearRepresented":"2020","bounds":[[111.95770263700001,35.806091309],[113.71130371100001,37.11151123]],"center":[112.83450317400002,36.4588012695],"centerMethod":"bounding-box midpoint; camera framing only","license":"CC-BY-3.0-IGO","attribution":"geoBoundaries / HDX, China administrative boundaries (2020)","source":{"provider":"geoBoundaries gbHumanitarian / HDX","url":"https://github.com/wmgeolab/geoBoundaries/raw/9469f09/releaseData/gbHumanitarian/CHN/ADM2/geoBoundaries-CHN-ADM2.geojson","metadataUrl":"https://www.geoboundaries.org/api/current/gbHumanitarian/CHN/ADM2/","shapeID":"99377448B51279799939168","shapeName":"Changzhi","boundaryID":"CHN-ADM2-99377448","commit":"9469f09"},"geometryCounts":{"coordinates":176,"components":1,"holes":0},"boundaryNotice":"geoBoundaries / HDX 2020 年行政区数据，海岸和边界经过源数据概化，并非当前测绘成果。"},"geometry":{"type":"Polygon","coordinates":[[[113.49249267600001,36.74230957],[113.47747802700002,36.75390625],[113.45892334000001,36.786315918],[113.43072509800001,36.829101562],[113.40429687500001,36.853881836],[113.36248779300001,36.869689941],[113.31030273400002,36.880126953],[113.28387451200001,36.958496094],[113.24291992200001,36.929504395],[113.21411132800002,36.95489502],[113.17730712900001,36.959716797],[113.16790771500001,36.9296875],[113.128723145,36.918884277],[113.08728027300002,36.899291992],[113.02490234400001,36.90612793],[112.97192382800002,36.907287598],[112.93652343700002,36.888122559],[112.91149902300002,36.867675781],[112.86651611300002,36.871276855],[112.85247802700002,36.909484863],[112.85229492200001,36.948730469],[112.83050537100002,36.983703613],[112.80029296900001,37.000671387],[112.75549316400001,36.999694824],[112.73767089800002,37.030273437],[112.72851562500001,37.05871582],[112.68432617200001,37.089904785],[112.65710449200002,37.108093262],[112.59271240200002,37.091308594],[112.54809570300002,37.091125488],[112.51629638700001,37.103088379],[112.45489502,37.11151123],[112.45611572300001,37.051696777],[112.48107910200001,37.019470215],[112.50067138700001,36.976318359],[112.49652099600002,36.942687988],[112.45788574200002,36.940307617],[112.40509033200001,36.922485352],[112.37292480500001,36.93347168],[112.33172607400002,36.948730469],[112.27630615200002,36.942321777],[112.23431396500001,36.961730957],[112.20452880900001,36.985900879],[112.17309570300002,36.997314453],[112.13507080100001,37.009521484],[112.10449218700002,36.973693848],[112.05029296900001,36.949279785],[112.04510498000002,36.909301758],[112.05468750000001,36.883117676],[112.06170654300001,36.854492187],[112.04187011700002,36.832275391],[111.99670410200001,36.823730469],[111.95770263700001,36.772094727],[111.97229003900001,36.741699219],[111.98968505900001,36.707519531],[111.99572753900001,36.680297852],[111.98229980500001,36.634887695],[112.00292968700002,36.593688965],[112.03009033200001,36.567871094],[112.07189941400001,36.554504395],[112.11291503900001,36.528930664],[112.15368652300002,36.472717285],[112.19049072300001,36.423278809],[112.20867919900002,36.400085449],[112.25268554700001,36.377075195],[112.30389404300001,36.36328125],[112.35809326200001,36.352478027],[112.41290283200001,36.326293945],[112.45190429700001,36.277709961],[112.47650146500001,36.250488281],[112.51947021500001,36.250305176],[112.5625,36.255126953],[112.56372070300002,36.228088379],[112.53289794900002,36.187683105],[112.53790283200001,36.15032959],[112.50769043000001,36.091125488],[112.47467041000002,36.052307129],[112.47467041000002,36.016479492],[112.47467041000002,36.01550293],[112.48132324200002,36.007324219],[112.51593017600001,36.03112793],[112.52587890600002,36.038513184],[112.53607177700002,36.041320801],[112.57489013700001,36.051330566],[112.59771728500002,36.055480957],[112.61590576200001,36.062927246],[112.62390136700002,36.0625],[112.63012695300002,36.057128906],[112.64367675800001,36.050720215],[112.65209960900002,36.043884277],[112.65228271500001,36.031677246],[112.66448974600002,36.022888184],[112.67047119100002,36.012329102],[112.67492675800001,36.008483887],[112.69207763700001,36.009277344],[112.69830322300001,36.01171875],[112.70227050800001,36.012512207],[112.70831298800002,36.014892578],[112.71551513700001,36.011901855],[112.72827148400002,35.996520996],[112.74072265600002,35.992126465],[112.76812744100002,35.987121582],[112.78308105500001,35.983093262],[112.78607177700002,35.979675293],[112.80291748000002,35.97869873],[112.80731201200001,35.981506348],[112.81268310500002,35.98449707],[112.81591796900001,35.986083984],[112.81750488300001,35.987304687],[112.83532714800002,35.984924316],[112.84289550800001,35.981323242],[112.84527587900001,35.979125977],[112.85229492200001,35.976928711],[112.86047363300001,35.976928711],[112.86370849600002,35.97668457],[112.87011718700002,35.975097656],[112.87152099600002,35.973083496],[112.87371826200001,35.96472168],[112.87347412100002,35.954528809],[112.86791992200001,35.938476562],[112.86791992200001,35.930114746],[112.87329101600001,35.926513672],[112.90447998000002,35.922729492],[112.93127441400001,35.922912598],[112.95330810500002,35.92791748],[112.98547363300001,35.920288086],[113.00512695300002,35.891296387],[113.04968261700002,35.892272949],[113.08691406200002,35.878112793],[113.14392089800002,35.90447998],[113.17852783200001,35.892089844],[113.22271728500002,35.873291016],[113.26849365200002,35.872070312],[113.31127929700001,35.875671387],[113.37207031200002,35.846679687],[113.41528320300002,35.837524414],[113.45428466800001,35.842712402],[113.51928710900002,35.806091309],[113.51751709000001,35.809509277],[113.58850097700001,35.806274414],[113.62249755900001,35.825317383],[113.63092041000002,35.830078125],[113.62231445300002,35.873474121],[113.60510253900001,35.900512695],[113.60467529300001,35.931091309],[113.60430908200001,35.943725586],[113.62432861300002,35.964477539],[113.63110351600001,35.966125488],[113.65850830100001,35.977905273],[113.64709472700001,36.002929687],[113.62072753900001,36.02911377],[113.65368652300002,36.067077637],[113.63287353500002,36.087097168],[113.65228271500001,36.123718262],[113.64068603500002,36.146911621],[113.64831543000001,36.169677734],[113.65032959000001,36.197875977],[113.65087890600002,36.245727539],[113.66369628900001,36.28692627],[113.69628906200002,36.313476562],[113.70690918000001,36.332092285],[113.71130371100001,36.357116699],[113.69567871100001,36.370117187],[113.59887695300002,36.433105469],[113.56707763700001,36.448913574],[113.55371093700002,36.456115723],[113.53649902300002,36.519287109],[113.55029296900001,36.556091309],[113.50708007800002,36.589477539],[113.44989013700001,36.61907959],[113.43988037100002,36.660705566],[113.48590087900001,36.675720215],[113.44769287100002,36.690490723],[113.44171142600001,36.716308594],[113.47210693400001,36.738708496],[113.49249267600001,36.74230957]]]}}
