{"type":"Feature","id":"bulk-99377448B616422985438","bbox":[113.43988037100002,36.038696289,115.46649169900002,37.021728516],"properties":{"id":"bulk-99377448B616422985438","name":"Handan","nameEn":"Handan","fullName":"Handan","level":"city","boundaryRole":"administrative-extent","boundaryQuality":"generalized-source-2020","boundaryYearRepresented":"2020","bounds":[[113.43988037100002,36.038696289],[115.46649169900002,37.021728516]],"center":[114.45318603500002,36.5302124025],"centerMethod":"bounding-box midpoint; camera framing only","license":"CC-BY-3.0-IGO","attribution":"geoBoundaries / HDX, China administrative boundaries (2020)","source":{"provider":"geoBoundaries gbHumanitarian / HDX","url":"https://github.com/wmgeolab/geoBoundaries/raw/9469f09/releaseData/gbHumanitarian/CHN/ADM2/geoBoundaries-CHN-ADM2.geojson","metadataUrl":"https://www.geoboundaries.org/api/current/gbHumanitarian/CHN/ADM2/","shapeID":"99377448B616422985438","shapeName":"Handan","boundaryID":"CHN-ADM2-99377448","commit":"9469f09"},"geometryCounts":{"coordinates":129,"components":1,"holes":0},"boundaryNotice":"geoBoundaries / HDX 2020 年行政区数据，海岸和边界经过源数据概化，并非当前测绘成果。"},"geometry":{"type":"Polygon","coordinates":[[[115.44232177700002,36.116088867],[115.46649169900002,36.140686035],[115.45928955100001,36.173706055],[115.44769287100002,36.208496094],[115.42431640600002,36.254516602],[115.39990234400001,36.301330566],[115.38909912100002,36.331726074],[115.30407714800002,36.332885742],[115.27612304700001,36.364318848],[115.27471923800002,36.392089844],[115.26007080100001,36.459289551],[115.25451660200001,36.473327637],[115.27227783200001,36.50012207],[115.30731201200001,36.538879395],[115.31848144500002,36.561096191],[115.30792236300002,36.596679687],[115.32867431600002,36.615905762],[115.39611816400001,36.655700684],[115.41748046900001,36.684875488],[115.41888427700002,36.70489502],[115.42590332000002,36.70892334],[115.41607666000002,36.719909668],[115.38751220700001,36.752319336],[115.32769775400001,36.778930664],[115.27648925800001,36.840698242],[115.21551513700001,36.862670898],[115.16931152300002,36.860900879],[115.10791015600002,36.905273437],[115.06707763700001,36.950317383],[115.01068115200002,36.946716309],[114.95452880900001,36.955078125],[114.85272216800001,36.948120117],[114.77868652300002,36.931884766],[114.72991943400001,36.917480469],[114.68988037100002,36.903686523],[114.64550781200002,36.910522461],[114.60931396500001,36.879089355],[114.57427978500002,36.866516113],[114.52270507800002,36.839111328],[114.48828125000001,36.82611084],[114.44989013700001,36.825073242],[114.40148925800001,36.827087402],[114.35430908200001,36.831115723],[114.30627441400001,36.837890625],[114.26947021500001,36.844482422],[114.22570800800001,36.846496582],[114.17028808600001,36.842895508],[114.11590576200001,36.833496094],[114.07971191400001,36.858276367],[114.04547119100002,36.889709473],[113.99890136700002,36.91229248],[113.96008300800001,36.93927002],[113.92871093700002,36.965515137],[113.89550781200002,36.987121582],[113.83007812500001,37.021728516],[113.738098145,37.013916016],[113.74609375000001,37.002075195],[113.72930908200001,36.951293945],[113.75128173800002,36.893310547],[113.75268554700001,36.868530273],[113.73229980500001,36.855529785],[113.71411132800002,36.84387207],[113.69927978500002,36.844116211],[113.66528320300002,36.883728027],[113.63952636700002,36.866699219],[113.63690185500002,36.823486328],[113.60028076200001,36.791503906],[113.56628418000001,36.762329102],[113.51208496100001,36.745727539],[113.49249267600001,36.74230957],[113.47210693400001,36.738708496],[113.44171142600001,36.716308594],[113.44769287100002,36.690490723],[113.48590087900001,36.675720215],[113.43988037100002,36.660705566],[113.44989013700001,36.61907959],[113.50708007800002,36.589477539],[113.55029296900001,36.556091309],[113.53649902300002,36.519287109],[113.55371093700002,36.456115723],[113.56707763700001,36.448913574],[113.59887695300002,36.433105469],[113.69567871100001,36.370117187],[113.71130371100001,36.357116699],[113.70690918000001,36.332092285],[113.76367187500001,36.310302734],[113.79632568400001,36.319519043],[113.81628418000001,36.33392334],[113.83612060500002,36.343322754],[113.86730957000002,36.324890137],[113.89251709000001,36.314086914],[113.90832519500002,36.30847168],[113.93090820300002,36.310302734],[113.94152832000002,36.327514648],[113.95452880900001,36.332092285],[114.00512695300002,36.312927246],[114.05529785200001,36.288879395],[114.06848144500002,36.295898437],[114.08471679700001,36.297912598],[114.13171386700002,36.276306152],[114.16271972700001,36.255126953],[114.20727539100001,36.246276855],[114.25152587900001,36.232116699],[114.36828613300001,36.216918945],[114.43487548800002,36.176513672],[114.48492431600002,36.154907227],[114.54711914100001,36.105285645],[114.60791015600002,36.124694824],[114.66192627,36.139892578],[114.72387695300002,36.112487793],[114.73431396500001,36.115112305],[114.77429199200002,36.12487793],[114.88092041000002,36.131286621],[114.90332031200002,36.059875488],[114.93609619100002,36.038696289],[114.980285645,36.060119629],[115.01269531200002,36.096313477],[115.02691650400001,36.132873535],[115.05230712900001,36.182495117],[115.10290527300002,36.207702637],[115.11029052700002,36.211486816],[115.19049072300001,36.186706543],[115.23791503900001,36.141723633],[115.26751709000001,36.105285645],[115.31170654300001,36.084289551],[115.34027099600002,36.090270996],[115.37548828100002,36.115722656],[115.41851806600002,36.13269043],[115.44232177700002,36.116088867]]]}}
