{"type":"Feature","id":"bulk-99377448B84733153250804","bbox":[122.12609863300001,39.986083984,123.74908447300001,41.573120117],"properties":{"id":"bulk-99377448B84733153250804","name":"Anshan","nameEn":"Anshan","fullName":"Anshan","level":"city","boundaryRole":"administrative-extent","boundaryQuality":"generalized-source-2020","boundaryYearRepresented":"2020","bounds":[[122.12609863300001,39.986083984],[123.74908447300001,41.573120117]],"center":[122.937591553,40.7796020505],"centerMethod":"bounding-box midpoint; camera framing only","license":"CC-BY-3.0-IGO","attribution":"geoBoundaries / HDX, China administrative boundaries (2020)","source":{"provider":"geoBoundaries gbHumanitarian / HDX","url":"https://github.com/wmgeolab/geoBoundaries/raw/9469f09/releaseData/gbHumanitarian/CHN/ADM2/geoBoundaries-CHN-ADM2.geojson","metadataUrl":"https://www.geoboundaries.org/api/current/gbHumanitarian/CHN/ADM2/","shapeID":"99377448B84733153250804","shapeName":"Anshan","boundaryID":"CHN-ADM2-99377448","commit":"9469f09"},"geometryCounts":{"coordinates":170,"components":1,"holes":0},"boundaryNotice":"geoBoundaries / HDX 2020 年行政区数据，海岸和边界经过源数据概化，并非当前测绘成果。"},"geometry":{"type":"Polygon","coordinates":[[[122.59967041000002,41.219482422],[122.59228515600002,41.25012207],[122.57971191400001,41.285888672],[122.58569335900002,41.320129395],[122.59588623000002,41.342285156],[122.60247802700002,41.38092041],[122.56951904300001,41.446472168],[122.56152343700002,41.472717285],[122.56469726600001,41.490905762],[122.54632568400001,41.494873047],[122.51989746100001,41.525085449],[122.47711181600002,41.533691406],[122.44348144500002,41.559875488],[122.37609863300001,41.573120117],[122.31207275400001,41.569702148],[122.24847412100002,41.531494141],[122.19207763700001,41.497314453],[122.15008544900002,41.473327637],[122.12609863300001,41.443115234],[122.13549804700001,41.42388916],[122.16290283200001,41.39831543],[122.18707275400001,41.354492187],[122.19372558600001,41.319091797],[122.18487548800002,41.266906738],[122.16888427700002,41.208129883],[122.21350097700001,41.174072266],[122.29608154300001,41.178100586],[122.32171630900001,41.217285156],[122.34967041000002,41.233276367],[122.36987304700001,41.240722656],[122.421875,41.24987793],[122.43432617200001,41.248718262],[122.44567871100001,41.240722656],[122.44750976600001,41.215087891],[122.44451904300001,41.196899414],[122.42230224600002,41.178100586],[122.37310791000002,41.147888184],[122.35870361300002,41.137695312],[122.36029052700002,41.109924316],[122.36987304700001,41.092895508],[122.38848877,41.091125488],[122.37847900400001,41.068908691],[122.36230468700002,41.047302246],[122.34912109400001,41.006896973],[122.33508300800001,40.998901367],[122.31390380900001,40.984680176],[122.31188964800002,40.973327637],[122.30572509800001,40.936889648],[122.32788085900002,40.886291504],[122.37548828100002,40.890075684],[122.42108154300001,40.900878906],[122.44750976600001,40.87487793],[122.44488525400001,40.847473145],[122.45910644500002,40.807128906],[122.48052978500002,40.781311035],[122.50592041000002,40.756530762],[122.53070068400001,40.735900879],[122.56707763700001,40.718688965],[122.60491943400001,40.720275879],[122.64508056600002,40.718078613],[122.64367675800001,40.689880371],[122.63531494100002,40.657104492],[122.64031982400002,40.621276855],[122.63928222700001,40.588684082],[122.68170166000002,40.555114746],[122.72869873000002,40.533508301],[122.76910400400001,40.516723633],[122.82147216800001,40.502685547],[122.87249755900001,40.50012207],[122.91467285200001,40.502685547],[122.95751953100002,40.482727051],[122.98767089800002,40.462890625],[122.97650146500001,40.418701172],[122.95489502,40.392272949],[122.91992187500001,40.383117676],[122.92370605500001,40.347473145],[122.90789794900002,40.310913086],[122.86370849600002,40.3046875],[122.85729980500001,40.261291504],[122.85272216800001,40.222900391],[122.85931396500001,40.195922852],[122.88208007800002,40.172485352],[122.90588378900001,40.147888184],[122.93951416000002,40.134521484],[122.95111084000001,40.099121094],[122.97210693400001,40.071899414],[123.01031494100002,40.041687012],[123.05310058600001,40.019104004],[123.08752441400001,40.040283203],[123.11468505900001,40.06048584],[123.15112304700001,40.078674316],[123.19390869100002,40.079101562],[123.21331787100002,40.053894043],[123.22009277300002,40.025878906],[123.25848388700001,40.002685547],[123.31549072300001,39.996276855],[123.35687255900001,39.996276855],[123.39367675800001,39.986083984],[123.46588134800001,39.991516113],[123.46032714800002,40.021911621],[123.46911621100001,40.055480957],[123.51531982400002,40.07409668],[123.55590820300002,40.091674805],[123.58068847700001,40.117492676],[123.57788085900002,40.172485352],[123.56030273400002,40.177307129],[123.56072998000002,40.217529297],[123.597473145,40.229919434],[123.64648437500001,40.247070312],[123.68988037100002,40.275085449],[123.70892334000001,40.304504395],[123.71649169900002,40.340698242],[123.72290039100001,40.373718262],[123.73150634800001,40.408325195],[123.74328613300001,40.444091797],[123.74908447300001,40.480102539],[123.71868896500001,40.529296875],[123.70648193400001,40.569091797],[123.70532226600001,40.603881836],[123.67449951200001,40.63848877],[123.63110351600001,40.655517578],[123.58410644500002,40.669921875],[123.53167724600002,40.69708252],[123.54290771500001,40.723693848],[123.56488037100002,40.75592041],[123.51770019500002,40.807495117],[123.48352050800001,40.786682129],[123.44451904300001,40.780517578],[123.39331054700001,40.769470215],[123.33770752,40.748291016],[123.29089355500001,40.728881836],[123.24108886700002,40.706115723],[123.19787597700001,40.697875977],[123.14331054700001,40.685302734],[123.09167480500001,40.711120605],[123.06390380900001,40.747070312],[123.08648681600002,40.777893066],[123.10247802700002,40.808105469],[123.06091308600001,40.81628418],[123.02191162100002,40.818725586],[123.02691650400001,40.855712891],[123.05029296900001,40.903076172],[123.07727050800001,40.933898926],[123.11431884800001,40.956298828],[123.15191650400001,40.964904785],[123.19531250000001,40.976318359],[123.21270752,41.006286621],[123.20391845700001,41.040710449],[123.163879395,41.052490234],[123.12469482400002,41.060302734],[123.10748291000002,41.089111328],[123.12469482400002,41.11907959],[123.08032226600001,41.14251709],[123.09191894500002,41.181518555],[123.03509521500001,41.16809082],[122.98590087900001,41.172485352],[122.93847656200002,41.163085937],[122.89050293000001,41.14831543],[122.86889648400002,41.123291016],[122.85229492200001,41.09967041],[122.81750488300001,41.079284668],[122.77410888700001,41.058898926],[122.72570800800001,41.067077637],[122.68249511700002,41.083312988],[122.64971923800002,41.101074219],[122.60827636700002,41.138671875],[122.57128906200002,41.164306641],[122.54992675800001,41.187072754],[122.57287597700001,41.210327148],[122.59967041000002,41.219482422]]]}}
