{"type":"Feature","id":"bulk-99377448B75649875649542","bbox":[117.91168212900001,32.949279785,119.15728759800001,34.383300781],"properties":{"id":"bulk-99377448B75649875649542","name":"Suqian","nameEn":"Suqian","fullName":"Suqian","level":"city","boundaryRole":"administrative-extent","boundaryQuality":"generalized-source-2020","boundaryYearRepresented":"2020","bounds":[[117.91168212900001,32.949279785],[119.15728759800001,34.383300781]],"center":[118.53448486350001,33.666290283],"centerMethod":"bounding-box midpoint; camera framing only","license":"CC-BY-3.0-IGO","attribution":"geoBoundaries / HDX, China administrative boundaries (2020)","source":{"provider":"geoBoundaries gbHumanitarian / HDX","url":"https://github.com/wmgeolab/geoBoundaries/raw/9469f09/releaseData/gbHumanitarian/CHN/ADM2/geoBoundaries-CHN-ADM2.geojson","metadataUrl":"https://www.geoboundaries.org/api/current/gbHumanitarian/CHN/ADM2/","shapeID":"99377448B75649875649542","shapeName":"Suqian","boundaryID":"CHN-ADM2-99377448","commit":"9469f09"},"geometryCounts":{"coordinates":165,"components":1,"holes":0},"boundaryNotice":"geoBoundaries / HDX 2020 年行政区数据，海岸和边界经过源数据概化，并非当前测绘成果。"},"geometry":{"type":"Polygon","coordinates":[[[119.15728759800001,34.066894531],[119.14709472700001,34.103515625],[119.11352539100001,34.132080078],[119.11071777300002,34.182678223],[119.07647705100001,34.198486328],[119.06811523400002,34.22869873],[119.06890869100002,34.263122559],[119.06268310500002,34.299926758],[119.04467773400002,34.329528809],[119.01367187500001,34.383300781],[118.953125,34.358276367],[118.90393066400001,34.346313477],[118.84448242200001,34.350891113],[118.80047607400002,34.344299316],[118.77069091800001,34.317321777],[118.73651123000002,34.304077148],[118.70532226600001,34.317077637],[118.66192627,34.320678711],[118.63031005900001,34.341125488],[118.62188720700001,34.306091309],[118.58227539100001,34.289489746],[118.55010986300002,34.27911377],[118.53552246100001,34.243530273],[118.54632568400001,34.206726074],[118.53509521500001,34.170288086],[118.50091552700002,34.147277832],[118.48107910200001,34.124511719],[118.50268554700001,34.11907959],[118.44830322300001,34.096496582],[118.40747070300002,34.102905273],[118.38092041000002,34.098510742],[118.33807373000002,34.100097656],[118.28332519500002,34.09552002],[118.23687744100002,34.106079102],[118.20751953100002,34.131286621],[118.18267822300001,34.150878906],[118.13848877,34.138122559],[118.09710693400001,34.132873535],[118.03747558600001,34.149902344],[117.98309326200001,34.12109375],[117.99407959000001,34.09588623],[118.02288818400001,34.069274902],[118.03527832000002,34.029724121],[118.02471923800002,33.997314453],[118.04547119100002,33.965881348],[118.06408691400001,33.928100586],[118.09832763700001,33.917297363],[118.12408447300001,33.894104004],[118.14428710900002,33.856689453],[118.15307617200001,33.825500488],[118.15130615200002,33.793884277],[118.15148925800001,33.76550293],[118.14428710900002,33.73828125],[118.13549804700001,33.736328125],[118.12347412100002,33.735290527],[118.13610839800002,33.691894531],[118.13208007800002,33.646118164],[118.09912109400001,33.622314453],[118.08148193400001,33.597473145],[118.078125,33.55871582],[118.08007812500001,33.518676758],[118.08251953100002,33.485717773],[118.04010009800001,33.475891113],[118.01367187500001,33.475708008],[118.00787353500002,33.447692871],[118.00030517600001,33.397521973],[117.96807861300002,33.355102539],[117.94390869100002,33.339477539],[117.93829345700001,33.310913086],[117.93408203100002,33.289672852],[117.921691895,33.272521973],[117.91168212900001,33.245727539],[117.91467285200001,33.217102051],[117.92852783200001,33.200317383],[117.94049072300001,33.187316895],[117.97650146500001,33.175292969],[118.003723145,33.148925781],[118.02191162100002,33.131896973],[118.04931640600002,33.139892578],[118.07128906200002,33.14630127],[118.09027099600002,33.153686523],[118.12707519500002,33.161682129],[118.14788818400001,33.19708252],[118.17309570300002,33.201721191],[118.19592285200001,33.196716309],[118.20068359400001,33.186889648],[118.19671630900001,33.146911621],[118.19970703100002,33.120300293],[118.19927978500002,33.100280762],[118.20111084000001,33.07989502],[118.19970703100002,33.06628418],[118.20452880900001,33.04309082],[118.21527099600002,33.006896973],[118.22167968700002,32.988708496],[118.22949218700002,32.969116211],[118.24291992200001,32.949279785],[118.24792480500001,32.956115723],[118.25671386700002,32.961486816],[118.28289794900002,32.962097168],[118.32049560500002,32.965270996],[118.36492919900002,32.980285645],[118.37152099600002,32.98828125],[118.36010742200001,32.993713379],[118.33648681600002,33.005310059],[118.33367919900002,33.014892578],[118.33648681600002,33.024475098],[118.34490966800001,33.029907227],[118.36730957000002,33.040527344],[118.40228271500001,33.064880371],[118.40209960900002,33.025878906],[118.41967773400002,33.03729248],[118.44409179700001,33.058898926],[118.45812988300001,33.077270508],[118.44329834000001,33.083129883],[118.42633056600002,33.08770752],[118.44207763700001,33.104125977],[118.48010253900001,33.133728027],[118.48712158200001,33.145507812],[118.48168945300002,33.149475098],[118.47027587900001,33.152526855],[118.437316895,33.146118164],[118.42492675800001,33.139099121],[118.39508056600002,33.127075195],[118.38189697300001,33.131530762],[118.35931396500001,33.146118164],[118.33673095700001,33.142883301],[118.31048584000001,33.143493652],[118.29467773400002,33.139892578],[118.27569580100001,33.152893066],[118.26348877,33.157287598],[118.21490478500002,33.179504395],[118.21008300800001,33.187316895],[118.23931884800001,33.201293945],[118.46307373000002,33.185913086],[118.73632812500001,33.298278809],[118.73248291000002,33.318481445],[118.71270752,33.368896484],[118.71307373000002,33.369873047],[118.72589111300002,33.393310547],[118.74029541000002,33.43347168],[118.75347900400001,33.434082031],[118.76251220700001,33.435913086],[118.77569580100001,33.489685059],[118.78509521500001,33.52911377],[118.78948974600002,33.561889648],[118.76507568400001,33.588317871],[118.75451660200001,33.625488281],[118.78167724600002,33.657714844],[118.79150390600002,33.689086914],[118.78527832000002,33.726501465],[118.78131103500002,33.767272949],[118.78009033200001,33.800720215],[118.79571533200001,33.834899902],[118.82568359400001,33.860473633],[118.84967041000002,33.882324219],[118.86328125000001,33.913513184],[118.921875,33.892272949],[118.94671630900001,33.910522461],[119.01831054700001,33.890319824],[119.03149414100001,33.917297363],[119.03808593700002,33.955322266],[119.05047607400002,33.983886719],[119.08270263700001,34.008300781],[119.10809326200001,34.027282715],[119.15728759800001,34.066894531]]]}}
