{"type":"Feature","id":"bulk-99377448B9163317326766","bbox":[117.11889648400002,31.83807373,119.203125,33.201721191],"properties":{"id":"bulk-99377448B9163317326766","name":"Chuzhou","nameEn":"Chuzhou","fullName":"Chuzhou","level":"city","boundaryRole":"administrative-extent","boundaryQuality":"generalized-source-2020","boundaryYearRepresented":"2020","bounds":[[117.11889648400002,31.83807373],[119.203125,33.201721191]],"center":[118.161010742,32.5198974605],"centerMethod":"bounding-box midpoint; camera framing only","license":"CC-BY-3.0-IGO","attribution":"geoBoundaries / HDX, China administrative boundaries (2020)","source":{"provider":"geoBoundaries gbHumanitarian / HDX","url":"https://github.com/wmgeolab/geoBoundaries/raw/9469f09/releaseData/gbHumanitarian/CHN/ADM2/geoBoundaries-CHN-ADM2.geojson","metadataUrl":"https://www.geoboundaries.org/api/current/gbHumanitarian/CHN/ADM2/","shapeID":"99377448B9163317326766","shapeName":"Chuzhou","boundaryID":"CHN-ADM2-99377448","commit":"9469f09"},"geometryCounts":{"coordinates":190,"components":1,"holes":0},"boundaryNotice":"geoBoundaries / HDX 2020 年行政区数据，海岸和边界经过源数据概化，并非当前测绘成果。"},"geometry":{"type":"Polygon","coordinates":[[[118.24291992200001,32.949279785],[118.22949218700002,32.969116211],[118.22167968700002,32.988708496],[118.21527099600002,33.006896973],[118.20452880900001,33.04309082],[118.19970703100002,33.06628418],[118.20111084000001,33.07989502],[118.19927978500002,33.100280762],[118.19970703100002,33.120300293],[118.19671630900001,33.146911621],[118.20068359400001,33.186889648],[118.19592285200001,33.196716309],[118.17309570300002,33.201721191],[118.14788818400001,33.19708252],[118.12707519500002,33.161682129],[118.09027099600002,33.153686523],[118.07128906200002,33.14630127],[118.04931640600002,33.139892578],[118.04132080100001,33.110290527],[118.02532959000001,33.086730957],[117.99487304700001,33.067321777],[117.99548339800002,33.036499023],[117.98107910200001,33.009094238],[117.94531250000001,32.995727539],[117.91070556600002,32.996887207],[117.85809326200001,33.05291748],[117.79388427700002,33.029296875],[117.76489257800002,33.04309082],[117.73413085900002,33.014892578],[117.69769287100002,33.005310059],[117.67291259800001,32.969299316],[117.66027832000002,32.937072754],[117.63232421900001,32.918518066],[117.59112548800002,32.931274414],[117.56311035200001,32.944702148],[117.51947021500001,32.972473145],[117.49468994100002,32.919494629],[117.47729492200001,32.885314941],[117.45849609400001,32.854919434],[117.42907714800002,32.839111328],[117.38287353500002,32.832275391],[117.33630371100001,32.834289551],[117.29992675800001,32.834472656],[117.26568603500002,32.838500977],[117.24468994100002,32.797912598],[117.23608398400002,32.765075684],[117.19873046900001,32.74230957],[117.11889648400002,32.727294922],[117.12432861300002,32.692871094],[117.13610839800002,32.65032959],[117.17791748000002,32.619873047],[117.18231201200001,32.578674316],[117.19232177700002,32.536071777],[117.19927978500002,32.506713867],[117.21270752,32.481689453],[117.24688720700001,32.453918457],[117.288879395,32.463317871],[117.32330322300001,32.477905273],[117.36669921900001,32.478881836],[117.38012695300002,32.448120117],[117.35607910200001,32.413330078],[117.34692382800002,32.384094238],[117.38647460900002,32.36932373],[117.421875,32.364929199],[117.39831543000001,32.334899902],[117.39147949200002,32.297485352],[117.41912841800001,32.270080566],[117.43048095700001,32.236083984],[117.46832275400001,32.213684082],[117.51110839800002,32.209472656],[117.54748535200001,32.217895508],[117.58630371100001,32.23248291],[117.62628173800002,32.239318848],[117.65911865200002,32.243286133],[117.70690918000001,32.24609375],[117.74530029300001,32.246887207],[117.77893066400001,32.247497559],[117.870910645,32.243713379],[117.89611816400001,32.217285156],[117.78729248000002,31.994506836],[117.81707763700001,31.960693359],[117.83691406200002,31.936523437],[117.84613037100002,31.917724609],[117.88952636700002,31.91027832],[117.93908691400001,31.88092041],[117.94152832000002,31.879516602],[117.97271728500002,31.859130859],[118.003723145,31.838928223],[118.01470947300001,31.83807373],[118.04791259800001,31.840515137],[118.06048584000001,31.857910156],[118.07232666000002,31.866088867],[118.09613037100002,31.882873535],[118.11828613300001,31.885925293],[118.15252685500002,31.897277832],[118.18627929700001,31.903930664],[118.21051025400001,31.925109863],[118.25787353500002,31.958496094],[118.28247070300002,31.984130859],[118.30627441400001,32.000671387],[118.31811523400002,32.008911133],[118.35327148400002,32.02331543],[118.36010742200001,32.042480469],[118.37249755900001,32.055297852],[118.39630127,32.071899414],[118.41351318400001,32.07989502],[118.42327880900001,32.077514648],[118.44311523400002,32.117919922],[118.45812988300001,32.177490234],[118.45770263700001,32.186279297],[118.48669433600001,32.18548584],[118.57727050800001,32.173522949],[118.61090087900001,32.198730469],[118.62628173800002,32.197875977],[118.65447998000002,32.233276367],[118.65472412100002,32.247070312],[118.65667724600002,32.33807373],[118.66210937500001,32.383911133],[118.67028808600001,32.436706543],[118.65667724600002,32.486328125],[118.59289550800001,32.486877441],[118.57269287100002,32.502502441],[118.54547119100002,32.525512695],[118.53088378900001,32.555725098],[118.54608154300001,32.578674316],[118.58770752,32.592895508],[118.63287353500002,32.589111328],[118.67272949200002,32.587524414],[118.68847656200002,32.591918945],[118.71069335900002,32.598327637],[118.77569580100001,32.597717285],[118.847473145,32.555725098],[118.89392089800002,32.575683594],[118.92749023400002,32.56451416],[118.94427490200002,32.526123047],[118.97192382800002,32.496704102],[119.00671386700002,32.497924805],[119.02911377,32.472473145],[119.05187988300001,32.448120117],[119.05932617200001,32.440124512],[119.09729003900001,32.450927734],[119.12890625000001,32.486083984],[119.12969970700001,32.525878906],[119.14129638700001,32.555480957],[119.17633056600002,32.578674316],[119.17687988300001,32.594909668],[119.17871093700002,32.646118164],[119.17309570300002,32.687316895],[119.18212890600002,32.711730957],[119.19592285200001,32.740905762],[119.203125,32.778686523],[119.18292236300002,32.819885254],[119.18231201200001,32.820922852],[119.13690185500002,32.844482422],[119.13427734400001,32.840087891],[119.08612060500002,32.860290527],[119.06329345700001,32.860107422],[119.02850341800001,32.893493652],[118.98352050800001,32.955078125],[118.94830322300001,32.962890625],[118.91308593700002,32.95892334],[118.88970947300001,32.957885742],[118.88128662100002,32.957519531],[118.83508300800001,32.964111328],[118.80871582000002,32.961486816],[118.78631591800001,32.932678223],[118.78369140600002,32.894714355],[118.78192138700001,32.864685059],[118.74072265600002,32.821105957],[118.71972656200002,32.817077637],[118.71331787100002,32.797119141],[118.71752929700001,32.760498047],[118.70788574200002,32.740722656],[118.65332031200002,32.726501465],[118.61968994100002,32.73828125],[118.58551025400001,32.737915039],[118.51428222700001,32.737121582],[118.46850585900002,32.736328125],[118.44671630900001,32.735107422],[118.42132568400001,32.742919922],[118.38470459000001,32.73449707],[118.38348388700001,32.733520508],[118.36370849600002,32.717102051],[118.33551025400001,32.729675293],[118.32867431600002,32.762878418],[118.28710937500001,32.796508789],[118.27648925800001,32.823730469],[118.26208496100001,32.856689453],[118.24847412100002,32.893676758],[118.24291992200001,32.949279785]]]}}
