{"type":"Feature","id":"bulk-99377448B7327980423863","bbox":[113.76831054700001,22.546081543,115.42547607400002,23.959899902],"properties":{"id":"bulk-99377448B7327980423863","name":"Huizhou","nameEn":"Huizhou","fullName":"Huizhou","level":"city","boundaryRole":"administrative-extent","boundaryQuality":"generalized-source-2020","boundaryYearRepresented":"2020","bounds":[[113.76831054700001,22.546081543],[115.42547607400002,23.959899902]],"center":[114.59689331050001,23.2529907225],"centerMethod":"bounding-box midpoint; camera framing only","license":"CC-BY-3.0-IGO","attribution":"geoBoundaries / HDX, China administrative boundaries (2020)","source":{"provider":"geoBoundaries gbHumanitarian / HDX","url":"https://github.com/wmgeolab/geoBoundaries/raw/9469f09/releaseData/gbHumanitarian/CHN/ADM2/geoBoundaries-CHN-ADM2.geojson","metadataUrl":"https://www.geoboundaries.org/api/current/gbHumanitarian/CHN/ADM2/","shapeID":"99377448B7327980423863","shapeName":"Huizhou","boundaryID":"CHN-ADM2-99377448","commit":"9469f09"},"geometryCounts":{"coordinates":286,"components":1,"holes":0},"boundaryNotice":"geoBoundaries / HDX 2020 年行政区数据，海岸和边界经过源数据概化，并非当前测绘成果。"},"geometry":{"type":"Polygon","coordinates":[[[114.22729492200001,22.835083008],[114.24627685500002,22.800476074],[114.28552246100001,22.804504395],[114.32769775400001,22.817077637],[114.35211181600002,22.790283203],[114.36987304700001,22.761474609],[114.39990234400001,22.782287598],[114.40228271500001,22.743103027],[114.41247558600001,22.704284668],[114.43408203100002,22.673706055],[114.47009277300002,22.66809082],[114.49792480500001,22.675720215],[114.50750732400002,22.689697266],[114.53332519500002,22.691894531],[114.53289794900002,22.692321777],[114.52508544900002,22.693115234],[114.52728271500001,22.696472168],[114.53527832000002,22.69708252],[114.53448486300002,22.700073242],[114.53167724600002,22.70111084],[114.51989746100001,22.698120117],[114.51428222700001,22.699279785],[114.51892089800002,22.705871582],[114.52569580100001,22.706481934],[114.52667236300002,22.707275391],[114.51171875000001,22.719116211],[114.49987793000001,22.740722656],[114.52728271500001,22.739685059],[114.54272460900002,22.733520508],[114.56427002,22.732727051],[114.570129395,22.735107422],[114.57208252,22.740722656],[114.57568359400001,22.740478516],[114.57830810500002,22.738525391],[114.58227539100001,22.74029541],[114.58648681600002,22.741088867],[114.58947753900001,22.743286133],[114.59887695300002,22.743896484],[114.60070800800001,22.744506836],[114.61529541000002,22.757080078],[114.61651611300002,22.758117676],[114.62207031200002,22.758483887],[114.63208007800002,22.754699707],[114.63232421900001,22.754699707],[114.64093017600001,22.764709473],[114.64910888700001,22.768493652],[114.66088867200001,22.771118164],[114.66772460900002,22.769104004],[114.66870117200001,22.769714355],[114.67089843700002,22.773681641],[114.67608642600001,22.773498535],[114.68408203100002,22.777893066],[114.68432617200001,22.778320312],[114.68347168000001,22.781677246],[114.67968750000001,22.785095215],[114.68328857400002,22.788085937],[114.69390869100002,22.790527344],[114.70068359400001,22.789916992],[114.70751953100002,22.78692627],[114.70849609400001,22.792480469],[114.71209716800001,22.792724609],[114.71527099600002,22.791320801],[114.71832275400001,22.789916992],[114.71972656200002,22.78692627],[114.71868896500001,22.783081055],[114.72607421900001,22.779724121],[114.73052978500002,22.775085449],[114.73608398400002,22.774108887],[114.74768066400001,22.779907227],[114.75549316400001,22.782104492],[114.76068115200002,22.796875],[114.75970459000001,22.817321777],[114.77191162100002,22.809875488],[114.76409912100002,22.823486328],[114.76672363300001,22.827270508],[114.77069091800001,22.826477051],[114.77648925800001,22.82232666],[114.77612304700001,22.833312988],[114.78411865200002,22.827880859],[114.82171630900001,22.787475586],[114.81988525400001,22.782287598],[114.81347656200002,22.776306152],[114.80267334000001,22.769714355],[114.79492187500001,22.772277832],[114.78271484400001,22.76550293],[114.78112793000001,22.764892578],[114.77569580100001,22.758483887],[114.77050781200002,22.756286621],[114.75592041000002,22.755310059],[114.75231933600001,22.75390625],[114.74371337900001,22.743286133],[114.73931884800001,22.731323242],[114.73547363300001,22.726501465],[114.73687744100002,22.716491699],[114.73571777300002,22.713928223],[114.73352050800001,22.709289551],[114.74432373000002,22.686279297],[114.74487304700001,22.682128906],[114.74310302700002,22.677490234],[114.73187255900001,22.666503906],[114.72747802700002,22.657287598],[114.72827148400002,22.646484375],[114.73309326200001,22.643310547],[114.74072265600002,22.635681152],[114.73950195300002,22.620483398],[114.74151611300002,22.613098145],[114.73828125000001,22.605895996],[114.73687744100002,22.602905273],[114.73950195300002,22.597473145],[114.74768066400001,22.588500977],[114.74169921900001,22.583129883],[114.74530029300001,22.579711914],[114.74871826200001,22.579528809],[114.75292968700002,22.581481934],[114.75732421900001,22.589111328],[114.76129150400001,22.586120605],[114.76727294900002,22.591308594],[114.77429199200002,22.592895508],[114.78289794900002,22.59387207],[114.78692627,22.592102051],[114.79290771500001,22.592712402],[114.79492187500001,22.592102051],[114.796875,22.58807373],[114.80932617200001,22.593322754],[114.83911132800002,22.604125977],[114.85968017600001,22.602478027],[114.85968017600001,22.594726562],[114.86291503900001,22.59387207],[114.87609863300001,22.587280273],[114.88208007800002,22.582702637],[114.88647460900002,22.576904297],[114.88909912100002,22.576904297],[114.89288330100001,22.569091797],[114.89288330100001,22.567871094],[114.88330078100002,22.567077637],[114.88110351600001,22.565307617],[114.88452148400002,22.559875488],[114.88427734400001,22.557312012],[114.87829589800002,22.552124023],[114.87792968700002,22.546875],[114.88049316400001,22.546081543],[114.89471435500002,22.555480957],[114.90209960900002,22.56628418],[114.89971923800002,22.578491211],[114.89587402300002,22.60168457],[114.89752197300001,22.615478516],[114.91510009800001,22.635070801],[114.94232177700002,22.653930664],[114.94287109400001,22.655273437],[114.94927978500002,22.660888672],[114.95190429700001,22.664123535],[114.93908691400001,22.685913086],[114.91949462900001,22.705322266],[114.89752197300001,22.718078613],[114.87530517600001,22.705322266],[114.86248779300001,22.728088379],[114.85412597700001,22.758911133],[114.88153076200001,22.754882812],[114.89788818400001,22.747680664],[114.91571044900002,22.752502441],[114.92968750000001,22.756896973],[114.93151855500001,22.807678223],[114.91729736300002,22.838684082],[114.91827392600001,22.871276855],[114.91607666000002,22.916503906],[114.95471191400001,22.937927246],[114.98651123000002,22.951721191],[115.02252197300001,22.973693848],[115.05468750000001,22.99432373],[115.08911132800002,23.024475098],[115.12451171900001,23.010925293],[115.14910888700001,23.025695801],[115.17230224600002,23.049316406],[115.20068359400001,23.063110352],[115.22851562500001,23.077514648],[115.26129150400001,23.103515625],[115.27770996100001,23.12890625],[115.28747558600001,23.160522461],[115.30511474600002,23.19128418],[115.34210205100001,23.205322266],[115.38189697300001,23.222473145],[115.41192627,23.274291992],[115.42547607400002,23.313476562],[115.36547851600001,23.303710937],[115.33929443400001,23.323913574],[115.29467773400002,23.327697754],[115.28332519500002,23.362487793],[115.25769043000001,23.394470215],[115.22167968700002,23.39630127],[115.16650390600002,23.39251709],[115.13769531200002,23.387329102],[115.10052490200002,23.380126953],[115.07269287100002,23.362487793],[115.05328369100002,23.33392334],[115.02392578100002,23.32409668],[114.98712158200001,23.315673828],[114.94427490200002,23.323486328],[114.91528320300002,23.330871582],[114.90228271500001,23.304321289],[114.89227294900002,23.273071289],[114.87792968700002,23.247924805],[114.84948730500001,23.204528809],[114.80468750000001,23.180908203],[114.78729248000002,23.214294434],[114.78247070300002,23.248291016],[114.77349853500002,23.279907227],[114.75207519500002,23.312683105],[114.72509765600002,23.341918945],[114.70269775400001,23.370910645],[114.69128418000001,23.39831543],[114.671875,23.450683594],[114.65289306600002,23.48449707],[114.65008544900002,23.51171875],[114.65393066400001,23.539306641],[114.64770507800002,23.581726074],[114.57208252,23.56652832],[114.54888916000002,23.591491699],[114.53729248000002,23.617492676],[114.51068115200002,23.667480469],[114.48132324200002,23.6796875],[114.44891357400002,23.683898926],[114.41607666000002,23.70111084],[114.38647460900002,23.714111328],[114.36511230500001,23.747680664],[114.34252929700001,23.768920898],[114.33251953100002,23.801879883],[114.33532714800002,23.856079102],[114.32629394500002,23.920898437],[114.29248046900001,23.930114746],[114.27172851600001,23.959899902],[114.24188232400002,23.946899414],[114.21191406200002,23.938293457],[114.18389892600001,23.955871582],[114.15228271500001,23.951293945],[114.13867187500001,23.926696777],[114.11450195300002,23.910888672],[114.08129882800002,23.908691406],[114.06011962900001,23.888122559],[114.05328369100002,23.850524902],[114.04589843700002,23.815490723],[114.03387451200001,23.786315918],[114.00689697300001,23.764099121],[113.97827148400002,23.753112793],[113.94628906200002,23.74407959],[113.91510009800001,23.732727051],[113.88372802700002,23.722717285],[113.85327148400002,23.703491211],[113.82751464800002,23.682678223],[113.81347656200002,23.648925781],[113.83831787100002,23.621704102],[113.84729003900001,23.584716797],[113.85949707000002,23.55267334],[113.87792968700002,23.525512695],[113.90728759800001,23.502929687],[113.93151855500001,23.484313965],[113.93450927700002,23.456481934],[113.97192382800002,23.44708252],[113.98229980500001,23.414672852],[113.96868896500001,23.353088379],[113.93267822300001,23.357910156],[113.89868164100001,23.356323242],[113.87530517600001,23.340087891],[113.87030029300001,23.31072998],[113.86407470700001,23.270324707],[113.85772705100001,23.232299805],[113.84948730500001,23.202697754],[113.83471679700001,23.178710937],[113.76831054700001,23.130126953],[113.79748535200001,23.100097656],[113.83831787100002,23.09387207],[113.86987304700001,23.092712402],[113.91247558600001,23.091918945],[113.94787597700001,23.090881348],[113.97668457000002,23.072875977],[114.00970459000001,23.06451416],[114.04748535200001,23.084472656],[114.07427978500002,23.064880371],[114.10607910200001,23.053710937],[114.12811279300001,23.017089844],[114.16247558600001,22.994873047],[114.18847656200002,23.011291504],[114.19970703100002,22.975280762],[114.20269775400001,22.939086914],[114.22369384800001,22.901306152],[114.22930908200001,22.862915039],[114.22729492200001,22.835083008]]]}}
