{"type":"Feature","id":"bulk-99377448B31316550825422","bbox":[123.40209960900002,41.968505859,125.06628418000001,43.484924316],"properties":{"id":"bulk-99377448B31316550825422","name":"Tieling","nameEn":"Tieling","fullName":"Tieling","level":"city","boundaryRole":"administrative-extent","boundaryQuality":"generalized-source-2020","boundaryYearRepresented":"2020","bounds":[[123.40209960900002,41.968505859],[125.06628418000001,43.484924316]],"center":[124.23419189450001,42.7267150875],"centerMethod":"bounding-box midpoint; camera framing only","license":"CC-BY-3.0-IGO","attribution":"geoBoundaries / HDX, China administrative boundaries (2020)","source":{"provider":"geoBoundaries gbHumanitarian / HDX","url":"https://github.com/wmgeolab/geoBoundaries/raw/9469f09/releaseData/gbHumanitarian/CHN/ADM2/geoBoundaries-CHN-ADM2.geojson","metadataUrl":"https://www.geoboundaries.org/api/current/gbHumanitarian/CHN/ADM2/","shapeID":"99377448B31316550825422","shapeName":"Tieling","boundaryID":"CHN-ADM2-99377448","commit":"9469f09"},"geometryCounts":{"coordinates":149,"components":1,"holes":0},"boundaryNotice":"geoBoundaries / HDX 2020 年行政区数据，海岸和边界经过源数据概化，并非当前测绘成果。"},"geometry":{"type":"Polygon","coordinates":[[[123.50988769500002,42.975524902],[123.55627441400001,42.945678711],[123.53588867200001,42.889709473],[123.54309082000002,42.842712402],[123.56787109400001,42.786682129],[123.52612304700001,42.753723145],[123.52209472700001,42.698486328],[123.53009033200001,42.672302246],[123.58032226600001,42.648681641],[123.60607910200001,42.632080078],[123.62988281200002,42.58807373],[123.68109130900001,42.569091797],[123.71472168000001,42.526306152],[123.66729736300002,42.508300781],[123.61828613300001,42.50012207],[123.57348632800002,42.486877441],[123.55627441400001,42.453491211],[123.54229736300002,42.413330078],[123.52032470700001,42.38092041],[123.49670410200001,42.357910156],[123.49908447300001,42.325683594],[123.49353027300002,42.294128418],[123.47229003900001,42.264892578],[123.44348144500002,42.24432373],[123.41992187500001,42.218078613],[123.42248535200001,42.187316895],[123.40209960900002,42.163085937],[123.49371337900001,42.139709473],[123.52832031200002,42.127075195],[123.57409668000001,42.114074707],[123.61352539100001,42.100891113],[123.64367675800001,42.07208252],[123.65393066400001,42.042724609],[123.68829345700001,42.031921387],[123.703125,42.00390625],[123.71490478500002,41.976074219],[123.75848388700001,41.968505859],[123.78570556600002,41.987121582],[123.81768798800002,42.004516602],[123.86871337900001,42.009887695],[123.92730712900001,41.981506348],[123.96307373000002,41.996887207],[123.98767089800002,42.01751709],[124.01428222700001,42.041687012],[124.09411621100001,42.054077148],[124.13891601600001,42.040710449],[124.18469238300001,42.031311035],[124.23327636700002,42.030273437],[124.25250244100002,42.000305176],[124.28771972700001,41.991088867],[124.31927490200002,42.009277344],[124.36950683600001,42.02532959],[124.44769287100002,42.047302246],[124.495910645,42.070922852],[124.51928710900002,42.104919434],[124.51611328100002,42.131713867],[124.50830078100002,42.159729004],[124.49890136700002,42.188110352],[124.48852539100001,42.221496582],[124.51727294900002,42.249694824],[124.53808593700002,42.283508301],[124.55029296900001,42.321105957],[124.59387207000002,42.327087402],[124.62811279300001,42.301330566],[124.66888427700002,42.288696289],[124.71887207000002,42.301879883],[124.74908447300001,42.317687988],[124.76708984400001,42.346679687],[124.73889160200001,42.37487793],[124.77288818400001,42.400085449],[124.80767822300001,42.414489746],[124.81427002,42.456481934],[124.87652587900001,42.427307129],[124.90112304700001,42.406311035],[124.93267822300001,42.370300293],[124.96350097700001,42.346130371],[125.00909423800002,42.347290039],[125.03192138700001,42.377502441],[125.04711914100001,42.405090332],[125.06628418000001,42.43347168],[125.04870605500001,42.442504883],[125.04949951200001,42.528686523],[125.05847168000001,42.594116211],[125.03448486300002,42.597473145],[125.00268554700001,42.602111816],[124.96209716800001,42.616516113],[124.94689941400001,42.633300781],[124.92651367200001,42.684875488],[124.94012451200001,42.755310059],[124.82629394500002,42.760498047],[124.79150390600002,42.815490723],[124.80712890600002,42.872070312],[124.83612060500002,42.939086914],[124.84387207000002,43.017272949],[124.82849121100001,43.121704102],[124.79852294900002,43.123718262],[124.72192382800002,43.082519531],[124.67089843700002,43.042114258],[124.60192871100001,42.957885742],[124.54168701200001,42.914916992],[124.48767089800002,42.841491699],[124.42749023400002,42.840270996],[124.42370605500001,42.840087891],[124.38128662100002,42.858886719],[124.37988281200002,42.861083984],[124.36291503900001,42.885070801],[124.40350341800001,42.888122559],[124.40008544900002,42.927124023],[124.39550781200002,42.928894043],[124.363098145,42.941711426],[124.29711914100001,42.956726074],[124.3125,43.000915527],[124.37591552700002,43.022888184],[124.39709472700001,43.071899414],[124.36749267600001,43.061523437],[124.29028320300002,43.138671875],[124.26348877,43.187316895],[124.21087646500001,43.187316895],[124.17968750000001,43.213928223],[124.17852783200001,43.214904785],[124.14971923800002,43.239501953],[124.10192871100001,43.27130127],[124.04168701200001,43.265686035],[123.96929931600002,43.300109863],[123.92608642600001,43.329528809],[123.85131835900002,43.358520508],[123.83947753900001,43.414489746],[123.82427978500002,43.465515137],[123.76751709000001,43.477478027],[123.73107910200001,43.484924316],[123.71392822300001,43.467102051],[123.70452880900001,43.419128418],[123.66809082000002,43.419494629],[123.65270996100001,43.411071777],[123.66052246100001,43.381103516],[123.68707275400001,43.329528809],[123.67767334000001,43.304321289],[123.63232421900001,43.305480957],[123.64471435500002,43.275085449],[123.64227294900002,43.262084961],[123.61108398400002,43.242492676],[123.62670898400002,43.205078125],[123.62548828100002,43.17590332],[123.59008789100001,43.133728027],[123.57830810500002,43.095703125],[123.55889892600001,43.065124512],[123.53448486300002,43.008911133],[123.51727294900002,42.991088867],[123.50988769500002,42.975524902]]]}}
