{"type":"Feature","id":"bulk-99377448B33139333526807","bbox":[89.419311523,31.554077148,97.77990722700001,36.252319336],"properties":{"id":"bulk-99377448B33139333526807","name":"Yushu Tibetan Autonomous Prefecture","nameEn":"Yushu Tibetan Autonomous Prefecture","fullName":"Yushu Tibetan Autonomous Prefecture","level":"city","boundaryRole":"administrative-extent","boundaryQuality":"generalized-source-2020","boundaryYearRepresented":"2020","bounds":[[89.419311523,31.554077148],[97.77990722700001,36.252319336]],"center":[93.599609375,33.903198242],"centerMethod":"bounding-box midpoint; camera framing only","license":"CC-BY-3.0-IGO","attribution":"geoBoundaries / HDX, China administrative boundaries (2020)","source":{"provider":"geoBoundaries gbHumanitarian / HDX","url":"https://github.com/wmgeolab/geoBoundaries/raw/9469f09/releaseData/gbHumanitarian/CHN/ADM2/geoBoundaries-CHN-ADM2.geojson","metadataUrl":"https://www.geoboundaries.org/api/current/gbHumanitarian/CHN/ADM2/","shapeID":"99377448B33139333526807","shapeName":"Yushu Tibetan Autonomous Prefecture","boundaryID":"CHN-ADM2-99377448","commit":"9469f09"},"geometryCounts":{"coordinates":610,"components":1,"holes":0},"boundaryNotice":"geoBoundaries / HDX 2020 年行政区数据，海岸和边界经过源数据概化，并非当前测绘成果。"},"geometry":{"type":"Polygon","coordinates":[[[97.72552490200002,34.006713867],[97.703125,34.055725098],[97.679077148,34.083129883],[97.65747070300002,34.115722656],[97.64709472700001,34.152893066],[97.64367675800001,34.191711426],[97.61187744100002,34.219482422],[97.58551025400001,34.202880859],[97.54248046900001,34.201904297],[97.520507812,34.229492187],[97.50970459000001,34.25769043],[97.488098145,34.286499023],[97.45971679700001,34.316894531],[97.43090820300002,34.340515137],[97.39532470700001,34.352478027],[97.35131835900002,34.35949707],[97.30712890600002,34.373474121],[97.28527832000002,34.393493652],[97.27648925800001,34.425476074],[97.26727294900002,34.456115723],[97.238098145,34.482727051],[97.19067382800002,34.481079102],[97.16088867200001,34.511291504],[97.19268798800002,34.535522461],[97.21173095700001,34.562072754],[97.22308349600002,34.605102539],[97.20947265600002,34.636474609],[97.16687011700002,34.642272949],[97.12628173800002,34.639892578],[97.08288574200002,34.63848877],[97.01867675800001,34.640319824],[96.971679687,34.669921875],[96.94610595700001,34.698913574],[96.929870605,34.732727051],[96.92272949200002,34.760681152],[96.92687988300001,34.792724609],[96.93572998,34.826477051],[96.94610595700001,34.858520508],[96.97967529300001,34.88470459],[97.02429199200002,34.899291992],[97.06988525400001,34.900695801],[97.10369873,34.916320801],[97.129089355,34.952514648],[97.14147949200002,34.997497559],[97.15228271500001,35.036499023],[97.16229248,35.070678711],[97.19171142600001,35.110290527],[97.22448730500001,35.135498047],[97.25830078100002,35.16809082],[97.28790283200001,35.196716309],[97.30151367200001,35.223876953],[97.31011962900001,35.261108398],[97.31170654300001,35.297119141],[97.28192138700001,35.31427002],[97.24609375000001,35.318481445],[97.20532226600001,35.317871094],[97.171691895,35.335510254],[97.13848877,35.340881348],[97.10772705100001,35.352111816],[97.07952880900001,35.381896973],[97.06408691400001,35.424926758],[97.044311523,35.455322266],[96.99609375000001,35.465270996],[96.95611572300001,35.44329834],[96.91870117200001,35.431274414],[96.871276855,35.409729004],[96.813476562,35.37109375],[96.79089355500001,35.345703125],[96.75909423800002,35.321716309],[96.71850585900002,35.306884766],[96.69372558600001,35.286682129],[96.69012451200001,35.251098633],[96.67468261700002,35.225708008],[96.64288330100001,35.215087891],[96.60870361300002,35.224121094],[96.57507324200002,35.234924316],[96.528686523,35.254516602],[96.48107910200001,35.277709961],[96.46752929700001,35.311706543],[96.44970703100002,35.340698242],[96.40771484400001,35.348510742],[96.35729980500001,35.352478027],[96.32373046900001,35.355102539],[96.25653076200001,35.357910156],[96.22430419900002,35.348510742],[96.20111084000001,35.320129395],[96.18029785200001,35.294128418],[96.15112304700001,35.272705078],[96.13287353500002,35.245117187],[96.13592529300001,35.217285156],[96.14208984400001,35.183288574],[96.11889648400002,35.158081055],[96.06787109400001,35.151672363],[96.02893066400001,35.138671875],[95.99810791000002,35.122924805],[95.96588134800001,35.104675293],[95.90069580100001,35.085876465],[95.86547851600001,35.087280273],[95.82928466800001,35.095275879],[95.77227783200001,35.100524902],[95.738098145,35.089904785],[95.68371582000002,35.075317383],[95.65289306600002,35.093688965],[95.636901855,35.128112793],[95.62469482400002,35.164916992],[95.60668945300002,35.193908691],[95.56408691400001,35.196289062],[95.52429199200002,35.211486816],[95.48413085900002,35.205078125],[95.43432617200001,35.204284668],[95.403320312,35.223693848],[95.370910645,35.241271973],[95.34631347700001,35.259521484],[95.32568359400001,35.287719727],[95.304504395,35.309082031],[95.277893066,35.325073242],[95.23510742200001,35.340087891],[95.18548584000001,35.353881836],[95.15588378900001,35.366516113],[95.09289550800001,35.385070801],[95.05932617200001,35.39251709],[95.02227783200001,35.413085937],[94.98327636700002,35.432495117],[94.94592285200001,35.437927246],[94.905273437,35.434082031],[94.85809326200001,35.437316895],[94.82507324200002,35.456115723],[94.78527832000002,35.451293945],[94.73828125000001,35.444274902],[94.687683105,35.450500488],[94.653686523,35.460510254],[94.61889648400002,35.451293945],[94.585327148,35.449279785],[94.55389404300001,35.460876465],[94.545898437,35.495483398],[94.54748535200001,35.529296875],[94.55889892600001,35.555114746],[94.56011962900001,35.592102051],[94.52392578100002,35.601318359],[94.488098145,35.602294922],[94.44030761700002,35.613708496],[94.40570068400001,35.618286133],[94.36029052700002,35.623474121],[94.31732177700002,35.627502441],[94.27667236300002,35.630126953],[94.23449707000002,35.632873535],[94.15850830100001,35.646484375],[94.11132812500001,35.652709961],[94.04248046900001,35.651672363],[93.99328613300001,35.679077148],[93.94250488300001,35.689086914],[93.90490722700001,35.695678711],[93.844299316,35.707519531],[93.77227783200001,35.718688965],[93.70989990200002,35.727478027],[93.66912841800001,35.734680176],[93.63110351600001,35.738891602],[93.59729003900001,35.741699219],[93.56048584000001,35.745910645],[93.50689697300001,35.751708984],[93.47229003900001,35.755310059],[93.42767334000001,35.758300781],[93.36352539100001,35.765930176],[93.30987548800002,35.772094727],[93.25128173800002,35.77331543],[93.21008300800001,35.779296875],[93.14892578100002,35.788879395],[93.10852050800001,35.793518066],[93.05432128900001,35.806518555],[93.01129150400001,35.8203125],[92.96990966800001,35.834899902],[92.92687988300001,35.845275879],[92.86767578100002,35.852722168],[92.83367919900002,35.855285645],[92.79791259800001,35.858886719],[92.75689697300001,35.863098145],[92.70947265600002,35.868286133],[92.67230224600002,35.870483398],[92.63232421900001,35.874694824],[92.58551025400001,35.87890625],[92.52209472700001,35.88470459],[92.46990966800001,35.888122559],[92.43011474600002,35.890686035],[92.38592529300001,35.893493652],[92.34271240200002,35.897277832],[92.295471191,35.902893066],[92.25512695300002,35.906921387],[92.220092773,35.909118652],[92.16949462900001,35.919311523],[92.12030029300001,35.930725098],[92.08209228500002,35.940917969],[92.03552246100001,35.957519531],[91.99688720700001,35.974121094],[91.96911621100001,35.990478516],[91.93811035200001,36.005126953],[91.90307617200001,36.017272949],[91.86749267600001,36.021911621],[91.82409668000001,36.018920898],[91.78552246100001,36.010498047],[91.74768066400001,36.008117676],[91.70971679700001,36.00769043],[91.67529296900001,36.015319824],[91.63128662100002,36.031677246],[91.58831787100002,36.049499512],[91.535705566,36.063903809],[91.49047851600001,36.067687988],[91.45611572300001,36.071105957],[91.41412353500002,36.064086914],[91.36169433600001,36.062683105],[91.33050537100002,36.075317383],[91.30029296900001,36.091308594],[91.25207519500002,36.114929199],[91.21527099600002,36.109313965],[91.170898437,36.098693848],[91.143127441,36.117126465],[91.08911132800002,36.112915039],[91.01727294900002,36.077697754],[91.019714355,36.049316406],[90.94989013700001,36.071105957],[90.90570068400001,36.06451416],[90.84588623,36.06427002],[90.80731201200001,36.126098633],[90.72491455100001,36.155883789],[90.56311035200001,36.157897949],[90.50469970700001,36.157104492],[90.42449951200001,36.16809082],[90.29711914100001,36.175109863],[90.211486816,36.183288574],[90.16247558600001,36.243530273],[90.053283691,36.252319336],[90.04168701200001,36.245117187],[90.03948974600002,36.176879883],[89.98828125000001,36.14251709],[89.99670410200001,36.110473633],[89.977111816,36.092895508],[89.953674316,36.090087891],[89.92370605500001,36.103271484],[89.84869384800001,36.094909668],[89.80712890600002,36.117126465],[89.74371337900001,36.107727051],[89.68627929700001,36.097900391],[89.66333007800002,36.09387207],[89.61529541000002,36.078918457],[89.52551269500002,36.039672852],[89.49652099600002,36.048522949],[89.419311523,36.035888672],[89.44128418000001,35.975280762],[89.44189453100002,35.93927002],[89.436523437,35.873291016],[89.51507568400001,35.867126465],[89.56689453100002,35.84588623],[89.64288330100001,35.828491211],[89.73388671900001,35.853088379],[89.80291748,35.77947998],[89.777099609,35.707519531],[89.770874023,35.700073242],[89.75750732400002,35.60748291],[89.77447509800001,35.586730957],[89.743103027,35.553710937],[89.72528076200001,35.542724609],[89.71392822300001,35.503723145],[89.73870849600002,35.439880371],[89.72027587900001,35.405273437],[89.637695312,35.410888672],[89.58911132800002,35.373901367],[89.53930664100001,35.354919434],[89.51672363300001,35.332092285],[89.51751709000001,35.29510498],[89.53332519500002,35.282287598],[89.51867675800001,35.25567627],[89.478271484,35.24432373],[89.48248291000002,35.186279297],[89.50048828100002,35.139526367],[89.56048584000001,35.127685547],[89.597473145,35.100280762],[89.59948730500001,35.083496094],[89.600524902,35.045715332],[89.59332275400001,35.025512695],[89.569702148,34.985473633],[89.54492187500001,34.898071289],[89.65747070300002,34.876098633],[89.73010253900001,34.911499023],[89.77587890600002,34.894287109],[89.85888671900001,34.912902832],[89.89111328100002,34.897521973],[89.920471191,34.875671387],[89.98748779300001,34.890686035],[90.03192138700001,34.90612793],[90.07409668000001,34.910095215],[90.10571289100001,34.894470215],[90.14288330100001,34.871520996],[90.18908691400001,34.871276855],[90.21649169900002,34.896484375],[90.23968505900001,34.916870117],[90.277893066,34.931884766],[90.31951904300001,34.935302734],[90.37731933600001,34.928100586],[90.43591308600001,34.921875],[90.479492187,34.92388916],[90.51391601600001,34.920288086],[90.56927490200002,34.916870117],[90.61248779300001,34.917114258],[90.68371582000002,34.900695801],[90.718505859,34.888671875],[90.77893066400001,34.877929687],[90.812683105,34.872314453],[90.85107421900001,34.874694824],[90.88928222700001,34.868530273],[90.92407226600001,34.846679687],[90.95068359400001,34.817504883],[90.96691894500002,34.779724121],[90.994689941,34.740478516],[91.03210449200002,34.735473633],[91.053283691,34.761291504],[91.07971191400001,34.787109375],[91.11389160200001,34.787902832],[91.14648437500001,34.777282715],[91.18170166000002,34.794494629],[91.20031738300001,34.823913574],[91.24908447300001,34.840698242],[91.29107666000002,34.832275391],[91.33489990200002,34.831726074],[91.37451171900001,34.826721191],[91.41027832000002,34.824279785],[91.451721191,34.82208252],[91.49969482400002,34.817504883],[91.52929687500001,34.801879883],[91.55432128900001,34.780700684],[91.58508300800001,34.765319824],[91.618530273,34.743286133],[91.66510009800001,34.713317871],[91.69250488300001,34.69708252],[91.737304687,34.670715332],[91.76727294900002,34.648071289],[91.80169677700002,34.629882812],[91.83367919900002,34.616271973],[91.87310791000002,34.601318359],[91.91467285200001,34.583312988],[91.93988037100002,34.563903809],[91.95208740200002,34.537109375],[91.95849609400001,34.504516602],[91.98052978500002,34.479309082],[92.03228759800001,34.470703125],[92.08551025400001,34.441894531],[92.11712646500001,34.426330566],[92.15771484400001,34.409484863],[92.19750976600001,34.402282715],[92.25787353500002,34.402099609],[92.294677734,34.398681641],[92.35729980500001,34.384277344],[92.40887451200001,34.375488281],[92.45989990200002,34.374084473],[92.493530273,34.375915527],[92.52947998,34.370910645],[92.56909179700001,34.353271484],[92.58447265600002,34.325927734],[92.60748291000002,34.30670166],[92.64190673800002,34.279296875],[92.66027832000002,34.235473633],[92.663879395,34.205871582],[92.66650390600002,34.178527832],[92.66888427700002,34.144104004],[92.68090820300002,34.113525391],[92.70989990200002,34.087280273],[92.74987793000001,34.073486328],[92.79492187500001,34.091308594],[92.83270263700001,34.087890625],[92.88171386700002,34.097717285],[92.92492675800001,34.109924316],[92.93811035200001,34.084472656],[92.90747070300002,34.066101074],[92.85870361300002,34.048095703],[92.82708740200002,34.03692627],[92.78631591800001,34.020690918],[92.751708984,33.996276855],[92.73211669900002,33.97088623],[92.73187255900001,33.939880371],[92.75469970700001,33.914306641],[92.76287841800001,33.885925293],[92.75848388700001,33.841674805],[92.76708984400001,33.807495117],[92.77032470700001,33.768493652],[92.76788330100001,33.733886719],[92.77990722700001,33.70892334],[92.80548095700001,33.678894043],[92.821289062,33.643920898],[92.82690429700001,33.615722656],[92.83270263700001,33.586914062],[92.83209228500002,33.550720215],[92.81207275400001,33.514892578],[92.79052734400001,33.493286133],[92.76470947300001,33.473876953],[92.71948242200001,33.452880859],[92.69171142600001,33.429077148],[92.66271972700001,33.401916504],[92.63488769500002,33.36328125],[92.63909912100002,33.332702637],[92.65747070300002,33.302307129],[92.685302734,33.282287598],[92.72113037100002,33.24987793],[92.73168945300002,33.219299316],[92.72589111300002,33.188903809],[92.73529052700002,33.148681641],[92.74188232400002,33.119506836],[92.73907470700001,33.080688477],[92.719726562,33.033325195],[92.69592285200001,32.991882324],[92.68090820300002,32.960693359],[92.65728759800001,32.929077148],[92.63751220700001,32.900512695],[92.61932373,32.872680664],[92.61352539100001,32.845092773],[92.61132812500001,32.817077637],[92.60552978500002,32.786499023],[92.61029052700002,32.725280762],[92.645874023,32.71887207],[92.72027587900001,32.762084961],[92.74670410200001,32.756103516],[92.82330322300001,32.696716309],[92.94409179700001,32.722900391],[92.99688720700001,32.742919922],[93.069702148,32.679321289],[93.07171630900001,32.638305664],[93.17669677700002,32.661071777],[93.26330566400001,32.65612793],[93.33050537100002,32.575317383],[93.34289550800001,32.573486328],[93.39349365200002,32.557128906],[93.40087890600002,32.520324707],[93.462280273,32.546875],[93.49987793000001,32.56628418],[93.49871826200001,32.523925781],[93.49871826200001,32.522521973],[93.49731445300002,32.477905273],[93.586120605,32.471923828],[93.65887451200001,32.565673828],[93.69891357400002,32.589904785],[93.861877441,32.563293457],[93.902893066,32.473510742],[93.93328857400002,32.44708252],[93.97467041000002,32.502929687],[93.98712158200001,32.495483398],[94.10052490200002,32.458496094],[94.127929687,32.44128418],[94.17132568400001,32.498474121],[94.23828125000001,32.530517578],[94.29107666000002,32.52947998],[94.37927246100001,32.553527832],[94.40972900400001,32.588928223],[94.42449951200001,32.585510254],[94.45349121100001,32.565673828],[94.57690429700001,32.635498047],[94.64672851600001,32.665100098],[94.68591308600001,32.626098633],[94.74768066400001,32.599914551],[94.79827880900001,32.557678223],[94.82427978500002,32.553894043],[94.88128662100002,32.482116699],[94.93188476600001,32.439880371],[94.953308105,32.394897461],[94.93432617200001,32.379882812],[94.93890380900001,32.367126465],[94.94128418000001,32.360290527],[95.04150390600002,32.343078613],[95.10192871100001,32.311096191],[95.11749267600001,32.268127441],[95.15911865200002,32.259887695],[95.22210693400001,32.261291504],[95.32952880900001,32.262878418],[95.33990478500002,32.228515625],[95.33508300800001,32.232116699],[95.35589599600002,32.201477051],[95.45147705100001,32.123291016],[95.44787597700001,32.06451416],[95.44750976600001,32.042907715],[95.42407226600001,32.009521484],[95.395507812,31.981689453],[95.49609375000001,31.794677734],[95.602905273,31.747497559],[95.64611816400001,31.790283203],[95.68048095700001,31.791687012],[95.752929687,31.760925293],[95.81530761700002,31.688476562],[95.81909179700001,31.68951416],[95.87890625000001,31.732116699],[95.91528320300002,31.73449707],[96.01312255900001,31.718322754],[96.16271972700001,31.663879395],[96.16607666000002,31.598876953],[96.20507812500001,31.574707031],[96.22271728500002,31.561096191],[96.253723145,31.555297852],[96.29931640600002,31.554077148],[96.304077148,31.570495605],[96.29632568400001,31.616699219],[96.27368164100001,31.665100098],[96.24249267600001,31.709106445],[96.22747802700002,31.766479492],[96.17608642600001,31.80090332],[96.18151855500001,31.846496582],[96.23608398400002,31.868896484],[96.23968505900001,31.930297852],[96.31030273400002,31.93572998],[96.36212158200001,31.89050293],[96.36889648400002,31.863525391],[96.43408203100002,31.841308594],[96.46130371100001,31.788879395],[96.497070312,31.774902344],[96.571289062,31.757324219],[96.58789062500001,31.760925293],[96.65350341800001,31.736083984],[96.69128418000001,31.709716797],[96.745117187,31.68951416],[96.78570556600002,31.672119141],[96.85107421900001,31.723083496],[96.82189941400001,31.756530762],[96.77252197300001,31.787902832],[96.75787353500002,31.850891113],[96.80310058600001,31.91229248],[96.73388671900001,31.944885254],[96.74267578100002,32.004089355],[96.74987793000001,32.032714844],[96.77130127,32.034301758],[96.85247802700002,32.01550293],[96.90728759800001,32.003479004],[96.946289062,32.017700195],[96.95648193400001,32.045288086],[96.96252441400001,32.064086914],[96.97808837900001,32.075683594],[97.00628662100002,32.088317871],[97.05468750000001,32.071472168],[97.112304687,32.043273926],[97.16790771500001,32.027282715],[97.18908691400001,32.035888672],[97.20690918000001,32.067321777],[97.19427490200002,32.099121094],[97.22491455100001,32.117492676],[97.26348877,32.092895508],[97.312683105,32.151916504],[97.27349853500002,32.180908203],[97.30969238300001,32.267883301],[97.35668945300002,32.299926758],[97.37030029300001,32.261901855],[97.41412353500002,32.315673828],[97.37689209000001,32.324279785],[97.378723145,32.354919434],[97.43707275400001,32.391479492],[97.39367675800001,32.426330566],[97.33648681600002,32.450683594],[97.36248779300001,32.506286621],[97.39489746100001,32.543701172],[97.42510986300002,32.54510498],[97.56072998,32.51348877],[97.61187744100002,32.491088867],[97.67388916000002,32.484924316],[97.745117187,32.509094238],[97.77209472700001,32.544494629],[97.73449707000002,32.565673828],[97.68530273400002,32.588684082],[97.65612793000001,32.604675293],[97.63787841800001,32.624694824],[97.61328125000001,32.659729004],[97.56109619100002,32.701293945],[97.54089355500001,32.708496094],[97.477905273,32.72088623],[97.42492675800001,32.765319824],[97.40612793000001,32.788513184],[97.39752197300001,32.818908691],[97.41949462900001,32.849304199],[97.39868164100001,32.88470459],[97.38867187500001,32.899291992],[97.34332275400001,32.919677734],[97.39691162100002,32.969726562],[97.44287109400001,32.997680664],[97.50769043000001,32.996276855],[97.54730224600002,32.995117187],[97.55230712900001,32.998291016],[97.55108642600001,33.019714355],[97.53869628900001,33.036315918],[97.54968261700002,33.043701172],[97.56408691400001,33.05670166],[97.55432128900001,33.069091797],[97.54412841800001,33.078918457],[97.50927734400001,33.104675293],[97.51287841800001,33.145324707],[97.554077148,33.184509277],[97.57550048800002,33.201904297],[97.610717773,33.25012207],[97.64910888700001,33.307678223],[97.68829345700001,33.367919922],[97.77990722700001,33.42388916],[97.73687744100002,33.437072754],[97.66571044900002,33.449707031],[97.64508056600002,33.476074219],[97.57788085900002,33.475524902],[97.54052734400001,33.48248291],[97.50952148400002,33.567687988],[97.43969726600001,33.605285645],[97.46350097700001,33.656921387],[97.43231201200001,33.743103027],[97.40032959000001,33.805114746],[97.40808105500001,33.819274902],[97.43572998,33.825683594],[97.44329834000001,33.827270508],[97.52807617200001,33.885925293],[97.56689453100002,33.885498047],[97.66528320300002,33.900695801],[97.68310546900001,33.948913574],[97.69427490200002,33.991088867],[97.72552490200002,34.006713867]]]}}
