{"type":"Feature","id":"bulk-99377448B41834946891688","bbox":[118.67492675800001,27.401489258,120.39190673800002,28.932312012],"properties":{"id":"bulk-99377448B41834946891688","name":"Lishui","nameEn":"Lishui","fullName":"Lishui","level":"city","boundaryRole":"administrative-extent","boundaryQuality":"generalized-source-2020","boundaryYearRepresented":"2020","bounds":[[118.67492675800001,27.401489258],[120.39190673800002,28.932312012]],"center":[119.53341674800001,28.166900635],"centerMethod":"bounding-box midpoint; camera framing only","license":"CC-BY-3.0-IGO","attribution":"geoBoundaries / HDX, China administrative boundaries (2020)","source":{"provider":"geoBoundaries gbHumanitarian / HDX","url":"https://github.com/wmgeolab/geoBoundaries/raw/9469f09/releaseData/gbHumanitarian/CHN/ADM2/geoBoundaries-CHN-ADM2.geojson","metadataUrl":"https://www.geoboundaries.org/api/current/gbHumanitarian/CHN/ADM2/","shapeID":"99377448B41834946891688","shapeName":"Lishui","boundaryID":"CHN-ADM2-99377448","commit":"9469f09"},"geometryCounts":{"coordinates":175,"components":1,"holes":0},"boundaryNotice":"geoBoundaries / HDX 2020 年行政区数据，海岸和边界经过源数据概化，并非当前测绘成果。"},"geometry":{"type":"Polygon","coordinates":[[[119.32208252,28.794921875],[119.28228759800001,28.783691406],[119.25732421900001,28.764282227],[119.23309326200001,28.746887207],[119.19812011700002,28.744689941],[119.15808105500001,28.739074707],[119.13311767600001,28.719909668],[119.09771728500002,28.714904785],[119.05889892600001,28.720275879],[119.02868652300002,28.695129395],[119.00207519500002,28.674682617],[118.96850585900002,28.651672363],[118.93572998000002,28.632080078],[118.91271972700001,28.601501465],[118.90411377,28.575317383],[118.89489746100001,28.546508789],[118.87207031200002,28.527282715],[118.83447265600002,28.524475098],[118.79412841800001,28.547119141],[118.79748535200001,28.511108398],[118.73327636700002,28.502319336],[118.703125,28.485473633],[118.70172119100002,28.446716309],[118.73168945300002,28.411682129],[118.72991943400001,28.384277344],[118.71148681600002,28.354309082],[118.67492675800001,28.301696777],[118.70367431600002,28.287475586],[118.71667480500001,28.25970459],[118.73229980500001,28.250488281],[118.74011230500001,28.24432373],[118.76007080100001,28.228088379],[118.75628662100002,28.220275879],[118.75750732400002,28.197692871],[118.74871826200001,28.169677734],[118.75311279300001,28.114685059],[118.71630859400001,28.09387207],[118.69848632800002,28.069274902],[118.70892334000001,28.012878418],[118.72912597700001,27.951477051],[118.76892089800002,27.903930664],[118.796691895,27.848083496],[118.80090332000002,27.838684082],[118.82391357400002,27.78527832],[118.85412597700001,27.700683594],[118.86230468700002,27.65612793],[118.87988281200002,27.613708496],[118.87652587900001,27.55291748],[118.85992431600002,27.539672852],[118.86071777300002,27.502929687],[118.86968994100002,27.492675781],[118.88568115200002,27.475097656],[118.89788818400001,27.463500977],[118.89770507800002,27.471496582],[118.95208740200002,27.47668457],[118.99328613300001,27.480895996],[119.03247070300002,27.473510742],[119.06329345700001,27.484680176],[119.11108398400002,27.474121094],[119.12792968700002,27.434082031],[119.13970947300001,27.408081055],[119.15850830100001,27.401489258],[119.20367431600002,27.405273437],[119.22113037100002,27.411315918],[119.23968505900001,27.417907715],[119.25091552700002,27.4296875],[119.27130127,27.439697266],[119.30151367200001,27.456298828],[119.31768798800002,27.477478027],[119.35107421900001,27.514526367],[119.39227294900002,27.519470215],[119.41412353500002,27.511474609],[119.42767334000001,27.515930176],[119.45391845700001,27.532714844],[119.47088623000002,27.57989502],[119.47448730500001,27.618286133],[119.49169921900001,27.648925781],[119.55767822300001,27.68371582],[119.60852050800001,27.666687012],[119.61987304700001,27.702514648],[119.63549804700001,27.727294922],[119.66149902300002,27.753723145],[119.69348144500002,27.764526367],[119.72351074200002,27.785705566],[119.73992919900002,27.81628418],[119.76629638700001,27.846679687],[119.77008056600002,27.887695312],[119.77032470700001,27.915893555],[119.80609130900001,27.921508789],[119.86029052700002,27.980529785],[119.87707519500002,27.949890137],[119.90527343700002,27.970703125],[119.93847656200002,27.964111328],[119.94268798800002,27.937316895],[119.97448730500001,27.937683105],[120.01428222700001,27.952270508],[120.05609130900001,27.965087891],[120.09649658200001,27.977111816],[120.13012695300002,27.963317871],[120.17248535200001,27.920288086],[120.20672607400002,27.959716797],[120.23291015600002,27.97467041],[120.27368164100001,27.983520508],[120.32208252,28.02947998],[120.33691406200002,28.058288574],[120.35607910200001,28.091674805],[120.37487793000001,28.124084473],[120.36688232400002,28.155517578],[120.38348388700001,28.190124512],[120.39111328100002,28.217285156],[120.39190673800002,28.24987793],[120.38012695300002,28.30847168],[120.33032226600001,28.350097656],[120.30310058600001,28.388671875],[120.32830810500002,28.413085937],[120.35827636700002,28.395507812],[120.36651611300002,28.424499512],[120.37249755900001,28.464294434],[120.33691406200002,28.485717773],[120.30108642600001,28.493103027],[120.26690673800002,28.50592041],[120.25708007800002,28.534912109],[120.28070068400001,28.553894043],[120.31372070300002,28.561523437],[120.33068847700001,28.589111328],[120.32891845700001,28.620483398],[120.31372070300002,28.647277832],[120.32690429700001,28.67791748],[120.34210205100001,28.70892334],[120.35272216800001,28.743713379],[120.37451171900001,28.77532959],[120.38812255900001,28.806091309],[120.35668945300002,28.815673828],[120.32867431600002,28.83770752],[120.30908203100002,28.876525879],[120.28027343700002,28.932312012],[120.25048828100002,28.911315918],[120.25030517600001,28.879699707],[120.23547363300001,28.847717285],[120.20367431600002,28.822875977],[120.17852783200001,28.803710937],[120.15051269500002,28.783691406],[120.120910645,28.757873535],[120.08868408200001,28.757507324],[120.05627441400001,28.756103516],[120.02130127,28.737121582],[119.97930908200001,28.746520996],[119.94952392600001,28.775878906],[119.91107177700002,28.780090332],[119.88128662100002,28.760681152],[119.85211181600002,28.707885742],[119.82971191400001,28.685913086],[119.80371093700002,28.663330078],[119.80627441400001,28.636108398],[119.78692627,28.613891602],[119.74847412100002,28.612915039],[119.73791503900001,28.585693359],[119.72869873000002,28.550292969],[119.69873046900001,28.524902344],[119.65808105500001,28.506286621],[119.61529541000002,28.506896973],[119.58148193400001,28.506286621],[119.54052734400001,28.514099121],[119.51531982400002,28.536499023],[119.48632812500001,28.554870605],[119.48547363300001,28.593078613],[119.45568847700001,28.611877441],[119.44311523400002,28.65612793],[119.45330810500002,28.68170166],[119.45452880900001,28.742492676],[119.41870117200001,28.737121582],[119.39410400400001,28.762512207],[119.36010742200001,28.751281738],[119.32830810500002,28.754882812],[119.32208252,28.794921875]]]}}
