{"type":"Feature","id":"bulk-99377448B59140816837231","bbox":[106.38171386700002,31.268676758,107.745910645,32.72869873],"properties":{"id":"bulk-99377448B59140816837231","name":"Bazhong","nameEn":"Bazhong","fullName":"Bazhong","level":"city","boundaryRole":"administrative-extent","boundaryQuality":"generalized-source-2020","boundaryYearRepresented":"2020","bounds":[[106.38171386700002,31.268676758],[107.745910645,32.72869873]],"center":[107.063812256,31.998687744],"centerMethod":"bounding-box midpoint; camera framing only","license":"CC-BY-3.0-IGO","attribution":"geoBoundaries / HDX, China administrative boundaries (2020)","source":{"provider":"geoBoundaries gbHumanitarian / HDX","url":"https://github.com/wmgeolab/geoBoundaries/raw/9469f09/releaseData/gbHumanitarian/CHN/ADM2/geoBoundaries-CHN-ADM2.geojson","metadataUrl":"https://www.geoboundaries.org/api/current/gbHumanitarian/CHN/ADM2/","shapeID":"99377448B59140816837231","shapeName":"Bazhong","boundaryID":"CHN-ADM2-99377448","commit":"9469f09"},"geometryCounts":{"coordinates":133,"components":1,"holes":0},"boundaryNotice":"geoBoundaries / HDX 2020 年行政区数据，海岸和边界经过源数据概化，并非当前测绘成果。"},"geometry":{"type":"Polygon","coordinates":[[[106.97967529300001,31.268676758],[107.01928710900002,31.307495117],[107.03912353500002,31.33972168],[107.07269287100002,31.353271484],[107.10388183600001,31.33392334],[107.13452148400002,31.362670898],[107.15612793000001,31.397277832],[107.17968750000001,31.424316406],[107.22088623000002,31.440673828],[107.25769043000001,31.445922852],[107.27868652300002,31.47467041],[107.30810546900001,31.487915039],[107.33868408200001,31.516723633],[107.37707519500002,31.551879883],[107.41192627,31.571899414],[107.44409179700001,31.596130371],[107.48291015600002,31.625671387],[107.51531982400002,31.649475098],[107.49792480500001,31.676330566],[107.47851562500001,31.709106445],[107.49908447300001,31.741882324],[107.52929687500001,31.770690918],[107.54351806600002,31.79510498],[107.53649902300002,31.832275391],[107.47949218700002,31.85949707],[107.49951171900001,31.884887695],[107.53131103500002,31.901672363],[107.54229736300002,31.931091309],[107.54650878900001,31.965515137],[107.562316895,31.992126465],[107.59472656200002,32.00012207],[107.63830566400001,32.007080078],[107.68328857400002,32.016906738],[107.72509765600002,32.040893555],[107.745910645,32.069091797],[107.71508789100001,32.091125488],[107.68292236300002,32.101501465],[107.65252685500002,32.116516113],[107.62591552700002,32.141906738],[107.61071777300002,32.1796875],[107.64788818400001,32.192687988],[107.68188476600001,32.195678711],[107.69311523400002,32.225891113],[107.69732666000002,32.263122559],[107.71807861300002,32.321899414],[107.70587158200001,32.341125488],[107.64550781200002,32.394470215],[107.54772949200002,32.408691406],[107.44171142600001,32.390686035],[107.40527343700002,32.407287598],[107.39227294900002,32.437072754],[107.41412353500002,32.50592041],[107.39691162100002,32.53729248],[107.34252929700001,32.533691406],[107.28991699200002,32.524475098],[107.26312255900001,32.474121094],[107.238098145,32.429077148],[107.22369384800001,32.413513184],[107.12371826200001,32.450317383],[107.12591552700002,32.497497559],[107.10552978500002,32.496887207],[107.03833007800002,32.495483398],[107.04028320300002,32.523925781],[107.04632568400001,32.599487305],[107.08312988300001,32.645874023],[107.05712890600002,32.712280273],[106.83990478500002,32.697875977],[106.80529785200001,32.696289062],[106.76269531200002,32.708496094],[106.72711181600002,32.72869873],[106.63067627,32.702880859],[106.63867187500001,32.656494141],[106.64910888700001,32.629882812],[106.64630127,32.599487305],[106.63549804700001,32.569274902],[106.62310791000002,32.536682129],[106.64788818400001,32.512695312],[106.67932128900001,32.486083984],[106.68572998000002,32.452514648],[106.67828369100002,32.412109375],[106.67071533200001,32.38269043],[106.68310546900001,32.355529785],[106.71710205100001,32.330688477],[106.753723145,32.313293457],[106.722473145,32.295288086],[106.69812011700002,32.274291992],[106.66052246100001,32.250671387],[106.63409423800002,32.233276367],[106.60229492200001,32.225524902],[106.56347656200002,32.210876465],[106.54150390600002,32.18548584],[106.55029296900001,32.151916504],[106.56848144500002,32.120300293],[106.55187988300001,32.093078613],[106.51690673800002,32.075073242],[106.49707031200002,32.051330566],[106.48870849600002,32.024719238],[106.48327636700002,31.99609375],[106.45031738300001,31.991699219],[106.43792724600002,31.933105469],[106.41711425800001,31.906311035],[106.40270996100001,31.866882324],[106.39752197300001,31.835327148],[106.39709472700001,31.774902344],[106.40411377,31.740905762],[106.38171386700002,31.71270752],[106.38409423800002,31.682312012],[106.40930175800001,31.659118652],[106.42791748000002,31.63092041],[106.45629882800002,31.612487793],[106.46771240200002,31.585083008],[106.50030517600001,31.561096191],[106.54187011700002,31.547302246],[106.56390380900001,31.526123047],[106.59167480500001,31.507873535],[106.62371826200001,31.501281738],[106.64447021500001,31.523925781],[106.63812255900001,31.553710937],[106.65191650400001,31.582275391],[106.68927002,31.565307617],[106.72991943400001,31.563476562],[106.76568603500002,31.546691895],[106.79650878900001,31.536071777],[106.83569335900002,31.531311035],[106.84191894500002,31.491882324],[106.86370849600002,31.461486816],[106.86987304700001,31.433288574],[106.87188720700001,31.399291992],[106.89807128900001,31.381896973],[106.91668701200001,31.358703613],[106.94592285200001,31.341125488],[106.95172119100002,31.314086914],[106.97967529300001,31.268676758]]]}}
