{"type":"Feature","id":"bulk-99377448B78280904657508","bbox":[118.95507812500001,31.648681641,119.95471191400001,32.310302734],"properties":{"id":"bulk-99377448B78280904657508","name":"Zhenjiang","nameEn":"Zhenjiang","fullName":"Zhenjiang","level":"city","boundaryRole":"administrative-extent","boundaryQuality":"generalized-source-2020","boundaryYearRepresented":"2020","bounds":[[118.95507812500001,31.648681641],[119.95471191400001,32.310302734]],"center":[119.45489501950001,31.9794921875],"centerMethod":"bounding-box midpoint; camera framing only","license":"CC-BY-3.0-IGO","attribution":"geoBoundaries / HDX, China administrative boundaries (2020)","source":{"provider":"geoBoundaries gbHumanitarian / HDX","url":"https://github.com/wmgeolab/geoBoundaries/raw/9469f09/releaseData/gbHumanitarian/CHN/ADM2/geoBoundaries-CHN-ADM2.geojson","metadataUrl":"https://www.geoboundaries.org/api/current/gbHumanitarian/CHN/ADM2/","shapeID":"99377448B78280904657508","shapeName":"Zhenjiang","boundaryID":"CHN-ADM2-99377448","commit":"9469f09"},"geometryCounts":{"coordinates":94,"components":1,"holes":0},"boundaryNotice":"geoBoundaries / HDX 2020 年行政区数据，海岸和边界经过源数据概化，并非当前测绘成果。"},"geometry":{"type":"Polygon","coordinates":[[[119.95471191400001,32.015075684],[119.93151855500001,32.065307617],[119.91912841800001,32.083129883],[119.90649414100001,32.101074219],[119.88568115200002,32.170471191],[119.86468505900001,32.239929199],[119.85949707000002,32.245300293],[119.84869384800001,32.253295898],[119.83270263700001,32.266723633],[119.81652832000002,32.277709961],[119.80828857400002,32.283325195],[119.80010986300002,32.288696289],[119.79467773400002,32.291687012],[119.78912353500002,32.294494629],[119.78131103500002,32.302307129],[119.77349853500002,32.310302734],[119.75830078100002,32.30670166],[119.74328613300001,32.303100586],[119.73651123000002,32.296325684],[119.72991943400001,32.289672852],[119.72271728500002,32.278076172],[119.71551513700001,32.266723633],[119.67669677700002,32.235900879],[119.63452148400002,32.205322266],[119.60028076200001,32.221313477],[119.58648681600002,32.250305176],[119.51507568400001,32.247680664],[119.47967529300001,32.238891602],[119.44232177700002,32.257873535],[119.38891601600001,32.234680176],[119.35272216800001,32.218688965],[119.31512451200001,32.233703613],[119.27868652300002,32.205078125],[119.22711181600002,32.225280762],[119.16467285200001,32.181884766],[119.13049316400001,32.18170166],[119.08569335900002,32.172729492],[119.05212402300002,32.153076172],[119.01971435500002,32.135070801],[119.05291748000002,32.108703613],[119.08050537100002,32.091491699],[119.09869384800001,32.057678223],[119.10089111300002,32.020080566],[119.10247802700002,31.992126465],[119.07727050800001,31.966674805],[119.09527587900001,31.926879883],[119.10272216800001,31.892883301],[119.078125,31.861328125],[119.03552246100001,31.852111816],[118.99969482400002,31.853881836],[118.95507812500001,31.849487305],[118.95947265600002,31.821899414],[118.98168945300002,31.800109863],[119.04388427700002,31.788696289],[119.08648681600002,31.771484375],[119.10028076200001,31.747314453],[119.12988281200002,31.719299316],[119.16772460900002,31.706726074],[119.17352294900002,31.674682617],[119.18127441400001,31.648681641],[119.26647949200002,31.66607666],[119.29852294900002,31.672912598],[119.29772949200002,31.707519531],[119.30212402300002,31.743713379],[119.32489013700001,31.764282227],[119.33087158200001,31.792297363],[119.33312988300001,31.82409668],[119.31890869100002,31.867675781],[119.35809326200001,31.856872559],[119.39868164100001,31.837097168],[119.43310546900001,31.863098145],[119.49353027300002,31.869506836],[119.53790283200001,31.87109375],[119.56488037100002,31.840881348],[119.57470703100002,31.815124512],[119.60827636700002,31.799926758],[119.65307617200001,31.782897949],[119.68212890600002,31.764526367],[119.72930908200001,31.738708496],[119.738098145,31.790710449],[119.75848388700001,31.816101074],[119.73950195300002,31.84588623],[119.73291015600002,31.875671387],[119.77410888700001,31.886291504],[119.78070068400001,31.917480469],[119.77270507800002,31.944091797],[119.74432373000002,31.962524414],[119.77069091800001,31.997497559],[119.76849365200002,32.031311035],[119.796691895,32.054077148],[119.84051513700001,32.053710937],[119.88812255900001,32.021728516],[119.92327880900001,32.004516602],[119.95471191400001,32.015075684]]]}}
