{"type":"Feature","id":"bulk-99377448B17194586356254","bbox":[120.82928466800001,30.69128418,121.88012695300002,31.834716797],"properties":{"id":"bulk-99377448B17194586356254","name":"Shanghai Municipality","nameEn":"Shanghai Municipality","fullName":"Shanghai Municipality","level":"city","boundaryRole":"administrative-extent","boundaryQuality":"generalized-source-2020","boundaryYearRepresented":"2020","bounds":[[120.82928466800001,30.69128418],[121.88012695300002,31.834716797]],"center":[121.35470581050001,31.263000488499998],"centerMethod":"bounding-box midpoint; camera framing only","license":"CC-BY-3.0-IGO","attribution":"geoBoundaries / HDX, China administrative boundaries (2020)","source":{"provider":"geoBoundaries gbHumanitarian / HDX","url":"https://github.com/wmgeolab/geoBoundaries/raw/9469f09/releaseData/gbHumanitarian/CHN/ADM2/geoBoundaries-CHN-ADM2.geojson","metadataUrl":"https://www.geoboundaries.org/api/current/gbHumanitarian/CHN/ADM2/","shapeID":"99377448B17194586356254","shapeName":"Shanghai Municipality","boundaryID":"CHN-ADM2-99377448","commit":"9469f09"},"geometryCounts":{"coordinates":255,"components":5,"holes":0},"boundaryNotice":"geoBoundaries / HDX 2020 年行政区数据，海岸和边界经过源数据概化，并非当前测绘成果。"},"geometry":{"type":"MultiPolygon","coordinates":[[[[121.26110839800002,30.69128418],[121.27087402300002,30.6953125],[121.27947998000002,30.69732666],[121.29931640600002,30.706726074],[121.30169677700002,30.70690918],[121.31610107400002,30.707885742],[121.32788085900002,30.711486816],[121.34710693400001,30.711486816],[121.36389160200001,30.717529297],[121.36932373000002,30.721313477],[121.38128662100002,30.735107422],[121.38830566400001,30.740478516],[121.39868164100001,30.759094238],[121.40692138700001,30.768920898],[121.42572021500001,30.786071777],[121.43988037100002,30.802307129],[121.45672607400002,30.807678223],[121.48352050800001,30.818725586],[121.52947998000002,30.837890625],[121.55291748000002,30.845703125],[121.62048339800002,30.861083984],[121.62170410200001,30.861328125],[121.64471435500002,30.863891602],[121.66687011700002,30.867919922],[121.69989013700001,30.870910645],[121.71948242200001,30.868530273],[121.74188232400002,30.872680664],[121.75152587900001,30.872070312],[121.76367187500001,30.866699219],[121.77392578100002,30.86529541],[121.78112793000001,30.860473633],[121.79510498000002,30.858886719],[121.80627441400001,30.856872559],[121.80871582000002,30.858886719],[121.80731201200001,30.862304687],[121.80950927700002,30.863525391],[121.81890869100002,30.861694336],[121.84588623000002,30.859924316],[121.85229492200001,30.860717773],[121.86029052700002,30.866088867],[121.86492919900002,30.866882324],[121.87268066400001,30.873474121],[121.87530517600001,30.87689209],[121.88012695300002,30.91809082],[121.86712646500001,30.981079102],[121.85211181600002,31.021728516],[121.83770752,31.052124023],[121.80792236300002,31.104125977],[121.79547119100002,31.124511719],[121.79431152300002,31.128112793],[121.78112793000001,31.169494629],[121.75128173800002,31.222290039],[121.70770263700001,31.270080566],[121.66052246100001,31.306274414],[121.62530517600001,31.328674316],[121.55688476600001,31.36151123],[121.51208496100001,31.381530762],[121.50988769500002,31.379699707],[121.50708007800002,31.377685547],[121.48828125000001,31.410705566],[121.41448974600002,31.430297852],[121.35668945300002,31.461914062],[121.30847168000001,31.480285645],[121.30371093700002,31.482299805],[121.28869628900001,31.488525391],[121.21112060500002,31.469909668],[121.18151855500001,31.454528809],[121.11767578100002,31.428283691],[121.11169433600001,31.424316406],[121.10491943400001,31.415893555],[121.11828613300001,31.391723633],[121.10668945300002,31.378479004],[121.09631347700001,31.373291016],[121.07928466800001,31.356079102],[121.09710693400001,31.326904297],[121.11907959000001,31.305297852],[121.06207275400001,31.259521484],[121.03631591800001,31.258117676],[121.03027343700002,31.227294922],[121.03289794900002,31.187072754],[121.03527832000002,31.161682129],[121.00769043000001,31.137512207],[120.98852539100001,31.119506836],[120.95330810500002,31.110900879],[120.91809082000002,31.111083984],[120.85607910200001,31.111083984],[120.84771728500002,31.104675293],[120.82928466800001,31.091125488],[120.85351562500001,31.062316895],[120.86267089800002,31.049926758],[120.89227294900002,31.038513184],[120.90087890600002,31.024291992],[120.95031738300001,31.025512695],[120.96411132800002,30.989501953],[120.97210693400001,30.958679199],[120.97729492200001,30.938476562],[120.96472168000001,30.879699707],[120.98449707000002,30.822692871],[121.01049804700001,30.826721191],[121.03649902300002,30.836730957],[121.04412841800001,30.83972168],[121.07891845700001,30.845703125],[121.10729980500001,30.834289551],[121.10247802700002,30.786499023],[121.12487793000001,30.778320312],[121.19812011700002,30.786071777],[121.21667480500001,30.75592041],[121.23327636700002,30.718688965],[121.25891113300001,30.692504883],[121.26110839800002,30.69128418]]],[[[121.24572753900001,31.725280762],[121.24731445300002,31.730712891],[121.24652099600002,31.734130859],[121.23651123000002,31.737915039],[121.23492431600002,31.737915039],[121.23547363300001,31.737304687],[121.24572753900001,31.725280762]]],[[[121.22711181600002,31.750488281],[121.22412109400001,31.759094238],[121.21032714800002,31.776123047],[121.20471191400001,31.777282715],[121.20007324200002,31.774291992],[121.18872070300002,31.747497559],[121.19171142600001,31.737487793],[121.19769287100002,31.730529785],[121.20892334000001,31.721130371],[121.20971679700001,31.723327637],[121.20532226600001,31.740112305],[121.20672607400002,31.752929687],[121.22332763700001,31.747680664],[121.22668457000002,31.744873047],[121.22711181600002,31.750488281]]],[[[121.18450927700002,31.764526367],[121.18792724600002,31.767272949],[121.19067382800002,31.772888184],[121.19873046900001,31.777709961],[121.19488525400001,31.781311035],[121.18347168000001,31.783874512],[121.17449951200001,31.783081055],[121.15948486300002,31.775695801],[121.15911865200002,31.773925781],[121.17248535200001,31.769714355],[121.17651367200001,31.765686035],[121.18450927700002,31.764526367]]],[[[121.37512207000002,31.788330078],[121.37512207000002,31.796691895],[121.35888671900001,31.81048584],[121.33331298800002,31.823730469],[121.30371093700002,31.830871582],[121.26788330100001,31.834106445],[121.24169921900001,31.834716797],[121.21911621100001,31.828674316],[121.19909668000001,31.818725586],[121.18511962900001,31.815490723],[121.17108154300001,31.801696777],[121.16070556600002,31.794677734],[121.15930175800001,31.79309082],[121.15472412100002,31.78729248],[121.15393066400001,31.784301758],[121.15887451200001,31.785095215],[121.17071533200001,31.793273926],[121.18127441400001,31.79107666],[121.18927002,31.792907715],[121.20410156200002,31.788879395],[121.21752929700001,31.781494141],[121.22167968700002,31.77911377],[121.22930908200001,31.772521973],[121.24407959000001,31.74810791],[121.25250244100002,31.743896484],[121.26593017600001,31.729309082],[121.26751709000001,31.723327637],[121.26068115200002,31.723876953],[121.26647949200002,31.714477539],[121.26507568400001,31.711914062],[121.26171875000001,31.711120605],[121.26232910200001,31.709289551],[121.27148437500001,31.692077637],[121.27893066400001,31.686096191],[121.28491210900002,31.680480957],[121.29632568400001,31.676513672],[121.31372070300002,31.658081055],[121.33508300800001,31.643310547],[121.34252929700001,31.639282227],[121.35107421900001,31.634521484],[121.36810302700002,31.630493164],[121.36907959000001,31.62487793],[121.38287353500002,31.616271973],[121.39892578100002,31.614074707],[121.42468261700002,31.604919434],[121.43530273400002,31.597473145],[121.44091796900001,31.597900391],[121.45428466800001,31.590270996],[121.47009277300002,31.586914062],[121.49670410200001,31.578491211],[121.50531005900001,31.574279785],[121.51867675800001,31.564880371],[121.52551269500002,31.564086914],[121.53350830100001,31.56048584],[121.54467773400002,31.55090332],[121.57128906200002,31.540893555],[121.59631347700001,31.528320312],[121.60852050800001,31.524475098],[121.64068603500002,31.520080566],[121.66369628900001,31.518676758],[121.67388916000002,31.515075684],[121.68908691400001,31.506286621],[121.70788574200002,31.501281738],[121.71350097700001,31.496276855],[121.72271728500002,31.492675781],[121.73327636700002,31.485473633],[121.74072265600002,31.485717773],[121.76171875000001,31.481323242],[121.76989746100001,31.47668457],[121.78509521500001,31.473083496],[121.80047607400002,31.472900391],[121.81591796900001,31.466674805],[121.82690429700001,31.467285156],[121.83489990200002,31.478088379],[121.85131835900002,31.50012207],[121.87152099600002,31.527099609],[121.86151123000002,31.541687012],[121.84387207000002,31.556091309],[121.81707763700001,31.56048584],[121.78588867200001,31.5625],[121.76751709000001,31.570129395],[121.75988769500002,31.573120117],[121.74029541000002,31.581481934],[121.72528076200001,31.591125488],[121.70648193400001,31.604675293],[121.67572021500001,31.612121582],[121.65490722700001,31.619506836],[121.63110351600001,31.629089355],[121.61230468700002,31.635314941],[121.59472656200002,31.643920898],[121.58251953100002,31.649902344],[121.56030273400002,31.663879395],[121.54852294900002,31.682128906],[121.53308105500001,31.69708252],[121.51110839800002,31.711914062],[121.495910645,31.712524414],[121.49389648400002,31.712524414],[121.47290039100001,31.712890625],[121.45269775400001,31.717285156],[121.43829345700001,31.723327637],[121.42352294900002,31.73651123],[121.41168212900001,31.754699707],[121.40490722700001,31.765319824],[121.39550781200002,31.779907227],[121.37847900400001,31.793884277],[121.38549804700001,31.766113281],[121.38671875000001,31.756896973],[121.38549804700001,31.754089355],[121.38287353500002,31.756103516],[121.37951660200001,31.768493652],[121.37512207000002,31.788330078]]]]}}
