{"type":"Feature","id":"bulk-99377448B93552268743201","bbox":[117.99389648400002,28.239074707,119.34051513700001,29.492675781],"properties":{"id":"bulk-99377448B93552268743201","name":"Quzhou","nameEn":"Quzhou","fullName":"Quzhou","level":"city","boundaryRole":"administrative-extent","boundaryQuality":"generalized-source-2020","boundaryYearRepresented":"2020","bounds":[[117.99389648400002,28.239074707],[119.34051513700001,29.492675781]],"center":[118.66720581050001,28.865875244],"centerMethod":"bounding-box midpoint; camera framing only","license":"CC-BY-3.0-IGO","attribution":"geoBoundaries / HDX, China administrative boundaries (2020)","source":{"provider":"geoBoundaries gbHumanitarian / HDX","url":"https://github.com/wmgeolab/geoBoundaries/raw/9469f09/releaseData/gbHumanitarian/CHN/ADM2/geoBoundaries-CHN-ADM2.geojson","metadataUrl":"https://www.geoboundaries.org/api/current/gbHumanitarian/CHN/ADM2/","shapeID":"99377448B93552268743201","shapeName":"Quzhou","boundaryID":"CHN-ADM2-99377448","commit":"9469f09"},"geometryCounts":{"coordinates":176,"components":1,"holes":0},"boundaryNotice":"geoBoundaries / HDX 2020 年行政区数据，海岸和边界经过源数据概化，并非当前测绘成果。"},"geometry":{"type":"Polygon","coordinates":[[[118.31311035200001,29.492675781],[118.29589843700002,29.473327637],[118.26568603500002,29.449279785],[118.24328613300001,29.432128906],[118.19207763700001,29.418273926],[118.18872070300002,29.416320801],[118.19427490200002,29.407470703],[118.18292236300002,29.359924316],[118.16271972700001,29.319274902],[118.11407470700001,29.300109863],[118.05249023400002,29.296691895],[118.04309082000002,29.271484375],[118.05047607400002,29.236083984],[118.00488281200002,29.212280273],[117.99572753900001,29.17590332],[117.99389648400002,29.168273926],[118.00109863300001,29.128479004],[118.02893066400001,29.037475586],[118.07250976600001,29.014099121],[118.10827636700002,28.998291016],[118.12670898400002,28.990112305],[118.15588378900001,28.979309082],[118.16729736300002,28.955505371],[118.16687011700002,28.9375],[118.17468261700002,28.908508301],[118.20812988300001,28.923278809],[118.25848388700001,28.904907227],[118.25891113300001,28.899291992],[118.26251220700001,28.855529785],[118.30249023400002,28.848510742],[118.34808349600002,28.801696777],[118.35827636700002,28.771911621],[118.36547851600001,28.750488281],[118.37530517600001,28.707702637],[118.39208984400001,28.651123047],[118.39093017600001,28.625305176],[118.38891601600001,28.603088379],[118.39630127,28.545288086],[118.41290283200001,28.504882812],[118.41687011700002,28.495727539],[118.44409179700001,28.465270996],[118.43707275400001,28.420898437],[118.43609619100002,28.373474121],[118.44250488300001,28.352478027],[118.43487548800002,28.311889648],[118.39727783200001,28.283081055],[118.39392089800002,28.267700195],[118.39892578100002,28.264099121],[118.40130615200002,28.243286133],[118.43988037100002,28.239074707],[118.46990966800001,28.251281738],[118.52130127,28.274719238],[118.56091308600001,28.268493652],[118.55987548800002,28.246276855],[118.60449218700002,28.260070801],[118.62988281200002,28.26751709],[118.67211914100001,28.303100586],[118.67492675800001,28.301696777],[118.71148681600002,28.354309082],[118.72991943400001,28.384277344],[118.73168945300002,28.411682129],[118.70172119100002,28.446716309],[118.703125,28.485473633],[118.73327636700002,28.502319336],[118.79748535200001,28.511108398],[118.79412841800001,28.547119141],[118.83447265600002,28.524475098],[118.87207031200002,28.527282715],[118.89489746100001,28.546508789],[118.90411377,28.575317383],[118.91271972700001,28.601501465],[118.93572998000002,28.632080078],[118.96850585900002,28.651672363],[119.00207519500002,28.674682617],[119.02868652300002,28.695129395],[119.05889892600001,28.720275879],[119.09771728500002,28.714904785],[119.13311767600001,28.719909668],[119.15808105500001,28.739074707],[119.19812011700002,28.744689941],[119.23309326200001,28.746887207],[119.25732421900001,28.764282227],[119.28228759800001,28.783691406],[119.32208252,28.794921875],[119.31872558600001,28.803527832],[119.32592773400002,28.80871582],[119.32788085900002,28.809326172],[119.33068847700001,28.812927246],[119.33209228500002,28.817077637],[119.33227539100001,28.829711914],[119.33288574200002,28.834716797],[119.32788085900002,28.85168457],[119.32287597700001,28.874084473],[119.32287597700001,28.882507324],[119.32849121100001,28.892089844],[119.33428955100001,28.908874512],[119.33551025400001,28.916320801],[119.33428955100001,28.922119141],[119.32867431600002,28.931884766],[119.32427978500002,28.938476562],[119.31530761700002,28.94329834],[119.31127929700001,28.94732666],[119.29968261700002,28.954284668],[119.29431152300002,28.962524414],[119.29547119100002,28.970275879],[119.30230712900001,28.979492187],[119.30871582000002,28.985290527],[119.31829834000001,28.992126465],[119.32507324200002,28.99810791],[119.328125,29.003723145],[119.32867431600002,29.007507324],[119.32647705100001,29.012329102],[119.32373046900001,29.017883301],[119.32409668000001,29.027709961],[119.32690429700001,29.037902832],[119.33209228500002,29.044494629],[119.33752441400001,29.05090332],[119.34051513700001,29.060302734],[119.33929443400001,29.070678711],[119.33648681600002,29.075683594],[119.32128906200002,29.078308105],[119.31750488300001,29.082275391],[119.30627441400001,29.089111328],[119.29827880900001,29.093322754],[119.28448486300002,29.109924316],[119.27551269500002,29.118103027],[119.26770019500002,29.121887207],[119.26208496100001,29.127929687],[119.24987793000001,29.142883301],[119.24871826200001,29.148498535],[119.24768066400001,29.156677246],[119.24267578100002,29.158081055],[119.24047851600001,29.16192627],[119.23907470700001,29.167297363],[119.23870849600002,29.176696777],[119.23291015600002,29.178894043],[119.23150634800001,29.18347168],[119.23529052700002,29.211486816],[119.24230957000002,29.237670898],[119.21429443400001,29.260681152],[119.17547607400002,29.260070801],[119.18652343700002,29.232116699],[119.18127441400001,29.204284668],[119.14752197300001,29.215698242],[119.10888671900001,29.223510742],[119.06292724600002,29.218688965],[119.03070068400001,29.210693359],[118.97851562500001,29.234313965],[118.98388671900001,29.267700195],[118.94909668000001,29.278686523],[118.92010498000002,29.304870605],[118.90808105500001,29.333312988],[118.88049316400001,29.309875488],[118.83288574200002,29.299316406],[118.80712890600002,29.278320312],[118.77868652300002,29.262329102],[118.74951171900001,29.233276367],[118.74572753900001,29.203125],[118.70172119100002,29.196716309],[118.65930175800001,29.194274902],[118.62768554700001,29.200683594],[118.60247802700002,29.229492187],[118.58691406200002,29.25390625],[118.59570312500001,29.291687012],[118.59790039100001,29.323486328],[118.55731201200001,29.31451416],[118.53948974600002,29.33770752],[118.53070068400001,29.363525391],[118.49707031200002,29.357116699],[118.46728515600002,29.342102051],[118.42590332000002,29.359924316],[118.40527343700002,29.383911133],[118.38232421900001,29.41229248],[118.36090087900001,29.442504883],[118.33648681600002,29.469116211],[118.31311035200001,29.492675781]]]}}
