{"type":"Feature","id":"bulk-99377448B27358486632562","bbox":[118.54510498000002,39.395507812,119.80670166000002,40.585693359],"properties":{"id":"bulk-99377448B27358486632562","name":"Qinhuangdao","nameEn":"Qinhuangdao","fullName":"Qinhuangdao","level":"city","boundaryRole":"administrative-extent","boundaryQuality":"generalized-source-2020","boundaryYearRepresented":"2020","bounds":[[118.54510498000002,39.395507812],[119.80670166000002,40.585693359]],"center":[119.17590332000002,39.9906005855],"centerMethod":"bounding-box midpoint; camera framing only","license":"CC-BY-3.0-IGO","attribution":"geoBoundaries / HDX, China administrative boundaries (2020)","source":{"provider":"geoBoundaries gbHumanitarian / HDX","url":"https://github.com/wmgeolab/geoBoundaries/raw/9469f09/releaseData/gbHumanitarian/CHN/ADM2/geoBoundaries-CHN-ADM2.geojson","metadataUrl":"https://www.geoboundaries.org/api/current/gbHumanitarian/CHN/ADM2/","shapeID":"99377448B27358486632562","shapeName":"Qinhuangdao","boundaryID":"CHN-ADM2-99377448","commit":"9469f09"},"geometryCounts":{"coordinates":162,"components":1,"holes":0},"boundaryNotice":"geoBoundaries / HDX 2020 年行政区数据，海岸和边界经过源数据概化，并非当前测绘成果。"},"geometry":{"type":"Polygon","coordinates":[[[118.54510498000002,40.231323242],[118.58270263700001,40.210510254],[118.65252685500002,40.189086914],[118.71527099600002,40.18347168],[118.75891113300001,40.177490234],[118.81268310500002,40.167480469],[118.85571289100001,40.148071289],[118.96929931600002,40.097900391],[118.91192627,40.076721191],[118.87310791000002,40.069885254],[118.83850097700001,40.062683105],[118.82092285200001,40.057678223],[118.81951904300001,40.045288086],[118.81549072300001,40.011108398],[118.81549072300001,39.976501465],[118.81707763700001,39.954528809],[118.80987548800002,39.929870605],[118.80389404300001,39.914672852],[118.77789306600002,39.863098145],[118.78588867200001,39.853271484],[118.76770019500002,39.829284668],[118.77032470700001,39.799072266],[118.74328613300001,39.752685547],[118.72888183600001,39.707702637],[118.72711181600002,39.693908691],[118.73150634800001,39.67767334],[118.74407959000001,39.653686523],[118.78509521500001,39.621887207],[118.80651855500001,39.610473633],[118.80688476600001,39.562316895],[118.81951904300001,39.538513184],[118.83929443400001,39.52331543],[118.87207031200002,39.516479492],[118.90307617200001,39.544311523],[118.91467285200001,39.538879395],[118.92248535200001,39.526916504],[118.93072509800001,39.491882324],[118.95788574200002,39.462524414],[118.98431396500001,39.453674316],[119.02972412100002,39.473693848],[119.05749511700002,39.474121094],[119.09008789100001,39.464904785],[119.10229492200001,39.464111328],[119.16149902300002,39.446105957],[119.22869873000002,39.395507812],[119.23870849600002,39.412475586],[119.23748779300001,39.422485352],[119.23327636700002,39.439086914],[119.22729492200001,39.449523926],[119.21508789100001,39.457519531],[119.19628906200002,39.462280273],[119.24530029300001,39.561096191],[119.24572753900001,39.574523926],[119.23291015600002,39.578125],[119.22192382800002,39.567077637],[119.20349121100001,39.553894043],[119.20251464800002,39.56652832],[119.19152832000002,39.575500488],[119.16308593700002,39.570129395],[119.20031738300001,39.599304199],[119.23870849600002,39.596679687],[119.25610351600001,39.601928711],[119.26208496100001,39.611328125],[119.26849365200002,39.665893555],[119.28332519500002,39.688476562],[119.30688476600001,39.711120605],[119.30792236300002,39.712097168],[119.32189941400001,39.728271484],[119.33569335900002,39.742675781],[119.35192871100001,39.756896973],[119.37567138700001,39.774291992],[119.39447021500001,39.784729004],[119.39331054700001,39.787475586],[119.39410400400001,39.790283203],[119.39611816400001,39.790710449],[119.39947509800001,39.787475586],[119.40167236300002,39.788879395],[119.40887451200001,39.790527344],[119.43170166000002,39.795898437],[119.43768310500002,39.796875],[119.43792724600002,39.797302246],[119.43872070300002,39.797119141],[119.45288085900002,39.799499512],[119.46411132800002,39.806884766],[119.46728515600002,39.807495117],[119.47430419900002,39.805297852],[119.48449707000002,39.804504395],[119.47491455100001,39.833496094],[119.47912597700001,39.85748291],[119.49090576200001,39.875671387],[119.52032470700001,39.897277832],[119.54608154300001,39.892272949],[119.54809570300002,39.892700195],[119.55932617200001,39.900878906],[119.56671142600001,39.906311035],[119.58532714800002,39.911682129],[119.59472656200002,39.920898437],[119.61370849600002,39.92767334],[119.63311767600001,39.928283691],[119.64331054700001,39.928894043],[119.68328857400002,39.935119629],[119.70532226600001,39.938476562],[119.70690918000001,39.938903809],[119.71948242200001,39.958312988],[119.76110839800002,39.951904297],[119.76269531200002,39.952697754],[119.75848388700001,39.95892334],[119.76391601600001,39.957519531],[119.76690673800002,39.954711914],[119.77569580100001,39.959106445],[119.76867675800001,39.961120605],[119.76647949200002,39.964294434],[119.77569580100001,39.964294434],[119.78131103500002,39.961914062],[119.79431152300002,39.968322754],[119.80371093700002,39.976074219],[119.80407714800002,39.976318359],[119.80670166000002,39.985107422],[119.78332519500002,40.009887695],[119.77227783200001,40.016723633],[119.73291015600002,40.077087402],[119.72711181600002,40.09588623],[119.722473145,40.110473633],[119.72467041000002,40.149475098],[119.64727783200001,40.193481445],[119.60229492200001,40.216918945],[119.56750488300001,40.268127441],[119.56671142600001,40.269287109],[119.53649902300002,40.320678711],[119.54730224600002,40.372314453],[119.54492187500001,40.411071777],[119.54449462900001,40.419494629],[119.53228759800001,40.438903809],[119.51611328100002,40.464904785],[119.49890136700002,40.492492676],[119.46649169900002,40.514099121],[119.39831543000001,40.527282715],[119.320129395,40.516479492],[119.27508544900002,40.500488281],[119.22967529300001,40.513122559],[119.19488525400001,40.525085449],[119.20550537100002,40.565307617],[119.19647216800001,40.577697754],[119.15032959000001,40.580871582],[119.11352539100001,40.585693359],[119.08911132800002,40.57232666],[119.04370117200001,40.565124512],[118.99487304700001,40.551879883],[118.95269775400001,40.53729248],[118.91687011700002,40.502319336],[118.87750244100002,40.504272461],[118.81469726600001,40.507324219],[118.78210449200002,40.482727051],[118.72808837900001,40.468322754],[118.66668701200001,40.449523926],[118.620910645,40.419311523],[118.61547851600001,40.388916016],[118.62310791000002,40.358276367],[118.61712646500001,40.330322266],[118.60809326200001,40.290527344],[118.60107421900001,40.253295898],[118.54510498000002,40.231323242]]]}}
