{"type":"Feature","id":"bulk-99377448B60367090529087","bbox":[130.06768798800002,45.595703125,131.913879395,46.299499512],"properties":{"id":"bulk-99377448B60367090529087","name":"Qitaihe","nameEn":"Qitaihe","fullName":"Qitaihe","level":"city","boundaryRole":"administrative-extent","boundaryQuality":"generalized-source-2020","boundaryYearRepresented":"2020","bounds":[[130.06768798800002,45.595703125],[131.913879395,46.299499512]],"center":[130.9907836915,45.9476013185],"centerMethod":"bounding-box midpoint; camera framing only","license":"CC-BY-3.0-IGO","attribution":"geoBoundaries / HDX, China administrative boundaries (2020)","source":{"provider":"geoBoundaries gbHumanitarian / HDX","url":"https://github.com/wmgeolab/geoBoundaries/raw/9469f09/releaseData/gbHumanitarian/CHN/ADM2/geoBoundaries-CHN-ADM2.geojson","metadataUrl":"https://www.geoboundaries.org/api/current/gbHumanitarian/CHN/ADM2/","shapeID":"99377448B60367090529087","shapeName":"Qitaihe","boundaryID":"CHN-ADM2-99377448","commit":"9469f09"},"geometryCounts":{"coordinates":145,"components":1,"holes":0},"boundaryNotice":"geoBoundaries / HDX 2020 年行政区数据，海岸和边界经过源数据概化，并非当前测绘成果。"},"geometry":{"type":"Polygon","coordinates":[[[130.07708740200002,45.905090332],[130.10748291000002,45.903076172],[130.11810302700002,45.899108887],[130.126525879,45.898681641],[130.16711425800003,45.883300781],[130.15252685500002,45.853515625],[130.15307617200003,45.818115234],[130.166320801,45.791687012],[130.166687012,45.79107666],[130.185119629,45.78729248],[130.20391845700001,45.783508301],[130.215698242,45.755310059],[130.214294434,45.725708008],[130.24188232400002,45.701477051],[130.24230957,45.667480469],[130.25592041000002,45.649108887],[130.296081543,45.652099609],[130.33367919900002,45.661499023],[130.38049316400003,45.660888672],[130.39727783200001,45.656311035],[130.399475098,45.656311035],[130.45727539100002,45.640930176],[130.50390625000003,45.622070312],[130.54907226600002,45.605529785],[130.57830810500002,45.595703125],[130.655700684,45.602905273],[130.65911865200002,45.596923828],[130.674682617,45.598327637],[130.704101562,45.636291504],[130.742126465,45.621520996],[130.78271484400003,45.606872559],[130.83868408200001,45.605895996],[130.89208984400003,45.622314453],[130.92071533200001,45.652893066],[130.970275879,45.675476074],[130.99987793000003,45.651672363],[131.03527832,45.633728027],[131.087280273,45.634277344],[131.11370849600002,45.611083984],[131.15252685500002,45.625488281],[131.196472168,45.616516113],[131.238098145,45.629089355],[131.27532959,45.637084961],[131.28448486300002,45.666320801],[131.31927490200002,45.697692871],[131.36151123000002,45.713317871],[131.39971923800002,45.728881836],[131.403686523,45.757080078],[131.44708252,45.780273437],[131.44250488300003,45.811889648],[131.45892334,45.839477539],[131.48352050800003,45.863708496],[131.527282715,45.890930176],[131.57232666000002,45.901489258],[131.61389160200002,45.89630127],[131.66729736300002,45.887512207],[131.71667480500003,45.896911621],[131.760070801,45.889282227],[131.777099609,45.90411377],[131.78448486300002,45.90612793],[131.821472168,45.915710449],[131.82690429700003,45.922912598],[131.83331298800002,45.939086914],[131.85748291000002,45.96270752],[131.86450195300003,45.977905273],[131.87231445300003,45.990905762],[131.87951660200002,45.995117187],[131.894470215,45.996887207],[131.90130615200002,46.002929687],[131.90509033200001,46.009521484],[131.89990234400003,46.019714355],[131.89971923800002,46.039123535],[131.90148925800003,46.06072998],[131.91052246100003,46.072509766],[131.913879395,46.083679199],[131.908508301,46.087524414],[131.903503418,46.087524414],[131.89172363300003,46.088928223],[131.87768554700003,46.083496094],[131.83392334,46.063476562],[131.815124512,46.059692383],[131.805725098,46.059692383],[131.77789306600002,46.065124512],[131.75610351600002,46.070922852],[131.73107910200002,46.084899902],[131.70489502,46.094482422],[131.696716309,46.100708008],[131.69287109400003,46.104919434],[131.69287109400003,46.111328125],[131.67828369100002,46.127929687],[131.673278809,46.141906738],[131.67510986300002,46.149719238],[131.69873046900003,46.158874512],[131.70330810500002,46.167114258],[131.70172119100002,46.17388916],[131.70208740200002,46.181091309],[131.67633056600002,46.19329834],[131.657104492,46.201477051],[131.650512695,46.201904297],[131.62969970700001,46.203125],[131.625305176,46.20489502],[131.62170410200002,46.205505371],[131.61791992200003,46.21270752],[131.61828613300003,46.217285156],[131.604675293,46.223327637],[131.589294434,46.220092773],[131.54510498000002,46.215881348],[131.500671387,46.219299316],[131.459106445,46.222900391],[131.418273926,46.228881836],[131.37512207,46.237304687],[131.335876465,46.258728027],[131.275512695,46.27911377],[131.24450683600003,46.299499512],[131.20507812500003,46.290100098],[131.171081543,46.266113281],[131.179077148,46.237487793],[131.144104004,46.221923828],[131.106872559,46.205688477],[131.08050537100002,46.176086426],[131.07672119100002,46.133117676],[131.06927490200002,46.102478027],[131.044677734,46.080322266],[131.00549316400003,46.055908203],[130.97412109400003,46.025512695],[130.93450927700002,46.013305664],[130.883300781,46.00769043],[130.821289062,46.004089355],[130.765930176,45.99432373],[130.729675293,45.974304199],[130.704284668,45.946716309],[130.66052246100003,45.939697266],[130.63391113300003,45.944091797],[130.59948730500003,45.956298828],[130.533874512,45.980285645],[130.46911621100003,46.030700684],[130.28308105500003,46.093505859],[130.203125,46.116882324],[130.157470703,46.085510254],[130.12512207,46.06652832],[130.085327148,46.02532959],[130.073303223,45.999511719],[130.06768798800002,45.970703125],[130.07269287100002,45.930480957],[130.07708740200002,45.905090332]]]}}
