{"type":"Feature","id":"bulk-99377448B29720399320091","bbox":[115.88647460900002,40.17010498,119.19787597700001,42.5625],"properties":{"id":"bulk-99377448B29720399320091","name":"Chengde","nameEn":"Chengde","fullName":"Chengde","level":"city","boundaryRole":"administrative-extent","boundaryQuality":"generalized-source-2020","boundaryYearRepresented":"2020","bounds":[[115.88647460900002,40.17010498],[119.19787597700001,42.5625]],"center":[117.54217529300001,41.366302489999995],"centerMethod":"bounding-box midpoint; camera framing only","license":"CC-BY-3.0-IGO","attribution":"geoBoundaries / HDX, China administrative boundaries (2020)","source":{"provider":"geoBoundaries gbHumanitarian / HDX","url":"https://github.com/wmgeolab/geoBoundaries/raw/9469f09/releaseData/gbHumanitarian/CHN/ADM2/geoBoundaries-CHN-ADM2.geojson","metadataUrl":"https://www.geoboundaries.org/api/current/gbHumanitarian/CHN/ADM2/","shapeID":"99377448B29720399320091","shapeName":"Chengde","boundaryID":"CHN-ADM2-99377448","commit":"9469f09"},"geometryCounts":{"coordinates":302,"components":1,"holes":0},"boundaryNotice":"geoBoundaries / HDX 2020 年行政区数据，海岸和边界经过源数据概化，并非当前测绘成果。"},"geometry":{"type":"Polygon","coordinates":[[[117.31469726600001,40.180908203],[117.38208007800002,40.190307617],[117.44250488300001,40.194091797],[117.52868652300002,40.18927002],[117.56427002,40.18371582],[117.57489013700001,40.17010498],[117.64672851600001,40.194274902],[117.70568847700001,40.208312988],[117.74670410200001,40.221496582],[117.78350830100001,40.230529785],[117.81951904300001,40.235473633],[117.86132812500001,40.239929199],[117.91333007800002,40.249511719],[117.95428466800001,40.261901855],[117.99468994100002,40.274719238],[118.03027343700002,40.292907715],[118.06390380900001,40.30291748],[118.10211181600002,40.307678223],[118.10107421900001,40.340270996],[118.13928222700001,40.36328125],[118.17230224600002,40.404724121],[118.21209716800001,40.405883789],[118.24890136700002,40.417114258],[118.30847168000001,40.414306641],[118.36968994100002,40.393310547],[118.40429687500001,40.380493164],[118.46429443400001,40.38067627],[118.50268554700001,40.370483398],[118.52990722700001,40.343688965],[118.52087402300002,40.307678223],[118.52770996100001,40.256103516],[118.54510498000002,40.231323242],[118.60107421900001,40.253295898],[118.60809326200001,40.290527344],[118.61712646500001,40.330322266],[118.62310791000002,40.358276367],[118.61547851600001,40.388916016],[118.620910645,40.419311523],[118.66668701200001,40.449523926],[118.72808837900001,40.468322754],[118.78210449200002,40.482727051],[118.81469726600001,40.507324219],[118.87750244100002,40.504272461],[118.91687011700002,40.502319336],[118.95269775400001,40.53729248],[118.99487304700001,40.551879883],[119.04370117200001,40.565124512],[119.08911132800002,40.57232666],[119.11352539100001,40.585693359],[119.10150146500001,40.615112305],[119.13812255900001,40.662475586],[119.09710693400001,40.661499023],[119.03607177700002,40.644104004],[118.96990966800001,40.655883789],[118.91052246100001,40.718078613],[118.85791015600002,40.745300293],[118.84210205100001,40.751525879],[118.80010986300002,40.768127441],[118.80169677700002,40.804504395],[118.76971435500002,40.855102539],[118.81488037100002,40.904907227],[118.86389160200001,40.933898926],[118.92633056600002,40.963928223],[118.95251464800002,40.981689453],[118.92633056600002,40.995727539],[118.87731933600001,41.024475098],[118.90008544900002,41.043518066],[118.94311523400002,41.06048584],[119.01867675800001,41.086914062],[119.02349853500002,41.098327637],[119.03491210900002,41.112670898],[119.09252929700001,41.129516602],[119.12469482400002,41.157714844],[119.14331054700001,41.193908691],[119.16888427700002,41.258911133],[119.17071533200001,41.285522461],[119.19787597700001,41.299682617],[119.19488525400001,41.305297852],[119.18688964800002,41.305725098],[119.17431640600002,41.306518555],[119.06988525400001,41.274719238],[119.02368164100001,41.297119141],[118.95111084000001,41.299682617],[118.92010498000002,41.270507812],[118.85229492200001,41.262084961],[118.81152343700002,41.299926758],[118.78228759800001,41.322875977],[118.73211669900002,41.318725586],[118.68792724600002,41.31427002],[118.63952636700002,41.317077637],[118.61431884800001,41.330871582],[118.57568359400001,41.333129883],[118.52972412100002,41.335693359],[118.47351074200002,41.344299316],[118.42608642600001,41.321105957],[118.41308593700002,41.299682617],[118.37829589800002,41.295715332],[118.34552002,41.291870117],[118.32592773400002,41.301879883],[118.30670166000002,41.31628418],[118.29309082000002,41.361328125],[118.29071044900002,41.386291504],[118.27172851600001,41.415710449],[118.24670410200001,41.432128906],[118.24468994100002,41.43548584],[118.23950195300002,41.444885254],[118.25292968700002,41.47088623],[118.27752685500002,41.497070312],[118.26770019500002,41.536315918],[118.26531982400002,41.545715332],[118.19628906200002,41.560913086],[118.19030761700002,41.611877441],[118.14190673800002,41.659484863],[118.09729003900001,41.706481934],[118.10888671900001,41.762695312],[118.16027832000002,41.788330078],[118.22528076200001,41.766296387],[118.26031494100002,41.735900879],[118.27532959000001,41.740478516],[118.29650878900001,41.767700195],[118.30548095700001,41.808898926],[118.31329345700001,41.848510742],[118.27252197300001,41.86932373],[118.24047851600001,41.903930664],[118.25732421900001,41.912902832],[118.28710937500001,41.952880859],[118.253723145,41.984924316],[118.24487304700001,41.99609375],[118.26092529300001,42.031677246],[118.25152587900001,42.06048584],[118.24011230500001,42.065673828],[118.22491455100001,42.070678711],[118.20770263700001,42.068481445],[118.18969726600001,42.06048584],[118.16931152300002,42.030700684],[118.15588378900001,42.02532959],[118.12207031200002,42.027282715],[118.097473145,42.035095215],[118.09887695300002,42.047302246],[118.10552978500002,42.068481445],[118.10791015600002,42.089904785],[118.09167480500001,42.097106934],[118.04791259800001,42.087280273],[118.05731201200001,42.133117676],[118.05871582000002,42.145324707],[118.04272460900002,42.155517578],[117.99829101600001,42.176696777],[117.93652343700002,42.216674805],[117.96630859400001,42.231079102],[117.98547363300001,42.239929199],[118.00872802700002,42.275085449],[117.99890136700002,42.300476074],[117.98651123000002,42.350097656],[117.95611572300001,42.40411377],[117.88732910200001,42.457275391],[117.80169677700002,42.516723633],[117.77252197300001,42.535095215],[117.74407959000001,42.556274414],[117.73687744100002,42.561889648],[117.6875,42.5625],[117.61352539100001,42.537719727],[117.56591796900001,42.529296875],[117.52648925800001,42.543701172],[117.48052978500002,42.5546875],[117.43951416000002,42.539123535],[117.42510986300002,42.515686035],[117.41687011700002,42.479675293],[117.39471435500002,42.452270508],[117.36730957000002,42.435913086],[117.31811523400002,42.436279297],[117.24768066400001,42.46270752],[117.15747070300002,42.446472168],[117.06567382800002,42.439086914],[117.01391601600001,42.440490723],[116.95489502,42.427307129],[116.91430664100001,42.40612793],[116.86987304700001,42.382873535],[116.85131835900002,42.350891113],[116.85351562500001,42.289672852],[116.88470459000001,42.248291016],[116.90130615200002,42.212097168],[116.84832763700001,42.1796875],[116.80389404300001,42.192321777],[116.78387451200001,42.172729492],[116.82110595700001,42.120300293],[116.83551025400001,42.091674805],[116.84967041000002,42.063293457],[116.84527587900001,42.017272949],[116.82531738300001,41.984313965],[116.80267334000001,41.970092773],[116.72631835900002,41.97088623],[116.69628906200002,41.969116211],[116.68652343700002,41.954284668],[116.68408203100002,41.926696777],[116.67028808600001,41.914916992],[116.64349365200002,41.900878906],[116.59271240200002,41.903320312],[116.50848388700001,41.910522461],[116.48828125000001,41.920715332],[116.48187255900001,41.945678711],[116.47491455100001,41.961486816],[116.45831298800002,41.965270996],[116.44531250000001,41.962890625],[116.41748046900001,41.936279297],[116.39093017600001,41.929321289],[116.39312744100002,41.942504883],[116.38787841800001,41.986083984],[116.35272216800001,41.991088867],[116.31671142600001,41.983703613],[116.27392578100002,41.968505859],[116.21508789100001,41.93347168],[116.20147705100001,41.899475098],[116.18127441400001,41.855102539],[116.10888671900001,41.850708008],[116.08190918000001,41.831481934],[116.08032226600001,41.791687012],[116.04431152300002,41.750488281],[116.03149414100001,41.757324219],[116.00750732400002,41.698486328],[115.96887207000002,41.670288086],[115.90789794900002,41.634521484],[115.88647460900002,41.59967041],[115.90649414100001,41.563903809],[115.93707275400001,41.516296387],[115.94689941400001,41.482116699],[115.95947265600002,41.453918457],[115.98449707000002,41.419494629],[116.01568603500002,41.388305664],[116.03771972700001,41.354492187],[116.08630371100001,41.355102539],[116.12969970700001,41.344482422],[116.16552734400001,41.318908691],[116.17309570300002,41.287719727],[116.17572021500001,41.251281738],[116.18572998000002,41.219909668],[116.19873046900001,41.190673828],[116.20410156200002,41.143493652],[116.22131347700001,41.112670898],[116.23590087900001,41.087524414],[116.24487304700001,41.06048584],[116.25451660200001,41.025878906],[116.25891113300001,40.995727539],[116.28668212900001,40.963500977],[116.32391357400002,40.906494141],[116.33850097700001,40.898681641],[116.35913085900002,40.884521484],[116.39550781200002,40.871520996],[116.4375,40.869873047],[116.43548584000001,40.891296387],[116.41650390600002,40.911499023],[116.40490722700001,40.948303223],[116.42712402300002,40.955322266],[116.47607421900001,40.949707031],[116.50311279300001,40.955688477],[116.53649902300002,40.965881348],[116.55712890600002,41.028686523],[116.620910645,41.057128906],[116.63409423800002,41.039672852],[116.64770507800002,40.998291016],[116.64990234400001,40.983886719],[116.65490722700001,40.95111084],[116.68109130900001,40.914489746],[116.70690918000001,40.890319824],[116.70867919900002,40.86907959],[116.70269775400001,40.853271484],[116.76452636700002,40.825683594],[116.79748535200001,40.815490723],[116.83850097700001,40.788085937],[116.85748291000002,40.761474609],[116.90008544900002,40.717895508],[116.91668701200001,40.696472168],[116.93347168000001,40.674926758],[116.95788574200002,40.669128418],[117.01428222700001,40.672912598],[117.09869384800001,40.67767334],[117.17309570300002,40.673706055],[117.27752685500002,40.658874512],[117.37927246100001,40.648681641],[117.45391845700001,40.646911621],[117.46490478500002,40.632507324],[117.45288085900002,40.609680176],[117.4375,40.608886719],[117.41168212900001,40.598693848],[117.40332031200002,40.578491211],[117.40869140600002,40.557678223],[117.38732910200001,40.533081055],[117.34429931600002,40.53692627],[117.29827880900001,40.545288086],[117.24749755900001,40.542480469],[117.20190429700001,40.528686523],[117.16607666000002,40.503723145],[117.18829345700001,40.439880371],[117.17468261700002,40.390930176],[117.16351318400001,40.373718262],[117.19049072300001,40.349121094],[117.20031738300001,40.340087891],[117.23309326200001,40.289672852],[117.25811767600001,40.259277344],[117.27490234400001,40.24609375],[117.28790283200001,40.230529785],[117.30310058600001,40.198730469],[117.31469726600001,40.180908203]]]}}
