{"type":"Feature","id":"bulk-99377448B35924961832121","bbox":[121.14410400400001,36.743286133,122.66711425800001,37.543701172],"properties":{"id":"bulk-99377448B35924961832121","name":"Weihai","nameEn":"Weihai","fullName":"Weihai","level":"city","boundaryRole":"administrative-extent","boundaryQuality":"generalized-source-2020","boundaryYearRepresented":"2020","bounds":[[121.14410400400001,36.743286133],[122.66711425800001,37.543701172]],"center":[121.905609131,37.1434936525],"centerMethod":"bounding-box midpoint; camera framing only","license":"CC-BY-3.0-IGO","attribution":"geoBoundaries / HDX, China administrative boundaries (2020)","source":{"provider":"geoBoundaries gbHumanitarian / HDX","url":"https://github.com/wmgeolab/geoBoundaries/raw/9469f09/releaseData/gbHumanitarian/CHN/ADM2/geoBoundaries-CHN-ADM2.geojson","metadataUrl":"https://www.geoboundaries.org/api/current/gbHumanitarian/CHN/ADM2/","shapeID":"99377448B35924961832121","shapeName":"Weihai","boundaryID":"CHN-ADM2-99377448","commit":"9469f09"},"geometryCounts":{"coordinates":667,"components":7,"holes":0},"boundaryNotice":"geoBoundaries / HDX 2020 年行政区数据，海岸和边界经过源数据概化，并非当前测绘成果。"},"geometry":{"type":"MultiPolygon","coordinates":[[[[121.562316895,36.745910645],[121.56549072300001,36.743286133],[121.56408691400001,36.747680664],[121.55731201200001,36.75567627],[121.55352783200001,36.757080078],[121.55133056600002,36.756286621],[121.55047607400002,36.751708984],[121.55249023400002,36.747314453],[121.562316895,36.745910645]]],[[[121.57910156200002,36.767700195],[121.57910156200002,36.770324707],[121.578125,36.768310547],[121.57910156200002,36.767700195]]],[[[122.49212646500001,36.894104004],[122.49432373000002,36.894470215],[122.49011230500001,36.895874023],[122.48968505900001,36.895690918],[122.49212646500001,36.894104004]]],[[[122.56811523400002,37.31072998],[122.56988525400001,37.311706543],[122.56390380900001,37.31427002],[122.56152343700002,37.312927246],[122.56567382800002,37.31072998],[122.56811523400002,37.31072998]]],[[[122.47668457000002,37.37890625],[122.47851562500001,37.381286621],[122.47808837900001,37.383117676],[122.47192382800002,37.384094238],[122.47088623000002,37.383483887],[122.47668457000002,37.37890625]]],[[[121.94848632800002,37.447692871],[121.94952392600001,37.448486328],[121.95172119100002,37.454528809],[121.95050048800002,37.459472656],[121.94848632800002,37.461730957],[121.94567871100001,37.45690918],[121.94848632800002,37.447692871]]],[[[121.43347168000001,36.766906738],[121.43231201200001,36.773498535],[121.42150878900001,36.795288086],[121.41888427700002,36.809875488],[121.42071533200001,36.823303223],[121.43627929700001,36.834472656],[121.46630859400001,36.80267334],[121.46868896500001,36.805725098],[121.46832275400001,36.808288574],[121.46228027300002,36.813293457],[121.45587158200001,36.81451416],[121.44830322300001,36.823303223],[121.44891357400002,36.832275391],[121.44708252,36.834472656],[121.43847656200002,36.837524414],[121.43072509800001,36.854309082],[121.43151855500001,36.860717773],[121.43347168000001,36.861083984],[121.43609619100002,36.850097656],[121.44171142600001,36.847473145],[121.44128418000001,36.856689453],[121.44372558600001,36.864318848],[121.44787597700001,36.864929199],[121.44873046900001,36.852294922],[121.46008300800001,36.843688965],[121.46789550800001,36.832092285],[121.47131347700001,36.82989502],[121.47949218700002,36.833496094],[121.48791503900001,36.834289551],[121.49530029300001,36.840087891],[121.49768066400001,36.837280273],[121.495910645,36.834106445],[121.48907470700001,36.829711914],[121.48571777300002,36.82409668],[121.48730468700002,36.820922852],[121.48767089800002,36.819885254],[121.48608398400002,36.81628418],[121.48907470700001,36.81048584],[121.48211669900002,36.802124023],[121.48010253900001,36.797302246],[121.48211669900002,36.795288086],[121.48248291000002,36.795471191],[121.48571777300002,36.804077148],[121.49487304700001,36.812316895],[121.51007080100001,36.815673828],[121.51190185500002,36.824707031],[121.52252197300001,36.82989502],[121.52929687500001,36.837097168],[121.53747558600001,36.837280273],[121.53991699200002,36.847473145],[121.54571533200001,36.844909668],[121.55407714800002,36.844482422],[121.56292724600002,36.847290039],[121.56872558600001,36.849121094],[121.57092285200001,36.853271484],[121.57727050800001,36.854675293],[121.58508300800001,36.854309082],[121.58868408200001,36.854309082],[121.59368896500001,36.850280762],[121.60247802700002,36.851318359],[121.60571289100001,36.848083496],[121.60009765600002,36.84387207],[121.59527587900001,36.833679199],[121.58691406200002,36.832519531],[121.58410644500002,36.828918457],[121.57031250000001,36.826904297],[121.56207275400001,36.822692871],[121.56872558600001,36.82208252],[121.55511474600002,36.817077637],[121.546691895,36.8125],[121.54730224600002,36.805725098],[121.54150390600002,36.79888916],[121.53668212900001,36.788696289],[121.53167724600002,36.792480469],[121.52832031200002,36.801696777],[121.52752685500002,36.801879883],[121.51092529300001,36.792907715],[121.48449707000002,36.772705078],[121.48767089800002,36.771484375],[121.49987793000001,36.770874023],[121.50268554700001,36.764282227],[121.50671386700002,36.762695312],[121.51611328100002,36.762512207],[121.51788330100001,36.759277344],[121.51348877,36.754272461],[121.51428222700001,36.753112793],[121.52008056600002,36.752502441],[121.52532959000001,36.75592041],[121.53833007800002,36.753112793],[121.54608154300001,36.756896973],[121.54010009800001,36.762512207],[121.53851318400001,36.767089844],[121.54089355500001,36.773498535],[121.54290771500001,36.776489258],[121.54772949200002,36.773498535],[121.55291748000002,36.773071289],[121.55712890600002,36.775878906],[121.55987548800002,36.781921387],[121.57849121100001,36.778076172],[121.57910156200002,36.777282715],[121.57910156200002,36.780700684],[121.58551025400001,36.801696777],[121.59191894500002,36.812927246],[121.61248779300001,36.827270508],[121.62951660200001,36.823120117],[121.61248779300001,36.810302734],[121.59887695300002,36.797912598],[121.59472656200002,36.784729004],[121.61389160200001,36.787475586],[121.62072753900001,36.793701172],[121.61932373000002,36.797912598],[121.62487793000001,36.800720215],[121.63372802700002,36.815307617],[121.63769531200002,36.817077637],[121.64849853500002,36.818481445],[121.66870117200001,36.826477051],[121.69372558600001,36.825927734],[121.70227050800001,36.834289551],[121.70690918000001,36.834899902],[121.71527099600002,36.832702637],[121.71832275400001,36.832885742],[121.71649169900002,36.844482422],[121.72467041000002,36.859924316],[121.74871826200001,36.869873047],[121.75067138700001,36.873291016],[121.75152587900001,36.874511719],[121.76049804700001,36.882507324],[121.77990722700001,36.892089844],[121.78070068400001,36.892272949],[121.78210449200002,36.893676758],[121.78869628900001,36.905883789],[121.80572509800001,36.911071777],[121.80590820300002,36.911499023],[121.80609130900001,36.911071777],[121.80688476600001,36.911499023],[121.81671142600001,36.901916504],[121.84527587900001,36.911071777],[121.84991455100001,36.921875],[121.85388183600001,36.92388916],[121.85650634800001,36.923278809],[121.85729980500001,36.920715332],[121.85308837900001,36.916687012],[121.85552978500002,36.914672852],[121.86267089800002,36.918518066],[121.88647460900002,36.92388916],[121.89447021500001,36.926696777],[121.88989257800002,36.926696777],[121.86407470700001,36.935302734],[121.87670898400002,36.948486328],[121.88769531200002,36.959472656],[121.89331054700001,36.974304199],[121.90429687500001,36.993103027],[121.92492675800001,36.968078613],[121.92651367200001,36.975708008],[121.93267822300001,36.982116699],[121.92608642600001,36.989074707],[121.92687988300001,36.990905762],[121.93792724600002,36.994873047],[121.94207763700001,36.990905762],[121.95410156200002,36.984130859],[121.96990966800001,36.985290527],[121.97607421900001,36.989074707],[121.98107910200001,36.99432373],[121.98370361300002,36.993286133],[121.98608398400002,36.987915039],[121.98870849600002,36.988708496],[121.99169921900001,36.99407959],[121.99353027300002,36.995300293],[121.99908447300001,36.985290527],[122.00531005900001,36.98248291],[122.01971435500002,36.971679687],[122.01947021500001,36.964477539],[122.02569580100001,36.961303711],[122.03387451200001,36.952087402],[122.03472900400001,36.946716309],[122.03247070300002,36.941894531],[122.03430175800001,36.938293457],[122.03967285200001,36.93572998],[122.04089355500001,36.93371582],[122.03027343700002,36.926513672],[122.01989746100001,36.909118652],[122.02111816400001,36.906494141],[122.02972412100002,36.901672363],[122.03411865200002,36.897094727],[122.03649902300002,36.904907227],[122.03710937500001,36.906921387],[122.04608154300001,36.911315918],[122.06512451200001,36.917724609],[122.06488037100002,36.91809082],[122.0625,36.93371582],[122.07067871100001,36.948303223],[122.08331298800002,36.93927002],[122.08392334000001,36.941711426],[122.09429931600002,36.951477051],[122.09967041000002,36.953125],[122.10729980500001,36.966674805],[122.10772705100001,36.969482422],[122.10632324200002,36.971313477],[122.105285645,36.975280762],[122.10913085900002,36.978515625],[122.11029052700002,36.986328125],[122.14312744100002,36.99407959],[122.14410400400001,37.001098633],[122.14251709000001,37.001281738],[122.13549804700001,37.010925293],[122.14611816400001,37.019714355],[122.14648437500001,37.031677246],[122.16308593700002,37.021118164],[122.16467285200001,37.020080566],[122.18090820300002,37.020507812],[122.18048095700001,37.014282227],[122.18292236300002,37.013305664],[122.18591308600001,37.013671875],[122.18792724600002,37.015686035],[122.18450927700002,37.020080566],[122.18627929700001,37.02331543],[122.18090820300002,37.030273437],[122.18048095700001,37.038696289],[122.18450927700002,37.042114258],[122.18127441400001,37.047485352],[122.19470214800002,37.049072266],[122.19549560500002,37.044128418],[122.20251464800002,37.040283203],[122.20532226600001,37.035888672],[122.21112060500002,37.035522461],[122.21789550800001,37.037109375],[122.22192382800002,37.033508301],[122.22467041000002,37.026672363],[122.22229003900001,37.022888184],[122.22167968700002,37.021484375],[122.21191406200002,37.017089844],[122.21008300800001,37.013916016],[122.21228027300002,37.006530762],[122.19989013700001,36.998291016],[122.18969726600001,36.997680664],[122.18347168000001,37.000488281],[122.179504395,36.998718262],[122.17810058600001,36.979125977],[122.17370605500001,36.979919434],[122.16711425800001,36.97668457],[122.16510009800001,36.973876953],[122.16772460900002,36.96887207],[122.16607666000002,36.966918945],[122.16210937500001,36.966674805],[122.15930175800001,36.964904785],[122.15930175800001,36.962280273],[122.16467285200001,36.958129883],[122.16510009800001,36.955505371],[122.16229248000002,36.951293945],[122.15667724600002,36.948486328],[122.14788818400001,36.94708252],[122.14691162100002,36.946899414],[122.14410400400001,36.943481445],[122.15551757800002,36.931884766],[122.16027832000002,36.93548584],[122.16711425800001,36.935302734],[122.17749023400002,36.944091797],[122.18151855500001,36.943725586],[122.18212890600002,36.940917969],[122.17767334000001,36.931518555],[122.17828369100002,36.925292969],[122.18170166000002,36.920898437],[122.18627929700001,36.92010498],[122.18988037100002,36.922729492],[122.19952392600001,36.920471191],[122.21191406200002,36.915283203],[122.21990966800001,36.916687012],[122.23107910200001,36.916503906],[122.24450683600001,36.912475586],[122.24688720700001,36.912475586],[122.25048828100002,36.912902832],[122.25592041000002,36.908325195],[122.25988769500002,36.907287598],[122.26531982400002,36.899108887],[122.26068115200002,36.897277832],[122.25592041000002,36.897888184],[122.25207519500002,36.899902344],[122.22827148400002,36.900878906],[122.22332763700001,36.902893066],[122.222473145,36.899475098],[122.22851562500001,36.894897461],[122.23052978500002,36.890930176],[122.22851562500001,36.888122559],[122.22491455100001,36.889282227],[122.22113037100002,36.894714355],[122.20208740200002,36.899719238],[122.18969726600001,36.900085449],[122.18652343700002,36.897888184],[122.18591308600001,36.89630127],[122.18652343700002,36.896118164],[122.20611572300001,36.886108398],[122.22332763700001,36.876281738],[122.20050048800002,36.87310791],[122.18487548800002,36.877319336],[122.179504395,36.877685547],[122.17968750000001,36.877075195],[122.18511962900001,36.87310791],[122.18627929700001,36.865905762],[122.17608642600001,36.848693848],[122.17828369100002,36.84552002],[122.18530273400002,36.847290039],[122.18988037100002,36.844116211],[122.19287109400001,36.844299316],[122.19952392600001,36.848327637],[122.21728515600002,36.850708008],[122.22210693400001,36.846923828],[122.24230957000002,36.844726562],[122.24969482400002,36.841125488],[122.26312255900001,36.841674805],[122.26849365200002,36.840881348],[122.27490234400001,36.83972168],[122.28247070300002,36.836486816],[122.29571533200001,36.838317871],[122.31628418000001,36.834106445],[122.31750488300001,36.835083008],[122.31652832000002,36.845092773],[122.33728027300002,36.843078613],[122.34832763700001,36.842102051],[122.35168457000002,36.843078613],[122.35888671900001,36.842285156],[122.36688232400002,36.851928711],[122.36590576200001,36.854919434],[122.35467529300001,36.859313965],[122.35028076200001,36.863708496],[122.35089111300002,36.865722656],[122.35687255900001,36.865112305],[122.36187744100002,36.864501953],[122.37011718700002,36.858093262],[122.37249755900001,36.859130859],[122.37567138700001,36.867675781],[122.38690185500002,36.865112305],[122.39147949200002,36.867919922],[122.38830566400001,36.870910645],[122.37591552700002,36.882080078],[122.36669921900001,36.89831543],[122.36950683600001,36.91607666],[122.40051269500002,36.897888184],[122.41687011700002,36.900085449],[122.40991210900002,36.900085449],[122.40911865200002,36.911071777],[122.41088867200001,36.914672852],[122.41809082000002,36.91607666],[122.421691895,36.919494629],[122.42871093700002,36.923522949],[122.44848632800002,36.925109863],[122.45410156200002,36.928283691],[122.46008300800001,36.9296875],[122.47070312500001,36.926513672],[122.47412109400001,36.926696777],[122.47412109400001,36.927124023],[122.48132324200002,36.936279297],[122.49047851600001,36.942687988],[122.49432373000002,36.959716797],[122.50189209000001,36.977905273],[122.52130127,36.996887207],[122.53247070300002,37.009887695],[122.53430175800001,37.015075684],[122.52893066400001,37.015075684],[122.52947998000002,37.013305664],[122.52667236300002,37.006530762],[122.52209472700001,37.001708984],[122.51812744100002,37.00189209],[122.51269531200002,37.006530762],[122.51208496100001,37.009094238],[122.51312255900001,37.011291504],[122.48687744100002,37.00189209],[122.48309326200001,36.991516113],[122.46112060500002,36.993530273],[122.445129395,37.003112793],[122.43328857400002,37.002502441],[122.41748046900001,37.00390625],[122.41308593700002,36.99810791],[122.40728759800001,36.996887207],[122.40228271500001,36.992675781],[122.39849853500002,36.991699219],[122.39788818400001,36.992126465],[122.39392089800002,36.982727051],[122.378723145,36.975097656],[122.35607910200001,36.965270996],[122.36212158200001,36.973876953],[122.36529541000002,36.987121582],[122.36932373000002,36.997680664],[122.35607910200001,37.00970459],[122.33972168000001,37.01751709],[122.36407470700001,37.017089844],[122.38891601600001,37.024719238],[122.38391113300001,37.027709961],[122.38848877,37.028930664],[122.39331054700001,37.027099609],[122.39550781200002,37.027282715],[122.39807128900001,37.028320312],[122.39971923800002,37.03527832],[122.40148925800001,37.036499023],[122.40429687500001,37.03527832],[122.40490722700001,37.031311035],[122.41009521500001,37.033691406],[122.41290283200001,37.034912109],[122.41711425800001,37.038513184],[122.42248535200001,37.040100098],[122.42010498000002,37.053527832],[122.42150878900001,37.062316895],[122.40832519500002,37.075317383],[122.41510009800001,37.088317871],[122.41632080100001,37.104492187],[122.42468261700002,37.120910645],[122.42810058600001,37.134094238],[122.44207763700001,37.103881836],[122.45031738300001,37.110473633],[122.44989013700001,37.114074707],[122.43988037100002,37.121276855],[122.43969726600001,37.12890625],[122.44232177700002,37.134277344],[122.44708252,37.136901855],[122.44952392600001,37.142700195],[122.45367431600002,37.146118164],[122.45672607400002,37.146728516],[122.46307373000002,37.144287109],[122.46807861300002,37.147094727],[122.47027587900001,37.145080566],[122.46807861300002,37.136901855],[122.46429443400001,37.130126953],[122.45568847700001,37.125305176],[122.45391845700001,37.121887207],[122.45568847700001,37.115112305],[122.46508789100001,37.124328613],[122.47210693400001,37.130310059],[122.47387695300002,37.135314941],[122.47888183600001,37.142089844],[122.49230957000002,37.153076172],[122.49890136700002,37.155883789],[122.51489257800002,37.155273437],[122.52069091800001,37.157287598],[122.51910400400001,37.168884277],[122.54370117200001,37.168518066],[122.55712890600002,37.170471191],[122.55712890600002,37.172912598],[122.56011962900001,37.179870605],[122.57128906200002,37.182678223],[122.57788085900002,37.186279297],[122.56512451200001,37.199890137],[122.53210449200002,37.229309082],[122.51849365200002,37.246887207],[122.51971435500002,37.262084961],[122.52331543000001,37.284484863],[122.51470947300001,37.305114746],[122.546691895,37.298522949],[122.55749511700002,37.3046875],[122.54748535200001,37.314880371],[122.54730224600002,37.321472168],[122.53027343700002,37.328918457],[122.56610107400002,37.335876465],[122.56390380900001,37.336486816],[122.55572509800001,37.342712402],[122.56030273400002,37.347900391],[122.56890869100002,37.35369873],[122.57507324200002,37.353271484],[122.57031250000001,37.346130371],[122.57092285200001,37.343322754],[122.57470703100002,37.343505859],[122.58331298800002,37.35168457],[122.59289550800001,37.356079102],[122.61010742200001,37.368286133],[122.62072753900001,37.368713379],[122.62768554700001,37.372680664],[122.65008544900002,37.386291504],[122.66070556600002,37.380310059],[122.66711425800001,37.38067627],[122.65911865200002,37.392883301],[122.65747070300002,37.40447998],[122.65551757800002,37.405090332],[122.63787841800001,37.407470703],[122.62347412100002,37.397094727],[122.60772705100001,37.394104004],[122.58007812500001,37.398498535],[122.57891845700001,37.39831543],[122.57788085900002,37.397521973],[122.57171630900001,37.396911621],[122.56988525400001,37.396484375],[122.56152343700002,37.393127441],[122.55090332000002,37.392883301],[122.52227783200001,37.379882812],[122.52667236300002,37.379882812],[122.52929687500001,37.377075195],[122.52850341800001,37.372314453],[122.51947021500001,37.369873047],[122.51568603500002,37.365112305],[122.50567627,37.364318848],[122.48767089800002,37.375671387],[122.48089599600002,37.375671387],[122.50012207000002,37.360717773],[122.43408203100002,37.366882324],[122.44891357400002,37.379089355],[122.45629882800002,37.389282227],[122.45007324200002,37.402526855],[122.43029785200001,37.403503418],[122.40167236300002,37.393493652],[122.36248779300001,37.383483887],[122.32629394500002,37.384277344],[122.30108642600001,37.388305664],[122.26031494100002,37.399291992],[122.25512695300002,37.402099609],[122.23632812500001,37.411499023],[122.23907470700001,37.428527832],[122.21307373000002,37.442871094],[122.21173095700001,37.441894531],[122.20330810500002,37.442321777],[122.19287109400001,37.434082031],[122.18688964800002,37.42590332],[122.18231201200001,37.422485352],[122.17767334000001,37.421691895],[122.17028808600001,37.423095703],[122.16229248000002,37.428710937],[122.15869140600002,37.426879883],[122.15808105500001,37.426330566],[122.15972900400001,37.422729492],[122.15667724600002,37.421691895],[122.15350341800001,37.424682617],[122.14367675800001,37.42010498],[122.11791992200001,37.444091797],[122.11010742200001,37.461914062],[122.11749267600001,37.480285645],[122.12347412100002,37.493286133],[122.12329101600001,37.493713379],[122.12292480500001,37.497680664],[122.12487793000001,37.501708984],[122.12512207000002,37.506713867],[122.11712646500001,37.530883789],[122.10711669900002,37.538696289],[122.10711669900002,37.538513184],[122.09692382800002,37.536499023],[122.08929443400001,37.53692627],[122.08551025400001,37.540893555],[122.07867431600002,37.542114258],[122.07830810500002,37.543701172],[122.06787109400001,37.538330078],[122.07409668000001,37.532287598],[122.07232666000002,37.530090332],[122.06109619100002,37.52911377],[122.05712890600002,37.529907227],[122.05151367200001,37.533874512],[122.04650878900001,37.533508301],[122.04309082000002,37.526489258],[122.03668212900001,37.523681641],[122.03070068400001,37.52331543],[122.02191162100002,37.519714355],[122.01812744100002,37.520080566],[122.01672363300001,37.516479492],[122.01928710900002,37.514282227],[122.03411865200002,37.508483887],[122.03631591800001,37.50390625],[122.03527832000002,37.498718262],[122.03027343700002,37.497680664],[122.02832031200002,37.49987793],[122.03027343700002,37.503112793],[122.02270507800002,37.502502441],[122.02148437500001,37.506286621],[122.01770019500002,37.508483887],[122.01470947300001,37.507324219],[121.99389648400002,37.491088867],[121.99847412100002,37.48828125],[122.00048828100002,37.481079102],[122.00030517600001,37.474121094],[121.99548339800002,37.471496582],[121.99389648400002,37.476074219],[121.99468994100002,37.481872559],[121.99188232400002,37.48449707],[121.98651123000002,37.484130859],[121.980285645,37.479919434],[121.96807861300002,37.478881836],[121.96191406200002,37.475280762],[121.96472168000001,37.47052002],[121.96411132800002,37.468322754],[121.96191406200002,37.460876465],[121.96307373000002,37.457885742],[121.97271728500002,37.451293945],[121.98767089800002,37.432922363],[121.98767089800002,37.4296875],[121.98229980500001,37.426513672],[121.98388671900001,37.420288086],[121.97930908200001,37.417297363],[121.97589111300002,37.424072266],[121.97210693400001,37.422729492],[121.972473145,37.416870117],[121.96649169900002,37.414672852],[121.96173095700001,37.420471191],[121.95910644500002,37.421081543],[121.95568847700001,37.420288086],[121.95709228500002,37.415100098],[121.91888427700002,37.40411377],[121.90612793000001,37.420715332],[121.91271972700001,37.432678223],[121.91949462900001,37.446472168],[121.90808105500001,37.449279785],[121.88970947300001,37.448730469],[121.88928222700001,37.402893066],[121.88470459000001,37.370727539],[121.85809326200001,37.338928223],[121.83349609400001,37.315490723],[121.80932617200001,37.294921875],[121.77630615200002,37.269714355],[121.75170898400002,37.24609375],[121.73352050800001,37.208312988],[121.72949218700002,37.179077148],[121.72088623000002,37.143676758],[121.71868896500001,37.11529541],[121.65887451200001,37.105285645],[121.62469482400002,37.118286133],[121.57427978500002,37.121704102],[121.54467773400002,37.101501465],[121.49328613300001,37.085876465],[121.45507812500001,37.080688477],[121.39270019500002,37.07989502],[121.35772705100001,37.088500977],[121.31829834000001,37.110473633],[121.26971435500002,37.119873047],[121.25109863300001,37.09588623],[121.22192382800002,37.071105957],[121.14410400400001,37.078308105],[121.15789794900002,37.013671875],[121.17529296900001,36.987670898],[121.20269775400001,36.971130371],[121.21667480500001,36.943115234],[121.23632812500001,36.913085937],[121.28588867200001,36.906677246],[121.32110595700001,36.906921387],[121.34027099600002,36.878723145],[121.34588623000002,36.844909668],[121.34667968700002,36.812683105],[121.37249755900001,36.789306641],[121.43347168000001,36.766906738]]]]}}
