{"type":"Feature","id":"bulk-99377448B80814313072010","bbox":[119.19128418000001,30.397705078,120.47088623000002,31.19128418],"properties":{"id":"bulk-99377448B80814313072010","name":"Huzhou","nameEn":"Huzhou","fullName":"Huzhou","level":"city","boundaryRole":"administrative-extent","boundaryQuality":"generalized-source-2020","boundaryYearRepresented":"2020","bounds":[[119.19128418000001,30.397705078],[120.47088623000002,31.19128418]],"center":[119.83108520500002,30.794494629],"centerMethod":"bounding-box midpoint; camera framing only","license":"CC-BY-3.0-IGO","attribution":"geoBoundaries / HDX, China administrative boundaries (2020)","source":{"provider":"geoBoundaries gbHumanitarian / HDX","url":"https://github.com/wmgeolab/geoBoundaries/raw/9469f09/releaseData/gbHumanitarian/CHN/ADM2/geoBoundaries-CHN-ADM2.geojson","metadataUrl":"https://www.geoboundaries.org/api/current/gbHumanitarian/CHN/ADM2/","shapeID":"99377448B80814313072010","shapeName":"Huzhou","boundaryID":"CHN-ADM2-99377448","commit":"9469f09"},"geometryCounts":{"coordinates":107,"components":1,"holes":0},"boundaryNotice":"geoBoundaries / HDX 2020 年行政区数据，海岸和边界经过源数据概化，并非当前测绘成果。"},"geometry":{"type":"Polygon","coordinates":[[[119.89129638700001,31.156677246],[119.88031005900001,31.167480469],[119.85272216800001,31.174682617],[119.80609130900001,31.176330566],[119.76391601600001,31.181274414],[119.70208740200002,31.19128418],[119.64410400400001,31.178710937],[119.61212158200001,31.138305664],[119.60827636700002,31.12310791],[119.597473145,31.080505371],[119.59088134800001,31.047302246],[119.58227539100001,30.995300293],[119.55291748000002,30.958312988],[119.53710937500001,30.897888184],[119.53308105500001,30.867126465],[119.53228759800001,30.860900879],[119.53070068400001,30.8046875],[119.50012207000002,30.775878906],[119.44488525400001,30.754089355],[119.44952392600001,30.716308594],[119.4375,30.701904297],[119.41992187500001,30.644287109],[119.38787841800001,30.652099609],[119.35308837900001,30.684875488],[119.31628418000001,30.67767334],[119.312316895,30.628112793],[119.22668457000002,30.609130859],[119.21490478500002,30.606506348],[119.19128418000001,30.59387207],[119.26348877,30.520080566],[119.29968261700002,30.491699219],[119.31127929700001,30.448120117],[119.32830810500002,30.401123047],[119.42291259800001,30.397705078],[119.46069335900002,30.412902832],[119.49291992200001,30.407104492],[119.52368164100001,30.417480469],[119.55310058600001,30.432922363],[119.58850097700001,30.428283691],[119.62268066400001,30.443481445],[119.63690185500002,30.411682129],[119.68872070300002,30.429870605],[119.69610595700001,30.468078613],[119.71527099600002,30.501098633],[119.77929687500001,30.524108887],[119.82531738300001,30.493896484],[119.85589599600002,30.475097656],[119.88568115200002,30.450927734],[119.921875,30.434875488],[119.95452880900001,30.434692383],[119.99688720700001,30.434692383],[120.03027343700002,30.433288574],[120.05432128900001,30.453125],[120.05529785200001,30.481323242],[120.08428955100001,30.497497559],[120.11712646500001,30.491882324],[120.15527343700002,30.491882324],[120.17932128900001,30.511291504],[120.20989990200002,30.526489258],[120.24127197300001,30.510681152],[120.28308105500001,30.517700195],[120.30267334000001,30.543701172],[120.30310058600001,30.579284668],[120.33428955100001,30.643676758],[120.36767578100002,30.66027832],[120.39807128900001,30.668518066],[120.42510986300002,30.683898926],[120.44232177700002,30.706481934],[120.47088623000002,30.721679687],[120.45288085900002,30.750915527],[120.46191406200002,30.760314941],[120.44189453100002,30.810913086],[120.42248535200001,30.865112305],[120.41650390600002,30.914672852],[120.35632324200002,30.909729004],[120.32928466800001,30.902893066],[120.32830810500002,30.903503418],[120.29492187500001,30.924499512],[120.27929687500001,30.921508789],[120.27252197300001,30.919128418],[120.26568603500002,30.916687012],[120.25488281200002,30.917724609],[120.24371337900001,30.915893555],[120.23248291000002,30.913879395],[120.21051025400001,30.911315918],[120.19488525400001,30.912719727],[120.18432617200001,30.915100098],[120.15069580100001,30.925292969],[120.12048339800002,30.938110352],[120.09191894500002,30.951477051],[120.08111572300001,30.959106445],[120.07507324200002,30.964111328],[120.06689453100002,30.967712402],[120.04327392600001,30.978515625],[120.01849365200002,30.993713379],[120.00909423800002,30.998901367],[119.98651123000002,31.00970459],[119.972473145,31.021118164],[119.95269775400001,31.044677734],[119.93487548800002,31.06072998],[119.92327880900001,31.073486328],[119.91430664100001,31.088928223],[119.90631103500002,31.112915039],[119.89868164100001,31.141479492],[119.89291468200001,31.153347035],[119.89288330100001,31.153320312],[119.89129638700001,31.156677246]]]}}
