{"type":"Feature","id":"bulk-99377448B16642330475165","bbox":[106.33007812500001,35.214477539,108.679504395,37.153076172],"properties":{"id":"bulk-99377448B16642330475165","name":"Qingyang","nameEn":"Qingyang","fullName":"Qingyang","level":"city","boundaryRole":"administrative-extent","boundaryQuality":"generalized-source-2020","boundaryYearRepresented":"2020","bounds":[[106.33007812500001,35.214477539],[108.679504395,37.153076172]],"center":[107.50479126,36.1837768555],"centerMethod":"bounding-box midpoint; camera framing only","license":"CC-BY-3.0-IGO","attribution":"geoBoundaries / HDX, China administrative boundaries (2020)","source":{"provider":"geoBoundaries gbHumanitarian / HDX","url":"https://github.com/wmgeolab/geoBoundaries/raw/9469f09/releaseData/gbHumanitarian/CHN/ADM2/geoBoundaries-CHN-ADM2.geojson","metadataUrl":"https://www.geoboundaries.org/api/current/gbHumanitarian/CHN/ADM2/","shapeID":"99377448B16642330475165","shapeName":"Qingyang","boundaryID":"CHN-ADM2-99377448","commit":"9469f09"},"geometryCounts":{"coordinates":173,"components":1,"holes":0},"boundaryNotice":"geoBoundaries / HDX 2020 年行政区数据，海岸和边界经过源数据概化，并非当前测绘成果。"},"geometry":{"type":"Polygon","coordinates":[[[108.56829834000001,35.502685547],[108.54467773400002,35.556091309],[108.50811767600001,35.601928711],[108.49871826200001,35.613891602],[108.46990966800001,35.698303223],[108.47387695300002,35.727478027],[108.48168945300002,35.787902832],[108.47149658200001,35.835876465],[108.46429443400001,35.869873047],[108.50469970700001,35.933105469],[108.63189697300001,35.954101562],[108.66711425800001,36.002075195],[108.66308593700002,36.096679687],[108.61047363300001,36.188903809],[108.60931396500001,36.257080078],[108.67407226600001,36.304504395],[108.679504395,36.36932373],[108.59851074200002,36.414306641],[108.55487060500002,36.425476074],[108.45349121100001,36.451477051],[108.38848877,36.463928223],[108.32470703100002,36.524108887],[108.23748779300001,36.55291748],[108.19812011700002,36.56628418],[108.14709472700001,36.583496094],[108.11853027300002,36.541503906],[108.02551269500002,36.577087402],[107.96667480500001,36.646118164],[107.91308593700002,36.652282715],[107.90191650400001,36.683105469],[107.88629150400001,36.712890625],[107.87408447300001,36.73651123],[107.85931396500001,36.777893066],[107.81671142600001,36.79309082],[107.71429443400001,36.821289062],[107.65631103500002,36.824279785],[107.56951904300001,36.815917969],[107.51428222700001,36.817687988],[107.50109863300001,36.82409668],[107.49389648400002,36.846679687],[107.49310302700002,36.870300293],[107.48632812500001,36.881286621],[107.46667480500001,36.884887695],[107.41491699200002,36.876281738],[107.34307861300002,36.890075684],[107.28387451200001,36.908081055],[107.26367187500001,36.926513672],[107.26849365200002,36.977478027],[107.27331543000001,37.020507812],[107.27148437500001,37.069885254],[107.28369140600002,37.09588623],[107.25769043000001,37.095275879],[107.24511718700002,37.083679199],[107.22552490200002,37.083312988],[107.18572998000002,37.105102539],[107.16571044900002,37.115905762],[107.08709716800001,37.125488281],[107.01568603500002,37.120117187],[106.99047851600001,37.100280762],[106.95812988300001,37.092102051],[106.93188476600001,37.095275879],[106.92492675800001,37.110107422],[106.89807128900001,37.125488281],[106.878723145,37.121276855],[106.86651611300002,37.102111816],[106.84710693400001,37.10168457],[106.81347656200002,37.123718262],[106.77990722700001,37.14630127],[106.75347900400001,37.153076172],[106.74090576200001,37.145324707],[106.73529052700002,37.126281738],[106.72949218700002,37.106872559],[106.71032714800002,37.098876953],[106.67767334000001,37.101928711],[106.61889648400002,37.108276367],[106.61248779300001,37.108886719],[106.60491943400001,37.098876953],[106.61370849600002,36.980712891],[106.60272216800001,36.921081543],[106.546875,36.941894531],[106.50488281200002,36.881286621],[106.55468750000001,36.867675781],[106.60131835900002,36.899108887],[106.59191894500002,36.828125],[106.61712646500001,36.776489258],[106.57611084000001,36.725097656],[106.51068115200002,36.732910156],[106.46588134800001,36.688476562],[106.43908691400001,36.605285645],[106.42791748000002,36.572509766],[106.42608642600001,36.567077637],[106.33007812500001,36.527099609],[106.42230224600002,36.454528809],[106.46588134800001,36.421325684],[106.48510742200001,36.349304199],[106.46447753900001,36.303710937],[106.45709228500002,36.292907715],[106.43548584000001,36.270080566],[106.49151611300002,36.264526367],[106.57592773400002,36.27130127],[106.65112304700001,36.237915039],[106.73071289100001,36.205505371],[106.82788085900002,36.210693359],[106.83532714800002,36.200073242],[106.86029052700002,36.163696289],[106.87988281200002,36.127929687],[106.91650390600002,36.090881348],[106.91931152300002,35.964477539],[106.83532714800002,35.895080566],[106.87487793000001,35.810302734],[106.89508056600002,35.751525879],[106.81512451200001,35.75390625],[106.78491210900002,35.698303223],[106.74670410200001,35.713684082],[106.76049804700001,35.671508789],[106.81671142600001,35.643493652],[106.85992431600002,35.624084473],[106.90972900400001,35.599304199],[106.93988037100002,35.569274902],[106.97131347700001,35.533081055],[106.99810791000002,35.50189209],[107.02532959000001,35.466918945],[107.06909179700001,35.459106445],[107.12292480500001,35.474914551],[107.18127441400001,35.464111328],[107.20330810500002,35.487915039],[107.20507812500001,35.515686035],[107.23992919900002,35.512878418],[107.27911377,35.505310059],[107.32147216800001,35.489501953],[107.36590576200001,35.485107422],[107.40911865200002,35.491271973],[107.45269775400001,35.480529785],[107.49670410200001,35.458679199],[107.51831054700001,35.486877441],[107.55310058600001,35.482116699],[107.57690429700001,35.454284668],[107.61950683600001,35.451721191],[107.70532226600001,35.318725586],[107.75048828100002,35.304870605],[107.76593017600001,35.290527344],[107.79107666000002,35.27911377],[107.82250976600001,35.270874023],[107.86370849600002,35.262695312],[107.88891601600001,35.254089355],[107.90393066400001,35.254516602],[107.92907714800002,35.240112305],[107.929504395,35.223327637],[107.93487548800002,35.214477539],[107.94470214800002,35.217712402],[107.97528076200001,35.233886719],[108.01092529300001,35.254089355],[108.05767822300001,35.270690918],[108.07727050800001,35.280883789],[108.11572265600002,35.294128418],[108.16027832000002,35.3046875],[108.20489502,35.311279297],[108.21649169900002,35.291687012],[108.23687744100002,35.266479492],[108.26690673800002,35.266906738],[108.29650878900001,35.280883789],[108.32611084000001,35.291320801],[108.36730957000002,35.279907227],[108.42108154300001,35.274719238],[108.45568847700001,35.284118652],[108.49871826200001,35.311096191],[108.52972412100002,35.31451416],[108.57312011700002,35.326721191],[108.58032226600001,35.340698242],[108.57952880900001,35.379882812],[108.56408691400001,35.41027832],[108.56311035200001,35.460510254],[108.56829834000001,35.502685547]]]}}
