{"type":"Feature","id":"bulk-99377448B99872262406801","bbox":[99.00689697300001,34.652099609,101.79492187500001,37.13848877],"properties":{"id":"bulk-99377448B99872262406801","name":"Hainan Tibetan Autonomous Prefecture","nameEn":"Hainan Tibetan Autonomous Prefecture","fullName":"Hainan Tibetan Autonomous Prefecture","level":"city","boundaryRole":"administrative-extent","boundaryQuality":"generalized-source-2020","boundaryYearRepresented":"2020","bounds":[[99.00689697300001,34.652099609],[101.79492187500001,37.13848877]],"center":[100.40090942400002,35.8952941895],"centerMethod":"bounding-box midpoint; camera framing only","license":"CC-BY-3.0-IGO","attribution":"geoBoundaries / HDX, China administrative boundaries (2020)","source":{"provider":"geoBoundaries gbHumanitarian / HDX","url":"https://github.com/wmgeolab/geoBoundaries/raw/9469f09/releaseData/gbHumanitarian/CHN/ADM2/geoBoundaries-CHN-ADM2.geojson","metadataUrl":"https://www.geoboundaries.org/api/current/gbHumanitarian/CHN/ADM2/","shapeID":"99377448B99872262406801","shapeName":"Hainan Tibetan Autonomous Prefecture","boundaryID":"CHN-ADM2-99377448","commit":"9469f09"},"geometryCounts":{"coordinates":275,"components":1,"holes":0},"boundaryNotice":"geoBoundaries / HDX 2020 年行政区数据，海岸和边界经过源数据概化，并非当前测绘成果。"},"geometry":{"type":"Polygon","coordinates":[[[100.90350341800001,34.663330078],[100.94708252,34.655883789],[100.98590087900001,34.652099609],[101.02288818400001,34.662475586],[101.05328369100002,34.694091797],[101.08508300800001,34.709289551],[101.097473145,34.753479004],[101.06207275400001,34.878723145],[101.03430175800001,34.90032959],[101.00189209000001,34.917297363],[100.96630859400001,34.938110352],[100.93267822300001,34.95690918],[100.89709472700001,34.98449707],[100.87927246100001,35.014526367],[100.86572265600002,35.048706055],[100.82672119100002,35.068115234],[100.79809570300002,35.086120605],[100.76171875000001,35.101318359],[100.73370361300002,35.116088867],[100.71990966800001,35.143920898],[100.74432373,35.169311523],[100.77331543000001,35.184509277],[100.81311035200001,35.206481934],[100.85290527300002,35.214904785],[100.90447998,35.218505859],[100.95092773400002,35.229309082],[100.94671630900001,35.262329102],[100.913879395,35.296875],[100.88287353500002,35.308898926],[100.84771728500002,35.330688477],[100.81451416000002,35.361328125],[100.76330566400001,35.364501953],[100.72772216800001,35.365905762],[100.69189453100002,35.379882812],[100.68530273400002,35.409484863],[100.71569824200002,35.422729492],[100.75653076200001,35.423706055],[100.812683105,35.424072266],[100.86907959000001,35.418518066],[100.92547607400002,35.407287598],[100.99151611300002,35.402893066],[101.04327392600001,35.399719238],[101.07867431600002,35.40032959],[101.14227294900002,35.403930664],[101.178710937,35.398681641],[101.21307373000002,35.394287109],[101.24468994100002,35.384094238],[101.28112793000001,35.375488281],[101.32092285200001,35.361083984],[101.354492187,35.345703125],[101.39190673800002,35.331115723],[101.44012451200001,35.3203125],[101.47650146500001,35.313903809],[101.504882812,35.332519531],[101.48010253900001,35.360473633],[101.46728515600002,35.385681152],[101.46868896500001,35.412719727],[101.48712158200001,35.441894531],[101.51251220700001,35.464111328],[101.56909179700001,35.500305176],[101.61712646500001,35.531677246],[101.64532470700001,35.555725098],[101.67791748000002,35.582702637],[101.70928955100001,35.611328125],[101.738098145,35.645080566],[101.79492187500001,35.707702637],[101.77551269500002,35.739685059],[101.74267578100002,35.74987793],[101.70690918000001,35.75390625],[101.67150878900001,35.770507812],[101.67468261700002,35.802124023],[101.68450927700002,35.832275391],[101.68951416000002,35.861083984],[101.68609619100002,35.887512207],[101.66748046900001,35.920288086],[101.62951660200001,35.951721191],[101.61688232400002,35.978271484],[101.627929687,36.009521484],[101.63671875000001,36.041503906],[101.63928222700001,36.069091797],[101.64190673800002,36.108276367],[101.64508056600002,36.147705078],[101.64367675800001,36.177490234],[101.64471435500002,36.213317871],[101.63647460900002,36.245117187],[101.61468505900001,36.275878906],[101.58911132800002,36.301086426],[101.57312011700002,36.337524414],[101.53088378900001,36.343078613],[101.49407959000001,36.347290039],[101.45227050800001,36.361083984],[101.413879395,36.385681152],[101.36108398400002,36.408874512],[101.31707763700001,36.378112793],[101.28930664100001,36.353515625],[101.22192382800002,36.335876465],[101.19750976600001,36.358703613],[101.16668701200001,36.38671875],[101.13592529300001,36.419921875],[101.10028076200001,36.457275391],[101.06872558600001,36.492675781],[101.04412841800001,36.515930176],[101.01007080100001,36.544677734],[100.99932861300002,36.577697754],[100.99029541000002,36.607116699],[100.96392822300001,36.647705078],[100.94427490200002,36.672119141],[100.92590332000002,36.706115723],[100.913879395,36.744873047],[100.90447998,36.785888672],[100.85467529300001,36.766723633],[100.82849121100001,36.748474121],[100.76049804700001,36.700073242],[100.730285645,36.730285645],[100.73889160200001,36.74432373],[100.70050048800002,36.742675781],[100.66949462900001,36.730895996],[100.60852050800001,36.736694336],[100.55987548800002,36.748474121],[100.52307128900001,36.770874023],[100.43389892600001,36.826721191],[100.41027832000002,36.832885742],[100.38848877,36.838928223],[100.36431884800001,36.843688965],[100.31610107400002,36.844116211],[100.28430175800001,36.84588623],[100.245117187,36.844299316],[100.23229980500001,36.846679687],[100.18347168000001,36.855895996],[100.17150878900001,36.864318848],[100.15270996100001,36.881103516],[100.12768554700001,36.896911621],[100.11749267600001,36.89831543],[100.10607910200001,36.900085449],[100.07189941400001,36.894714355],[100.06451416000002,36.890319824],[100.04711914100001,36.889709473],[100.02789306600002,36.891113281],[100.01110839800002,36.893310547],[100.00030517600001,36.902526855],[99.98388671900001,36.924682617],[99.96850585900002,36.942687988],[99.92108154300001,36.951721191],[99.88671875000001,36.950317383],[99.86187744100002,36.946472168],[99.84948730500001,36.952087402],[99.84948730500001,36.944274902],[99.836914062,36.954284668],[99.83471679700001,36.959472656],[99.83410644500002,36.959716797],[99.82208252,36.978088379],[99.81787109400001,36.982116699],[99.80108642600001,36.993530273],[99.76770019500002,36.997924805],[99.72967529300001,36.99810791],[99.70709228500002,37.015319824],[99.69891357400002,37.037475586],[99.66992187500001,37.054321289],[99.61590576200001,37.082275391],[99.58172607400002,37.100097656],[99.56372070300002,37.111328125],[99.52490234400001,37.117675781],[99.49609375000001,37.118530273],[99.46728515600002,37.127319336],[99.45031738300001,37.13848877],[99.48931884800001,37.079284668],[99.47308349600002,37.044494629],[99.43188476600001,37.041320801],[99.39770507800002,37.05847168],[99.354492187,37.072692871],[99.32110595700001,37.090881348],[99.27789306600002,37.081726074],[99.26007080100001,37.051330566],[99.25872802700002,37.024108887],[99.26470947300001,36.99230957],[99.26593017600001,36.960083008],[99.26727294900002,36.909729004],[99.27972412100002,36.864501953],[99.296875,36.830078125],[99.31768798800002,36.796081543],[99.33190918000001,36.762878418],[99.32550048800002,36.732727051],[99.30688476600001,36.699890137],[99.28588867200001,36.668884277],[99.26068115200002,36.634887695],[99.25427246100001,36.594482422],[99.27032470700001,36.558288574],[99.26708984400001,36.520324707],[99.24127197300001,36.491699219],[99.21289062500001,36.474487305],[99.16687011700002,36.45489502],[99.12310791000002,36.442687988],[99.07330322300001,36.42767334],[99.01812744100002,36.397277832],[99.046691895,36.352722168],[99.07672119100002,36.32409668],[99.08428955100001,36.293273926],[99.07647705100001,36.262084961],[99.05889892600001,36.228515625],[99.03088378900001,36.182312012],[99.00689697300001,36.150512695],[99.00927734400001,36.097473145],[99.02868652300002,36.068115234],[99.05010986300002,36.04510498],[99.06927490200002,36.017700195],[99.08227539100001,35.988708496],[99.09527587900001,35.954101562],[99.11828613300001,35.920471191],[99.12487793000001,35.894287109],[99.12628173800002,35.856689453],[99.14508056600002,35.813720703],[99.18969726600001,35.782897949],[99.20349121100001,35.75189209],[99.23413085900002,35.725280762],[99.27667236300002,35.717712402],[99.25811767600001,35.687683105],[99.25268554700001,35.655090332],[99.28692627,35.579101562],[99.26550293000001,35.549316406],[99.27947998,35.519897461],[99.30029296900001,35.492126465],[99.29290771500001,35.462280273],[99.27172851600001,35.430725098],[99.26232910200001,35.392883301],[99.24548339800002,35.363891602],[99.21728515600002,35.333679199],[99.195495605,35.304077148],[99.19592285200001,35.270874023],[99.25628662100002,35.24230957],[99.28448486300002,35.218322754],[99.30572509800001,35.188720703],[99.32391357400002,35.161315918],[99.38269043000001,35.119689941],[99.39447021500001,35.082702637],[99.40850830100001,35.051330566],[99.42572021500001,35.027893066],[99.45050048800002,35.002319336],[99.48547363300001,34.974914551],[99.51727294900002,34.962524414],[99.570129395,34.952514648],[99.61572265600002,34.935302734],[99.66589355500001,34.917907715],[99.70452880900001,34.903076172],[99.74731445300002,34.887084961],[99.780273437,34.871887207],[99.81048584000001,34.852905273],[99.846679687,34.846130371],[99.89288330100001,34.840881348],[99.93328857400002,34.830688477],[99.97369384800001,34.81427002],[100.01367187500001,34.816101074],[100.05010986300002,34.827087402],[100.10351562500001,34.834106445],[100.14868164100001,34.828674316],[100.1875,34.823730469],[100.22430419900002,34.836730957],[100.26568603500002,34.849304199],[100.31671142600001,34.871887207],[100.36108398400002,34.828674316],[100.37390136700002,34.8203125],[100.41809082000002,34.811279297],[100.47271728500002,34.812316895],[100.49688720700001,34.804870605],[100.50549316400001,34.799316406],[100.55688476600001,34.762695312],[100.63067627,34.699890137],[100.66851806600002,34.67767334],[100.704101562,34.674316406],[100.75231933600001,34.66229248],[100.78289794900002,34.667724609],[100.83270263700001,34.708679199],[100.88287353500002,34.712280273],[100.89587402300002,34.700927734],[100.90228271500001,34.679504395],[100.90350341800001,34.663330078]]]}}
