{"type":"Feature","id":"bulk-99377448B74363152093962","bbox":[117.53472900400001,35.918273926,118.51208496100001,37.299316406],"properties":{"id":"bulk-99377448B74363152093962","name":"Zibo","nameEn":"Zibo","fullName":"Zibo","level":"city","boundaryRole":"administrative-extent","boundaryQuality":"generalized-source-2020","boundaryYearRepresented":"2020","bounds":[[117.53472900400001,35.918273926],[118.51208496100001,37.299316406]],"center":[118.0234069825,36.608795166],"centerMethod":"bounding-box midpoint; camera framing only","license":"CC-BY-3.0-IGO","attribution":"geoBoundaries / HDX, China administrative boundaries (2020)","source":{"provider":"geoBoundaries gbHumanitarian / HDX","url":"https://github.com/wmgeolab/geoBoundaries/raw/9469f09/releaseData/gbHumanitarian/CHN/ADM2/geoBoundaries-CHN-ADM2.geojson","metadataUrl":"https://www.geoboundaries.org/api/current/gbHumanitarian/CHN/ADM2/","shapeID":"99377448B74363152093962","shapeName":"Zibo","boundaryID":"CHN-ADM2-99377448","commit":"9469f09"},"geometryCounts":{"coordinates":132,"components":1,"holes":0},"boundaryNotice":"geoBoundaries / HDX 2020 年行政区数据，海岸和边界经过源数据概化，并非当前测绘成果。"},"geometry":{"type":"Polygon","coordinates":[[[117.67968750000001,36.683105469],[117.67327880900001,36.654296875],[117.67010498000002,36.624694824],[117.67687988300001,36.586486816],[117.69348144500002,36.553710937],[117.70867919900002,36.524108887],[117.75091552700002,36.493530273],[117.75152587900001,36.461914062],[117.76947021500001,36.432128906],[117.80749511700002,36.410095215],[117.81927490200002,36.375305176],[117.84448242200001,36.346313477],[117.88647460900002,36.32989502],[117.92071533200001,36.313720703],[117.92932128900001,36.278076172],[117.95568847700001,36.255126953],[117.96148681600002,36.213317871],[117.95471191400001,36.176086426],[117.92028808600001,36.153076172],[117.88812255900001,36.121276855],[117.86492919900002,36.091308594],[117.83728027300002,36.059875488],[117.82031250000001,36.034484863],[117.83587646500001,35.989685059],[117.87628173800002,35.991271973],[117.91271972700001,35.981323242],[117.91851806600002,35.945495605],[117.97467041000002,35.952514648],[118.01208496100001,35.974487305],[118.06567382800002,36.017883301],[118.10607910200001,36.041503906],[118.14630127,36.035705566],[118.16210937500001,36.008728027],[118.17327880900001,35.977478027],[118.18969726600001,35.94732666],[118.22131347700001,35.918273926],[118.28509521500001,35.943908691],[118.32788085900002,35.958496094],[118.37231445300002,35.96472168],[118.421691895,35.955688477],[118.45428466800001,35.934509277],[118.48992919900002,35.943115234],[118.46508789100001,35.973083496],[118.47552490200002,36.001281738],[118.50451660200001,36.015930176],[118.51208496100001,36.042114258],[118.48748779300001,36.069091797],[118.44848632800002,36.082275391],[118.43872070300002,36.109680176],[118.40789794900002,36.133300781],[118.36407470700001,36.147277832],[118.35552978500002,36.177307129],[118.34887695300002,36.213684082],[118.32788085900002,36.239501953],[118.29168701200001,36.23449707],[118.28332519500002,36.267272949],[118.26312255900001,36.298706055],[118.22967529300001,36.325073242],[118.18847656200002,36.353515625],[118.18872070300002,36.386474609],[118.19390869100002,36.417480469],[118.17633056600002,36.454101562],[118.14508056600002,36.485717773],[118.11987304700001,36.50567627],[118.12188720700001,36.539916992],[118.15209960900002,36.564697266],[118.17547607400002,36.590515137],[118.19232177700002,36.623718262],[118.20007324200002,36.662109375],[118.21728515600002,36.697692871],[118.26269531200002,36.72088623],[118.29571533200001,36.733520508],[118.32952880900001,36.74432373],[118.36492919900002,36.758483887],[118.39892578100002,36.771118164],[118.43829345700001,36.795715332],[118.45672607400002,36.830078125],[118.45971679700001,36.857299805],[118.46368408200001,36.895080566],[118.48828125000001,36.919494629],[118.43048095700001,36.931274414],[118.39752197300001,36.922729492],[118.37487793000001,36.945129395],[118.33087158200001,36.952087402],[118.28833007800002,36.942077637],[118.24847412100002,36.98651123],[118.20788574200002,36.970092773],[118.17291259800001,36.944702148],[118.14111328100002,36.968688965],[118.13452148400002,36.996704102],[118.13452148400002,37.027099609],[118.13311767600001,37.065673828],[118.09088134800001,37.068908691],[118.03192138700001,37.082702637],[118.02752685500002,37.129089355],[118.04010009800001,37.155273437],[118.04010009800001,37.221313477],[118.01129150400001,37.247680664],[117.99090576200001,37.277282715],[117.96691894500002,37.299316406],[117.90509033200001,37.274291992],[117.79931640600002,37.260498047],[117.72827148400002,37.237121582],[117.65112304700001,37.246887207],[117.60327148400002,37.25970459],[117.56890869100002,37.173706055],[117.53631591800001,37.14050293],[117.53472900400001,37.125488281],[117.54248046900001,37.104919434],[117.56671142600001,37.085876465],[117.59490966800001,37.07409668],[117.62390136700002,37.07232666],[117.73187255900001,37.045715332],[117.76849365200002,37.053710937],[117.79711914100001,37.046875],[117.81329345700001,37.045898437],[117.78790283200001,37.00592041],[117.81591796900001,36.989318848],[117.855285645,36.978088379],[117.86767578100002,36.943725586],[117.89709472700001,36.917724609],[117.92712402300002,36.888916016],[117.921875,36.856323242],[117.87292480500001,36.853271484],[117.83148193400001,36.835693359],[117.80291748000002,36.819885254],[117.77807617200001,36.796325684],[117.76892089800002,36.769104004],[117.76647949200002,36.732116699],[117.753723145,36.707275391],[117.71807861300002,36.690124512],[117.67968750000001,36.683105469]]]}}
