{"type":"Feature","id":"bulk-99377448B58175124167593","bbox":[110.24572753900001,29.96307373,112.05810546900001,31.58190918],"properties":{"id":"bulk-99377448B58175124167593","name":"Yichang","nameEn":"Yichang","fullName":"Yichang","level":"city","boundaryRole":"administrative-extent","boundaryQuality":"generalized-source-2020","boundaryYearRepresented":"2020","bounds":[[110.24572753900001,29.96307373],[112.05810546900001,31.58190918]],"center":[111.15191650400001,30.772491455],"centerMethod":"bounding-box midpoint; camera framing only","license":"CC-BY-3.0-IGO","attribution":"geoBoundaries / HDX, China administrative boundaries (2020)","source":{"provider":"geoBoundaries gbHumanitarian / HDX","url":"https://github.com/wmgeolab/geoBoundaries/raw/9469f09/releaseData/gbHumanitarian/CHN/ADM2/geoBoundaries-CHN-ADM2.geojson","metadataUrl":"https://www.geoboundaries.org/api/current/gbHumanitarian/CHN/ADM2/","shapeID":"99377448B58175124167593","shapeName":"Yichang","boundaryID":"CHN-ADM2-99377448","commit":"9469f09"},"geometryCounts":{"coordinates":181,"components":1,"holes":0},"boundaryNotice":"geoBoundaries / HDX 2020 年行政区数据，海岸和边界经过源数据概化，并非当前测绘成果。"},"geometry":{"type":"Polygon","coordinates":[[[110.48590087900001,30.019104004],[110.46691894500002,30.035522461],[110.49511718700002,30.043518066],[110.55169677700002,30.054321289],[110.63568115200002,30.0625],[110.65869140600002,30.045715332],[110.67248535200001,30.042114258],[110.71429443400001,30.058288574],[110.70050048800002,30.087524414],[110.71832275400001,30.10168457],[110.78131103500002,30.125915527],[110.83367919900002,30.13470459],[110.86108398400002,30.125915527],[110.91351318400001,30.041503906],[110.94708252,30.016479492],[111.03210449200002,30.03692627],[111.09387207000002,30.044677734],[111.14532470700001,30.042907715],[111.18927002,30.032104492],[111.23431396500001,30.019470215],[111.26409912100002,29.997680664],[111.27850341800001,30.037902832],[111.30987548800002,30.043518066],[111.32891845700001,30.077514648],[111.32989502,30.113891602],[111.36029052700002,30.127929687],[111.39428710900002,30.116271973],[111.42828369100002,30.101928711],[111.46008300800001,30.094482422],[111.50708007800002,30.099304199],[111.54010009800001,30.114074707],[111.56390380900001,30.135681152],[111.56408691400001,30.166687012],[111.56768798800002,30.203674316],[111.58227539100001,30.241516113],[111.56689453100002,30.267700195],[111.59613037100002,30.288513184],[111.60809326200001,30.319274902],[111.61492919900002,30.351074219],[111.65228271500001,30.378112793],[111.69250488300001,30.394714355],[111.72991943400001,30.404296875],[111.74108886700002,30.373291016],[111.74108886700002,30.344726562],[111.75469970700001,30.316894531],[111.80468750000001,30.299926758],[111.84588623000002,30.302307129],[111.87207031200002,30.318115234],[111.89068603500002,30.348693848],[111.91528320300002,30.328308105],[111.92852783200001,30.296325684],[111.95648193400001,30.272888184],[112.01690673800002,30.260925293],[112.00750732400002,30.322875977],[111.97668457000002,30.343505859],[111.953125,30.36907959],[111.94647216800001,30.405273437],[111.94610595700001,30.434082031],[111.91632080100001,30.445678711],[111.88171386700002,30.440124512],[111.87371826200001,30.466491699],[111.88671875000001,30.499084473],[111.91888427700002,30.525512695],[111.95147705100001,30.531311035],[111.96191406200002,30.559326172],[111.96148681600002,30.586120605],[111.96551513700001,30.616088867],[112.00292968700002,30.641113281],[112.05810546900001,30.66229248],[112.04028320300002,30.711914062],[112.03527832000002,30.745117187],[112.03588867200001,30.77947998],[112.02447509800001,30.814697266],[112.00427246100001,30.861083984],[111.995910645,30.900695801],[111.99987793000001,30.937683105],[111.99548339800002,30.970275879],[111.980285645,30.996276855],[111.95690918000001,31.020507812],[111.92730712900001,31.041320801],[111.90447998000002,31.06072998],[111.89929199200002,31.096130371],[111.90289306600002,31.130126953],[111.89892578100002,31.169311523],[111.86669921900001,31.219482422],[111.84667968700002,31.248291016],[111.81048584000001,31.23828125],[111.77947998000002,31.259887695],[111.74487304700001,31.286499023],[111.71807861300002,31.307922363],[111.71667480500001,31.336486816],[111.70648193400001,31.370483398],[111.66491699200002,31.376708984],[111.61230468700002,31.379882812],[111.57727050800001,31.366088867],[111.55651855500001,31.338928223],[111.52288818400001,31.313293457],[111.49047851600001,31.307678223],[111.45648193400001,31.307312012],[111.42932128900001,31.321899414],[111.40869140600002,31.343505859],[111.38769531200002,31.379882812],[111.33471679700001,31.364501953],[111.29608154300001,31.370300293],[111.27252197300001,31.395080566],[111.24688720700001,31.432312012],[111.22808837900001,31.463684082],[111.19030761700002,31.467895508],[111.16711425800001,31.444091797],[111.13647460900002,31.459472656],[111.10650634800001,31.442321777],[111.07391357400002,31.433105469],[111.03649902300002,31.432678223],[111.01971435500002,31.459472656],[111.02252197300001,31.488891602],[111.02148437500001,31.519287109],[111.003723145,31.55847168],[110.96612548800002,31.557312012],[110.92248535200001,31.58190918],[110.89971923800002,31.532897949],[110.85968017600001,31.508483887],[110.81970214800002,31.527282715],[110.78851318400001,31.553100586],[110.74468994100002,31.550292969],[110.71832275400001,31.533691406],[110.68908691400001,31.521728516],[110.68151855500001,31.487915039],[110.63909912100002,31.480102539],[110.59869384800001,31.482727051],[110.58111572300001,31.459716797],[110.58752441400001,31.426330566],[110.57788085900002,31.393493652],[110.55847168000001,31.365478516],[110.55627441400001,31.337524414],[110.52447509800001,31.332702637],[110.48590087900001,31.346313477],[110.44470214800002,31.330871582],[110.41790771500001,31.28692627],[110.44372558600001,31.260314941],[110.47070312500001,31.231689453],[110.48272705100001,31.206481934],[110.49810791000002,31.16027832],[110.50347900400001,31.102111816],[110.46289062500001,31.065307617],[110.44287109400001,31.032287598],[110.43768310500002,31.00012207],[110.421875,30.967529297],[110.40747070300002,30.932128906],[110.42010498000002,30.895080566],[110.39910888700001,30.874694824],[110.37908935500002,30.840270996],[110.34051513700001,30.782897949],[110.39630127,30.789916992],[110.42791748000002,30.76171875],[110.41967773400002,30.686889648],[110.41931152300002,30.642700195],[110.42889404300001,30.598510742],[110.44470214800002,30.562072754],[110.44848632800002,30.530090332],[110.40869140600002,30.511474609],[110.36407470700001,30.507507324],[110.34069824200002,30.47668457],[110.33032226600001,30.434326172],[110.32928466800001,30.401123047],[110.33551025400001,30.359924316],[110.33972168000001,30.313476562],[110.34112548800002,30.283081055],[110.33007812500001,30.248291016],[110.28649902300002,30.250671387],[110.24572753900001,30.254699707],[110.25207519500002,30.220275879],[110.26727294900002,30.193115234],[110.28448486300002,30.145874023],[110.29870605500001,30.106323242],[110.29071044900002,30.068725586],[110.30090332000002,30.024475098],[110.32110595700001,29.983703613],[110.34649658200001,29.96307373],[110.38372802700002,29.965515137],[110.42309570300002,29.979125977],[110.48590087900001,30.019104004]]]}}
