{"type":"Feature","id":"bulk-99377448B89989922127989","bbox":[74.483703613,35.457275391,79.86212158200001,40.252502441],"properties":{"id":"bulk-99377448B89989922127989","name":"Kashi Prefecture","nameEn":"Kashi Prefecture","fullName":"Kashi Prefecture","level":"city","boundaryRole":"administrative-extent","boundaryQuality":"generalized-source-2020","boundaryYearRepresented":"2020","bounds":[[74.483703613,35.457275391],[79.86212158200001,40.252502441]],"center":[77.17291259750002,37.854888916],"centerMethod":"bounding-box midpoint; camera framing only","license":"CC-BY-3.0-IGO","attribution":"geoBoundaries / HDX, China administrative boundaries (2020)","source":{"provider":"geoBoundaries gbHumanitarian / HDX","url":"https://github.com/wmgeolab/geoBoundaries/raw/9469f09/releaseData/gbHumanitarian/CHN/ADM2/geoBoundaries-CHN-ADM2.geojson","metadataUrl":"https://www.geoboundaries.org/api/current/gbHumanitarian/CHN/ADM2/","shapeID":"99377448B89989922127989","shapeName":"Kashi Prefecture","boundaryID":"CHN-ADM2-99377448","commit":"9469f09"},"geometryCounts":{"coordinates":999,"components":1,"holes":0},"boundaryNotice":"geoBoundaries / HDX 2020 年行政区数据，海岸和边界经过源数据概化，并非当前测绘成果。"},"geometry":{"type":"Polygon","coordinates":[[[78.08209228500002,40.252502441],[78.00848388700001,40.243713379],[77.96368408200001,40.23248291],[77.92968750000001,40.217102051],[77.90393066400001,40.196472168],[77.85467529300001,40.174316406],[77.80609130900001,40.156921387],[77.762695312,40.145507812],[77.71667480500001,40.129699707],[77.709106445,40.075500488],[77.70007324200002,40.044494629],[77.66949462900001,40.01751709],[77.600524902,40.012329102],[77.54327392600001,40.004882812],[77.496276855,39.998474121],[77.452514648,39.99029541],[77.40728759800001,39.972473145],[77.376281738,39.956481934],[77.39367675800001,39.91027832],[77.367675781,39.854675293],[77.28430175800001,39.838928223],[77.225524902,39.834289551],[77.170898437,39.838684082],[77.118530273,39.844909668],[77.08349609400001,39.875671387],[77.09912109400001,39.90447998],[77.08111572300001,39.940490723],[77.03912353500002,39.950073242],[77.00189209000001,39.955505371],[76.96270752,39.959472656],[76.902526855,39.964904785],[76.86047363300001,39.964904785],[76.82928466800001,39.944519043],[76.847473145,39.91809082],[76.87512207,39.886108398],[76.86907959000001,39.858276367],[76.850891113,39.826904297],[76.851318359,39.782470703],[76.84692382800002,39.75189209],[76.80108642600001,39.728088379],[76.75152587900001,39.69708252],[76.70849609400001,39.674316406],[76.67449951200001,39.655273437],[76.64648437500001,39.635070801],[76.620910645,39.610473633],[76.59210205100001,39.589477539],[76.55072021500001,39.580322266],[76.488098145,39.573486328],[76.436096191,39.574279785],[76.38909912100002,39.582885742],[76.34252929700001,39.591674805],[76.295898437,39.589477539],[76.261474609,39.577880859],[76.218078613,39.55871582],[76.182495117,39.551696777],[76.124328613,39.547729492],[76.07189941400001,39.554504395],[76.03527832,39.563110352],[75.992675781,39.572692871],[75.936523437,39.577087402],[75.900878906,39.571899414],[75.86291503900001,39.566711426],[75.81091308600001,39.565917969],[75.74987793000001,39.582519531],[75.71307373,39.580505371],[75.67590332,39.597900391],[75.65728759800001,39.629516602],[75.63427734400001,39.649902344],[75.600891113,39.67590332],[75.50390625000001,39.643493652],[75.46087646500001,39.618286133],[75.42932128900001,39.58807373],[75.409484863,39.554077148],[75.399291992,39.510681152],[75.39831543000001,39.480712891],[75.39611816400001,39.450927734],[75.384094238,39.42590332],[75.358276367,39.404296875],[75.33789062500001,39.373901367],[75.33709716800001,39.32232666],[75.332885742,39.294494629],[75.332885742,39.26550293],[75.33752441400001,39.210876465],[75.33911132800002,39.161499023],[75.34008789100001,39.115722656],[75.34967041000002,39.079528809],[75.364929199,39.038513184],[75.38812255900001,39.008300781],[75.45770263700001,38.992126465],[75.50689697300001,39.00390625],[75.548522949,39.045715332],[75.57092285200001,39.083312988],[75.57891845700001,39.127929687],[75.586914062,39.168273926],[75.59210205100001,39.204528809],[75.602478027,39.233520508],[75.637695312,39.248474121],[75.68029785200001,39.240478516],[75.69927978500002,39.212524414],[75.70068359400001,39.181274414],[75.68829345700001,39.144714355],[75.65692138700001,39.118530273],[75.63592529300001,39.080322266],[75.62811279300001,39.049072266],[75.620117187,39.01348877],[75.63970947300001,38.990478516],[75.693115234,38.987121582],[75.74047851600001,39.018676758],[75.75787353500002,39.063110352],[75.76831054700001,39.111083984],[75.79028320300002,39.143676758],[75.82727050800001,39.157287598],[75.85968017600001,39.170288086],[75.88909912100002,39.195129395],[75.902099609,39.221313477],[75.909912109,39.263916016],[75.932495117,39.3046875],[75.99951171900001,39.27331543],[76.026672363,39.25567627],[76.082885742,39.226501465],[76.13549804700001,39.214477539],[76.096679687,39.149291992],[76.12951660200001,39.118286133],[76.15411377,39.097717285],[76.177124023,39.061889648],[76.17370605500001,39.025085449],[76.129882812,39.00390625],[76.086486816,39.000671387],[76.046691895,38.98828125],[75.986877441,38.981689453],[75.93811035200001,38.978271484],[75.903686523,38.958496094],[75.86547851600001,38.938903809],[75.83349609400001,38.910095215],[75.879089355,38.87310791],[75.903320312,38.853515625],[75.960327148,38.811096191],[75.99090576200001,38.783874512],[76.03790283200001,38.752929687],[76.06451416000002,38.73449707],[76.11431884800001,38.694091797],[76.14691162100002,38.671081543],[76.184509277,38.652893066],[76.22088623,38.634277344],[76.29248046900001,38.600097656],[76.33068847700001,38.580871582],[76.38507080100001,38.554870605],[76.41668701200001,38.537475586],[76.46832275400001,38.50567627],[76.49768066400001,38.490722656],[76.551696777,38.461730957],[76.584472656,38.445678711],[76.62768554700001,38.448486328],[76.65850830100001,38.407104492],[76.696289062,38.358520508],[76.707519531,38.319091797],[76.72332763700001,38.283691406],[76.722473145,38.25567627],[76.70892334000001,38.222473145],[76.692687988,38.198486328],[76.65588378900001,38.166503906],[76.625488281,38.139709473],[76.61590576200001,38.110717773],[76.61431884800001,38.076904297],[76.60729980500001,38.042724609],[76.58990478500002,38.007080078],[76.56329345700001,37.977294922],[76.52947998,37.943908691],[76.51629638700001,37.906921387],[76.51129150400001,37.872680664],[76.45892334000001,37.859680176],[76.42572021500001,37.842712402],[76.398925781,37.80847168],[76.36389160200001,37.805908203],[76.328674316,37.762084961],[76.316894531,37.732116699],[76.27429199200002,37.72088623],[76.22131347700001,37.72869873],[76.168518066,37.717529297],[76.12731933600001,37.726074219],[76.075500488,37.718505859],[76.034118652,37.729492187],[76.017272949,37.760925293],[75.966491699,37.747070312],[75.93170166000002,37.715698242],[75.89532470700001,37.726074219],[75.895874023,37.770690918],[75.91528320300002,37.809875488],[75.92248535200001,37.848510742],[75.89672851600001,37.87487793],[75.84869384800001,37.877502441],[75.802124023,37.87487793],[75.74487304700001,37.876281738],[75.687683105,37.863708496],[75.627075195,37.856506348],[75.584106445,37.876708984],[75.53833007800002,37.896728516],[75.48632812500001,37.910705566],[75.446289062,37.957092285],[75.445129395,38.006103516],[75.43432617200001,38.050476074],[75.410705566,38.095092773],[75.403320312,38.121520996],[75.376281738,38.16192627],[75.35552978500002,38.188476562],[75.30627441400001,38.1875],[75.26049804700001,38.166503906],[75.21667480500001,38.174926758],[75.17852783200001,38.187072754],[75.16949462900001,38.219909668],[75.16589355500001,38.256286621],[75.136108398,38.283691406],[75.100097656,38.291870117],[75.03729248,38.315307617],[74.98388671900001,38.334716797],[74.94531250000001,38.347106934],[74.913879395,38.37689209],[74.86950683600001,38.40447998],[74.86950683600001,38.404296875],[74.86950683600001,38.403503418],[74.862670898,38.388305664],[74.85028076200001,38.37487793],[74.84912109400001,38.371520996],[74.84332275400001,38.367126465],[74.835693359,38.361328125],[74.83068847700001,38.360290527],[74.824707031,38.359130859],[74.82110595700001,38.359924316],[74.811889648,38.349914551],[74.78710937500001,38.338928223],[74.79248046900001,38.300292969],[74.79290771500001,38.299499512],[74.79528808600001,38.290710449],[74.79412841800001,38.288085937],[74.79870605500001,38.256896973],[74.80187988300001,38.226501465],[74.80230712900001,38.225524902],[74.802124023,38.224121094],[74.80267334000001,38.217712402],[74.84411621100001,38.068481445],[74.84649658200001,38.067321777],[74.84967041000002,38.062927246],[74.85070800800001,38.05847168],[74.86749267600001,38.048278809],[74.94409179700001,38.015319824],[74.92291259800001,37.958496094],[74.91528320300002,37.938110352],[74.92327880900001,37.903930664],[74.966491699,37.818481445],[74.97729492200001,37.799499512],[74.98510742200001,37.793273926],[74.987670898,37.789306641],[74.99328613300001,37.779724121],[74.994689941,37.774291992],[74.996276855,37.76751709],[74.99572753900001,37.764892578],[74.995117187,37.762878418],[74.98168945300002,37.754089355],[74.97467041000002,37.737487793],[74.94732666000002,37.703674316],[74.92010498,37.67767334],[74.90393066400001,37.649108887],[74.913085937,37.625915527],[74.91607666000002,37.620910645],[74.929504395,37.601928711],[74.965698242,37.55847168],[75.00567627,37.533691406],[75.003723145,37.544128418],[75.004089355,37.545715332],[75.00512695300002,37.548706055],[75.010314941,37.550109863],[75.01208496100001,37.550476074],[75.01287841800001,37.550292969],[75.020080566,37.547912598],[75.02612304700001,37.543273926],[75.038879395,37.533874512],[75.04888916000002,37.529907227],[75.05548095700001,37.527282715],[75.05969238300001,37.52130127],[75.0625,37.517272949],[75.06207275400001,37.513305664],[75.069274902,37.503112793],[75.11169433600001,37.47668457],[75.137695312,37.456298828],[75.15228271500001,37.436523437],[75.141113281,37.41607666],[75.13427734400001,37.393920898],[75.16448974600002,37.362304687],[75.134094238,37.340270996],[75.12170410200001,37.331726074],[75.12451171900001,37.326721191],[75.11627197300001,37.3203125],[75.10729980500001,37.318115234],[75.102111816,37.316894531],[75.10028076200001,37.316894531],[75.09387207,37.3125],[75.045898437,37.309875488],[75.04449462900001,37.309509277],[75.043884277,37.309326172],[75.043518066,37.309082031],[75.032897949,37.302307129],[75.02172851600001,37.297912598],[75.00427246100001,37.290893555],[75.00012207,37.290893555],[74.96710205100001,37.29107666],[74.93811035200001,37.274475098],[74.91448974600002,37.258117676],[74.91351318400001,37.24987793],[74.91333007800002,37.247680664],[74.909484863,37.239685059],[74.900512695,37.23651123],[74.89849853500002,37.235717773],[74.89050293000001,37.234924316],[74.88989257800002,37.234130859],[74.88787841800001,37.229919434],[74.88848877,37.223510742],[74.884887695,37.221496582],[74.878723145,37.221496582],[74.87188720700001,37.225097656],[74.86730957,37.222473145],[74.858703613,37.224487305],[74.85510253900001,37.219116211],[74.84631347700001,37.219482422],[74.843078613,37.217285156],[74.83508300800001,37.219116211],[74.83007812500001,37.215270996],[74.82031250000001,37.216125488],[74.817687988,37.214477539],[74.809082031,37.21472168],[74.80529785200001,37.219299316],[74.80267334000001,37.227111816],[74.79907226600001,37.229919434],[74.80187988300001,37.236328125],[74.79827880900001,37.241699219],[74.79809570300002,37.245300293],[74.79168701200001,37.249084473],[74.78009033200001,37.251708984],[74.77807617200001,37.254882812],[74.77770996100001,37.260070801],[74.767272949,37.264709473],[74.75531005900001,37.278076172],[74.733276367,37.283508301],[74.708312988,37.274719238],[74.70611572300001,37.271484375],[74.69848632800002,37.265930176],[74.693908691,37.266113281],[74.682495117,37.257324219],[74.68090820300002,37.258911133],[74.67889404300001,37.257324219],[74.67407226600001,37.248718262],[74.66607666000002,37.242675781],[74.664916992,37.236694336],[74.658325195,37.23449707],[74.645507812,37.239685059],[74.644287109,37.247497559],[74.64672851600001,37.251281738],[74.63732910200001,37.256896973],[74.635681152,37.260314941],[74.63049316400001,37.264709473],[74.62847900400001,37.261474609],[74.61468505900001,37.254516602],[74.613098145,37.254882812],[74.61291503900001,37.254516602],[74.58990478500002,37.252929687],[74.58868408200001,37.248901367],[74.59027099600002,37.245117187],[74.585693359,37.237670898],[74.58209228500002,37.235717773],[74.57110595700001,37.235717773],[74.567687988,37.239685059],[74.56207275400001,37.239929199],[74.55767822300001,37.242675781],[74.551330566,37.243286133],[74.549682617,37.244689941],[74.54290771500001,37.249328613],[74.53869628900001,37.244506836],[74.533691406,37.24230957],[74.52490234400001,37.243713379],[74.51788330100001,37.24407959],[74.51129150400001,37.24230957],[74.50109863300001,37.237121582],[74.50109863300001,37.234924316],[74.49871826200001,37.230895996],[74.50030517600001,37.224487305],[74.502075195,37.221923828],[74.50109863300001,37.221313477],[74.50567627,37.20111084],[74.483703613,37.144897461],[74.502075195,37.120300293],[74.50451660200001,37.095092773],[74.52172851600001,37.078674316],[74.52648925800001,37.080322266],[74.53308105500001,37.077270508],[74.533691406,37.07208252],[74.53790283200001,37.06427002],[74.53729248,37.063903809],[74.568908691,37.033874512],[74.571289062,37.033691406],[74.57189941400001,37.033874512],[74.57531738300001,37.034301758],[74.59912109400001,37.039489746],[74.61389160200001,37.043884277],[74.61529541000002,37.044921875],[74.618103027,37.048095703],[74.623901367,37.054321289],[74.62609863300001,37.063110352],[74.63012695300002,37.067077637],[74.645080566,37.071716309],[74.65612793000001,37.074279785],[74.66052246100001,37.075317383],[74.669311523,37.080688477],[74.68310546900001,37.08392334],[74.690307617,37.088317871],[74.69952392600001,37.089477539],[74.70629882800002,37.084899902],[74.70648193400001,37.08392334],[74.72888183600001,37.06829834],[74.74652099600002,37.032287598],[74.796875,37.04888916],[74.804077148,37.0546875],[74.81591796900001,37.055114746],[74.81707763700001,37.055480957],[74.81750488300001,37.055297852],[74.834899902,37.055908203],[74.844299316,37.057495117],[74.84570312500001,37.043884277],[74.84368896500001,37.031677246],[74.841491699,37.02532959],[74.853271484,37.006530762],[74.854492187,37.00390625],[74.857910156,37.002075195],[74.862304687,36.996704102],[74.86730957,36.990905762],[74.87268066400001,36.981079102],[74.87487793000001,36.972717285],[74.88128662100002,36.960083008],[74.920898437,36.9453125],[74.924316406,36.944885254],[74.92492675800001,36.944885254],[74.929077148,36.96307373],[74.927490234,36.967529297],[74.92529296900001,36.972106934],[74.924682617,36.978515625],[74.93231201200001,36.983093262],[74.93371582,36.983703613],[74.936523437,36.99609375],[74.98669433600001,37.018127441],[75.02209472700001,37.011901855],[75.02227783200001,37.011901855],[75.02947998,37.017089844],[75.03967285200001,37.016479492],[75.04992675800001,37.011474609],[75.06011962900001,37.006286621],[75.061523437,37.006286621],[75.102478027,37.019897461],[75.12487793000001,37.034912109],[75.13830566400001,37.024719238],[75.145080566,37.026306152],[75.168884277,37.014099121],[75.16711425800001,37.002929687],[75.18347168000001,36.990478516],[75.21508789100001,36.97467041],[75.217285156,36.974487305],[75.223510742,36.971496582],[75.22869873,36.968322754],[75.24572753900001,36.964294434],[75.25390625000001,36.965698242],[75.26092529300001,36.967895508],[75.267272949,36.971130371],[75.285705566,36.974914551],[75.30151367200001,36.973510742],[75.31488037100002,36.97088623],[75.31512451200001,36.97088623],[75.36212158200001,36.982116699],[75.40692138700001,36.958496094],[75.40667724600002,36.955688477],[75.41027832,36.954711914],[75.41369628900001,36.949523926],[75.41448974600002,36.93927002],[75.41052246100001,36.93572998],[75.40551757800002,36.93347168],[75.40447998,36.916687012],[75.420898437,36.884277344],[75.42108154300001,36.883911133],[75.42687988300001,36.873474121],[75.427124023,36.871704102],[75.42852783200001,36.868896484],[75.42889404300001,36.860473633],[75.43029785200001,36.848083496],[75.43011474600002,36.84387207],[75.43127441400001,36.833496094],[75.43090820300002,36.832519531],[75.436889648,36.799499512],[75.448913574,36.753295898],[75.47027587900001,36.722717285],[75.479492187,36.732727051],[75.48748779300001,36.739501953],[75.495483398,36.741882324],[75.501708984,36.74407959],[75.50567627,36.738708496],[75.53271484400001,36.730102539],[75.533691406,36.733276367],[75.53149414100001,36.747497559],[75.53112793000001,36.753723145],[75.533691406,36.764709473],[75.534484863,36.773681641],[75.54571533200001,36.771911621],[75.55029296900001,36.786682129],[75.601318359,36.796508789],[75.68969726600001,36.776489258],[75.745117187,36.75012207],[75.80090332,36.718078613],[75.857910156,36.680725098],[75.902526855,36.640686035],[75.93469238300001,36.603088379],[75.93969726600001,36.600891113],[75.943481445,36.600891113],[75.93792724600002,36.597717285],[75.93432617200001,36.590698242],[75.93432617200001,36.590270996],[75.933288574,36.57208252],[75.94531250000001,36.557128906],[75.94830322300001,36.5546875],[75.95147705100001,36.549499512],[75.96270752,36.53527832],[76.00451660200001,36.501281738],[76.030273437,36.472106934],[76.016479492,36.464477539],[76.01947021500001,36.439880371],[76.02148437500001,36.437316895],[76.02532959000001,36.430114746],[76.02728271500001,36.424682617],[76.03192138700001,36.409729004],[76.02911377,36.398681641],[76.02447509800001,36.391113281],[76.01312255900001,36.387695312],[76.00811767600001,36.384094238],[76.00268554700001,36.375488281],[75.995117187,36.355285645],[75.990722656,36.330322266],[76.00927734400001,36.303100586],[76.01348877,36.301696777],[76.020080566,36.294494629],[76.02569580100001,36.28692627],[76.02728271500001,36.276306152],[76.03509521500001,36.264892578],[76.04107666000002,36.260070801],[76.05230712900001,36.253295898],[76.05889892600001,36.243103027],[76.06207275400001,36.231079102],[76.05810546900001,36.225891113],[76.05267334000001,36.225524902],[76.04492187500001,36.228881836],[76.02807617200001,36.233276367],[76.020507812,36.235107422],[76.00891113300001,36.225891113],[76.00927734400001,36.217285156],[76.011108398,36.206481934],[76.011474609,36.198303223],[76.01312255900001,36.18927002],[76.01287841800001,36.179504395],[76.01367187500001,36.172485352],[76.01348877,36.16607666],[75.99230957,36.162109375],[75.97570800800001,36.162719727],[75.96551513700001,36.159301758],[75.97210693400001,36.149291992],[75.96051025400001,36.141479492],[75.940307617,36.138671875],[75.93371582,36.135681152],[75.93170166000002,36.127319336],[75.94012451200001,36.122314453],[75.946289062,36.11730957],[75.945129395,36.112487793],[75.94128418000001,36.105102539],[75.94329834000001,36.093688965],[75.94671630900001,36.087890625],[75.95452880900001,36.079711914],[75.94689941400001,36.071105957],[75.95489502,36.068908691],[75.95507812500001,36.059326172],[75.958679199,36.052490234],[75.96087646500001,36.049682617],[75.98150634800001,36.031494141],[75.99029541000002,36.026916504],[76.00067138700001,36.022888184],[76.01171875000001,36.018920898],[76.01867675800001,36.01751709],[76.025512695,36.017883301],[76.038085937,36.026123047],[76.041503906,36.027526855],[76.05511474600002,36.026916504],[76.06372070300002,36.026306152],[76.075073242,36.025695801],[76.08630371100001,36.023925781],[76.094299316,36.023071289],[76.10107421900001,36.019470215],[76.10150146500001,36.013305664],[76.100097656,36.00012207],[76.10272216800001,35.995300293],[76.104492187,35.989318848],[76.109924316,35.982116699],[76.11407470700001,35.975708008],[76.11987304700001,35.96887207],[76.12847900400001,35.962280273],[76.133300781,35.955871582],[76.13867187500001,35.950073242],[76.14489746100001,35.940673828],[76.15032959000001,35.935302734],[76.15393066400001,35.927490234],[76.159912109,35.917480469],[76.16192627,35.909484863],[76.16088867200001,35.903686523],[76.158691406,35.897094727],[76.15509033200001,35.889892578],[76.159484863,35.856506348],[76.152526855,35.828674316],[76.15747070300002,35.825073242],[76.16949462900001,35.822875977],[76.18591308600001,35.823486328],[76.20068359400001,35.824707031],[76.21331787100002,35.823913574],[76.21868896500001,35.824279785],[76.22308349600002,35.826904297],[76.22491455100001,35.832702637],[76.225891113,35.837890625],[76.23150634800001,35.838928223],[76.23968505900001,35.839111328],[76.24670410200001,35.839111328],[76.25231933600001,35.837890625],[76.26232910200001,35.83770752],[76.27490234400001,35.83972168],[76.283691406,35.842285156],[76.29608154300001,35.842285156],[76.30511474600002,35.83770752],[76.310302734,35.835876465],[76.32727050800001,35.830078125],[76.336486816,35.828918457],[76.34887695300002,35.827087402],[76.363098145,35.824890137],[76.36407470700001,35.827880859],[76.35888671900001,35.842102051],[76.35552978500002,35.850097656],[76.35748291000002,35.858520508],[76.366882324,35.864074707],[76.38110351600001,35.857910156],[76.400085449,35.852905273],[76.42651367200001,35.855102539],[76.434509277,35.856323242],[76.44067382800002,35.860473633],[76.44671630900001,35.866088867],[76.45507812500001,35.875671387],[76.46173095700001,35.882080078],[76.46887207,35.88671875],[76.47930908200001,35.889892578],[76.48907470700001,35.889892578],[76.512695312,35.881896973],[76.53729248,35.897277832],[76.54309082,35.903930664],[76.54650878900001,35.92010498],[76.55548095700001,35.924072266],[76.57348632800002,35.921875],[76.58508300800001,35.915100098],[76.59008789100001,35.907287598],[76.595092773,35.896728516],[76.59411621100001,35.895080566],[76.607910156,35.886474609],[76.60748291000002,35.871276855],[76.583679199,35.854125977],[76.58288574200002,35.852478027],[76.58392334000001,35.850097656],[76.584106445,35.849304199],[76.585327148,35.841308594],[76.58227539100001,35.837524414],[76.573913574,35.830688477],[76.56671142600001,35.813293457],[76.568908691,35.807495117],[76.57232666000002,35.802490234],[76.578125,35.797485352],[76.586486816,35.783691406],[76.591125488,35.773071289],[76.602905273,35.767700195],[76.603271484,35.76751709],[76.62371826200001,35.763916016],[76.62689209000001,35.765319824],[76.63867187500001,35.766113281],[76.64288330100001,35.765686035],[76.64752197300001,35.762695312],[76.65032959000001,35.759277344],[76.66290283200001,35.757080078],[76.674316406,35.750305176],[76.68170166000002,35.750915527],[76.69049072300001,35.748474121],[76.694702148,35.740478516],[76.69488525400001,35.73828125],[76.70727539100001,35.731079102],[76.736877441,35.693115234],[76.74230957,35.688720703],[76.74908447300001,35.681274414],[76.752075195,35.67388916],[76.75231933600001,35.673522949],[76.75311279300001,35.672485352],[76.76989746100001,35.655273437],[76.778320312,35.656311035],[76.78833007800002,35.656677246],[76.79632568400001,35.658508301],[76.812683105,35.661499023],[76.82507324200002,35.662719727],[76.83428955100001,35.662902832],[76.842285156,35.667724609],[76.84631347700001,35.669128418],[76.852111816,35.664489746],[76.85729980500001,35.656921387],[76.86090087900001,35.651672363],[76.86468505900001,35.648681641],[76.87072753900001,35.643676758],[76.876708984,35.639099121],[76.89208984400001,35.627685547],[76.89868164100001,35.620483398],[76.90411377,35.615905762],[76.91528320300002,35.60949707],[76.92370605500001,35.606506348],[76.93127441400001,35.604919434],[76.93890380900001,35.602478027],[76.94927978500002,35.596923828],[76.95550537100002,35.593688965],[76.96411132800002,35.592712402],[76.97668457,35.59588623],[76.98669433600001,35.600708008],[76.99029541000002,35.607299805],[76.99530029300001,35.611877441],[77.00628662100002,35.611694336],[77.01647949200002,35.605285645],[77.027099609,35.600891113],[77.03833007800002,35.600280762],[77.04608154300001,35.59967041],[77.052124023,35.598510742],[77.061523437,35.596496582],[77.069702148,35.591674805],[77.07690429700001,35.582275391],[77.09051513700001,35.5703125],[77.10369873,35.563720703],[77.11950683600001,35.559082031],[77.12811279300001,35.556274414],[77.13470459000001,35.551696777],[77.14288330100001,35.545715332],[77.15032959000001,35.540527344],[77.159484863,35.53692627],[77.17407226600001,35.530517578],[77.18267822300001,35.523925781],[77.19287109400001,35.520080566],[77.20928955100001,35.520080566],[77.209472656,35.520080566],[77.22729492200001,35.525085449],[77.245117187,35.528686523],[77.26550293000001,35.53527832],[77.27893066400001,35.53692627],[77.29187011700002,35.539489746],[77.304870605,35.541320801],[77.316101074,35.537109375],[77.328674316,35.531677246],[77.33551025400001,35.524902344],[77.33807373,35.518127441],[77.33929443400001,35.517700195],[77.393493652,35.484924316],[77.45788574200002,35.467285156],[77.459472656,35.467529297],[77.474304199,35.474304199],[77.48431396500001,35.476928711],[77.49987793000001,35.481323242],[77.516113281,35.483093262],[77.527893066,35.477478027],[77.53692627,35.48248291],[77.55468750000001,35.480102539],[77.57568359400001,35.47668457],[77.57989502,35.47467041],[77.58227539100001,35.471496582],[77.60827636700002,35.47869873],[77.643920898,35.485473633],[77.65393066400001,35.47869873],[77.65509033200001,35.478515625],[77.66467285200001,35.472290039],[77.66827392600001,35.469482422],[77.69329834000001,35.457885742],[77.70007324200002,35.457275391],[77.700500488,35.457519531],[77.708312988,35.458496094],[77.708679199,35.458496094],[77.741516113,35.490905762],[77.750488281,35.493896484],[77.750915527,35.49407959],[77.75512695300002,35.498291016],[77.76129150400001,35.497497559],[77.784484863,35.505310059],[77.80151367200001,35.50012207],[77.80291748,35.507080078],[77.80572509800001,35.514282227],[77.81408691400001,35.519470215],[77.81488037100002,35.518920898],[77.81787109400001,35.560302734],[77.83508300800001,35.596313477],[77.85430908200001,35.621276855],[77.87030029300001,35.645507812],[77.87408447300001,35.678283691],[77.88067627,35.727478027],[77.88787841800001,35.767089844],[77.90728759800001,35.795471191],[77.908691406,35.834899902],[77.88812255900001,35.870117187],[77.87231445300002,35.897277832],[77.877929687,35.9296875],[77.885681152,35.964294434],[77.88049316400001,36.002685547],[77.83990478500002,36.02331543],[77.79632568400001,36.045898437],[77.75012207,36.067077637],[77.75427246100001,36.095275879],[77.77728271500001,36.120117187],[77.80932617200001,36.133728027],[77.84387207,36.157470703],[77.874694824,36.188476562],[77.88989257800002,36.216674805],[77.875915527,36.251525879],[77.85491943400001,36.27947998],[77.81390380900001,36.298278809],[77.775878906,36.296081543],[77.734130859,36.297485352],[77.703125,36.30871582],[77.66467285200001,36.327880859],[77.62951660200001,36.355529785],[77.60070800800001,36.390686035],[77.58551025400001,36.416687012],[77.57568359400001,36.457885742],[77.53051757800002,36.486877441],[77.49609375000001,36.492675781],[77.44488525400001,36.497497559],[77.40771484400001,36.51348877],[77.41467285200001,36.540283203],[77.44952392600001,36.553283691],[77.48449707,36.567687988],[77.54791259800001,36.591491699],[77.601318359,36.61730957],[77.64251709000001,36.639282227],[77.65631103500002,36.668518066],[77.62268066400001,36.704711914],[77.58349609400001,36.71887207],[77.56048584000001,36.743530273],[77.54791259800001,36.781677246],[77.550476074,36.819091797],[77.542724609,36.84588623],[77.53271484400001,36.873901367],[77.53088378900001,36.900695801],[77.545471191,36.93548584],[77.568908691,36.971496582],[77.570129395,37.007873535],[77.54907226600001,37.036499023],[77.54010009800001,37.06829834],[77.542724609,37.113708496],[77.54748535200001,37.158508301],[77.538085937,37.207519531],[77.52929687500001,37.238708496],[77.51312255900001,37.276916504],[77.50787353500002,37.314880371],[77.52288818400001,37.348876953],[77.55767822300001,37.373474121],[77.60351562500001,37.391723633],[77.63830566400001,37.419128418],[77.65667724600002,37.452880859],[77.659912109,37.485107422],[77.66589355500001,37.520324707],[77.69488525400001,37.555480957],[77.72088623,37.575317383],[77.74609375000001,37.598083496],[77.788879395,37.630310059],[77.82373046900001,37.664916992],[77.83209228500002,37.696716309],[77.84692382800002,37.73248291],[77.87512207,37.760681152],[77.89288330100001,37.788085937],[77.917297363,37.838500977],[77.933288574,37.863891602],[77.95550537100002,37.899475098],[77.98449707,37.931091309],[78.02532959000001,37.959289551],[78.061889648,37.978088379],[78.10192871100001,38.004089355],[78.144287109,38.035522461],[78.19012451200001,38.067077637],[78.23388671900001,38.091125488],[78.28710937500001,38.120483398],[78.32507324200002,38.147521973],[78.35931396500001,38.175109863],[78.38989257800002,38.197509766],[78.436096191,38.221923828],[78.482116699,38.255310059],[78.50109863300001,38.28527832],[78.49871826200001,38.316101074],[78.511474609,38.344482422],[78.553710937,38.374084473],[78.586120605,38.386291504],[78.62231445300002,38.405090332],[78.651306152,38.424316406],[78.694702148,38.451904297],[78.73071289100001,38.478271484],[78.768920898,38.50012207],[78.80810546900001,38.521118164],[78.843505859,38.545898437],[78.879882812,38.579711914],[78.92590332,38.602294922],[78.96051025400001,38.61907959],[78.999694824,38.63671875],[79.027893066,38.656311035],[79.05047607400002,38.683288574],[79.086486816,38.73248291],[79.10711669900002,38.755126953],[79.16131591800001,38.78527832],[79.192687988,38.827270508],[79.25109863300001,38.839111328],[79.30389404300001,38.849121094],[79.370483398,38.856323242],[79.42407226600001,38.862304687],[79.47290039100001,38.868286133],[79.52990722700001,38.873291016],[79.59332275400001,38.880126953],[79.63592529300001,38.889709473],[79.69787597700001,38.926330566],[79.709472656,38.962280273],[79.71868896500001,38.990722656],[79.72528076200001,39.028320312],[79.72729492200001,39.061889648],[79.73449707,39.097717285],[79.741516113,39.13067627],[79.75390625000001,39.182922363],[79.759521484,39.262878418],[79.76330566400001,39.292724609],[79.769714355,39.329284668],[79.77508544900002,39.363708496],[79.78430175800001,39.408508301],[79.79052734400001,39.455688477],[79.78912353500002,39.50390625],[79.79510498,39.556884766],[79.80029296900001,39.604309082],[79.804077148,39.655273437],[79.80932617200001,39.691711426],[79.817321777,39.733886719],[79.820495605,39.775085449],[79.82147216800001,39.809875488],[79.82928466800001,39.849914551],[79.832519531,39.884277344],[79.83587646500001,39.917724609],[79.84130859400001,39.953918457],[79.84790039100001,39.983276367],[79.85467529300001,40.012695312],[79.86212158200001,40.045288086],[79.84210205100001,40.099121094],[79.80090332,40.085876465],[79.72692871100001,40.092529297],[79.68890380900001,40.098510742],[79.65069580100001,40.106506348],[79.58673095700001,40.120300293],[79.54968261700002,40.125671387],[79.51367187500001,40.133300781],[79.46948242200001,40.150878906],[79.42272949200002,40.171875],[79.38012695300002,40.192321777],[79.32611084000001,40.208129883],[79.269714355,40.216674805],[79.20269775400001,40.224487305],[79.134094238,40.227905273],[79.093505859,40.225097656],[79.05511474600002,40.220275879],[79.00970459000001,40.21887207],[78.96832275400001,40.231506348],[78.93109130900001,40.24609375],[78.872070312,40.232299805],[78.82489013700001,40.219482422],[78.78948974600002,40.201477051],[78.761474609,40.18170166],[78.72369384800001,40.163085937],[78.69067382800002,40.139892578],[78.63848877,40.113708496],[78.575500488,40.079711914],[78.53167724600002,40.049316406],[78.499694824,40.026672363],[78.461486816,40.008117676],[78.40570068400001,39.996887207],[78.37347412100002,40.009094238],[78.33111572300001,40.02947998],[78.28790283200001,40.047729492],[78.245483398,40.057678223],[78.20147705100001,40.058105469],[78.150878906,40.05267334],[78.10968017600001,40.04888916],[78.074707031,40.062316895],[78.05187988300001,40.102722168],[78.06451416000002,40.144104004],[78.075500488,40.181274414],[78.08087158200001,40.215270996],[78.08209228500002,40.252502441]]]}}
