{"type":"Feature","id":"bulk-99377448B7096761462512","bbox":[122.54992675800001,40.685302734,123.65191650400001,41.619506836],"properties":{"id":"bulk-99377448B7096761462512","name":"Liaoyang","nameEn":"Liaoyang","fullName":"Liaoyang","level":"city","boundaryRole":"administrative-extent","boundaryQuality":"generalized-source-2020","boundaryYearRepresented":"2020","bounds":[[122.54992675800001,40.685302734],[123.65191650400001,41.619506836]],"center":[123.100921631,41.152404785],"centerMethod":"bounding-box midpoint; camera framing only","license":"CC-BY-3.0-IGO","attribution":"geoBoundaries / HDX, China administrative boundaries (2020)","source":{"provider":"geoBoundaries gbHumanitarian / HDX","url":"https://github.com/wmgeolab/geoBoundaries/raw/9469f09/releaseData/gbHumanitarian/CHN/ADM2/geoBoundaries-CHN-ADM2.geojson","metadataUrl":"https://www.geoboundaries.org/api/current/gbHumanitarian/CHN/ADM2/","shapeID":"99377448B7096761462512","shapeName":"Liaoyang","boundaryID":"CHN-ADM2-99377448","commit":"9469f09"},"geometryCounts":{"coordinates":99,"components":1,"holes":0},"boundaryNotice":"geoBoundaries / HDX 2020 年行政区数据，海岸和边界经过源数据概化，并非当前测绘成果。"},"geometry":{"type":"Polygon","coordinates":[[[123.51770019500002,40.807495117],[123.54791259800001,40.825500488],[123.58068847700001,40.843688965],[123.58532714800002,40.870910645],[123.59948730500001,40.90411377],[123.61267089800002,40.936889648],[123.60168457000002,40.965270996],[123.61029052700002,40.996276855],[123.65191650400001,41.051513672],[123.63409423800002,41.078125],[123.61889648400002,41.113098145],[123.60430908200001,41.145324707],[123.57287597700001,41.16607666],[123.56072998000002,41.194702148],[123.58868408200001,41.221679687],[123.61291503900001,41.245910645],[123.61029052700002,41.282287598],[123.60827636700002,41.313110352],[123.60870361300002,41.353271484],[123.61529541000002,41.383728027],[123.62927246100001,41.42388916],[123.59832763700001,41.438476562],[123.55572509800001,41.467712402],[123.51470947300001,41.461730957],[123.47430419900002,41.456298828],[123.437316895,41.454284668],[123.38812255900001,41.466308594],[123.34948730500001,41.488525391],[123.30627441400001,41.490478516],[123.26947021500001,41.49407959],[123.22070312500001,41.518310547],[123.18328857400002,41.518127441],[123.14172363300001,41.511474609],[123.10247802700002,41.527709961],[123.09210205100001,41.558105469],[123.06311035200001,41.619506836],[123.03771972700001,41.584899902],[123.01947021500001,41.554321289],[123.00250244100002,41.530517578],[122.98229980500001,41.523071289],[122.92370605500001,41.514892578],[122.90209960900002,41.500671387],[122.87567138700001,41.459289551],[122.86712646500001,41.446289062],[122.85272216800001,41.436096191],[122.83270263700001,41.431091309],[122.78131103500002,41.426696777],[122.77807617200001,41.408508301],[122.78192138700001,41.394104004],[122.77947998000002,41.380493164],[122.75927734400001,41.373291016],[122.69427490200002,41.363098145],[122.66809082000002,41.321716309],[122.63787841800001,41.257507324],[122.59967041000002,41.219482422],[122.57287597700001,41.210327148],[122.54992675800001,41.187072754],[122.57128906200002,41.164306641],[122.60827636700002,41.138671875],[122.64971923800002,41.101074219],[122.68249511700002,41.083312988],[122.72570800800001,41.067077637],[122.77410888700001,41.058898926],[122.81750488300001,41.079284668],[122.85229492200001,41.09967041],[122.86889648400002,41.123291016],[122.89050293000001,41.14831543],[122.93847656200002,41.163085937],[122.98590087900001,41.172485352],[123.03509521500001,41.16809082],[123.09191894500002,41.181518555],[123.08032226600001,41.14251709],[123.12469482400002,41.11907959],[123.10748291000002,41.089111328],[123.12469482400002,41.060302734],[123.163879395,41.052490234],[123.20391845700001,41.040710449],[123.21270752,41.006286621],[123.19531250000001,40.976318359],[123.15191650400001,40.964904785],[123.11431884800001,40.956298828],[123.07727050800001,40.933898926],[123.05029296900001,40.903076172],[123.02691650400001,40.855712891],[123.02191162100002,40.818725586],[123.06091308600001,40.81628418],[123.10247802700002,40.808105469],[123.08648681600002,40.777893066],[123.06390380900001,40.747070312],[123.09167480500001,40.711120605],[123.14331054700001,40.685302734],[123.19787597700001,40.697875977],[123.24108886700002,40.706115723],[123.29089355500001,40.728881836],[123.33770752,40.748291016],[123.39331054700001,40.769470215],[123.44451904300001,40.780517578],[123.48352050800001,40.786682129],[123.51770019500002,40.807495117]]]}}
