{"type":"Feature","id":"bulk-99377448B46103845624230","bbox":[98.86291503900001,24.655517578,101.04388427700002,26.714111328],"properties":{"id":"bulk-99377448B46103845624230","name":"Dali Bai Autonomous Prefecture","nameEn":"Dali Bai Autonomous Prefecture","fullName":"Dali Bai Autonomous Prefecture","level":"city","boundaryRole":"administrative-extent","boundaryQuality":"generalized-source-2020","boundaryYearRepresented":"2020","bounds":[[98.86291503900001,24.655517578],[101.04388427700002,26.714111328]],"center":[99.95339965800002,25.684814453],"centerMethod":"bounding-box midpoint; camera framing only","license":"CC-BY-3.0-IGO","attribution":"geoBoundaries / HDX, China administrative boundaries (2020)","source":{"provider":"geoBoundaries gbHumanitarian / HDX","url":"https://github.com/wmgeolab/geoBoundaries/raw/9469f09/releaseData/gbHumanitarian/CHN/ADM2/geoBoundaries-CHN-ADM2.geojson","metadataUrl":"https://www.geoboundaries.org/api/current/gbHumanitarian/CHN/ADM2/","shapeID":"99377448B46103845624230","shapeName":"Dali Bai Autonomous Prefecture","boundaryID":"CHN-ADM2-99377448","commit":"9469f09"},"geometryCounts":{"coordinates":237,"components":1,"holes":0},"boundaryNotice":"geoBoundaries / HDX 2020 年行政区数据，海岸和边界经过源数据概化，并非当前测绘成果。"},"geometry":{"type":"Polygon","coordinates":[[[100.15991210900002,25.033691406],[100.195129395,25.022888184],[100.21948242200001,24.992919922],[100.22528076200001,24.917297363],[100.21667480500001,24.887878418],[100.20507812500001,24.862487793],[100.18707275400001,24.82232666],[100.18048095700001,24.79309082],[100.171875,24.74810791],[100.14147949200002,24.728881836],[100.11627197300001,24.709716797],[100.10571289100001,24.684082031],[100.11791992200001,24.655517578],[100.15289306600002,24.656494141],[100.16491699200002,24.682678223],[100.18908691400001,24.711303711],[100.21911621100001,24.731689453],[100.252929687,24.728088379],[100.29272460900002,24.73828125],[100.33428955100001,24.739929199],[100.37188720700001,24.736328125],[100.39630127,24.762329102],[100.45269775400001,24.75970459],[100.49871826200001,24.772277832],[100.53369140600002,24.755126953],[100.570495605,24.738891602],[100.60168457000002,24.754882812],[100.62188720700001,24.791870117],[100.63928222700001,24.819519043],[100.67907714800002,24.870483398],[100.69787597700001,24.846496582],[100.74609375000001,24.843322754],[100.76287841800001,24.876281738],[100.75872802700002,24.905883789],[100.754882812,24.940307617],[100.75207519500002,24.971923828],[100.754089355,25.00012207],[100.76507568400001,25.027526855],[100.77148437500001,25.055908203],[100.76928710900002,25.086120605],[100.75952148400002,25.111877441],[100.75708007800002,25.143310547],[100.76031494100002,25.174926758],[100.769714355,25.219482422],[100.78869628900001,25.246276855],[100.83312988300001,25.254882812],[100.84289550800001,25.280883789],[100.86871337900001,25.297912598],[100.89849853500002,25.295471191],[100.92889404300001,25.27532959],[100.96667480500001,25.27947998],[100.98388671900001,25.30267334],[100.97369384800001,25.329711914],[100.969726562,25.358276367],[101.00653076200001,25.375915527],[101.04388427700002,25.387878418],[101.02587890600002,25.416503906],[101.003723145,25.435913086],[100.98229980500001,25.455505371],[100.961914062,25.483520508],[100.94787597700001,25.508300781],[100.93908691400001,25.542724609],[100.94732666000002,25.577514648],[100.97387695300002,25.605529785],[100.99987793000001,25.622070312],[101.00708007800002,25.649475098],[100.99829101600001,25.676330566],[100.979492187,25.703918457],[100.96868896500001,25.745483398],[100.96350097700001,25.796875],[100.93469238300001,25.81427002],[100.88970947300001,25.855285645],[100.92687988300001,25.869689941],[100.92327880900001,25.902893066],[100.95031738300001,25.92767334],[100.97369384800001,25.945678711],[100.98590087900001,25.97869873],[100.97808837900001,26.011901855],[100.95532226600001,26.050292969],[100.938476562,26.077087402],[100.93048095700001,26.104309082],[100.93371582000002,26.148498535],[100.92510986300002,26.205078125],[100.87170410200001,26.181274414],[100.83508300800001,26.194274902],[100.80090332000002,26.207092285],[100.75689697300001,26.211303711],[100.72088623,26.184692383],[100.703125,26.162475586],[100.67608642600001,26.133117676],[100.64392089800002,26.104675293],[100.64648437500001,26.076293945],[100.66052246100001,26.046081543],[100.63128662100002,26.033081055],[100.59027099600002,26.027709961],[100.54449462900001,26.043884277],[100.50927734400001,26.038330078],[100.487304687,26.065490723],[100.48327636700002,26.112121582],[100.48107910200001,26.152099609],[100.44091796900001,26.147521973],[100.42132568400001,26.170471191],[100.42608642600001,26.199890137],[100.45050048800002,26.229492187],[100.44427490200002,26.265075684],[100.42352294900002,26.288696289],[100.40930175800001,26.324279785],[100.44909668000001,26.34552002],[100.46789550800001,26.36730957],[100.44689941400001,26.400878906],[100.471679687,26.428710937],[100.46173095700001,26.466125488],[100.44812011700002,26.504516602],[100.43511962900001,26.549682617],[100.42712402300002,26.600891113],[100.386901855,26.596679687],[100.36492919900002,26.633300781],[100.33251953100002,26.655700684],[100.29431152300002,26.65032959],[100.27087402300002,26.674072266],[100.26391601600001,26.714111328],[100.22790527300002,26.707275391],[100.19372558600001,26.681884766],[100.16992187500001,26.647277832],[100.13751220700001,26.627685547],[100.09887695300002,26.635314941],[100.06988525400001,26.647705078],[100.02850341800001,26.609313965],[99.988098145,26.629882812],[99.96148681600002,26.658325195],[99.93408203100002,26.672485352],[99.90307617200001,26.658874512],[99.86791992200001,26.644714355],[99.82092285200001,26.658874512],[99.78051757800002,26.657714844],[99.73651123,26.65612793],[99.70928955100001,26.672729492],[99.688476562,26.698913574],[99.594726562,26.639282227],[99.56030273400002,26.616088867],[99.53967285200001,26.577087402],[99.528320312,26.544921875],[99.51788330100001,26.493896484],[99.51232910200001,26.461120605],[99.50567627,26.413513184],[99.48907470700001,26.378295898],[99.47088623,26.350280762],[99.42547607400002,26.322875977],[99.38848877,26.322875977],[99.347473145,26.310119629],[99.31970214800002,26.28527832],[99.31652832000002,26.252319336],[99.29608154300001,26.223876953],[99.26330566400001,26.211486816],[99.20928955100001,26.186096191],[99.17767334000001,26.164306641],[99.18572998,26.127502441],[99.15509033200001,26.10949707],[99.12390136700002,26.12689209],[99.09527587900001,26.142883301],[99.05792236300002,26.150695801],[99.02551269500002,26.13671875],[99.01531982400002,26.091674805],[99.01251220700001,26.058105469],[99.01507568400001,26.017883301],[99.01068115200002,25.973083496],[98.99768066400001,25.934692383],[98.98211669900002,25.911682129],[98.98590087900001,25.878112793],[98.99652099600002,25.848083496],[98.98291015600002,25.815917969],[98.98492431600002,25.783508301],[99.02331543000001,25.768310547],[99.05133056600002,25.749328613],[99.02447509800001,25.720275879],[98.98669433600001,25.721313477],[98.94451904300001,25.741882324],[98.91247558600001,25.767089844],[98.88531494100002,25.783691406],[98.86291503900001,25.760498047],[98.88610839800002,25.728515625],[98.90447998,25.68572998],[98.90411377,25.652709961],[98.87768554700001,25.627929687],[98.88549804700001,25.598083496],[98.946289062,25.614929199],[98.98132324200002,25.617675781],[98.99688720700001,25.591674805],[99.01489257800002,25.569885254],[99.04992675800001,25.55267334],[99.08007812500001,25.524475098],[99.08929443400001,25.488708496],[99.11328125000001,25.468078613],[99.15429687500001,25.478881836],[99.18707275400001,25.503112793],[99.21350097700001,25.528076172],[99.25311279300001,25.549499512],[99.30468750000001,25.528686523],[99.35668945300002,25.491516113],[99.36132812500001,25.450683594],[99.32647705100001,25.430480957],[99.28948974600002,25.43170166],[99.29870605500001,25.403076172],[99.29412841800001,25.354125977],[99.31610107400002,25.332885742],[99.34692382800002,25.31072998],[99.378723145,25.269287109],[99.40167236300002,25.245117187],[99.42492675800001,25.221130371],[99.453125,25.190917969],[99.48529052700002,25.152099609],[99.51727294900002,25.135314941],[99.54907226600001,25.135314941],[99.59729003900001,25.13067627],[99.62768554700001,25.125671387],[99.65948486300002,25.107727051],[99.69030761700002,25.095092773],[99.72308349600002,25.090698242],[99.77807617200001,25.119873047],[99.836914062,25.13470459],[99.85607910200001,25.155517578],[99.879089355,25.192077637],[99.91149902300002,25.221679687],[99.96691894500002,25.237487793],[100.00909423800002,25.235717773],[100.03967285200001,25.211914062],[100.05731201200001,25.181518555],[100.06311035200001,25.151672363],[100.04870605500001,25.12487793],[100.03491210900002,25.096923828],[100.02770996100001,25.069274902],[100.05072021500001,25.037902832],[100.046691895,25.001098633],[100.07849121100001,24.993713379],[100.10168457000002,25.014709473],[100.12927246100001,25.030883789],[100.15991210900002,25.033691406]]]}}
