{"type":"Feature","id":"bulk-99377448B11461631497909","bbox":[130.645874023,45.77947998,134.256896973,47.538085937],"properties":{"id":"bulk-99377448B11461631497909","name":"Shuangyashan","nameEn":"Shuangyashan","fullName":"Shuangyashan","level":"city","boundaryRole":"administrative-extent","boundaryQuality":"generalized-source-2020","boundaryYearRepresented":"2020","bounds":[[130.645874023,45.77947998],[134.256896973,47.538085937]],"center":[132.451385498,46.6587829585],"centerMethod":"bounding-box midpoint; camera framing only","license":"CC-BY-3.0-IGO","attribution":"geoBoundaries / HDX, China administrative boundaries (2020)","source":{"provider":"geoBoundaries gbHumanitarian / HDX","url":"https://github.com/wmgeolab/geoBoundaries/raw/9469f09/releaseData/gbHumanitarian/CHN/ADM2/geoBoundaries-CHN-ADM2.geojson","metadataUrl":"https://www.geoboundaries.org/api/current/gbHumanitarian/CHN/ADM2/","shapeID":"99377448B11461631497909","shapeName":"Shuangyashan","boundaryID":"CHN-ADM2-99377448","commit":"9469f09"},"geometryCounts":{"coordinates":269,"components":1,"holes":0},"boundaryNotice":"geoBoundaries / HDX 2020 年行政区数据，海岸和边界经过源数据概化，并非当前测绘成果。"},"geometry":{"type":"Polygon","coordinates":[[[131.24450683600003,46.299499512],[131.275512695,46.27911377],[131.335876465,46.258728027],[131.37512207,46.237304687],[131.418273926,46.228881836],[131.459106445,46.222900391],[131.500671387,46.219299316],[131.54510498000002,46.215881348],[131.589294434,46.220092773],[131.604675293,46.223327637],[131.61828613300003,46.217285156],[131.61791992200003,46.21270752],[131.62170410200002,46.205505371],[131.625305176,46.20489502],[131.62969970700001,46.203125],[131.650512695,46.201904297],[131.657104492,46.201477051],[131.67633056600002,46.19329834],[131.70208740200002,46.181091309],[131.70172119100002,46.17388916],[131.70330810500002,46.167114258],[131.69873046900003,46.158874512],[131.67510986300002,46.149719238],[131.673278809,46.141906738],[131.67828369100002,46.127929687],[131.69287109400003,46.111328125],[131.69287109400003,46.104919434],[131.696716309,46.100708008],[131.70489502,46.094482422],[131.73107910200002,46.084899902],[131.75610351600002,46.070922852],[131.77789306600002,46.065124512],[131.805725098,46.059692383],[131.815124512,46.059692383],[131.83392334,46.063476562],[131.87768554700003,46.083496094],[131.89172363300003,46.088928223],[131.903503418,46.087524414],[131.908508301,46.087524414],[131.913879395,46.083679199],[131.91052246100003,46.072509766],[131.90148925800003,46.06072998],[131.89971923800002,46.039123535],[131.89990234400003,46.019714355],[131.90509033200001,46.009521484],[131.90130615200002,46.002929687],[131.894470215,45.996887207],[131.87951660200002,45.995117187],[131.87231445300003,45.990905762],[131.86450195300003,45.977905273],[131.85748291000002,45.96270752],[131.83331298800002,45.939086914],[131.82690429700003,45.922912598],[131.821472168,45.915710449],[131.78448486300002,45.90612793],[131.777099609,45.90411377],[131.760070801,45.889282227],[131.76867675800003,45.887695312],[131.762878418,45.856506348],[131.74792480500003,45.814880371],[131.76489257800003,45.77947998],[131.80291748000002,45.788513184],[131.82611084,45.814086914],[131.85748291000002,45.843322754],[131.895874023,45.868530273],[131.935302734,45.854125977],[131.965515137,45.832702637],[132.020507812,45.822509766],[132.086914062,45.825317383],[132.137695312,45.832885742],[132.177307129,45.842895508],[132.22430419900002,45.850708008],[132.23211669900002,45.888122559],[132.21771240200002,45.91607666],[132.241271973,45.945922852],[132.24188232400002,45.979919434],[132.25872802700002,46.00567627],[132.301086426,46.022521973],[132.347106934,46.016479492],[132.38708496100003,46.00012207],[132.421081543,45.972717285],[132.45849609400003,45.988708496],[132.489318848,46.022888184],[132.508483887,46.047302246],[132.541687012,46.075073242],[132.57891845700001,46.102905273],[132.625305176,46.131713867],[132.65631103500002,46.148071289],[132.69232177700002,46.16192627],[132.731506348,46.16229248],[132.767700195,46.140930176],[132.81628418000003,46.13848877],[132.884887695,46.135070801],[132.908325195,46.163330078],[132.93011474600002,46.19732666],[132.95507812500003,46.239685059],[132.97271728500002,46.274108887],[132.98492431600002,46.311096191],[132.999084473,46.344482422],[133.02008056600002,46.374694824],[133.03411865200002,46.409484863],[133.049682617,46.446472168],[133.091918945,46.458312988],[133.13232421900003,46.457885742],[133.17028808600003,46.476318359],[133.179077148,46.509277344],[133.191894531,46.538696289],[133.20550537100002,46.567321777],[133.23712158200001,46.585876465],[133.27648925800003,46.577514648],[133.304077148,46.554321289],[133.34271240200002,46.539306641],[133.417907715,46.539489746],[133.45050048800002,46.514099121],[133.49810791000002,46.512878418],[133.542724609,46.523071289],[133.592285156,46.527282715],[133.62768554700003,46.51550293],[133.66748046900003,46.508300781],[133.71368408200001,46.507324219],[133.78869628900003,46.495117187],[133.807495117,46.522277832],[133.83392334,46.550720215],[133.86547851600002,46.582885742],[133.90631103500002,46.609924316],[133.94329834,46.637695312],[133.95330810500002,46.66229248],[133.95849609400003,46.688476562],[133.93988037100002,46.729309082],[133.95532226600002,46.75769043],[133.968688965,46.795715332],[133.95587158200001,46.82989502],[133.964294434,46.868896484],[133.981872559,46.903503418],[133.99829101600002,46.938293457],[134.00628662100002,46.976501465],[134.00927734400003,47.012695312],[134.01068115200002,47.035888672],[134.04992675800003,47.053894043],[134.10351562500003,47.073120117],[134.133300781,47.086486816],[134.139526367,47.090698242],[134.14630127,47.092285156],[134.149291992,47.093688965],[134.16369628900003,47.118530273],[134.167724609,47.145080566],[134.158325195,47.165527344],[134.14849853500002,47.187927246],[134.12347412100002,47.21472168],[134.10052490200002,47.231689453],[134.100097656,47.257080078],[134.10852050800003,47.284912109],[134.12768554700003,47.304321289],[134.16528320300003,47.33190918],[134.20812988300003,47.36328125],[134.234313965,47.390075684],[134.256896973,47.406677246],[134.19769287100002,47.438903809],[134.147888184,47.488708496],[134.12591552700002,47.516906738],[134.122497559,47.53692627],[134.115722656,47.538085937],[134.09649658200001,47.514526367],[134.06109619100002,47.50592041],[133.937072754,47.509521484],[133.917724609,47.515319824],[133.83770752,47.52130127],[133.78448486300002,47.513122559],[133.73828125000003,47.51348877],[133.663085937,47.513671875],[133.56372070300003,47.474914551],[133.51989746100003,47.441894531],[133.46270752,47.423706055],[133.408325195,47.430114746],[133.370910645,47.453308105],[133.34112548800002,47.428283691],[133.31127929700003,47.397888184],[133.309082031,47.362487793],[133.29351806600002,47.333129883],[133.26391601600002,47.313110352],[133.24810791000002,47.283508301],[133.21771240200002,47.190490723],[133.194702148,47.165100098],[133.18829345700001,47.146728516],[133.17590332,47.131713867],[133.15447998000002,47.069702148],[133.16229248000002,47.051330566],[133.14532470700001,47.022705078],[133.13372802700002,47.009887695],[133.14227294900002,46.993896484],[133.11987304700003,46.94909668],[133.11651611300002,46.898681641],[133.077514648,46.888122559],[132.99169921900003,46.875305176],[132.924316406,46.823120117],[132.89709472700002,46.805725098],[132.849914551,46.791503906],[132.81451416000002,46.770507812],[132.76428222700002,46.778503418],[132.67932128900003,46.777709961],[132.60412597700002,46.781494141],[132.55090332,46.776489258],[132.49291992200003,46.768310547],[132.45489502,46.777099609],[132.41369628900003,46.796875],[132.362487793,46.799316406],[132.33789062500003,46.773681641],[132.339294434,46.741088867],[132.228088379,46.776489258],[132.172729492,46.796875],[132.17510986300002,46.832519531],[132.17687988300003,46.866271973],[132.215698242,46.888916016],[132.20532226600002,46.926330566],[132.131530762,46.9375],[132.08752441400003,46.943481445],[132.02612304700003,46.95690918],[131.964294434,46.956481934],[131.911315918,46.952514648],[131.85229492200003,46.922729492],[131.83227539100002,46.886901855],[131.78948974600002,46.86932373],[131.711914062,46.866271973],[131.641479492,46.869873047],[131.601501465,46.871276855],[131.52368164100002,46.88092041],[131.509887695,46.907897949],[131.50408935500002,46.944702148],[131.49310302700002,47.007873535],[131.446716309,46.997497559],[131.41333007800003,46.979675293],[131.338928223,46.968688965],[131.29309082,46.960083008],[131.23352050800003,46.952087402],[131.183898926,46.945922852],[131.13067627,46.931274414],[131.10107421900003,46.912475586],[131.06750488300003,46.928283691],[131.060302734,46.959472656],[130.99328613300003,46.953918457],[130.93029785200002,46.934509277],[130.89727783200001,46.919311523],[130.849914551,46.899475098],[130.81268310500002,46.872680664],[130.80352783200001,46.844726562],[130.76751709,46.816894531],[130.71289062500003,46.803283691],[130.67028808600003,46.77947998],[130.645874023,46.74029541],[130.65667724600002,46.688293457],[130.6875,46.658874512],[130.704528809,46.62487793],[130.70849609400003,46.587890625],[130.74987793000003,46.575317383],[130.80151367200003,46.558105469],[130.85369873000002,46.557495117],[130.90747070300003,46.561096191],[130.91229248000002,46.530883789],[130.94287109400003,46.503112793],[130.98687744100002,46.482910156],[131.006713867,46.451477051],[131.01428222700002,46.41809082],[131.03747558600003,46.379089355],[131.08050537100002,46.369873047],[131.128479004,46.365112305],[131.17309570300003,46.356872559],[131.228088379,46.357116699],[131.243896484,46.327697754],[131.24450683600003,46.299499512]]]}}
