{"type":"Feature","id":"bulk-99377448B58124797718391","bbox":[111.08551025400001,41.567077637,119.87548828100002,46.753479004],"properties":{"id":"bulk-99377448B58124797718391","name":"Xilingol League","nameEn":"Xilingol League","fullName":"Xilingol League","level":"city","boundaryRole":"administrative-extent","boundaryQuality":"generalized-source-2020","boundaryYearRepresented":"2020","bounds":[[111.08551025400001,41.567077637],[119.87548828100002,46.753479004]],"center":[115.48049926750002,44.1602783205],"centerMethod":"bounding-box midpoint; camera framing only","license":"CC-BY-3.0-IGO","attribution":"geoBoundaries / HDX, China administrative boundaries (2020)","source":{"provider":"geoBoundaries gbHumanitarian / HDX","url":"https://github.com/wmgeolab/geoBoundaries/raw/9469f09/releaseData/gbHumanitarian/CHN/ADM2/geoBoundaries-CHN-ADM2.geojson","metadataUrl":"https://www.geoboundaries.org/api/current/gbHumanitarian/CHN/ADM2/","shapeID":"99377448B58124797718391","shapeName":"Xilingol League","boundaryID":"CHN-ADM2-99377448","commit":"9469f09"},"geometryCounts":{"coordinates":634,"components":1,"holes":0},"boundaryNotice":"geoBoundaries / HDX 2020 年行政区数据，海岸和边界经过源数据概化，并非当前测绘成果。"},"geometry":{"type":"Polygon","coordinates":[[[116.91430664100001,42.40612793],[116.85668945300002,42.443908691],[116.82867431600002,42.466308594],[116.80108642600001,42.486877441],[116.76232910200001,42.50567627],[116.72589111300002,42.518127441],[116.67687988300001,42.540283203],[116.64807128900001,42.568725586],[116.61590576200001,42.586730957],[116.60308837900001,42.61907959],[116.60308837900001,42.65612793],[116.60748291000002,42.682922363],[116.61889648400002,42.709106445],[116.63269043000001,42.736877441],[116.65307617200001,42.774291992],[116.67108154300001,42.799499512],[116.69488525400001,42.826293945],[116.68792724600002,42.867675781],[116.66748046900001,42.892883301],[116.63153076200001,42.918884277],[116.59991455100001,42.938720703],[116.56707763700001,42.957702637],[116.52050781200002,42.976928711],[116.48608398400002,42.987670898],[116.41131591800001,43.01171875],[116.38610839800002,43.039916992],[116.34631347700001,43.059509277],[116.32629394500002,43.090698242],[116.30047607400002,43.128112793],[116.28930664100001,43.159484863],[116.31707763700001,43.195678711],[116.36688232400002,43.208312988],[116.41448974600002,43.230102539],[116.46032714800002,43.25970459],[116.48370361300002,43.288879395],[116.51007080100001,43.327880859],[116.54748535200001,43.373291016],[116.57031250000001,43.399719238],[116.59771728500002,43.431274414],[116.63732910200001,43.476074219],[116.66052246100001,43.508117676],[116.69348144500002,43.536682129],[116.74572753900001,43.575683594],[116.78350830100001,43.596923828],[116.82208252,43.617675781],[116.87750244100002,43.643493652],[116.91290283200001,43.652526855],[116.95428466800001,43.652893066],[116.99847412100002,43.660888672],[117.03228759800001,43.690673828],[117.03967285200001,43.718688965],[117.03192138700001,43.756713867],[116.99688720700001,43.794921875],[116.96209716800001,43.82232666],[116.92047119100002,43.853088379],[116.89190673800002,43.885070801],[116.89471435500002,43.918273926],[116.91912841800001,43.940917969],[116.94873046900001,43.958496094],[116.99267578100002,43.987304687],[117.03308105500001,44.016296387],[117.05187988300001,44.040710449],[117.07171630900001,44.070922852],[117.10388183600001,44.095703125],[117.15008544900002,44.112670898],[117.19030761700002,44.122314453],[117.24407959000001,44.129699707],[117.29650878900001,44.134277344],[117.33929443400001,44.133117676],[117.38452148400002,44.13067627],[117.44567871100001,44.11907959],[117.49212646500001,44.110107422],[117.54132080100001,44.092102051],[117.59851074200002,44.066711426],[117.66607666000002,44.044677734],[117.73767089800002,44.037902832],[117.78131103500002,44.053100586],[117.83489990200002,44.079284668],[117.88427734400001,44.106506348],[117.91748046900001,44.126098633],[117.96252441400001,44.152709961],[117.99108886700002,44.174682617],[118.02947998000002,44.199523926],[118.07910156200002,44.222106934],[118.14111328100002,44.247497559],[118.19427490200002,44.268493652],[118.24468994100002,44.290893555],[118.27832031200002,44.312316895],[118.31628418000001,44.336486816],[118.35107421900001,44.355895996],[118.41369628900001,44.389892578],[118.44451904300001,44.407714844],[118.49169921900001,44.433105469],[118.53411865200002,44.44732666],[118.57910156200002,44.465515137],[118.61871337900001,44.476928711],[118.66247558600001,44.466491699],[118.72052002,44.467285156],[118.76409912100002,44.470275879],[118.81109619100002,44.48449707],[118.84887695300002,44.49987793],[118.88488769500002,44.517700195],[118.91552734400001,44.537719727],[118.94952392600001,44.558288574],[118.98767089800002,44.579284668],[119.01928710900002,44.602111816],[119.05670166000002,44.636108398],[119.07928466800001,44.661499023],[119.08709716800001,44.68927002],[119.10650634800001,44.713317871],[119.15350341800001,44.724304199],[119.16729736300002,44.74987793],[119.14849853500002,44.788330078],[119.13348388700001,44.819702148],[119.09930419900002,44.842529297],[119.06091308600001,44.858520508],[119.04412841800001,44.89050293],[119.06329345700001,44.920898437],[119.10369873000002,44.93548584],[119.14831543000001,44.9453125],[119.18212890600002,44.970703125],[119.19873046900001,45.004272461],[119.21490478500002,45.036682129],[119.25830078100002,45.050476074],[119.29150390600002,45.068481445],[119.28088378900001,45.101074219],[119.28710937500001,45.135070801],[119.29248046900001,45.167297363],[119.30749511700002,45.195129395],[119.31628418000001,45.247070312],[119.26831054700001,45.256103516],[119.22912597700001,45.265319824],[119.21148681600002,45.293884277],[119.23431396500001,45.321105957],[119.25512695300002,45.344299316],[119.27752685500002,45.385498047],[119.34228515600002,45.381530762],[119.38690185500002,45.38067627],[119.45330810500002,45.382080078],[119.51068115200002,45.38848877],[119.54730224600002,45.41192627],[119.57452392600001,45.441711426],[119.61187744100002,45.448486328],[119.64111328100002,45.478271484],[119.65631103500002,45.508728027],[119.687316895,45.526489258],[119.72290039100001,45.552490234],[119.70452880900001,45.58392334],[119.65710449200002,45.594482422],[119.63952636700002,45.600524902],[119.65631103500002,45.63067627],[119.70031738300001,45.670898437],[119.76190185500002,45.745300293],[119.79150390600002,45.809326172],[119.81170654300001,45.831726074],[119.81707763700001,45.856689453],[119.82647705100001,45.879272461],[119.83728027300002,45.922912598],[119.83349609400001,45.955688477],[119.80047607400002,45.98449707],[119.80249023400002,46.016723633],[119.80511474600002,46.055297852],[119.80712890600002,46.094299316],[119.8125,46.126708984],[119.81768798800002,46.173095703],[119.82989502,46.217529297],[119.83227539100001,46.255310059],[119.83807373000002,46.286315918],[119.84307861300002,46.313293457],[119.84790039100001,46.354309082],[119.84869384800001,46.38671875],[119.85467529300001,46.415100098],[119.85968017600001,46.446899414],[119.86230468700002,46.474121094],[119.86791992200001,46.504699707],[119.87310791000002,46.537109375],[119.87548828100002,46.567077637],[119.86730957000002,46.598510742],[119.78430175800001,46.649902344],[119.76727294900002,46.633728027],[119.73468017600001,46.618286133],[119.72088623000002,46.614318848],[119.72052002,46.613708496],[119.69409179700001,46.595275879],[119.65490722700001,46.581298828],[119.59967041000002,46.587524414],[119.55468750000001,46.600524902],[119.52587890600002,46.58392334],[119.46350097700001,46.584289551],[119.43231201200001,46.620910645],[119.39392089800002,46.603271484],[119.36590576200001,46.592102051],[119.31512451200001,46.590698242],[119.24627685500002,46.594116211],[119.19531250000001,46.590881348],[119.14727783200001,46.601074219],[119.10571289100001,46.608886719],[119.08068847700001,46.600524902],[119.03027343700002,46.623718262],[118.98571777300002,46.672119141],[118.96472168000001,46.686096191],[118.92730712900001,46.68548584],[118.86853027300002,46.68347168],[118.87469482400002,46.702514648],[118.85968017600001,46.731689453],[118.84490966800001,46.752685547],[118.81652832000002,46.753479004],[118.80749511700002,46.743286133],[118.77349853500002,46.718688965],[118.77947998000002,46.710876465],[118.78588867200001,46.698486328],[118.78271484400001,46.693908691],[118.76428222700001,46.69708252],[118.73950195300002,46.695495605],[118.73413085900002,46.696289062],[118.71887207000002,46.64831543],[118.62890625000001,46.676330566],[118.56689453100002,46.680908203],[118.51770019500002,46.682678223],[118.49371337900001,46.671081543],[118.45147705100001,46.673522949],[118.40307617200001,46.693725586],[118.34832763700001,46.714904785],[118.30072021500001,46.706481934],[118.24328613300001,46.70690918],[118.21832275400001,46.69732666],[118.18908691400001,46.675109863],[118.13232421900001,46.66809082],[118.07952880900001,46.659912109],[118.04168701200001,46.63092041],[117.99768066400001,46.617675781],[117.96569824200002,46.620727539],[117.96008300800001,46.61529541],[117.94268798800002,46.616699219],[117.90008544900002,46.60168457],[117.88568115200002,46.59588623],[117.88153076200001,46.590515137],[117.85992431600002,46.584472656],[117.83831787100002,46.562683105],[117.81829834000001,46.550476074],[117.81408691400001,46.550720215],[117.81188964800002,46.547729492],[117.81011962900001,46.519470215],[117.77868652300002,46.499084473],[117.74090576200001,46.51751709],[117.67309570300002,46.492675781],[117.65447998000002,46.506286621],[117.63311767600001,46.530273437],[117.62347412100002,46.539916992],[117.61212158200001,46.557922363],[117.59387207000002,46.575317383],[117.57409668000001,46.58807373],[117.54052734400001,46.584289551],[117.44067382800002,46.570922852],[117.41790771500001,46.566711426],[117.41851806600002,46.559692383],[117.42932128900001,46.536499023],[117.42010498000002,46.516479492],[117.40307617200001,46.504089355],[117.38610839800002,46.485717773],[117.363098145,46.445495605],[117.35827636700002,46.399291992],[117.32928466800001,46.364685059],[117.33050537100002,46.359680176],[117.27893066400001,46.348510742],[117.24932861300002,46.343505859],[117.16790771500001,46.337280273],[117.08367919900002,46.342102051],[117.04888916000002,46.339294434],[116.97570800800001,46.349914551],[116.91009521500001,46.355529785],[116.84448242200001,46.362121582],[116.80908203100002,46.37109375],[116.75769043000001,46.324523926],[116.70007324200002,46.322692871],[116.69909668000001,46.32208252],[116.64788818400001,46.3125],[116.59149169900002,46.301330566],[116.49987793000001,46.20892334],[116.43572998000002,46.14831543],[116.40087890600002,46.123901367],[116.27770996100001,45.980712891],[116.26647949200002,45.953674316],[116.26049804700001,45.932128906],[116.26470947300001,45.912109375],[116.24731445300002,45.892089844],[116.24127197300001,45.87310791],[116.24908447300001,45.858276367],[116.26647949200002,45.847106934],[116.27770996100001,45.825317383],[116.27770996100001,45.805297852],[116.27172851600001,45.772277832],[116.24389648400002,45.761901855],[116.21270752,45.746276855],[116.20050048800002,45.729919434],[116.19787597700001,45.716918945],[116.18127441400001,45.698486328],[116.14807128900001,45.691101074],[116.12548828100002,45.676696777],[116.10430908200001,45.681274414],[116.07867431600002,45.67791748],[116.05627441400001,45.67791748],[116.00769043000001,45.657714844],[116.00231933600001,45.652893066],[115.94549560500002,45.637878418],[115.83331298800002,45.559082031],[115.67828369100002,45.460876465],[115.33911132800002,45.390075684],[115.27069091800001,45.394470215],[115.21771240200002,45.394714355],[115.15631103500002,45.393920898],[115.15350341800001,45.394470215],[115.06488037100002,45.391296387],[115.00927734400001,45.38092041],[114.97808837900001,45.380493164],[114.95550537100002,45.37689209],[114.91632080100001,45.375488281],[114.87707519500002,45.376708984],[114.84332275400001,45.377685547],[114.77929687500001,45.396118164],[114.73413085900002,45.426513672],[114.71868896500001,45.433898926],[114.69909668000001,45.429504395],[114.65631103500002,45.408691406],[114.61932373000002,45.399475098],[114.56707763700001,45.401672363],[114.53131103500002,45.377502441],[114.53247070300002,45.33807373],[114.51507568400001,45.296508789],[114.45251464800002,45.217712402],[114.37512207000002,45.157470703],[114.31610107400002,45.118286133],[114.16552734400001,45.03729248],[114.15289306600002,45.012878418],[114.13671875000001,44.988525391],[114.09027099600002,44.951477051],[114.04528808600001,44.935302734],[114.02288818400001,44.934692383],[114.02111816400001,44.934082031],[113.97351074200002,44.914489746],[113.93048095700001,44.910095215],[113.87628173800002,44.899902344],[113.87628173800002,44.899475098],[113.84490966800001,44.867126465],[113.79388427700002,44.853881836],[113.79327392600001,44.853515625],[113.75628662100002,44.840698242],[113.74432373000002,44.832885742],[113.70727539100001,44.797729492],[113.61688232400002,44.743286133],[113.55987548800002,44.753295898],[113.52612304700001,44.752502441],[113.43890380900001,44.762878418],[113.37689209000001,44.770324707],[113.33447265600002,44.774902344],[113.28967285200001,44.784912109],[113.10729980500001,44.783874512],[113.05847168000001,44.79107666],[113.00567627,44.796691895],[112.85009765600002,44.823913574],[112.80627441400001,44.829284668],[112.74450683600001,44.839294434],[112.69207763700001,44.853881836],[112.63452148400002,44.877319336],[112.58190918000001,44.890930176],[112.55310058600001,44.92388916],[112.41229248000002,45.036682129],[112.37530517600001,45.056274414],[112.34667968700002,45.054077148],[112.16510009800001,45.059082031],[112.12487793000001,45.056091309],[112.07031250000001,45.05670166],[112.02648925800001,45.070678711],[112.00488281200002,45.086486816],[111.98089599600002,45.090087891],[111.95971679700001,45.083496094],[111.83349609400001,45.018676758],[111.78369140600002,44.987487793],[111.74328613300001,44.946899414],[111.72131347700001,44.90411377],[111.69232177700002,44.860107422],[111.65649414100001,44.811523437],[111.61828613300001,44.77331543],[111.59631347700001,44.738708496],[111.57769775400001,44.692321777],[111.56268310500002,44.671508789],[111.55932617200001,44.62512207],[111.56732177700002,44.574279785],[111.53369140600002,44.559326172],[111.51531982400002,44.50592041],[111.49090576200001,44.496704102],[111.45269775400001,44.451477051],[111.42272949200002,44.39831543],[111.41107177700002,44.347473145],[111.44012451200001,44.313903809],[111.49792480500001,44.295288086],[111.51531982400002,44.274475098],[111.53833007800002,44.192321777],[111.58587646500001,44.14251709],[111.59967041000002,44.112487793],[111.64727783200001,44.068481445],[111.70971679700001,44.028076172],[111.80352783200001,43.981689453],[111.85888671900001,43.938903809],[111.90527343700002,43.891479492],[111.95269775400001,43.82208252],[111.97131347700001,43.738708496],[111.92272949200002,43.678527832],[111.88110351600001,43.674499512],[111.87951660200001,43.672729492],[111.87249755900001,43.669311523],[111.82031250000001,43.642700195],[111.77349853500002,43.646728516],[111.75848388700001,43.640075684],[111.75128173800002,43.634094238],[111.72570800800001,43.605529785],[111.67669677700002,43.559875488],[111.65472412100002,43.536682129],[111.62512207000002,43.514282227],[111.54827880900001,43.465087891],[111.45690918000001,43.462280273],[111.39587402300002,43.458312988],[111.39288330100001,43.457702637],[111.38671875000001,43.452880859],[111.36010742200001,43.440124512],[111.33850097700001,43.435913086],[111.29510498000002,43.405517578],[111.26092529300001,43.393127441],[111.18969726600001,43.38269043],[111.13269043000001,43.367675781],[111.08551025400001,43.352722168],[111.097473145,43.336486816],[111.12707519500002,43.313110352],[111.15570068400001,43.291320801],[111.18768310500002,43.266906738],[111.22448730500001,43.245727539],[111.26531982400002,43.233276367],[111.30847168000001,43.236083984],[111.34930419900002,43.231079102],[111.38330078100002,43.209106445],[111.45391845700001,43.184875488],[111.50952148400002,43.160888672],[111.55328369100002,43.126525879],[111.57830810500002,43.09387207],[111.60809326200001,43.055480957],[111.63470459000001,43.02911377],[111.67572021500001,43.002685547],[111.71191406200002,42.986694336],[111.74810791000002,42.971496582],[111.79107666000002,42.949707031],[111.82250976600001,42.9296875],[111.83270263700001,42.898681641],[111.82287597700001,42.864685059],[111.82830810500002,42.82989502],[111.84771728500002,42.797729492],[111.86669921900001,42.769287109],[111.89068603500002,42.741699219],[111.93249511700002,42.697692871],[111.96551513700001,42.667480469],[111.99090576200001,42.643920898],[112.01788330100001,42.622497559],[112.05169677700002,42.596923828],[112.07867431600002,42.577270508],[112.11010742200001,42.560913086],[112.14648437500001,42.537719727],[112.17932128900001,42.523071289],[112.22070312500001,42.500305176],[112.25549316400001,42.471130371],[112.29327392600001,42.435119629],[112.32189941400001,42.415100098],[112.35571289100001,42.39050293],[112.39471435500002,42.378295898],[112.445129395,42.376281738],[112.48730468700002,42.380493164],[112.53692627,42.385070801],[112.56750488300001,42.367675781],[112.61431884800001,42.33770752],[112.64910888700001,42.327270508],[112.68487548800002,42.306884766],[112.70550537100002,42.267700195],[112.70507812500001,42.239685059],[112.70007324200002,42.210510254],[112.69390869100002,42.181274414],[112.70709228500002,42.141479492],[112.74688720700001,42.126281738],[112.79467773400002,42.126098633],[112.83471679700001,42.120483398],[112.87268066400001,42.088928223],[112.89367675800001,42.057678223],[112.91210937500001,42.030517578],[112.92547607400002,41.979125977],[112.99432373000002,41.97088623],[113.03967285200001,41.962890625],[113.08831787100002,41.961120605],[113.15612793000001,41.986877441],[113.17828369100002,42.012512207],[113.20672607400002,42.039672852],[113.23352050800001,42.062316895],[113.26629638700001,42.085510254],[113.30187988300001,42.105102539],[113.33551025400001,42.117675781],[113.37792968700002,42.127075195],[113.43188476600001,42.173706055],[113.51147460900002,42.143127441],[113.55548095700001,42.142272949],[113.61151123000002,42.133728027],[113.65289306600002,42.121520996],[113.69891357400002,42.107116699],[113.73547363300001,42.08392334],[113.77728271500001,42.070129395],[113.82647705100001,42.062927246],[113.86608886700002,42.055297852],[113.88470459000001,42.03112793],[113.88928222700001,42.003723145],[113.89147949200002,41.976928711],[113.90032959000001,41.948730469],[113.94750976600001,41.948486328],[113.99847412100002,41.961486816],[114.03649902300002,41.978088379],[114.06188964800002,42.00390625],[114.05468750000001,42.034301758],[114.04968261700002,42.06829834],[114.07507324200002,42.099487305],[114.13067627,42.113098145],[114.17309570300002,42.128112793],[114.20788574200002,42.158874512],[114.230285645,42.181884766],[114.27191162100002,42.202514648],[114.31872558600001,42.181884766],[114.34289550800001,42.154296875],[114.35913085900002,42.129516602],[114.39947509800001,42.119689941],[114.42028808600001,42.153930664],[114.40209960900002,42.189086914],[114.38952636700002,42.219116211],[114.43072509800001,42.224121094],[114.47711181600002,42.226928711],[114.54870605500001,42.25769043],[114.60247802700002,42.269714355],[114.64990234400001,42.26348877],[114.67248535200001,42.237121582],[114.68109130900001,42.209289551],[114.72747802700002,42.197509766],[114.76910400400001,42.188293457],[114.81451416000002,42.135681152],[114.83471679700001,42.112487793],[114.85107421900001,42.106323242],[114.85211181600002,42.059875488],[114.85607910200001,42.019897461],[114.88708496100001,41.982727051],[114.90252685500002,41.929870605],[114.90631103500002,41.886474609],[114.913879395,41.847106934],[114.89868164100001,41.814880371],[114.87127685500002,41.780090332],[114.86853027300002,41.751098633],[114.87750244100002,41.693115234],[114.86730957000002,41.639282227],[114.86187744100002,41.605895996],[114.83990478500002,41.581726074],[114.84887695300002,41.583496094],[114.94671630900001,41.60168457],[114.99090576200001,41.586120605],[115.06268310500002,41.587524414],[115.09332275400001,41.60949707],[115.13891601600001,41.599304199],[115.20031738300001,41.567077637],[115.23291015600002,41.602478027],[115.27447509800001,41.586914062],[115.30572509800001,41.577880859],[115.34130859400001,41.58392334],[115.35412597700001,41.59588623],[115.30908203100002,41.654907227],[115.28192138700001,41.688476562],[115.31811523400002,41.725524902],[115.363098145,41.722290039],[115.41351318400001,41.709106445],[115.46209716800001,41.744689941],[115.49792480500001,41.773681641],[115.54748535200001,41.786071777],[115.59411621100001,41.80670166],[115.66571044900002,41.838684082],[115.70727539100001,41.874511719],[115.78747558600001,41.903503418],[115.83929443400001,41.91809082],[115.89147949200002,41.924682617],[115.92108154300001,41.900085449],[115.92388916000002,41.897705078],[115.94787597700001,41.856872559],[115.97851562500001,41.82208252],[115.98309326200001,41.782897949],[116.03149414100001,41.757324219],[116.04431152300002,41.750488281],[116.08032226600001,41.791687012],[116.08190918000001,41.831481934],[116.10888671900001,41.850708008],[116.18127441400001,41.855102539],[116.20147705100001,41.899475098],[116.21508789100001,41.93347168],[116.27392578100002,41.968505859],[116.31671142600001,41.983703613],[116.35272216800001,41.991088867],[116.38787841800001,41.986083984],[116.39312744100002,41.942504883],[116.39093017600001,41.929321289],[116.41748046900001,41.936279297],[116.44531250000001,41.962890625],[116.45831298800002,41.965270996],[116.47491455100001,41.961486816],[116.48187255900001,41.945678711],[116.48828125000001,41.920715332],[116.50848388700001,41.910522461],[116.59271240200002,41.903320312],[116.64349365200002,41.900878906],[116.67028808600001,41.914916992],[116.68408203100002,41.926696777],[116.68652343700002,41.954284668],[116.69628906200002,41.969116211],[116.72631835900002,41.97088623],[116.80267334000001,41.970092773],[116.82531738300001,41.984313965],[116.84527587900001,42.017272949],[116.84967041000002,42.063293457],[116.83551025400001,42.091674805],[116.82110595700001,42.120300293],[116.78387451200001,42.172729492],[116.80389404300001,42.192321777],[116.84832763700001,42.1796875],[116.90130615200002,42.212097168],[116.88470459000001,42.248291016],[116.85351562500001,42.289672852],[116.85131835900002,42.350891113],[116.86987304700001,42.382873535],[116.91430664100001,42.40612793]]]}}
