{"type":"Feature","id":"bulk-99377448B83910087497493","bbox":[110.33172607400002,33.552307129,111.99987793000001,35.084106445],"properties":{"id":"bulk-99377448B83910087497493","name":"Sanmenxia","nameEn":"Sanmenxia","fullName":"Sanmenxia","level":"city","boundaryRole":"administrative-extent","boundaryQuality":"generalized-source-2020","boundaryYearRepresented":"2020","bounds":[[110.33172607400002,33.552307129],[111.99987793000001,35.084106445]],"center":[111.16580200200002,34.318206787],"centerMethod":"bounding-box midpoint; camera framing only","license":"CC-BY-3.0-IGO","attribution":"geoBoundaries / HDX, China administrative boundaries (2020)","source":{"provider":"geoBoundaries gbHumanitarian / HDX","url":"https://github.com/wmgeolab/geoBoundaries/raw/9469f09/releaseData/gbHumanitarian/CHN/ADM2/geoBoundaries-CHN-ADM2.geojson","metadataUrl":"https://www.geoboundaries.org/api/current/gbHumanitarian/CHN/ADM2/","shapeID":"99377448B83910087497493","shapeName":"Sanmenxia","boundaryID":"CHN-ADM2-99377448","commit":"9469f09"},"geometryCounts":{"coordinates":142,"components":1,"holes":0},"boundaryNotice":"geoBoundaries / HDX 2020 年行政区数据，海岸和边界经过源数据概化，并非当前测绘成果。"},"geometry":{"type":"Polygon","coordinates":[[[110.34027099600002,34.594726562],[110.36328125000001,34.562683105],[110.35369873000002,34.530090332],[110.33172607400002,34.508728027],[110.33850097700001,34.483276367],[110.35430908200001,34.447875977],[110.39227294900002,34.408325195],[110.40551757800002,34.394287109],[110.44329834000001,34.370483398],[110.47009277300002,34.336914062],[110.48687744100002,34.30871582],[110.45147705100001,34.295288086],[110.41851806600002,34.285522461],[110.39312744100002,34.274902344],[110.39331054700001,34.250915527],[110.44427490200002,34.228088379],[110.49731445300002,34.209716797],[110.56811523400002,34.182495117],[110.61450195300002,34.152709961],[110.62048339800002,34.142700195],[110.63891601600001,34.111877441],[110.58612060500002,34.088928223],[110.54571533200001,34.041870117],[110.56567382800002,33.990722656],[110.61767578100002,33.956298828],[110.63848877,33.949279785],[110.62329101600001,33.928894043],[110.61987304700001,33.919311523],[110.59069824200002,33.878479004],[110.58508300800001,33.870483398],[110.60711669900002,33.829101562],[110.64447021500001,33.837097168],[110.66748046900001,33.848693848],[110.71911621100001,33.821289062],[110.76312255900001,33.788513184],[110.78552246100001,33.769104004],[110.79071044900002,33.764709473],[110.80072021500001,33.70111084],[110.80511474600002,33.671875],[110.86212158200001,33.647094727],[110.88952636700002,33.629516602],[110.91687011700002,33.609130859],[110.96612548800002,33.563903809],[110.97967529300001,33.552307129],[111.04589843700002,33.556884766],[111.09613037100002,33.568481445],[111.120910645,33.592102051],[111.13812255900001,33.615905762],[111.13232421900001,33.651489258],[111.13287353500002,33.684326172],[111.17529296900001,33.68927002],[111.18292236300002,33.720275879],[111.17871093700002,33.756896973],[111.18969726600001,33.784912109],[111.23449707000002,33.799926758],[111.21630859400001,33.828918457],[111.19750976600001,33.861694336],[111.21228027300002,33.906494141],[111.23669433600001,33.925720215],[111.26989746100001,33.948303223],[111.31512451200001,33.98828125],[111.31512451200001,34.018310547],[111.31152343700002,34.055725098],[111.33569335900002,34.075073242],[111.34692382800002,34.106872559],[111.32067871100001,34.12890625],[111.27728271500001,34.136291504],[111.24389648400002,34.147521973],[111.20947265600002,34.168518066],[111.17108154300001,34.200073242],[111.14849853500002,34.221496582],[111.13208007800002,34.254272461],[111.12207031200002,34.322692871],[111.09851074200002,34.343688965],[111.11151123000002,34.373718262],[111.14849853500002,34.40411377],[111.19592285200001,34.453918457],[111.24029541000002,34.472473145],[111.27893066400001,34.486083984],[111.33148193400001,34.484924316],[111.36547851600001,34.483520508],[111.41668701200001,34.496520996],[111.45550537100002,34.524475098],[111.49847412100002,34.546081543],[111.54431152300002,34.553100586],[111.58331298800002,34.555297852],[111.63031005900001,34.545715332],[111.67272949200002,34.54309082],[111.68792724600002,34.574707031],[111.71331787100002,34.607299805],[111.74890136700002,34.611328125],[111.78570556600002,34.622070312],[111.83251953100002,34.640930176],[111.86212158200001,34.618530273],[111.95367431600002,34.652282715],[111.99987793000001,34.685913086],[111.97991943400001,34.726501465],[111.99188232400002,34.756713867],[111.99847412100002,34.794311523],[111.988098145,34.829284668],[111.94268798800002,34.855895996],[111.90270996100001,34.87512207],[111.87310791000002,34.898681641],[111.85510253900001,34.921875],[111.878723145,34.94128418],[111.92272949200002,34.959106445],[111.95330810500002,34.98248291],[111.93572998000002,35.011901855],[111.937316895,35.06628418],[111.95568847700001,35.084106445],[111.89227294900002,35.082519531],[111.82250976600001,35.07611084],[111.79388427700002,35.063903809],[111.77447509800001,35.046691895],[111.75811767600001,35.024291992],[111.72607421900001,34.999694824],[111.65289306600002,34.975524902],[111.64587402300002,34.942871094],[111.60131835900002,34.916687012],[111.59149169900002,34.911071777],[111.55230712900001,34.841308594],[111.53308105500001,34.828918457],[111.46990966800001,34.814697266],[111.36871337900001,34.805908203],[111.34667968700002,34.803527832],[111.27392578100002,34.789306641],[111.21392822300001,34.779907227],[111.17590332000002,34.767700195],[111.12548828100002,34.770690918],[111.10968017600001,34.765686035],[111.05889892600001,34.728515625],[111.00469970700001,34.714111328],[110.93872070300002,34.68927002],[110.88507080100001,34.689697266],[110.86608886700002,34.674926758],[110.83447265600002,34.654907227],[110.70507812500001,34.62310791],[110.65472412100002,34.590881348],[110.59790039100001,34.573486328],[110.42510986300002,34.594299316],[110.38732910200001,34.586914062],[110.34027099600002,34.594726562]]]}}
