{"type":"Feature","id":"bulk-99377448B89541849820161","bbox":[112.24108886700002,33.159118652,113.67272949200002,34.356079102],"properties":{"id":"bulk-99377448B89541849820161","name":"Pingdingshan","nameEn":"Pingdingshan","fullName":"Pingdingshan","level":"city","boundaryRole":"administrative-extent","boundaryQuality":"generalized-source-2020","boundaryYearRepresented":"2020","bounds":[[112.24108886700002,33.159118652],[113.67272949200002,34.356079102]],"center":[112.95690917950002,33.757598877],"centerMethod":"bounding-box midpoint; camera framing only","license":"CC-BY-3.0-IGO","attribution":"geoBoundaries / HDX, China administrative boundaries (2020)","source":{"provider":"geoBoundaries gbHumanitarian / HDX","url":"https://github.com/wmgeolab/geoBoundaries/raw/9469f09/releaseData/gbHumanitarian/CHN/ADM2/geoBoundaries-CHN-ADM2.geojson","metadataUrl":"https://www.geoboundaries.org/api/current/gbHumanitarian/CHN/ADM2/","shapeID":"99377448B89541849820161","shapeName":"Pingdingshan","boundaryID":"CHN-ADM2-99377448","commit":"9469f09"},"geometryCounts":{"coordinates":165,"components":1,"holes":0},"boundaryNotice":"geoBoundaries / HDX 2020 年行政区数据，海岸和边界经过源数据概化，并非当前测绘成果。"},"geometry":{"type":"Polygon","coordinates":[[[113.58148193400001,33.702697754],[113.56951904300001,33.700683594],[113.55133056600002,33.737121582],[113.51470947300001,33.757080078],[113.47607421900001,33.750488281],[113.43109130900001,33.738891602],[113.37188720700001,33.761474609],[113.36968994100002,33.788330078],[113.34710693400001,33.81427002],[113.35229492200001,33.847473145],[113.32849121100001,33.879699707],[113.34790039100001,33.924499512],[113.36749267600001,33.955078125],[113.37689209000001,34.014709473],[113.33807373000002,34.019897461],[113.30688476600001,34.048095703],[113.28631591800001,34.071716309],[113.26428222700001,34.092712402],[113.22369384800001,34.102294922],[113.17248535200001,34.10369873],[113.12847900400001,34.114318848],[113.10089111300002,34.135925293],[113.05749511700002,34.174682617],[113.04632568400001,34.21270752],[113.04388427700002,34.24609375],[113.02471923800002,34.282287598],[112.98529052700002,34.300476074],[112.94128418000001,34.304504395],[112.90332031200002,34.305114746],[112.85772705100001,34.303283691],[112.81469726600001,34.305908203],[112.788879395,34.330078125],[112.72369384800001,34.356079102],[112.65948486300002,34.331481934],[112.59710693400001,34.319519043],[112.56048584000001,34.318481445],[112.51831054700001,34.300109863],[112.51831054700001,34.270324707],[112.52728271500001,34.243103027],[112.54528808600001,34.209716797],[112.55810546900001,34.178710937],[112.57611084000001,34.153076172],[112.58587646500001,34.122314453],[112.58850097700001,34.090515137],[112.58831787100002,34.051513672],[112.55047607400002,34.028503418],[112.53192138700001,33.99407959],[112.50732421900001,33.974121094],[112.48571777300002,33.94708252],[112.48449707000002,33.913513184],[112.49932861300002,33.883911133],[112.48968505900001,33.856689453],[112.44110107400002,33.853881836],[112.41149902300002,33.834289551],[112.37750244100002,33.821105957],[112.347473145,33.832702637],[112.29949951200001,33.832275391],[112.245910645,33.827514648],[112.24407959000001,33.78527832],[112.24310302700002,33.749511719],[112.24108886700002,33.719299316],[112.27349853500002,33.695678711],[112.32312011700002,33.682312012],[112.36767578100002,33.676330566],[112.40710449200002,33.671691895],[112.43530273400002,33.650512695],[112.46429443400001,33.61932373],[112.49792480500001,33.590881348],[112.53228759800001,33.588928223],[112.55792236300002,33.616088867],[112.60272216800001,33.614501953],[112.66107177700002,33.598327637],[112.72888183600001,33.585083008],[112.76507568400001,33.590270996],[112.81610107400002,33.596313477],[112.84509277300002,33.623291016],[112.89831543000001,33.622314453],[112.94287109400001,33.605285645],[112.97332763700001,33.581481934],[113.01611328100002,33.567321777],[113.03833007800002,33.528686523],[113.06628418000001,33.51348877],[113.09350585900002,33.483886719],[113.09552002,33.452880859],[113.09350585900002,33.426330566],[113.11932373000002,33.400085449],[113.14489746100001,33.418884277],[113.18310546900001,33.40447998],[113.20092773400002,33.381530762],[113.23327636700002,33.357299805],[113.27850341800001,33.350708008],[113.32373046900001,33.34967041],[113.36108398400002,33.353271484],[113.36132812500001,33.321472168],[113.36669921900001,33.293884277],[113.36547851600001,33.265075684],[113.34851074200002,33.231872559],[113.34771728500002,33.203918457],[113.35748291000002,33.171325684],[113.39971923800002,33.161071777],[113.45770263700001,33.159118652],[113.49908447300001,33.16229248],[113.54711914100001,33.16607666],[113.58807373000002,33.163879395],[113.59490966800001,33.197875977],[113.61853027300002,33.221496582],[113.57708740200002,33.245300293],[113.58087158200001,33.273681641],[113.59790039100001,33.302490234],[113.61688232400002,33.328918457],[113.63751220700001,33.37109375],[113.65808105500001,33.413879395],[113.67272949200002,33.421875],[113.66467285200001,33.423278809],[113.65008544900002,33.424682617],[113.62951660200001,33.426086426],[113.62707519500002,33.422485352],[113.61791992200001,33.415893555],[113.61389160200001,33.414916992],[113.59869384800001,33.415527344],[113.57171630900001,33.428710937],[113.56188964800002,33.421875],[113.55432128900001,33.427490234],[113.55291748000002,33.42767334],[113.53790283200001,33.429321289],[113.52789306600002,33.432678223],[113.52429199200002,33.4375],[113.51989746100001,33.442871094],[113.51867675800001,33.442871094],[113.51208496100001,33.440673828],[113.495910645,33.431091309],[113.48089599600002,33.433898926],[113.47528076200001,33.433105469],[113.46948242200001,33.430725098],[113.46868896500001,33.424499512],[113.46447753900001,33.424316406],[113.45849609400001,33.437072754],[113.46807861300002,33.443115234],[113.46691894500002,33.465515137],[113.47332763700001,33.474121094],[113.48352050800001,33.484680176],[113.48529052700002,33.494689941],[113.48748779300001,33.497314453],[113.48931884800001,33.501708984],[113.50469970700001,33.509094238],[113.51611328100002,33.511474609],[113.52392578100002,33.513916016],[113.53070068400001,33.517883301],[113.53833007800002,33.542480469],[113.53851318400001,33.566101074],[113.538879395,33.575073242],[113.54748535200001,33.585083008],[113.56951904300001,33.59588623],[113.59948730500001,33.611083984],[113.61590576200001,33.621276855],[113.62188720700001,33.625305176],[113.62249755900001,33.631530762],[113.620910645,33.634887695],[113.61853027300002,33.640075684],[113.60491943400001,33.647277832],[113.59149169900002,33.651489258],[113.58270263700001,33.66229248],[113.57708740200002,33.692321777],[113.57952880900001,33.696472168],[113.58148193400001,33.702697754]]]}}
