{"type":"Feature","id":"bulk-99377448B33924506663383","bbox":[111.90209960900002,23.478515625,113.90148925800001,25.190490723],"properties":{"id":"bulk-99377448B33924506663383","name":"Qingyuan","nameEn":"Qingyuan","fullName":"Qingyuan","level":"city","boundaryRole":"administrative-extent","boundaryQuality":"generalized-source-2020","boundaryYearRepresented":"2020","bounds":[[111.90209960900002,23.478515625],[113.90148925800001,25.190490723]],"center":[112.90179443350002,24.334503173999998],"centerMethod":"bounding-box midpoint; camera framing only","license":"CC-BY-3.0-IGO","attribution":"geoBoundaries / HDX, China administrative boundaries (2020)","source":{"provider":"geoBoundaries gbHumanitarian / HDX","url":"https://github.com/wmgeolab/geoBoundaries/raw/9469f09/releaseData/gbHumanitarian/CHN/ADM2/geoBoundaries-CHN-ADM2.geojson","metadataUrl":"https://www.geoboundaries.org/api/current/gbHumanitarian/CHN/ADM2/","shapeID":"99377448B33924506663383","shapeName":"Qingyuan","boundaryID":"CHN-ADM2-99377448","commit":"9469f09"},"geometryCounts":{"coordinates":217,"components":1,"holes":0},"boundaryNotice":"geoBoundaries / HDX 2020 年行政区数据，海岸和边界经过源数据概化，并非当前测绘成果。"},"geometry":{"type":"Polygon","coordinates":[[[112.38067627,25.157287598],[112.37731933600001,25.147705078],[112.36248779300001,25.147094727],[112.33087158200001,25.160888672],[112.30627441400001,25.171081543],[112.27947998000002,25.167114258],[112.25769043000001,25.164672852],[112.21411132800002,25.179504395],[112.18048095700001,25.176330566],[112.15747070300002,25.169494629],[112.14227294900002,25.145324707],[112.13787841800001,25.10748291],[112.13128662100002,25.070922852],[112.13031005900001,25.065307617],[112.12371826200001,25.003295898],[112.09027099600002,24.949523926],[112.09710693400001,24.934082031],[112.11968994100002,24.923095703],[112.13671875000001,24.911071777],[112.15490722700001,24.89831543],[112.15747070300002,24.871276855],[112.13647460900002,24.847290039],[112.11407470700001,24.834289551],[112.11047363300001,24.832275391],[112.07489013700001,24.813720703],[112.04089355500001,24.789672852],[112.01910400400001,24.77911377],[111.99908447300001,24.767700195],[111.97888183600001,24.746887207],[111.97229003900001,24.739929199],[111.92547607400002,24.710693359],[111.91052246100001,24.694519043],[111.90332031200002,24.663085937],[111.90228271500001,24.648681641],[111.90209960900002,24.62890625],[111.90771484400001,24.603515625],[111.92810058600001,24.578125],[111.95251464800002,24.563476562],[111.98968505900001,24.545898437],[111.99652099600002,24.525085449],[111.98529052700002,24.489929199],[111.99169921900001,24.448486328],[112.01391601600001,24.418273926],[112.01672363300001,24.398498535],[112.02227783200001,24.372314453],[112.03070068400001,24.344299316],[112.02648925800001,24.324279785],[112.00970459000001,24.311096191],[111.99291992200001,24.297729492],[111.95129394500002,24.270080566],[111.94891357400002,24.269470215],[111.97668457000002,24.228881836],[112.00268554700001,24.212280273],[112.03649902300002,24.229309082],[112.04028320300002,24.266296387],[112.06207275400001,24.292114258],[112.09332275400001,24.264892578],[112.10992431600002,24.227722168],[112.14770507800002,24.219482422],[112.18109130900001,24.24029541],[112.21252441400001,24.257324219],[112.23468017600001,24.290710449],[112.22607421900001,24.325927734],[112.22210693400001,24.36529541],[112.22088623000002,24.396484375],[112.23229980500001,24.423522949],[112.27288818400001,24.413879395],[112.31652832000002,24.396484375],[112.35571289100001,24.371887207],[112.39947509800001,24.348876953],[112.42608642600001,24.296081543],[112.43969726600001,24.270080566],[112.44189453100002,24.241699219],[112.43090820300002,24.215515137],[112.41369628900001,24.192687988],[112.39892578100002,24.162902832],[112.41870117200001,24.13470459],[112.45452880900001,24.129089355],[112.48468017600001,24.106689453],[112.48309326200001,24.075073242],[112.48291015600002,24.047485352],[112.48950195300002,24.019470215],[112.52850341800001,23.997924805],[112.59149169900002,23.977111816],[112.62750244100002,23.965515137],[112.65612793000001,23.934509277],[112.65087890600002,23.900695801],[112.63952636700002,23.871276855],[112.63732910200001,23.832092285],[112.66827392600001,23.811889648],[112.67047119100002,23.777893066],[112.69610595700001,23.750488281],[112.69287109400001,23.722106934],[112.71228027300002,23.697509766],[112.73547363300001,23.671325684],[112.72790527300002,23.642883301],[112.72711181600002,23.613525391],[112.75811767600001,23.59552002],[112.79528808600001,23.574890137],[112.83892822300001,23.539489746],[112.87988281200002,23.547302246],[112.90051269500002,23.522277832],[112.92431640600002,23.487487793],[112.99908447300001,23.478515625],[113.02947998000002,23.496276855],[113.06048584000001,23.520080566],[113.09851074200002,23.533081055],[113.12768554700001,23.524108887],[113.16290283200001,23.542724609],[113.17651367200001,23.580688477],[113.21008300800001,23.603271484],[113.27630615200002,23.637695312],[113.30731201200001,23.662719727],[113.32049560500002,23.691101074],[113.35467529300001,23.72668457],[113.36907959000001,23.751098633],[113.40368652300002,23.74230957],[113.43450927700002,23.718688965],[113.45910644500002,23.703918457],[113.49328613300001,23.706481934],[113.52929687500001,23.708679199],[113.54949951200001,23.687072754],[113.58068847700001,23.696472168],[113.59368896500001,23.743896484],[113.59027099600002,23.789123535],[113.60748291000002,23.821105957],[113.66229248000002,23.822509766],[113.695129395,23.844726562],[113.71948242200001,23.872497559],[113.75927734400001,23.889892578],[113.81268310500002,23.909118652],[113.77111816400001,23.930908203],[113.74530029300001,23.953491211],[113.71630859400001,23.976074219],[113.71612548800002,24.009887695],[113.73309326200001,24.056518555],[113.76428222700001,24.041870117],[113.80047607400002,24.059509277],[113.82269287100002,24.088684082],[113.83190918000001,24.116882324],[113.84552002,24.152282715],[113.87268066400001,24.17388916],[113.90148925800001,24.191894531],[113.89190673800002,24.230529785],[113.86010742200001,24.245117187],[113.83673095700001,24.286682129],[113.83569335900002,24.316711426],[113.82507324200002,24.342895508],[113.80212402300002,24.370300293],[113.78747558600001,24.405883789],[113.75732421900001,24.444274902],[113.72747802700002,24.446716309],[113.69152832000002,24.433288574],[113.65667724600002,24.443481445],[113.63989257800002,24.482910156],[113.59912109400001,24.49029541],[113.56811523400002,24.515686035],[113.53930664100001,24.546081543],[113.50427246100001,24.54510498],[113.46948242200001,24.49432373],[113.43170166000002,24.475280762],[113.39691162100002,24.479919434],[113.35931396500001,24.496704102],[113.30969238300001,24.50012207],[113.27770996100001,24.49029541],[113.24371337900001,24.495727539],[113.22949218700002,24.520324707],[113.171875,24.515930176],[113.12432861300002,24.501708984],[113.11389160200001,24.527099609],[113.09167480500001,24.551696777],[113.06311035200001,24.517272949],[113.04711914100001,24.488098145],[113.00347900400001,24.49987793],[112.98071289100001,24.531311035],[112.93908691400001,24.567077637],[112.89752197300001,24.610717773],[112.86212158200001,24.628295898],[112.86547851600001,24.669677734],[112.87469482400002,24.704284668],[112.86730957000002,24.739685059],[112.90209960900002,24.764709473],[112.93048095700001,24.785888672],[112.92669677700002,24.815673828],[112.94787597700001,24.849487305],[112.97991943400001,24.882507324],[112.972473145,24.924926758],[112.96911621100001,24.923522949],[112.93847656200002,24.923095703],[112.91589355500001,24.929077148],[112.89093017600001,24.922302246],[112.87292480500001,24.909912109],[112.84210205100001,24.901489258],[112.80529785200001,24.894104004],[112.77667236300002,24.897277832],[112.77050781200002,24.93170166],[112.76348877,24.938110352],[112.75012207000002,24.950927734],[112.73388671900001,24.977294922],[112.722473145,25.002685547],[112.70989990200002,25.019104004],[112.69329834000001,25.029296875],[112.67492675800001,25.059326172],[112.65972900400001,25.090270996],[112.65789794900002,25.101074219],[112.63647460900002,25.122070312],[112.63568115200002,25.12310791],[112.60809326200001,25.131713867],[112.57727050800001,25.133911133],[112.546691895,25.138916016],[112.51892089800002,25.13848877],[112.48352050800001,25.151489258],[112.45489502,25.164672852],[112.42449951200001,25.18572998],[112.41369628900001,25.190490723],[112.39770507800002,25.185302734],[112.38067627,25.157287598]]]}}
