{"type":"Feature","id":"hangzhou","bbox":[118.3396948,29.1888286,120.7254851,30.5648514],"properties":{"id":"hangzhou","name":"杭州","fullName":"杭州市","nameEn":"Hangzhou","level":"city","parentId":"zhejiang","bounds":[[118.3396948,29.1888286],[120.7254851,30.5648514]],"center":[119.53258995,29.87684],"centerMethod":"bounding-box midpoint; camera framing only","interiorPoint":[119.47626260473584,29.877230599999997],"boundaryRole":"administrative-extent","attribution":"© OpenStreetMap contributors","license":"ODbL-1.0","source":{"provider":"OpenStreetMap","osmType":"relation","osmId":3221112,"url":"https://www.openstreetmap.org/relation/3221112","retrievedAt":"2026-09-08T10:09:40.984635+00:00"},"geometryCounts":{"coordinates":3569,"components":1,"holes":0},"simplificationToleranceDegrees":0.0005},"geometry":{"type":"Polygon","coordinates":[[[118.3396948,29.4774609],[118.3410439,29.4762454],[118.3400479,29.4722259],[118.340744,29.4700778],[118.3419155,29.4692265],[118.3398342,29.4645929],[118.3465451,29.4606018],[118.3485021,29.4545644],[118.3597523,29.4533432],[118.3620327,29.4489485],[118.365468,29.4482352],[118.3668406,29.4414931],[118.3692219,29.440225],[118.3721933,29.4361837],[118.3753969,29.435152],[118.3792067,29.4358651],[118.3824571,29.4293909],[118.3852288,29.4260712],[118.3905952,29.4254161],[118.392199,29.4271401],[118.3934831,29.426501],[118.3944329,29.4276017],[118.4015511,29.4261171],[118.4074389,29.42245],[118.4096609,29.4220111],[118.4089835,29.4199884],[118.4059032,29.4178149],[118.4050846,29.4165825],[118.4055371,29.4160595],[118.404088,29.4148694],[118.4021997,29.4112239],[118.4002968,29.4097121],[118.4013555,29.4093485],[118.4020879,29.406567],[118.4030107,29.405932],[118.4072083,29.405388],[118.4084586,29.4063252],[118.4109703,29.4060916],[118.4121081,29.4033233],[118.4093601,29.3962785],[118.4108339,29.3954304],[118.4105567,29.3988416],[118.4117277,29.3995712],[118.4107386,29.3982227],[118.4110807,29.3947011],[118.4123338,29.3945035],[118.4132773,29.3972022],[118.4134305,29.3954581],[118.4148873,29.3947107],[118.4112404,29.3940669],[118.4142313,29.3921154],[118.4169759,29.3929633],[118.4197457,29.3883695],[118.4217097,29.3882079],[118.4227253,29.3860993],[118.4253427,29.3838937],[118.4296888,29.3823489],[118.431774,29.3800081],[118.4357798,29.3781728],[118.4391306,29.379767],[118.4402334,29.3794263],[118.4401838,29.377906],[118.4491864,29.3758007],[118.4517976,29.3740663],[118.4508913,29.3705903],[118.452212,29.3697232],[118.4544879,29.3656209],[118.4578928,29.3640101],[118.4580574,29.3616893],[118.4628221,29.363436],[118.4668299,29.3633333],[118.4732343,29.3685553],[118.4760408,29.367914],[118.4775475,29.3710016],[118.4811173,29.3714211],[118.4851681,29.3700546],[118.488372,29.3635725],[118.4940449,29.3637929],[118.4965951,29.36619],[118.4972686,29.3652832],[118.500434,29.3643209],[118.5013325,29.3625532],[118.503182,29.3634304],[118.5029515,29.3654722],[118.5044402,29.3657984],[118.5037916,29.3664848],[118.5058212,29.3674205],[118.5077994,29.3655038],[118.5084943,29.3669714],[118.5143045,29.3696382],[118.5165721,29.3659134],[118.5157968,29.3644553],[118.519293,29.3648463],[118.5206952,29.3641075],[118.519668,29.3604644],[118.5184192,29.3600181],[118.5188568,29.3565508],[118.5173329,29.3554836],[118.5176959,29.3540305],[118.5219983,29.352667],[118.5231148,29.3506426],[118.5227311,29.3484058],[118.5266005,29.3481699],[118.5295456,29.3441604],[118.530534,29.3447751],[118.5321822,29.3443586],[118.5347394,29.3461333],[118.5368809,29.3457339],[118.5372591,29.3398645],[118.5443489,29.3402455],[118.5459768,29.3414109],[118.5465661,29.3410819],[118.5480603,29.3438752],[118.5493032,29.3441183],[118.5526352,29.3443476],[118.5537732,29.3413079],[118.5546468,29.3411737],[118.5562923,29.3411022],[118.5584692,29.3419972],[118.5587769,29.3430334],[118.5596954,29.3426477],[118.5606517,29.3433091],[118.5624452,29.3414101],[118.5641183,29.3422137],[118.5689287,29.3409714],[118.5703503,29.3383841],[118.5734509,29.3366222],[118.5737808,29.3354721],[118.5761105,29.3348476],[118.5774686,29.3366862],[118.578445,29.3367906],[118.5828624,29.33505],[118.5827033,29.3327894],[118.5814383,29.332427],[118.5831009,29.3305412],[118.5871196,29.3330338],[118.588927,29.3332985],[118.5939367,29.3319382],[118.5968291,29.3288788],[118.5982944,29.3283853],[118.598577,29.3207779],[118.5975316,29.3194208],[118.6013991,29.3170655],[118.6029783,29.3174204],[118.6052439,29.3133064],[118.6080779,29.3117669],[118.6088263,29.3104976],[118.6121484,29.3091369],[118.6115089,29.307152],[118.6122494,29.3059877],[118.6111788,29.3029348],[118.6088766,29.3003042],[118.610638,29.3001139],[118.6139729,29.2951979],[118.617737,29.293187],[118.6185257,29.2897662],[118.6224322,29.2880858],[118.6213723,29.2877884],[118.6212784,29.2857487],[118.6242439,29.2838608],[118.6271196,29.2800465],[118.6298764,29.2709601],[118.6321882,29.2661648],[118.6305658,29.2646247],[118.6273503,29.2678931],[118.6238133,29.2696386],[118.6207647,29.2686523],[118.6187808,29.2690862],[118.6143036,29.273768],[118.6122394,29.28073],[118.608539,29.2827115],[118.6083495,29.2835615],[118.6050334,29.2815917],[118.6055402,29.2789332],[118.6047303,29.2746374],[118.6011129,29.2714985],[118.6042055,29.2673563],[118.6051441,29.2620604],[118.6068562,29.2606854],[118.6072945,29.2577915],[118.6101086,29.2542376],[118.6094389,29.2525569],[118.6102305,29.2512837],[118.606952,29.2462739],[118.6019992,29.2423963],[118.6062286,29.237997],[118.6079908,29.2339667],[118.6101735,29.2322091],[118.6117816,29.2273628],[118.6157856,29.2211806],[118.6166297,29.2208864],[118.62114,29.2229152],[118.6259365,29.2228236],[118.6270125,29.22171],[118.6261475,29.217434],[118.6262825,29.2156694],[118.6281611,29.2136704],[118.6273445,29.2083734],[118.6277966,29.2072214],[118.62219,29.2014065],[118.6212472,29.2013873],[118.6214882,29.1998087],[118.6239966,29.1983944],[118.623051,29.197546],[118.6232592,29.1960117],[118.6293061,29.1950123],[118.6345924,29.1959296],[118.6444871,29.1989787],[118.6574437,29.2009163],[118.6654144,29.204044],[118.6700821,29.202982],[118.6756852,29.2046951],[118.6771035,29.205846],[118.6811595,29.2041446],[118.6827276,29.2042452],[118.684603,29.2020138],[118.6905059,29.1992721],[118.6941927,29.1955163],[118.7015755,29.1929609],[118.7044258,29.1913201],[118.7065441,29.1888286],[118.7107053,29.1937413],[118.7127933,29.1937774],[118.7129904,29.1952434],[118.7145535,29.1963404],[118.7154052,29.1984869],[118.7156716,29.2012012],[118.7255254,29.2022238],[118.72758,29.2098938],[118.7318795,29.2111225],[118.7376614,29.2163028],[118.7497356,29.2160692],[118.7530921,29.2182396],[118.7545002,29.2206116],[118.7595648,29.2221109],[118.762706,29.2278664],[118.7612644,29.2292521],[118.7616038,29.2302073],[118.7608744,29.2313365],[118.7611749,29.2385888],[118.7586987,29.2400069],[118.757761,29.2419518],[118.7561367,29.2423987],[118.7560131,29.2436779],[118.7585926,29.2481719],[118.7584735,29.2509281],[118.7623324,29.2543137],[118.7673365,29.2531568],[118.7720533,29.2542983],[118.7733766,29.2555305],[118.7732658,29.2563525],[118.7756289,29.2580642],[118.775938,29.2604318],[118.7788024,29.2611245],[118.7802088,29.2637455],[118.7800368,29.2671783],[118.7811095,29.2689321],[118.7821393,29.2697126],[118.7890265,29.2701765],[118.7917039,29.2731937],[118.7964635,29.2765102],[118.799824,29.278658],[118.8045186,29.2800629],[118.8077269,29.283097],[118.8120189,29.2844659],[118.8179578,29.2815751],[118.8215787,29.2831545],[118.8225583,29.2843414],[118.8228872,29.2885235],[118.824246,29.2914985],[118.8265884,29.2914918],[118.8303346,29.2939634],[118.8331151,29.2945168],[118.8345837,29.2979855],[118.8378119,29.3007618],[118.8469178,29.3020621],[118.846936,29.3044928],[118.8504342,29.3067202],[118.852809,29.314244],[118.8552322,29.3173561],[118.8577783,29.318965],[118.8580912,29.3201433],[118.8607663,29.3218215],[118.8608803,29.3231313],[118.8637579,29.324096],[118.8640425,29.3255191],[118.8665946,29.3275622],[118.8706406,29.3282803],[118.8728313,29.3297646],[118.8746798,29.3283466],[118.8774295,29.3278452],[118.8800198,29.3257977],[118.8855176,29.3267443],[118.8883025,29.33342],[118.8917511,29.3333603],[118.896152,29.3353446],[118.9006681,29.3297335],[118.9017965,29.329481],[118.9023093,29.3279328],[118.9061367,29.3273639],[118.9084279,29.3252595],[118.9106838,29.3215162],[118.9145546,29.3206176],[118.9168457,29.3178909],[118.9178218,29.3181737],[118.9209684,29.3135187],[118.9233569,29.3124311],[118.928086,29.3123901],[118.9346584,29.3094629],[118.9390375,29.3111632],[118.9405294,29.3075508],[118.9445831,29.3025937],[118.9486238,29.3020119],[118.9508256,29.2999348],[118.9547869,29.2993548],[118.9578946,29.3004938],[118.9586283,29.2998233],[118.9599354,29.2971281],[118.9594966,29.2964402],[118.9578191,29.295957],[118.9559016,29.2940414],[118.9554492,29.2925071],[118.953409,29.2913657],[118.9524354,29.2892684],[118.9491202,29.2892629],[118.9491804,29.2883918],[118.9475884,29.2881195],[118.9478269,29.2866018],[118.9467059,29.2866222],[118.9458407,29.2847189],[118.9473606,29.2857802],[118.9460193,29.2820594],[118.9483722,29.2824785],[118.9494619,29.2848706],[118.9505802,29.2850585],[118.9503983,29.2821295],[118.9507988,29.2814741],[118.9519943,29.2818834],[118.9514709,29.2803593],[118.9534882,29.2798175],[118.954141,29.2776904],[118.9546487,29.2695753],[118.9604844,29.2714151],[118.9624076,29.2700417],[118.9630158,29.2674187],[118.965986,29.2668049],[118.9707559,29.2608233],[118.9758218,29.2635543],[118.9763428,29.2633043],[118.9751969,29.2612322],[118.9760325,29.2607792],[118.9766984,29.2618185],[118.9777376,29.2615034],[118.9799936,29.2543049],[118.9826841,29.2505023],[118.983108,29.2466671],[118.9823838,29.2449644],[118.9800685,29.2437578],[118.9779798,29.2410936],[118.9800946,29.2391028],[118.9801918,29.2378148],[118.9792379,29.236804],[118.9796496,29.2349551],[118.9812235,29.2343299],[118.9812144,29.231242],[118.9798463,29.2302597],[118.9797806,29.2290056],[118.9821611,29.2287699],[118.9828735,29.2275845],[118.980776,29.2252354],[118.9801455,29.2230757],[118.9827641,29.2251966],[118.9838844,29.2247562],[118.9857551,29.2257701],[118.9838244,29.2216349],[118.9868395,29.2216186],[118.9866104,29.2197185],[118.9884438,29.2213842],[118.98969,29.2192264],[118.993621,29.2197079],[118.9953842,29.2141957],[118.9982277,29.2125747],[118.997974,29.2107523],[118.9989397,29.2135754],[118.9996562,29.2108342],[119.0006667,29.21167],[119.0035957,29.2120018],[119.0063364,29.214595],[119.0103401,29.2145917],[119.0181794,29.2163705],[119.0201055,29.2172747],[119.0221977,29.2220524],[119.0237045,29.2225439],[119.02649,29.2213585],[119.0297809,29.2215652],[119.0360415,29.222488],[119.0413385,29.2246026],[119.044297,29.2236235],[119.0487434,29.2245466],[119.0540463,29.2286479],[119.0593891,29.2313281],[119.0597235,29.2292772],[119.0642654,29.2278139],[119.0680952,29.2279182],[119.0713598,29.2257649],[119.0728313,29.2260844],[119.0770182,29.2297466],[119.0783749,29.2322224],[119.0802784,29.232954],[119.0846432,29.2320387],[119.0876234,29.2334122],[119.0895573,29.2321719],[119.0902823,29.2303957],[119.0976076,29.2305845],[119.1010482,29.2289982],[119.103491,29.229017],[119.1048661,29.2302175],[119.1055359,29.2325185],[119.1085522,29.233719],[119.1104193,29.2357555],[119.1205656,29.239727],[119.1255225,29.2374909],[119.126466,29.2359759],[119.122861,29.2296456],[119.1246945,29.2273118],[119.1244845,29.2250656],[119.1260522,29.223714],[119.133223,29.2227044],[119.1354581,29.2258576],[119.1406911,29.2254193],[119.1447215,29.2294091],[119.1473037,29.2298706],[119.1533485,29.2237625],[119.1548398,29.2239618],[119.1556747,29.2231006],[119.1551315,29.2219919],[119.1559186,29.2215106],[119.1546692,29.2177621],[119.1581104,29.2177146],[119.1617322,29.2210488],[119.1635611,29.2210466],[119.1644107,29.2201928],[119.1638245,29.2185815],[119.1647006,29.2175103],[119.1668513,29.2173647],[119.1651275,29.2162718],[119.1654635,29.2154753],[119.1679818,29.2168505],[119.170368,29.2161522],[119.1716096,29.2115624],[119.1712757,29.2107836],[119.1699996,29.2108277],[119.1694255,29.2092819],[119.1705533,29.2065811],[119.1738425,29.2064389],[119.1745479,29.2101216],[119.1780917,29.2093422],[119.1787664,29.2083635],[119.1800515,29.2097025],[119.1796223,29.2079326],[119.1811542,29.2083887],[119.1803888,29.2062989],[119.1809795,29.2053198],[119.1811815,29.2063735],[119.1856177,29.2076913],[119.1842449,29.2092104],[119.1853271,29.2100585],[119.1849417,29.2121297],[119.1856185,29.2130489],[119.1849136,29.2138224],[119.1857385,29.214813],[119.1873506,29.2141437],[119.1863596,29.2157849],[119.190476,29.2192945],[119.1882948,29.2229944],[119.1857655,29.222622],[119.1846708,29.2250021],[119.1845987,29.2294023],[119.1853363,29.2302587],[119.1882577,29.2317978],[119.1897744,29.2314797],[119.1908925,29.2297733],[119.1925239,29.2305939],[119.19471,29.2303054],[119.1971947,29.2323141],[119.1979413,29.2318886],[119.1966677,29.2296563],[119.1979655,29.22976],[119.1979943,29.2289603],[119.1969716,29.2284977],[119.1975158,29.2276116],[119.1981116,29.2271805],[119.199393,29.2278415],[119.2014816,29.2251494],[119.2032387,29.224785],[119.2031624,29.224247],[119.2053058,29.2240384],[119.2055493,29.2256771],[119.2067524,29.2260385],[119.2076578,29.2249471],[119.2088544,29.2264944],[119.2085981,29.2278891],[119.2093602,29.2288784],[119.2079579,29.2285717],[119.2058346,29.2300598],[119.2057713,29.2329683],[119.2070672,29.2338863],[119.2051513,29.2341313],[119.2057183,29.2356511],[119.205192,29.2368717],[119.2025119,29.2385428],[119.2067761,29.239188],[119.2074357,29.2376111],[119.2074534,29.2387946],[119.2084592,29.2396708],[119.2117893,29.2391107],[119.2119472,29.2403183],[119.2104459,29.2412868],[119.2099315,29.2429973],[119.2068605,29.2467476],[119.2105052,29.2501219],[119.2059279,29.2515674],[119.2039133,29.2509514],[119.2045763,29.2526862],[119.2025062,29.2549055],[119.2014608,29.2549696],[119.2014344,29.2557307],[119.199712,29.2560713],[119.1952127,29.2611116],[119.19371,29.260907],[119.1917484,29.2587796],[119.1885076,29.2597479],[119.1873249,29.2612369],[119.1870431,29.2637338],[119.1853725,29.2646428],[119.1861335,29.2666575],[119.1821588,29.2692633],[119.1814318,29.2713675],[119.1850629,29.273791],[119.1865243,29.273455],[119.1876875,29.2745801],[119.1898851,29.2746589],[119.1924704,29.2842382],[119.1944055,29.2885403],[119.1943733,29.2918721],[119.1960635,29.2929763],[119.2005485,29.290944],[119.2013956,29.2923552],[119.2043027,29.2917454],[119.205426,29.2926018],[119.2057483,29.2953862],[119.2036724,29.2977197],[119.2055018,29.2981819],[119.2066016,29.296567],[119.2127158,29.2960107],[119.2149756,29.2969169],[119.2178111,29.2947649],[119.2191834,29.2958376],[119.2215212,29.2955442],[119.2219054,29.2942089],[119.2238682,29.294187],[119.2259994,29.2921093],[119.2229342,29.2885715],[119.2254153,29.2871746],[119.2246941,29.2866343],[119.2254157,29.2807426],[119.2239484,29.2799844],[119.2244471,29.2790667],[119.2230022,29.278095],[119.2239172,29.2748007],[119.2252933,29.2739366],[119.2273198,29.2751719],[119.2291349,29.2732865],[119.2289336,29.2715003],[119.2267702,29.269981],[119.230745,29.264181],[119.2303991,29.263075],[119.2312305,29.261836],[119.2343121,29.2622592],[119.2305184,29.259142],[119.2309243,29.2577599],[119.23008,29.2568555],[119.2257105,29.2584426],[119.2268191,29.2562194],[119.2287455,29.2551726],[119.2261766,29.2553335],[119.2279048,29.2542152],[119.2293484,29.2544749],[119.2293252,29.252056],[119.2304792,29.2499209],[119.2332832,29.2532566],[119.236148,29.2541006],[119.2388736,29.2529346],[119.2382689,29.2542152],[119.2393195,29.2545647],[119.2411855,29.2528923],[119.2416353,29.2532793],[119.2399879,29.2566771],[119.2438002,29.2559189],[119.2461221,29.2536914],[119.247148,29.2537186],[119.2486081,29.2523781],[119.2498012,29.2525441],[119.2541292,29.2498667],[119.256642,29.2502754],[119.2619984,29.2530249],[119.265408,29.2528587],[119.2656663,29.2540936],[119.2667196,29.2542105],[119.2675682,29.2554487],[119.2675156,29.2578907],[119.2708073,29.2614859],[119.2727287,29.2611201],[119.2724615,29.262124],[119.2734833,29.2637331],[119.2761054,29.2646663],[119.2752095,29.2651364],[119.2756922,29.267421],[119.2788096,29.2679004],[119.2799819,29.2701146],[119.2812509,29.2705902],[119.2802278,29.2711335],[119.2811613,29.2723412],[119.2806809,29.273677],[119.2796454,29.2739921],[119.277216,29.2795852],[119.2791217,29.2794785],[119.2786649,29.2804874],[119.2794678,29.2822681],[119.282731,29.2820697],[119.2832198,29.2835402],[119.2825504,29.2857569],[119.2809046,29.2868767],[119.2804305,29.2863252],[119.2793462,29.2885704],[119.2845524,29.2850091],[119.2854241,29.2860006],[119.2868775,29.2852559],[119.2872408,29.2865838],[119.2875148,29.2855985],[119.2876149,29.2863762],[119.2891449,29.2857244],[119.2888534,29.2841873],[119.2900894,29.2851021],[119.2907132,29.283463],[119.2898068,29.2835414],[119.2900714,29.2827102],[119.2919132,29.2808504],[119.2910475,29.2775532],[119.2894749,29.2779233],[119.2910155,29.2759559],[119.2909651,29.273261],[119.2921422,29.2764388],[119.2913906,29.2765937],[119.2925726,29.2790827],[119.2922517,29.2805646],[119.2933593,29.2788447],[119.2950033,29.2781267],[119.294533,29.2775187],[119.2963791,29.278785],[119.2958176,29.2751186],[119.2982638,29.2756689],[119.2981979,29.276486],[119.2967775,29.2760395],[119.2969319,29.2774331],[119.2987416,29.2777075],[119.2984104,29.2781977],[119.300594,29.2793144],[119.3011728,29.2829961],[119.3020742,29.2836517],[119.3029676,29.2829524],[119.302532,29.2848349],[119.3040707,29.284404],[119.3035541,29.2829707],[119.3065561,29.2855675],[119.3101637,29.2828235],[119.309854,29.2814141],[119.3106334,29.2822583],[119.3127797,29.2812551],[119.3125244,29.283305],[119.3138126,29.2841821],[119.3099158,29.2863344],[119.3111134,29.2878544],[119.3148889,29.2852753],[119.314081,29.2878879],[119.3151473,29.2876082],[119.3162971,29.2853217],[119.3194645,29.2837437],[119.3180243,29.2851881],[119.3187117,29.2861751],[119.3175169,29.2876208],[119.3197373,29.2876791],[119.319988,29.288514],[119.3189411,29.2885835],[119.318277,29.2905283],[119.319492,29.2908436],[119.3194125,29.2931754],[119.3203843,29.2910355],[119.3214182,29.2912937],[119.3221769,29.2944259],[119.3210714,29.2969211],[119.3219355,29.2970285],[119.3245979,29.2932394],[119.3246857,29.2896526],[119.3249787,29.2905626],[119.3256786,29.2896483],[119.3250978,29.2919738],[119.3258243,29.2924534],[119.3257962,29.2952927],[119.324131,29.2967121],[119.322408,29.296966],[119.3240666,29.2993872],[119.3232481,29.3000888],[119.3232117,29.3027394],[119.3204141,29.3041941],[119.3204549,29.3065085],[119.3226135,29.3083331],[119.3204897,29.3083305],[119.3204711,29.3097256],[119.3223707,29.3096532],[119.3216295,29.3127679],[119.3222982,29.3121066],[119.3226291,29.3130028],[119.3236955,29.3130493],[119.3251451,29.3117107],[119.3271253,29.3122378],[119.3277166,29.3133733],[119.329128,29.313602],[119.3293955,29.3127499],[119.3312047,29.3165093],[119.332238,29.3168921],[119.3341903,29.3159746],[119.3357331,29.3175661],[119.3358597,29.3168117],[119.3378901,29.3168218],[119.337659,29.3178383],[119.3390314,29.3168686],[119.3389178,29.3185257],[119.3405738,29.3199947],[119.3430379,29.3195064],[119.3437693,29.3178112],[119.3460063,29.3162383],[119.3461725,29.3180365],[119.3475236,29.318913],[119.3458757,29.3205627],[119.3443313,29.3206371],[119.3423864,29.3247554],[119.3400179,29.3263603],[119.3415854,29.327082],[119.3419336,29.3282327],[119.3407861,29.3276936],[119.3404083,29.3282088],[119.3414783,29.3306103],[119.3407359,29.3310908],[119.3418454,29.3332136],[119.3431817,29.3339687],[119.3426359,29.3381349],[119.3412988,29.338371],[119.3408112,29.3399343],[119.3410665,29.341137],[119.3420894,29.3413241],[119.3421089,29.3425924],[119.3411458,29.3438377],[119.3367585,29.345879],[119.3331472,29.3467288],[119.3371146,29.3507293],[119.3356348,29.3505217],[119.3351103,29.352388],[119.3307385,29.3509702],[119.3300552,29.3517374],[119.3284723,29.3514139],[119.3279898,29.3532018],[119.3290958,29.3534379],[119.3294494,29.3554424],[119.3278505,29.3596637],[119.3306501,29.3623357],[119.3320227,29.3662807],[119.3306118,29.3671475],[119.3303249,29.3686631],[119.3312285,29.3744689],[119.3332004,29.3771149],[119.3357836,29.3783597],[119.3344303,29.3828316],[119.3375051,29.3884721],[119.3404003,29.3917832],[119.3360812,29.393791],[119.333252,29.3903449],[119.331087,29.3909462],[119.3292019,29.393436],[119.3317818,29.3940116],[119.3333485,29.3954648],[119.3366434,29.3960581],[119.3256524,29.3993991],[119.3239122,29.4008428],[119.3258431,29.4012799],[119.3269849,29.4006306],[119.3265654,29.4026293],[119.3280665,29.4041679],[119.3294294,29.409451],[119.3328812,29.4084644],[119.3349129,29.4109026],[119.33595,29.4101245],[119.3370613,29.4116681],[119.3395941,29.4108049],[119.3467412,29.4126773],[119.348527,29.4117249],[119.3553658,29.4184007],[119.357046,29.4190627],[119.3592229,29.4187618],[119.3608664,29.4173623],[119.3618623,29.4195032],[119.3611623,29.4204916],[119.362253,29.4201122],[119.3619363,29.4178875],[119.3630731,29.4178245],[119.3663493,29.4198843],[119.3688219,29.4254857],[119.3725293,29.4288749],[119.3726223,29.4303663],[119.3760379,29.4340761],[119.3787792,29.4342097],[119.3850932,29.4294432],[119.3855268,29.4267847],[119.3847649,29.4243962],[119.3871946,29.4207653],[119.3875794,29.4172455],[119.390853,29.4141585],[119.3954274,29.4135337],[119.398492,29.4094218],[119.3990979,29.4073571],[119.4030395,29.4089625],[119.4038693,29.4079796],[119.4059381,29.4077781],[119.4073899,29.4089774],[119.4083115,29.4080352],[119.409505,29.4087537],[119.4110938,29.4083615],[119.4122963,29.4066179],[119.4169177,29.4075307],[119.4189384,29.4067817],[119.420697,29.4071391],[119.4233422,29.4090881],[119.4230043,29.4099969],[119.4249136,29.4153916],[119.4199201,29.4141411],[119.4175069,29.4118882],[119.4177514,29.4165666],[119.4221381,29.4182148],[119.4247506,29.4201923],[119.4249145,29.4236039],[119.4239473,29.4245971],[119.4307077,29.4266327],[119.4338322,29.4260499],[119.4345554,29.4195352],[119.4381901,29.4189028],[119.4371757,29.4177808],[119.4343024,29.4179748],[119.435297,29.4167466],[119.4365647,29.4170328],[119.437354,29.415297],[119.4368966,29.4142974],[119.4378955,29.4135285],[119.4377057,29.4127604],[119.4361584,29.4131485],[119.4358247,29.4124071],[119.4429844,29.4107445],[119.4451664,29.4110057],[119.4454332,29.4102503],[119.4463023,29.4103143],[119.4462788,29.4111967],[119.4487294,29.4115194],[119.4475862,29.410051],[119.4491031,29.4072014],[119.4481787,29.4057613],[119.4507613,29.4047743],[119.4512361,29.406059],[119.4521579,29.4056462],[119.4527546,29.4052047],[119.4524299,29.4039262],[119.4552684,29.4030442],[119.4588407,29.4006085],[119.4591125,29.3989157],[119.4565652,29.3980227],[119.4546859,29.3985302],[119.4543571,29.396846],[119.4576047,29.3978021],[119.4579542,29.3967784],[119.455281,29.3948652],[119.4551179,29.3937956],[119.4594195,29.3941201],[119.4622685,29.3923447],[119.4620007,29.3873937],[119.4613272,29.3870292],[119.4625946,29.3862723],[119.4631498,29.3841805],[119.4618341,29.3834187],[119.4589553,29.3837798],[119.4579136,29.3809031],[119.458316,29.379315],[119.4571718,29.3780934],[119.4574296,29.3766637],[119.4539062,29.3751198],[119.4530449,29.3732827],[119.4536763,29.3716216],[119.4528191,29.3691703],[119.4534478,29.3680284],[119.4540517,29.3692337],[119.4548518,29.3688343],[119.455688,29.3661621],[119.4535477,29.3651519],[119.4541093,29.3641104],[119.4570625,29.3634127],[119.457684,29.3613223],[119.4617699,29.3601309],[119.462141,29.3585163],[119.4604098,29.3578946],[119.460841,29.3552258],[119.4615308,29.3550591],[119.4645008,29.3580012],[119.46646,29.3566262],[119.4682023,29.3574544],[119.4700416,29.3570379],[119.4696947,29.3563424],[119.4713493,29.3542613],[119.4740507,29.3542614],[119.4741168,29.3531755],[119.4731384,29.3530339],[119.4719336,29.3511376],[119.4718518,29.3494364],[119.4733284,29.3490555],[119.4717874,29.3478678],[119.4718644,29.3470045],[119.4736558,29.3441293],[119.4762185,29.3452098],[119.4758519,29.34364],[119.476576,29.3426626],[119.4757905,29.3414833],[119.4772068,29.3422201],[119.4778987,29.3416241],[119.47566,29.3410218],[119.4733815,29.3387875],[119.479554,29.3405231],[119.4809373,29.3382661],[119.4841693,29.3384004],[119.4845585,29.3390577],[119.4846793,29.3371894],[119.4834742,29.3367065],[119.482824,29.337636],[119.4823167,29.3367216],[119.4809051,29.3374577],[119.4792894,29.3352119],[119.4838451,29.3356713],[119.484505,29.3333086],[119.4859891,29.3315484],[119.486639,29.3333083],[119.4887077,29.3346017],[119.4883234,29.3367697],[119.4897302,29.3370519],[119.4894055,29.3365433],[119.4907987,29.336062],[119.4902704,29.3353581],[119.4917488,29.33418],[119.4917799,29.3361476],[119.4929771,29.3374639],[119.4969476,29.338058],[119.4974344,29.3388797],[119.4994578,29.3385594],[119.5007732,29.3373756],[119.5013521,29.3386421],[119.5018083,29.3373055],[119.5039067,29.3394402],[119.5043907,29.3388867],[119.5036098,29.3366793],[119.5054895,29.3355923],[119.5190197,29.3536115],[119.5213813,29.3578459],[119.5215467,29.3630995],[119.5187177,29.3679594],[119.5237319,29.3698932],[119.5244773,29.3717284],[119.5266461,29.3725913],[119.5266738,29.3734521],[119.5309055,29.3754512],[119.5327546,29.375108],[119.5349335,29.3724614],[119.5382421,29.3705657],[119.547761,29.3695972],[119.5501756,29.3730106],[119.5536127,29.3748539],[119.5571245,29.3757483],[119.5610982,29.3740386],[119.5646983,29.3751716],[119.5682017,29.3743191],[119.5718105,29.3770845],[119.5741962,29.3809372],[119.5799732,29.3814745],[119.5847426,29.3802243],[119.5876679,29.3804409],[119.5902232,29.3773553],[119.5958124,29.3741954],[119.5986029,29.3715694],[119.6011426,29.3712218],[119.6031021,29.372387],[119.6051846,29.3723537],[119.6100234,29.3697238],[119.6151993,29.3731724],[119.6156178,29.3741208],[119.6135591,29.3772984],[119.6147448,29.3801427],[119.6141404,29.3833229],[119.6105298,29.3842543],[119.6039743,29.389606],[119.6025621,29.3897698],[119.6012783,29.3912525],[119.6009237,29.3943111],[119.6018763,29.3958515],[119.6046115,29.3961191],[119.6041593,29.3943614],[119.6051028,29.3937686],[119.6082154,29.3970973],[119.6106167,29.4012027],[119.6145172,29.4037088],[119.6157744,29.4061815],[119.6195018,29.4084374],[119.6200297,29.4102412],[119.6165507,29.411448],[119.6192285,29.416343],[119.6195007,29.4188554],[119.6208882,29.4196351],[119.6215573,29.4218232],[119.6252247,29.4230831],[119.6294229,29.423123],[119.6290176,29.4242127],[119.6305622,29.4256111],[119.6332078,29.4248547],[119.6342849,29.4254092],[119.6344193,29.4265371],[119.6324447,29.4273498],[119.636838,29.4312106],[119.6349352,29.4350967],[119.6325739,29.4318233],[119.6305265,29.4316965],[119.6305085,29.4328177],[119.6295602,29.4329363],[119.629684,29.4312759],[119.6277772,29.4324282],[119.6269657,29.4348503],[119.6294004,29.4369178],[119.6299348,29.4365012],[119.6321018,29.4380164],[119.6352488,29.4364005],[119.6383617,29.4326939],[119.6389216,29.4367139],[119.6362459,29.4381311],[119.6395884,29.4398917],[119.6404284,29.4391242],[119.6420104,29.4398073],[119.6441409,29.436043],[119.6448578,29.4308751],[119.6476528,29.4308826],[119.6520002,29.4260574],[119.6519518,29.4280816],[119.6539675,29.4294081],[119.6574047,29.4298048],[119.660913,29.4316928],[119.6619406,29.4305803],[119.6617149,29.4318767],[119.6645197,29.4331567],[119.6666581,29.4308893],[119.6663565,29.4300096],[119.6705885,29.4285534],[119.6716668,29.4245499],[119.6753393,29.424874],[119.674821,29.4225149],[119.6754458,29.4197161],[119.6724084,29.419842],[119.6725232,29.4185816],[119.6749732,29.4182179],[119.6746092,29.4174171],[119.6752776,29.4182248],[119.6787229,29.4181181],[119.6802278,29.41914],[119.679074,29.4208343],[119.6762454,29.420579],[119.6753784,29.4235104],[119.6805887,29.4231715],[119.6802701,29.4210918],[119.6835285,29.4210875],[119.684568,29.4227385],[119.6853278,29.4253283],[119.6769051,29.4285567],[119.6792214,29.4289745],[119.67848,29.4293364],[119.6815531,29.4311377],[119.6766249,29.4317987],[119.6807183,29.434754],[119.6832969,29.4348511],[119.685251,29.4338738],[119.6871853,29.4393697],[119.6865379,29.4406531],[119.687415,29.4434068],[119.6895996,29.4423387],[119.6891568,29.4405468],[119.6901018,29.4398617],[119.6904583,29.4375866],[119.6939257,29.4380048],[119.6959873,29.4366405],[119.695851,29.4359586],[119.6984413,29.4363631],[119.6979409,29.4339183],[119.6989889,29.4362833],[119.7003549,29.4359976],[119.7009781,29.4348611],[119.7047078,29.4357764],[119.7017014,29.4378493],[119.6987192,29.4383741],[119.7057795,29.4392101],[119.7052414,29.4428136],[119.7017398,29.4427538],[119.7009841,29.4441154],[119.6994805,29.4440889],[119.7028417,29.4471003],[119.708755,29.4480203],[119.7094886,29.4520945],[119.7117244,29.4544562],[119.7121747,29.4561787],[119.7098273,29.4592512],[119.7055165,29.4608893],[119.7049995,29.4641102],[119.7038938,29.4643956],[119.7029023,29.4664177],[119.7035518,29.4690083],[119.7029266,29.4703825],[119.701102,29.4713355],[119.7033485,29.4731661],[119.7021568,29.4782893],[119.7044381,29.4784566],[119.6995182,29.4817301],[119.7012452,29.4855473],[119.7001777,29.4869728],[119.6981858,29.4858019],[119.6974858,29.486135],[119.697467,29.4884993],[119.6985159,29.489328],[119.6977755,29.491204],[119.7006615,29.4950394],[119.6996535,29.4965382],[119.7033889,29.4981159],[119.7059043,29.496066],[119.7054576,29.4935072],[119.7078879,29.493957],[119.708708,29.4933992],[119.7062832,29.4910245],[119.7068458,29.488604],[119.708706,29.4877922],[119.7086957,29.4892671],[119.7106294,29.4899305],[119.7096316,29.4920624],[119.7124553,29.4949453],[119.7115495,29.4962405],[119.7100342,29.4954265],[119.7101616,29.4968651],[119.7142682,29.5001467],[119.7135425,29.5012785],[119.7125737,29.5004857],[119.7108173,29.5014242],[119.7131839,29.5029975],[119.7143653,29.5057807],[119.7082713,29.507349],[119.7105528,29.50968],[119.7133701,29.508981],[119.7143673,29.5076718],[119.7198345,29.5095482],[119.7214764,29.5091892],[119.7202083,29.5104714],[119.7223725,29.5118729],[119.7223031,29.5152137],[119.7188967,29.516531],[119.718646,29.517387],[119.7164068,29.5185486],[119.711434,29.5182004],[119.7081866,29.5198721],[119.7091313,29.5226967],[119.7110655,29.5233725],[119.7118944,29.5227605],[119.7120741,29.5206886],[119.7158943,29.5199833],[119.7198377,29.5245296],[119.719079,29.5192714],[119.7207473,29.5207332],[119.7225562,29.5190111],[119.7232695,29.5212265],[119.7259309,29.5233619],[119.7272913,29.5212662],[119.72741,29.5195141],[119.7287034,29.5199732],[119.7295161,29.520914],[119.7297598,29.5239153],[119.7284135,29.5252608],[119.7269643,29.5247595],[119.7274047,29.5259251],[119.7236711,29.5278218],[119.7248803,29.5284224],[119.7246012,29.5318529],[119.7255968,29.5338749],[119.7242728,29.5358395],[119.7221044,29.5351581],[119.7235632,29.5366354],[119.7221338,29.5375977],[119.7235639,29.5385765],[119.7231,29.5393993],[119.7215258,29.5406394],[119.7208237,29.5387491],[119.7184438,29.5386759],[119.7189998,29.5370718],[119.7161018,29.5358379],[119.7177047,29.53933],[119.7159489,29.5390376],[119.7132537,29.5402278],[119.7127023,29.5418452],[119.7139722,29.5420668],[119.7127281,29.5425076],[119.7125724,29.5435643],[119.7153022,29.5431389],[119.7145288,29.5441153],[119.7188949,29.546968],[119.716089,29.5498054],[119.7126409,29.551329],[119.7135838,29.5518171],[119.712501,29.5541052],[119.7136799,29.5546425],[119.7148066,29.5539826],[119.7151095,29.5524704],[119.7188115,29.5520835],[119.7215695,29.5490515],[119.7238194,29.548959],[119.7244215,29.549659],[119.7189415,29.5552855],[119.722914,29.5550874],[119.7238291,29.5530661],[119.726743,29.5514075],[119.7322866,29.552962],[119.7343796,29.5544365],[119.7395528,29.5543859],[119.7402265,29.5597702],[119.7419646,29.5588745],[119.7431233,29.5620664],[119.7447371,29.5636856],[119.7452665,29.5630912],[119.7465768,29.56392],[119.7473824,29.5610903],[119.749186,29.5618289],[119.7519176,29.5607951],[119.7549205,29.5623925],[119.7572395,29.5625426],[119.7565256,29.5590964],[119.7583623,29.557672],[119.7599041,29.5575291],[119.7600585,29.5597955],[119.7614377,29.5609463],[119.7612736,29.5628293],[119.758109,29.5677933],[119.7568735,29.5675055],[119.7568586,29.565051],[119.7554586,29.5639366],[119.7501942,29.5642305],[119.7501555,29.5658161],[119.7464946,29.5663863],[119.7516713,29.5707218],[119.7492715,29.5723515],[119.7465395,29.5761314],[119.7490432,29.5775397],[119.7517178,29.5803824],[119.7530983,29.5769194],[119.7524714,29.5810918],[119.7610276,29.5808984],[119.7637935,29.5814764],[119.7637594,29.5828652],[119.7651515,29.5835223],[119.7605733,29.5881871],[119.7624291,29.5949284],[119.7612058,29.5953903],[119.7606087,29.5968004],[119.7588015,29.5960824],[119.7563696,29.5966582],[119.7577399,29.5990003],[119.7572261,29.6006487],[119.7556576,29.6005346],[119.754697,29.6062212],[119.7559056,29.6079871],[119.7570698,29.6092653],[119.7574956,29.607491],[119.7596292,29.6047955],[119.7592699,29.6086401],[119.7602312,29.610655],[119.7619285,29.6114803],[119.762909,29.6109547],[119.7649331,29.6079525],[119.7596794,29.6000256],[119.7603241,29.5989209],[119.760828,29.5997441],[119.7660147,29.6001447],[119.7657166,29.6029118],[119.7679606,29.6083658],[119.7740671,29.6095106],[119.7729405,29.6115673],[119.7741052,29.612766],[119.7752864,29.6123993],[119.7746388,29.6149164],[119.7749338,29.6193462],[119.7726153,29.6206466],[119.7700006,29.6238349],[119.7656857,29.6245534],[119.7644608,29.6241032],[119.7645374,29.6257544],[119.7632824,29.627898],[119.7636008,29.6336758],[119.7652015,29.6340373],[119.7675813,29.6381338],[119.7726909,29.6416261],[119.7726678,29.6432197],[119.7704777,29.6442805],[119.7737705,29.6479858],[119.7729982,29.6525835],[119.7784255,29.6570039],[119.7803786,29.6572349],[119.7821472,29.6553709],[119.7852932,29.6550288],[119.7860988,29.6558953],[119.7862625,29.658058],[119.7889877,29.6595104],[119.7926508,29.6587865],[119.7951523,29.66364],[119.7978523,29.6646439],[119.7980721,29.666506],[119.8005629,29.6677471],[119.8040174,29.6676727],[119.8105628,29.6748731],[119.8133008,29.6762004],[119.8158753,29.6739172],[119.819931,29.6742108],[119.8290365,29.6828854],[119.8341645,29.67881],[119.8368639,29.6792066],[119.8405208,29.6753287],[119.8433736,29.6749166],[119.8448783,29.6732292],[119.8495711,29.671368],[119.851602,29.6736855],[119.8544913,29.6742482],[119.8579165,29.6722027],[119.8641201,29.6730345],[119.8675197,29.6711382],[119.8696541,29.6721208],[119.876413,29.670252],[119.8795843,29.6735719],[119.8795149,29.6759087],[119.8828668,29.6767565],[119.8856532,29.679588],[119.886864,29.6795658],[119.8884481,29.6788851],[119.8862778,29.6763835],[119.8849477,29.6722511],[119.8823133,29.6684818],[119.8825682,29.6651972],[119.8851049,29.6639759],[119.8875727,29.6653066],[119.8892504,29.6640163],[119.8930962,29.6633631],[119.8966272,29.664978],[119.9001004,29.6643559],[119.9017388,29.6661687],[119.9057885,29.6659827],[119.9057859,29.6677997],[119.9080206,29.6694063],[119.9113767,29.6674209],[119.9169421,29.6669898],[119.9176699,29.6710994],[119.9219614,29.6744423],[119.9224707,29.6756241],[119.9230241,29.6747401],[119.9231553,29.6755168],[119.9236064,29.6750079],[119.9230845,29.6737147],[119.9216858,29.673476],[119.9223198,29.6728523],[119.9220659,29.6714328],[119.9246487,29.6742542],[119.9238872,29.6748557],[119.9240693,29.6758033],[119.9260624,29.6771642],[119.9299609,29.6776493],[119.9311326,29.680221],[119.9360861,29.6805235],[119.9415682,29.6840795],[119.9438131,29.6819465],[119.9479721,29.6839961],[119.9453268,29.6795511],[119.9462949,29.6786744],[119.9491333,29.6794557],[119.9510669,29.6823662],[119.9547613,29.6790454],[119.9546796,29.6762393],[119.9559896,29.6752699],[119.9650809,29.6730453],[119.9663199,29.6740728],[119.9666198,29.6748544],[119.9657009,29.6758154],[119.9633394,29.6770385],[119.9644015,29.6785065],[119.9661828,29.6790603],[119.9677792,29.6777718],[119.9687999,29.6808784],[119.9680188,29.6831708],[119.9694645,29.6851756],[119.968784,29.6884966],[119.9704384,29.690754],[119.9672214,29.6941449],[119.9631583,29.6926214],[119.9656872,29.6946736],[119.9634539,29.6938088],[119.9637489,29.6966833],[119.9618442,29.6982581],[119.9589171,29.6990271],[119.9581146,29.703412],[119.9542585,29.7047449],[119.9533375,29.7033162],[119.9501406,29.7049882],[119.943691,29.7112691],[119.9435477,29.7094073],[119.9423546,29.7080396],[119.9417551,29.7090011],[119.9426408,29.7091561],[119.9429086,29.7114776],[119.9408286,29.7114595],[119.9407637,29.7101928],[119.9425683,29.7098152],[119.9423191,29.7095687],[119.9404226,29.7100264],[119.9396808,29.7107024],[119.9400543,29.7115279],[119.9392012,29.7115218],[119.9410767,29.7134026],[119.9430388,29.7129163],[119.9429775,29.7168425],[119.943995,29.7162067],[119.9440353,29.714407],[119.9458988,29.7144421],[119.9444104,29.7125214],[119.9460639,29.7126826],[119.9462861,29.7141041],[119.9479074,29.713033],[119.9499937,29.7135841],[119.9504134,29.7140542],[119.9491195,29.7165412],[119.9452612,29.7163735],[119.9511267,29.717717],[119.9505226,29.7187542],[119.9493673,29.7193499],[119.9454568,29.7187235],[119.9427067,29.7200693],[119.9409218,29.7198908],[119.9395257,29.7171849],[119.9400711,29.716033],[119.9379726,29.7144063],[119.9381479,29.7136941],[119.9345492,29.712504],[119.9319475,29.7131074],[119.9325069,29.7154119],[119.9310641,29.715462],[119.9298127,29.7129662],[119.9280202,29.7130799],[119.9286626,29.7112598],[119.9264696,29.7108959],[119.9273965,29.7087832],[119.9284533,29.7084273],[119.9284571,29.707436],[119.9273419,29.7074785],[119.9274218,29.7061858],[119.9268048,29.7056651],[119.9264817,29.709441],[119.9254945,29.7101471],[119.9241904,29.7071138],[119.9195802,29.7097149],[119.9134508,29.7100046],[119.9134889,29.7124115],[119.9106539,29.7111944],[119.9082659,29.7136467],[119.9081954,29.7171048],[119.9067547,29.7196869],[119.9082909,29.7230637],[119.9079797,29.7254001],[119.9029562,29.7278152],[119.9022147,29.7298811],[119.8972928,29.7313686],[119.8952948,29.7327819],[119.8961864,29.7350839],[119.8952574,29.736275],[119.8959264,29.7393929],[119.8939995,29.7435128],[119.8965112,29.7461684],[119.8962411,29.7473835],[119.8925949,29.7493389],[119.8905559,29.7514999],[119.8874621,29.7526862],[119.8844041,29.7562233],[119.8841866,29.7580636],[119.88567,29.7593076],[119.8868132,29.7619282],[119.8863252,29.7648094],[119.887632,29.7657845],[119.8928127,29.763129],[119.9001744,29.7562832],[119.9046742,29.7568978],[119.9063425,29.7580744],[119.9098586,29.757694],[119.9107529,29.7555384],[119.9137698,29.7540023],[119.9161852,29.7541718],[119.9185862,29.7530314],[119.9201512,29.7470065],[119.9225545,29.7464277],[119.9280126,29.7515898],[119.9324946,29.7524802],[119.9358935,29.7565983],[119.9402943,29.7578207],[119.9408573,29.7585893],[119.9516641,29.7584502],[119.9542354,29.7566492],[119.9562159,29.7589661],[119.9579003,29.758248],[119.9582736,29.7587622],[119.9572729,29.7599005],[119.9596206,29.7625989],[119.9617607,29.7621628],[119.9628684,29.7627271],[119.9642031,29.7662707],[119.9717559,29.7690197],[119.9749726,29.7675998],[119.9746509,29.7630781],[119.9761454,29.7615085],[119.9821226,29.7596689],[119.9854143,29.7624277],[119.9819566,29.7660203],[119.9828869,29.7678943],[119.9844446,29.7669879],[119.9846791,29.7654401],[119.9883454,29.7618751],[119.9927709,29.7628151],[119.99241,29.7641307],[119.9952273,29.7664193],[119.9974432,29.7660878],[119.9998238,29.7644784],[120.002216,29.7649058],[120.0033824,29.7661135],[120.005422,29.7652027],[120.0091264,29.7676381],[120.0106971,29.7674999],[120.0123851,29.7686613],[120.0160249,29.7680673],[120.0165703,29.770063],[120.0199937,29.7719201],[120.0207149,29.7731072],[120.024044,29.7718888],[120.0257443,29.7741912],[120.0254879,29.780511],[120.0243927,29.7843134],[120.0255013,29.7869279],[120.0279753,29.7875568],[120.0288434,29.7890201],[120.0323791,29.7911379],[120.0323621,29.7935122],[120.0292845,29.7949662],[120.0301181,29.8028999],[120.0266955,29.8078285],[120.0251828,29.8082944],[120.0264096,29.8134472],[120.0300527,29.8188858],[120.0326042,29.8210497],[120.0328394,29.8228355],[120.0357365,29.8233054],[120.0387225,29.8258171],[120.0416779,29.8253454],[120.0446461,29.8270841],[120.0459357,29.8261166],[120.0474727,29.8270679],[120.0505562,29.8247589],[120.0510901,29.8254649],[120.0543722,29.8249663],[120.0552219,29.8240928],[120.0588682,29.8234497],[120.0658584,29.8277509],[120.0665339,29.8291782],[120.0675546,29.8294745],[120.0672254,29.8285178],[120.0714317,29.8302607],[120.0732423,29.8278802],[120.0745161,29.8295681],[120.0757765,29.8287997],[120.0780904,29.8254005],[120.0815022,29.8238173],[120.0830956,29.8216312],[120.0854753,29.8201764],[120.0882136,29.8196527],[120.0887865,29.8178051],[120.0952754,29.8213569],[120.0961463,29.8244522],[120.0984125,29.8270194],[120.0973341,29.8275626],[120.0971963,29.8308939],[120.0956408,29.8338126],[120.0981074,29.8372878],[120.0998326,29.8381242],[120.0992093,29.8403177],[120.1018162,29.8447738],[120.1034794,29.8465855],[120.1057004,29.8443464],[120.1065601,29.8449353],[120.1066502,29.8465167],[120.1099848,29.8458913],[120.109974,29.8476437],[120.10839,29.8490667],[120.1108312,29.8516987],[120.1113894,29.8537482],[120.1126477,29.8547831],[120.117019,29.8546526],[120.1206025,29.8560215],[120.1238788,29.8592751],[120.1222954,29.8611612],[120.1210242,29.8652565],[120.1231382,29.8632488],[120.1224259,29.864572],[120.1230454,29.8648248],[120.1253651,29.8606624],[120.1281154,29.8616044],[120.1301509,29.8666627],[120.1388571,29.8746729],[120.1399495,29.8768176],[120.1391281,29.8778361],[120.1407337,29.8781814],[120.1412759,29.8799865],[120.1441593,29.8825065],[120.1439184,29.8838066],[120.1453039,29.8857872],[120.1446992,29.8873288],[120.139211,29.8890404],[120.1406221,29.8900917],[120.1441759,29.8894762],[120.1432675,29.8910299],[120.1446524,29.8924694],[120.1446008,29.8940928],[120.1435433,29.8952055],[120.1405551,29.895297],[120.1422443,29.8973066],[120.1419218,29.8982245],[120.1432986,29.8985818],[120.1429963,29.8995408],[120.1455614,29.9005908],[120.1456188,29.9029846],[120.1446496,29.9044383],[120.1454231,29.9075782],[120.1471679,29.9105347],[120.1485157,29.9094451],[120.1494278,29.9103734],[120.1505921,29.9085487],[120.155153,29.9087375],[120.153097,29.9097339],[120.1552828,29.9097196],[120.1566842,29.9127999],[120.1583038,29.9126224],[120.1577742,29.9151688],[120.1593623,29.9153874],[120.1586213,29.9167342],[120.1624131,29.9203948],[120.1622412,29.9183895],[120.1670398,29.9193068],[120.1726205,29.9159059],[120.1723204,29.9140301],[120.1702264,29.9125801],[120.1719497,29.91029],[120.1701449,29.908275],[120.1727495,29.9085951],[120.1750756,29.9116327],[120.174858,29.9107214],[120.175855,29.9097614],[120.177447,29.9096652],[120.1795004,29.9073158],[120.1807141,29.9069729],[120.1811361,29.9053372],[120.182054,29.9055889],[120.1812534,29.9068251],[120.1814917,29.908054],[120.1828661,29.9069934],[120.1828975,29.9057818],[120.1851897,29.9086135],[120.1846318,29.9096964],[120.1890303,29.9113618],[120.1890157,29.912531],[120.1852979,29.9123304],[120.1841056,29.913332],[120.1843636,29.9142315],[120.1878128,29.9156514],[120.1892766,29.9149715],[120.1901971,29.9165759],[120.1919094,29.9158323],[120.1924719,29.9171841],[120.1899704,29.9180523],[120.190521,29.9188027],[120.1937362,29.9185056],[120.1926792,29.9196775],[120.1942516,29.9198811],[120.1953963,29.9220673],[120.1975795,29.9205995],[120.2029758,29.9198855],[120.2016616,29.9206757],[120.2031413,29.9217026],[120.2011226,29.924423],[120.1975736,29.9245224],[120.1978116,29.9254396],[120.1993641,29.9257313],[120.2000217,29.9273536],[120.1990627,29.9269198],[120.1980122,29.927933],[120.1954381,29.9332244],[120.1978522,29.9358027],[120.2004947,29.9344459],[120.2032527,29.9367884],[120.2065155,29.9351777],[120.2073492,29.9337648],[120.2110196,29.9334943],[120.212681,29.9341739],[120.2156448,29.9317166],[120.2171183,29.9359076],[120.2134647,29.9378545],[120.2111532,29.9361232],[120.2101211,29.9363013],[120.2112783,29.937805],[120.2105642,29.9383826],[120.2094299,29.9381256],[120.2088737,29.936762],[120.2082561,29.9383275],[120.2064861,29.9373892],[120.2066246,29.9391006],[120.2090082,29.9397789],[120.2072211,29.9403347],[120.2080594,29.9410274],[120.2092057,29.9406079],[120.2096406,29.9419776],[120.2106359,29.9399747],[120.211565,29.9421434],[120.2122532,29.9420599],[120.2111556,29.9400797],[120.2124772,29.9395364],[120.2128935,29.9417648],[120.2151411,29.9418905],[120.2172767,29.9433221],[120.2186989,29.9425493],[120.2179124,29.9438974],[120.2184531,29.9442906],[120.2197377,29.9423123],[120.2203858,29.9424347],[120.2198891,29.9436413],[120.2224244,29.942696],[120.2221304,29.9409673],[120.2228031,29.9400487],[120.2243252,29.94174],[120.2259652,29.9417843],[120.2224136,29.9440194],[120.2251785,29.9430737],[120.2269343,29.9435763],[120.2287798,29.941991],[120.2398154,29.9426535],[120.2390245,29.9392379],[120.2405818,29.9385998],[120.2426627,29.93959],[120.2437724,29.937994],[120.2444339,29.9381221],[120.2442343,29.9392342],[120.2471127,29.9406637],[120.2493546,29.9439472],[120.2516806,29.9452154],[120.2524932,29.943878],[120.2567519,29.9414394],[120.2563379,29.9405188],[120.2578199,29.9400706],[120.2572767,29.9385565],[120.2583169,29.9374661],[120.2580284,29.935667],[120.2606933,29.9345176],[120.2594248,29.9269134],[120.2606822,29.924864],[120.264988,29.9248542],[120.2688089,29.9222955],[120.2779029,29.9234483],[120.2790291,29.9249157],[120.2785884,29.9261778],[120.2802278,29.925772],[120.2814805,29.9276462],[120.27898,29.9276862],[120.2810054,29.9288188],[120.2813945,29.9304849],[120.283743,29.931579],[120.2845437,29.9348377],[120.2869911,29.9366897],[120.287142,29.9373792],[120.2862166,29.9378293],[120.2866803,29.939149],[120.2888869,29.9395097],[120.2920874,29.9353585],[120.2948495,29.9360892],[120.297092,29.9327589],[120.3020908,29.9326708],[120.3075966,29.9303762],[120.3092003,29.9305316],[120.3104668,29.9310592],[120.3103082,29.932233],[120.3131466,29.933541],[120.3161338,29.9391292],[120.3219519,29.9413613],[120.3207408,29.9455151],[120.3227115,29.9481871],[120.3224678,29.9502041],[120.3255257,29.9501966],[120.3261309,29.9511385],[120.3270848,29.9511125],[120.3278853,29.9517415],[120.3277969,29.9536756],[120.3317694,29.955971],[120.3332176,29.9560617],[120.3361985,29.9588238],[120.3370252,29.9618556],[120.3365737,29.96357],[120.3376632,29.965087],[120.3373081,29.9663289],[120.339717,29.9696865],[120.3402465,29.9717],[120.3386388,29.9734289],[120.3394469,29.9766996],[120.3433003,29.9763309],[120.3466094,29.9772329],[120.3503691,29.9761813],[120.3531617,29.9770276],[120.3545127,29.9766142],[120.3573951,29.9769308],[120.3603294,29.9789377],[120.3596681,29.9821441],[120.3569734,29.9850258],[120.3579308,29.9860136],[120.3573995,29.9872216],[120.3586908,29.9883509],[120.3581259,29.9893542],[120.3571933,29.9898633],[120.3556612,29.9889738],[120.3550884,29.9914513],[120.3481375,29.9937298],[120.349743,29.9950233],[120.3541562,29.995689],[120.3550071,29.997895],[120.3544083,30.0010733],[120.3565308,30.0020048],[120.3549196,30.0043329],[120.3551806,30.0066847],[120.35443,30.0071124],[120.3540093,30.0092509],[120.350965,30.0100241],[120.3535548,30.0142347],[120.3521601,30.0142194],[120.3507342,30.0178095],[120.3472544,30.0197649],[120.3474238,30.0210985],[120.3459269,30.0201557],[120.3401116,30.0216389],[120.3401058,30.0231786],[120.3413299,30.0246816],[120.3398808,30.0280423],[120.3409784,30.029474],[120.3426467,30.029154],[120.3430938,30.0314194],[120.344391,30.0317603],[120.3434559,30.0329104],[120.3445785,30.0351787],[120.343576,30.0358698],[120.3418572,30.0343155],[120.3383571,30.0353623],[120.3390028,30.0330701],[120.3377272,30.0326478],[120.3369845,30.0354423],[120.3374564,30.0385541],[120.3360876,30.0381894],[120.3343067,30.036109],[120.3348792,30.0381351],[120.3318138,30.0395248],[120.3302469,30.0390123],[120.3268851,30.0418576],[120.3252873,30.0457569],[120.3213303,30.0462995],[120.3196606,30.0480906],[120.3201967,30.0528134],[120.3218615,30.0541496],[120.3267894,30.0539929],[120.3283694,30.0570441],[120.3299649,30.0579336],[120.3304999,30.0600085],[120.3330787,30.0615132],[120.3327376,30.063347],[120.3310419,30.0641332],[120.3318666,30.0647093],[120.3280662,30.0658753],[120.3292642,30.0674688],[120.3286012,30.0701313],[120.3296014,30.0712522],[120.3292889,30.0726328],[120.3303721,30.073747],[120.3289631,30.076845],[120.3260321,30.0785278],[120.3277017,30.0789048],[120.3277166,30.081145],[120.3285165,30.0810511],[120.328461,30.0821552],[120.3270905,30.0834659],[120.3290395,30.0836774],[120.3295017,30.0849292],[120.3317183,30.0862905],[120.3313949,30.0869994],[120.3290819,30.0866618],[120.32912,30.0882622],[120.3313734,30.0888717],[120.330355,30.0935504],[120.3319977,30.0954827],[120.3340674,30.0958762],[120.3320154,30.0968154],[120.3306203,30.0965229],[120.3252257,30.1041002],[120.3197491,30.1007476],[120.3187676,30.1008639],[120.3107453,30.1068809],[120.3086719,30.1119375],[120.3068164,30.1108008],[120.3065875,30.1092474],[120.3056508,30.1089515],[120.3044965,30.1065343],[120.3027196,30.1051395],[120.3009205,30.1051952],[120.2996392,30.1042406],[120.2998125,30.1027034],[120.2956237,30.1019674],[120.2931248,30.1029938],[120.2930878,30.1010004],[120.2922685,30.1004119],[120.2874455,30.1033504],[120.2853843,30.1038595],[120.2858025,30.1026316],[120.2847332,30.1020375],[120.2838849,30.1026529],[120.2844744,30.1037353],[120.2826282,30.1080054],[120.2826584,30.1096939],[120.2885943,30.1132158],[120.2919971,30.1185006],[120.2962687,30.1209451],[120.2996853,30.1282239],[120.2992059,30.1292104],[120.2933802,30.1295017],[120.2937663,30.1311009],[120.2952116,30.1324391],[120.3004502,30.1363541],[120.3085321,30.1401204],[120.3112428,30.1371529],[120.3137222,30.1274018],[120.3147655,30.1273928],[120.3177861,30.129659],[120.3229598,30.1272073],[120.3314145,30.1386089],[120.3353392,30.1403814],[120.3350412,30.1443578],[120.3496418,30.1446563],[120.3497521,30.1457145],[120.3471467,30.149702],[120.3474891,30.1529693],[120.3482946,30.1539332],[120.3501222,30.1536502],[120.3531938,30.1499101],[120.3545774,30.1493796],[120.3571296,30.1540605],[120.3590014,30.1551482],[120.3688274,30.1578184],[120.3760752,30.1572521],[120.3812609,30.1597155],[120.3832587,30.158678],[120.3874968,30.1492653],[120.3937092,30.144953],[120.3928036,30.140512],[120.3932824,30.1392944],[120.3948766,30.1385749],[120.3999497,30.1395048],[120.4009209,30.1387929],[120.3999057,30.1318971],[120.4037865,30.1320177],[120.4040262,30.1333254],[120.4068917,30.13406],[120.4062696,30.1519002],[120.4094497,30.1516597],[120.4098755,30.1504366],[120.4107562,30.1502551],[120.4135624,30.150961],[120.4135269,30.1535605],[120.4150253,30.1553135],[120.4165287,30.1550553],[120.416516,30.1536201],[120.415149,30.1532095],[120.4162108,30.1523195],[120.4165092,30.1503984],[120.4171529,30.1506096],[120.4173903,30.1534386],[120.4186495,30.1534404],[120.4191659,30.1517615],[120.4184977,30.1520057],[120.4187445,30.1508177],[120.4174129,30.1493752],[120.4188784,30.1495838],[120.419483,30.1484003],[120.4187673,30.148391],[120.4187374,30.1476073],[120.4197531,30.1480017],[120.4215361,30.1465377],[120.4194011,30.1399856],[120.4201293,30.1398046],[120.4204824,30.1324839],[120.4219068,30.132439],[120.4233042,30.1338121],[120.4245937,30.1331854],[120.4269343,30.1351029],[120.4314318,30.1347136],[120.4323129,30.1339314],[120.4328224,30.1360173],[120.4355952,30.1366998],[120.4356244,30.1355453],[120.4387575,30.1330824],[120.438424,30.134103],[120.440236,30.1338984],[120.4425151,30.1357978],[120.4420243,30.1408147],[120.4406578,30.1413502],[120.4419455,30.1423231],[120.4417516,30.1435838],[120.444883,30.1436278],[120.4440037,30.1454879],[120.4456918,30.1458723],[120.4459944,30.1497009],[120.4477171,30.1497149],[120.4463564,30.1502801],[120.4462975,30.1518676],[120.4474011,30.1519308],[120.4478625,30.1528347],[120.4540504,30.152833],[120.4548805,30.1507171],[120.4547191,30.1553212],[120.4588347,30.1559269],[120.4565418,30.1572297],[120.4570593,30.159371],[120.4563063,30.1618093],[120.4585304,30.1616577],[120.458752,30.1639338],[120.458266,30.1679912],[120.4564704,30.168424],[120.4568594,30.170489],[120.4611482,30.1719024],[120.4669957,30.1722904],[120.4761113,30.1713097],[120.4771886,30.1731287],[120.4792958,30.1729074],[120.479867,30.175255],[120.4835714,30.1744862],[120.4835216,30.1736717],[120.4855317,30.1722782],[120.4875898,30.1737062],[120.4883024,30.1722381],[120.4894492,30.1730733],[120.4903637,30.1720218],[120.4915962,30.1728468],[120.4916668,30.1744361],[120.4947407,30.1744098],[120.4963185,30.175755],[120.4967724,30.1728275],[120.4963109,30.1719649],[120.4951349,30.1721482],[120.4947285,30.1708581],[120.4953049,30.1707466],[120.495596,30.1684157],[120.497607,30.1672705],[120.4987709,30.1686564],[120.5014211,30.1658239],[120.5018471,30.1677195],[120.5031998,30.167137],[120.5047492,30.1682932],[120.5064327,30.1681059],[120.5068886,30.1663784],[120.5055978,30.1659601],[120.5068483,30.1635611],[120.5061274,30.1612502],[120.5075177,30.1613777],[120.5107524,30.1593659],[120.5119546,30.1569127],[120.5196703,30.1576036],[120.5213238,30.1570856],[120.5236162,30.1594605],[120.5239962,30.1608827],[120.5289442,30.1598946],[120.5295954,30.161293],[120.5326348,30.1604149],[120.5329842,30.1616243],[120.5345245,30.1622935],[120.5339636,30.1607001],[120.5352686,30.1602294],[120.5390299,30.1601887],[120.5405082,30.1591133],[120.5426167,30.1601739],[120.5469233,30.1599852],[120.5533456,30.1578065],[120.5546132,30.1561124],[120.5539597,30.1537299],[120.5554352,30.153477],[120.5554601,30.1527302],[120.5548065,30.1516449],[120.5516245,30.1524491],[120.555547,30.151376],[120.5555253,30.150098],[120.5579311,30.1497017],[120.5589926,30.1521648],[120.5608233,30.1516951],[120.5614414,30.15341],[120.5644849,30.1527294],[120.5659114,30.1549967],[120.5694726,30.1544526],[120.5749563,30.1552018],[120.5807668,30.1533653],[120.5807859,30.15014],[120.584376,30.1506924],[120.5845801,30.1492176],[120.5861331,30.1483978],[120.5871321,30.1489948],[120.5874402,30.15136],[120.5883599,30.1522672],[120.5882003,30.1497104],[120.594658,30.1481413],[120.596977,30.1496244],[120.597411,30.1510236],[120.6000707,30.1510113],[120.6006654,30.1525749],[120.6062275,30.1536992],[120.6074962,30.1622718],[120.6103952,30.1712744],[120.6188787,30.1867652],[120.6241616,30.1938834],[120.6404472,30.2204668],[120.6653859,30.2351098],[120.6908177,30.2651428],[120.6902659,30.2654998],[120.7028661,30.2806668],[120.7254851,30.2994384],[120.718277,30.3127752],[120.7137799,30.3254339],[120.7104012,30.3405673],[120.7071058,30.3505134],[120.6990571,30.3592962],[120.6811494,30.3720336],[120.6711748,30.3775445],[120.646337,30.3876294],[120.6281066,30.3902903],[120.5418297,30.3907095],[120.5023689,30.392523],[120.4411412,30.3823881],[120.4369096,30.3802888],[120.4300766,30.368447],[120.4234864,30.3552818],[120.4083539,30.3188419],[120.3934737,30.3306391],[120.3938824,30.3311004],[120.3882658,30.3344365],[120.3885555,30.334958],[120.380845,30.3412777],[120.3812528,30.3423582],[120.3746805,30.3463561],[120.3724063,30.3461053],[120.3742383,30.3521923],[120.3752251,30.3519984],[120.3767975,30.3567953],[120.3776105,30.3565441],[120.3781714,30.3579757],[120.3752533,30.3589094],[120.3833008,30.372604],[120.3929729,30.3729393],[120.3961854,30.3752778],[120.3953332,30.386259],[120.3748082,30.3823587],[120.3558827,30.3761617],[120.3500652,30.3754203],[120.3465595,30.3741415],[120.3463334,30.3743826],[120.3468115,30.3750373],[120.3469091,30.3770767],[120.3467918,30.3758758],[120.3451751,30.3757282],[120.3458309,30.3740968],[120.3447316,30.3731532],[120.3443205,30.3709518],[120.3402253,30.3700911],[120.3396009,30.3710922],[120.3408426,30.3717875],[120.3363499,30.3750295],[120.3363177,30.3762328],[120.3372055,30.3755456],[120.3370338,30.3784982],[120.3333565,30.3780563],[120.3334209,30.3793613],[120.3327665,30.3794909],[120.33212,30.376175],[120.3309157,30.3773158],[120.3280887,30.3775564],[120.320093,30.3810944],[120.318827,30.3794469],[120.316574,30.3797431],[120.316574,30.3809371],[120.315029,30.3813073],[120.3141063,30.3831677],[120.3139347,30.3850002],[120.3146106,30.3850928],[120.3147715,30.3863885],[120.3133338,30.3890076],[120.3139883,30.3891927],[120.313527,30.390729],[120.3143638,30.3910714],[120.3131836,30.3941532],[120.3103512,30.3980492],[120.3083342,30.3966148],[120.3015321,30.3956709],[120.3014168,30.3969873],[120.3021597,30.3971261],[120.3016636,30.3997449],[120.3060946,30.4026784],[120.3057727,30.4045105],[120.3064057,30.4053526],[120.3084281,30.4017345],[120.311754,30.4036777],[120.3123763,30.4050379],[120.3173867,30.4070366],[120.3165927,30.4102937],[120.3180766,30.4112624],[120.3186098,30.4129122],[120.3199079,30.4142815],[120.321646,30.4135321],[120.3226331,30.4157342],[120.3238776,30.4155676],[120.3239634,30.4176956],[120.3282523,30.418304],[120.3288681,30.4213486],[120.330259,30.4220882],[120.3303611,30.4232288],[120.3292941,30.4229857],[120.3291112,30.4237387],[120.3281236,30.4238042],[120.3282013,30.4268317],[120.3262317,30.4296014],[120.3293037,30.4316723],[120.3320074,30.4317833],[120.3311062,30.435243],[120.3356123,30.4362975],[120.3347862,30.4422823],[120.3360093,30.4424858],[120.3364384,30.4440952],[120.3353226,30.4456122],[120.3350007,30.4484609],[120.3358161,30.4485719],[120.3352368,30.4524195],[120.3346574,30.4533999],[120.3333914,30.4530854],[120.3324126,30.4585316],[120.332393,30.4609471],[120.3341371,30.4617372],[120.3330535,30.4623291],[120.3325921,30.4665044],[120.3352958,30.4675032],[120.3355962,30.4663565],[120.3367442,30.4661438],[120.33812,30.4674382],[120.3385406,30.4663174],[120.3387989,30.4673105],[120.3386445,30.4686783],[120.3370713,30.4684283],[120.3360238,30.4733471],[120.3345958,30.4741894],[120.3338759,30.4758064],[120.3316251,30.4757146],[120.3282396,30.4728725],[120.3262454,30.4735585],[120.3258527,30.4715661],[120.3222121,30.4727829],[120.3220801,30.4739649],[120.3229421,30.4742379],[120.3230121,30.4752359],[120.3240461,30.4752969],[120.3234521,30.4774009],[120.3216521,30.4774849],[120.3209291,30.4817669],[120.3217291,30.4819019],[120.3216261,30.4835729],[120.3228391,30.4836649],[120.3233951,30.4863059],[120.3224001,30.4880599],[120.3228771,30.4915749],[120.3221911,30.4928029],[120.3233021,30.4940909],[120.3219921,30.4956649],[120.3220051,30.4986599],[120.3211041,30.4987109],[120.3206771,30.5006569],[120.3211531,30.5043539],[120.3198201,30.5040949],[120.3186391,30.5077599],[120.3180661,30.5084199],[120.3168031,30.5081909],[120.3162231,30.5095059],[120.3162391,30.5105209],[120.3178101,30.5109459],[120.3180381,30.5149509],[120.3169121,30.5183439],[120.3156401,30.5183119],[120.3144861,30.5233329],[120.3081891,30.5237719],[120.3076131,30.5223769],[120.3026491,30.5232409],[120.2951659,30.5220131],[120.2946374,30.5196483],[120.291666,30.5189121],[120.2914859,30.5179281],[120.2869738,30.5144536],[120.2846691,30.5160588],[120.2835945,30.5142736],[120.282486,30.514334],[120.2816595,30.511683],[120.2821403,30.5100722],[120.2813505,30.5095931],[120.2775337,30.5103319],[120.2747729,30.509994],[120.2742595,30.5066764],[120.2684816,30.5081024],[120.2683878,30.5087944],[120.2618596,30.5091297],[120.258968,30.5072667],[120.2553543,30.5068783],[120.250893,30.5068715],[120.2500059,30.5086607],[120.2454635,30.5084205],[120.2451087,30.5074838],[120.2360605,30.5067589],[120.2340612,30.5072925],[120.2343829,30.5087274],[120.2333456,30.5093094],[120.2340817,30.5108799],[120.2303385,30.5127348],[120.2306072,30.5132771],[120.2291773,30.5146405],[120.2268101,30.5142691],[120.2251224,30.5162426],[120.2235116,30.5149007],[120.2254832,30.5118543],[120.2231115,30.5118967],[120.2233177,30.5104781],[120.2090454,30.5103012],[120.1992765,30.5070785],[120.1971004,30.5144512],[120.1961008,30.5164026],[120.1950922,30.5165717],[120.1898612,30.5042888],[120.1855417,30.5067768],[120.182791,30.5051948],[120.1803132,30.5053239],[120.180399,30.5043751],[120.177503,30.5020464],[120.1785427,30.4998563],[120.1769574,30.4990331],[120.1798118,30.4985395],[120.180226,30.4972581],[120.181251,30.4970504],[120.1792998,30.4958454],[120.1788507,30.4966286],[120.174525,30.4942367],[120.1722098,30.496263],[120.1689372,30.4944332],[120.1734335,30.4907024],[120.1730824,30.4895973],[120.1741065,30.4886869],[120.1733255,30.4881315],[120.1738872,30.4876528],[120.1748679,30.4882301],[120.1757295,30.487306],[120.17671,30.487823],[120.1784891,30.4864222],[120.1783499,30.4850137],[120.1763397,30.4842318],[120.1779098,30.4825972],[120.1717069,30.4878607],[120.1698051,30.4873902],[120.1683078,30.4864828],[120.1747448,30.4805756],[120.1682055,30.4781188],[120.1682008,30.477218],[120.1659872,30.476408],[120.1622219,30.475692],[120.1611067,30.4767974],[120.1604985,30.4758231],[120.1613908,30.4749594],[120.1600448,30.4750936],[120.159303,30.4760569],[120.15732,30.4754845],[120.1567017,30.4751253],[120.1573447,30.4743594],[120.1557651,30.47236],[120.1450961,30.4696092],[120.1421241,30.4737674],[120.1418481,30.4796344],[120.1431997,30.4794838],[120.1430706,30.4811682],[120.1436996,30.481316],[120.1433352,30.4828149],[120.1416951,30.4825051],[120.1416354,30.4852383],[120.140167,30.4847864],[120.1388884,30.4858011],[120.1362788,30.4855721],[120.1377625,30.4839488],[120.133439,30.4827278],[120.1327932,30.4827628],[120.1333629,30.4843909],[120.1309253,30.4834432],[120.1294267,30.4840365],[120.1285035,30.4830765],[120.1258045,30.4830015],[120.1261202,30.4822214],[120.1210336,30.4803801],[120.1198796,30.4816826],[120.1175866,30.4811571],[120.1164488,30.4821034],[120.1168431,30.4855403],[120.11606,30.484016],[120.1148569,30.4839784],[120.114743,30.482963],[120.1132872,30.48301],[120.1129665,30.484152],[120.1125488,30.4829722],[120.110769,30.4829335],[120.1108572,30.4821519],[120.1127169,30.4821994],[120.1131121,30.4805883],[120.1102448,30.4768339],[120.102421,30.4798198],[120.1025458,30.4814426],[120.1012282,30.4817955],[120.1013548,30.4831351],[120.1045696,30.4822777],[120.1047016,30.4829549],[120.1016013,30.4841292],[120.1018398,30.4863234],[120.0999892,30.4864202],[120.1013216,30.4847296],[120.1009106,30.4838598],[120.0996345,30.483972],[120.0989805,30.4855066],[120.0973161,30.4850073],[120.0974014,30.4839357],[120.0965942,30.485112],[120.0955599,30.4851356],[120.0952313,30.4865194],[120.0929159,30.4861912],[120.091737,30.4871932],[120.0912262,30.4915972],[120.0919899,30.4915658],[120.0919451,30.4933564],[120.0925365,30.493235],[120.0942212,30.496295],[120.0956807,30.4963626],[120.0956191,30.4977929],[120.0924136,30.4977659],[120.0925571,30.4990396],[120.0909637,30.4994607],[120.0729281,30.5001798],[120.0721567,30.5001041],[120.0702336,30.4970581],[120.0639434,30.4998137],[120.0621643,30.4946338],[120.0609067,30.4846928],[120.0557027,30.4781105],[120.05473,30.4740991],[120.0553223,30.4682136],[120.0545739,30.4606052],[120.0576335,30.4540352],[120.0603935,30.451711],[120.0634064,30.4472945],[120.0631687,30.4438319],[120.0615955,30.4403976],[120.0599645,30.4385869],[120.0571852,30.4372445],[120.0599226,30.4331725],[120.0597541,30.4321397],[120.0517243,30.4313661],[120.0453689,30.4295754],[120.0372964,30.4296177],[120.0313573,30.4277341],[120.0307089,30.4308288],[120.0345563,30.4320081],[120.0354019,30.4363538],[120.0338075,30.4374994],[120.0311921,30.4375381],[120.025552,30.439307],[120.0249554,30.4408575],[120.0212306,30.4408095],[120.0182957,30.4380648],[120.0095628,30.4384546],[120.0045853,30.4403326],[120.0041571,30.4421596],[120.0022394,30.4429568],[120.0015703,30.4445532],[119.996622,30.4480076],[119.9948202,30.447655],[119.9937829,30.446358],[119.9925931,30.4471405],[119.988914,30.4469914],[119.9827178,30.4483227],[119.9782522,30.4478391],[119.9783335,30.4454884],[119.9744382,30.4430886],[119.9717922,30.44279],[119.9705839,30.4416258],[119.9705722,30.4403241],[119.9688358,30.4403503],[119.967656,30.4374939],[119.9678727,30.4348693],[119.9638554,30.4343047],[119.9611678,30.4322201],[119.9594785,30.4319313],[119.9578545,30.4351196],[119.9561692,30.4346221],[119.9531387,30.4373054],[119.9504141,30.4367252],[119.9487776,30.4377743],[119.9488423,30.4434066],[119.9472163,30.4448995],[119.949173,30.4487969],[119.9448621,30.4504455],[119.9445197,30.4532954],[119.9414922,30.452052],[119.9383886,30.4480529],[119.9365051,30.4468748],[119.934772,30.4468163],[119.9301182,30.4493387],[119.9305611,30.4503459],[119.9293201,30.4519157],[119.9293206,30.4534021],[119.9270713,30.4539067],[119.9266684,30.4553501],[119.9200797,30.4567185],[119.9192668,30.4586527],[119.9182561,30.4589862],[119.9182285,30.4619457],[119.9167472,30.4617255],[119.916538,30.4627441],[119.9149956,30.4635244],[119.9092446,30.4604828],[119.909164,30.4593006],[119.9069272,30.4582272],[119.9045103,30.4587376],[119.9000376,30.4616421],[119.8973886,30.4617248],[119.8963738,30.4601677],[119.8931433,30.459613],[119.8860745,30.4608133],[119.8838283,30.4604308],[119.8809906,30.4620697],[119.8721742,30.4617312],[119.86992,30.462646],[119.86853,30.4665189],[119.870152,30.4682456],[119.8689142,30.4717821],[119.8713435,30.4741412],[119.8715066,30.4752258],[119.876027,30.4760751],[119.8740147,30.4782486],[119.8720433,30.4784688],[119.8706317,30.4800878],[119.8650769,30.4784689],[119.8634986,30.4797335],[119.8603729,30.4803343],[119.8597761,30.4812349],[119.8620394,30.484424],[119.8618398,30.4855422],[119.853371,30.4916937],[119.8518672,30.4956375],[119.848368,30.4982561],[119.8458046,30.5017013],[119.8454091,30.5004833],[119.8461578,30.5001466],[119.8463085,30.4979422],[119.8450428,30.4979899],[119.8437551,30.4993969],[119.8377066,30.4981962],[119.8325605,30.499509],[119.8304312,30.4977369],[119.8259101,30.5021077],[119.8261521,30.5055882],[119.8252408,30.5066793],[119.8205947,30.5101959],[119.8182625,30.5106241],[119.8160407,30.5129045],[119.8121455,30.513278],[119.8079939,30.5103329],[119.8075129,30.5090136],[119.8037406,30.5103833],[119.8001162,30.5074226],[119.7974072,30.5065601],[119.7965651,30.5071733],[119.7973981,30.5078406],[119.7927203,30.5072418],[119.7917749,30.5080807],[119.7879111,30.5086916],[119.7859792,30.5070042],[119.7822422,30.5096162],[119.7807642,30.512376],[119.7784711,30.5133127],[119.7729679,30.5140721],[119.767732,30.5153527],[119.766704,30.5163881],[119.7632253,30.5166452],[119.7615894,30.5178906],[119.7575952,30.5183684],[119.7565797,30.5201061],[119.7584988,30.5226872],[119.7606855,30.5227638],[119.7615149,30.5237343],[119.7644584,30.5245532],[119.7645044,30.5257462],[119.7659417,30.5259558],[119.7669567,30.5276972],[119.7669713,30.5325103],[119.7657925,30.5329046],[119.7627382,30.536806],[119.7635523,30.5407108],[119.7625501,30.5423924],[119.7626256,30.5431876],[119.7650574,30.5445378],[119.7670034,30.5468991],[119.7675932,30.548512],[119.7664418,30.5544113],[119.7671538,30.5553326],[119.7623817,30.5584897],[119.7611013,30.5566377],[119.7533189,30.5567676],[119.7518674,30.5542409],[119.7495361,30.5542172],[119.7488937,30.5535415],[119.745093,30.5540789],[119.7394225,30.5534567],[119.7373156,30.5520955],[119.737713,30.5512549],[119.7363544,30.5501484],[119.735537,30.5520236],[119.7311731,30.5535051],[119.7307703,30.554549],[119.7282189,30.5546939],[119.7268743,30.5539112],[119.724858,30.5554339],[119.7199811,30.5546433],[119.718175,30.5566736],[119.7190117,30.5576025],[119.7163218,30.5583678],[119.7175899,30.560253],[119.7196111,30.5612995],[119.715643,30.5648514],[119.7083629,30.5629578],[119.7083218,30.5616653],[119.7059683,30.5610248],[119.7010775,30.560676],[119.7007718,30.5621048],[119.6972745,30.5607655],[119.6947959,30.5616613],[119.6908376,30.5617731],[119.687788,30.5596363],[119.6882971,30.5561176],[119.6877647,30.5553842],[119.6904935,30.5529992],[119.6903101,30.5504064],[119.6919151,30.548909],[119.6913043,30.5477247],[119.6933415,30.5452072],[119.6924812,30.5429683],[119.694053,30.5418659],[119.6936098,30.5388184],[119.6971977,30.5341857],[119.6972304,30.5326156],[119.6982664,30.5323229],[119.6992043,30.5296018],[119.7023235,30.527977],[119.7031052,30.5243926],[119.7019277,30.5220888],[119.704655,30.5203914],[119.7036408,30.5195],[119.7026419,30.5158997],[119.705592,30.5117057],[119.7042174,30.5081622],[119.7055791,30.5049661],[119.7031717,30.5019742],[119.7037535,30.4990931],[119.7023173,30.4984849],[119.7023397,30.4976576],[119.6998568,30.495483],[119.7024115,30.4947191],[119.7057863,30.4913731],[119.7035379,30.48583],[119.704001,30.4825159],[119.700309,30.4795865],[119.6998505,30.4775473],[119.6989582,30.476997],[119.6994511,30.4712523],[119.6974422,30.4694548],[119.6971146,30.4670695],[119.6939586,30.4651882],[119.6941715,30.4636192],[119.6914742,30.4643123],[119.6919153,30.45911],[119.6879465,30.4539771],[119.6887487,30.4523013],[119.6912635,30.4528799],[119.6939017,30.4515033],[119.6942256,30.4484244],[119.6986535,30.4491226],[119.6977245,30.4463424],[119.6999328,30.4450894],[119.7003412,30.44384],[119.7001774,30.4420625],[119.6993267,30.4416052],[119.7011936,30.436138],[119.7016199,30.4316601],[119.6986162,30.4300849],[119.694628,30.4300094],[119.6922885,30.4284593],[119.6898329,30.428873],[119.6876769,30.4234174],[119.6818934,30.4199919],[119.6796745,30.415662],[119.6788569,30.4153488],[119.6774453,30.4109209],[119.6732314,30.4085742],[119.6719843,30.4061756],[119.6685831,30.4051311],[119.6666207,30.4069494],[119.6669256,30.4087906],[119.666051,30.4092829],[119.664422,30.4090632],[119.6613739,30.4069811],[119.6634684,30.4042181],[119.6636252,30.4019005],[119.6608456,30.4031761],[119.6604919,30.4049369],[119.6591433,30.4041381],[119.6545539,30.4069795],[119.6502511,30.4077973],[119.6485141,30.4057236],[119.6543683,30.4019013],[119.6533472,30.4008942],[119.652415,30.400601],[119.6508659,30.4034368],[119.6498888,30.4038625],[119.6437193,30.3985629],[119.642787,30.3984841],[119.6421578,30.3964879],[119.6389626,30.3967139],[119.6337327,30.394377],[119.6318843,30.3961006],[119.6284845,30.397322],[119.6287688,30.4014625],[119.63181,30.4026795],[119.6327385,30.4059326],[119.6265236,30.4092549],[119.6261124,30.4111268],[119.6278549,30.4121218],[119.6314366,30.4113104],[119.6326291,30.4129161],[119.6307701,30.4163906],[119.6316587,30.417708],[119.628767,30.4213765],[119.6288908,30.4226244],[119.6272134,30.4256765],[119.6272463,30.4277773],[119.6283032,30.4295349],[119.6335306,30.4312606],[119.6387681,30.431097],[119.6374482,30.4335877],[119.6415662,30.4357906],[119.6429665,30.4374545],[119.6434225,30.4405854],[119.6457231,30.4430073],[119.6444909,30.4449317],[119.6408675,30.4435059],[119.639379,30.4409662],[119.636852,30.4423929],[119.6379256,30.4438515],[119.6354112,30.4444428],[119.6292805,30.442895],[119.6298461,30.4412125],[119.6259626,30.4386288],[119.623275,30.4346088],[119.6176279,30.4320193],[119.6144856,30.4292647],[119.6118944,30.4294815],[119.6073387,30.427657],[119.6050451,30.4292241],[119.6022355,30.4277878],[119.5985127,30.4243902],[119.5935332,30.4250483],[119.5899109,30.4238696],[119.5866911,30.4277005],[119.5816946,30.4252428],[119.5717384,30.4326273],[119.5694731,30.4332353],[119.5689494,30.4358404],[119.5674962,30.4376266],[119.567904,30.4416812],[119.5656488,30.4431302],[119.5642538,30.4459988],[119.5607958,30.4473348],[119.5587235,30.4471825],[119.5569035,30.4455142],[119.5565833,30.4406611],[119.553713,30.4402902],[119.5520678,30.4412709],[119.5520075,30.4423145],[119.5491321,30.4434175],[119.5474958,30.439871],[119.5451051,30.4381161],[119.5418386,30.437816],[119.5422922,30.432034],[119.5397148,30.4305819],[119.5379843,30.4305004],[119.5321208,30.4269945],[119.5308995,30.4225224],[119.5332951,30.421149],[119.5349201,30.4181461],[119.5325221,30.4139049],[119.5292931,30.4116286],[119.5252651,30.4118323],[119.5246601,30.4103829],[119.5217617,30.4089613],[119.5203437,30.4073437],[119.516624,30.4072233],[119.5106015,30.4026925],[119.5083044,30.4044358],[119.5038693,30.4057406],[119.4998864,30.4086373],[119.4950874,30.4090282],[119.4934597,30.4108614],[119.4725254,30.4110339],[119.4705185,30.4093403],[119.4680101,30.4091528],[119.4602489,30.4128164],[119.4482138,30.4152718],[119.4461106,30.4126555],[119.4429584,30.4126345],[119.4448305,30.409465],[119.4444976,30.4078917],[119.4453646,30.4067894],[119.4404469,30.4005058],[119.4413922,30.3942853],[119.4407993,30.3936082],[119.4314358,30.3932704],[119.4302637,30.3924971],[119.4298474,30.3898037],[119.4285976,30.3887736],[119.4278251,30.3862207],[119.4209579,30.3860526],[119.4151524,30.3807051],[119.4144695,30.3788882],[119.4095221,30.3760744],[119.4081823,30.3756191],[119.3987121,30.3769625],[119.3984485,30.3737036],[119.3961203,30.3705287],[119.3933523,30.3687421],[119.3830741,30.3675573],[119.3802846,30.3655392],[119.3777525,30.3624936],[119.3770498,30.3603505],[119.3727368,30.3577584],[119.3688208,30.3571844],[119.3650281,30.355106],[119.3618417,30.3549023],[119.3583226,30.3529952],[119.3554795,30.3535321],[119.3509948,30.3529304],[119.3490851,30.3513009],[119.351306,30.3511157],[119.3493748,30.3504213],[119.3454051,30.3511157],[119.3442464,30.3506065],[119.3432915,30.3518008],[119.3434686,30.3534349],[119.3390858,30.3582537],[119.3387103,30.3660854],[119.336189,30.3658355],[119.3338502,30.3679183],[119.3303096,30.367261],[119.33002,30.3703343],[119.3209595,30.3744765],[119.3183845,30.3726808],[119.3146402,30.3724494],[119.3098122,30.3700612],[119.3075055,30.3714589],[119.3051452,30.3678396],[119.3032891,30.3673767],[119.3022698,30.3679877],[119.2952961,30.3663215],[119.2935473,30.3598691],[119.2888051,30.3574251],[119.2879254,30.3542034],[119.2867667,30.3528702],[119.2844063,30.3518795],[119.2835051,30.3500001],[119.2808765,30.3496205],[119.2755765,30.3457133],[119.2752439,30.344593],[119.27239,30.343093],[119.2676801,30.3450467],[119.2615324,30.3419819],[119.2590219,30.3392781],[119.2509538,30.3402319],[119.2499667,30.3416023],[119.2444584,30.3437645],[119.2429608,30.3407874],[119.2388409,30.3361854],[119.2392916,30.3343705],[119.2407078,30.3331482],[119.2380041,30.3300089],[119.2362124,30.3290829],[119.2386907,30.3273789],[119.2405576,30.3275364],[119.243229,30.3259806],[119.2399675,30.3205814],[119.2397744,30.3163767],[119.2376822,30.3137093],[119.2371994,30.309143],[119.2359763,30.3084298],[119.2359227,30.3059567],[119.234559,30.3046604],[119.2350108,30.3028074],[119.2322749,30.2994541],[119.2316848,30.2956098],[119.229539,30.2956932],[119.2269749,30.2931734],[119.2248291,30.294424],[119.2230588,30.2906629],[119.2210203,30.2916356],[119.2198187,30.2933031],[119.2190087,30.2958923],[119.2210901,30.2988196],[119.2192555,30.3003388],[119.2188048,30.3025063],[119.2164874,30.3021173],[119.2139661,30.2991623],[119.2121422,30.2945352],[119.2095271,30.295274],[119.2077944,30.2977705],[119.207848,30.3013878],[119.2061046,30.3013832],[119.2055386,30.3022933],[119.2042726,30.3022192],[119.2015261,30.3037939],[119.2050773,30.2994588],[119.2059168,30.2959363],[119.205021,30.2948293],[119.1985568,30.2927311],[119.1959819,30.2940558],[119.1914383,30.2933054],[119.1876596,30.2943165],[119.1821213,30.2939176],[119.1769141,30.2975227],[119.1735131,30.2988196],[119.1709918,30.299116],[119.1701549,30.2983472],[119.1685134,30.2989215],[119.1641361,30.2976709],[119.1611749,30.3018672],[119.158836,30.3016541],[119.1571409,30.2997645],[119.1550702,30.2995051],[119.1515029,30.3023257],[119.149046,30.3069108],[119.1451514,30.3059012],[119.137727,30.3075314],[119.1326523,30.3065403],[119.1315258,30.3069942],[119.1283207,30.3054621],[119.1252977,30.3072952],[119.1221649,30.3069525],[119.118517,30.3110928],[119.116264,30.3119634],[119.1123158,30.3111298],[119.1111571,30.3122876],[119.1053317,30.3137223],[119.0971777,30.3201592],[119.0940878,30.3200758],[119.0910945,30.3189274],[119.0890238,30.3240581],[119.0856228,30.3256232],[119.0814546,30.3243915],[119.0778015,30.3216687],[119.0734992,30.3205944],[119.0700874,30.3160748],[119.0669224,30.3150931],[119.0618584,30.3098322],[119.0603564,30.306155],[119.0581406,30.3050994],[119.0541766,30.3059605],[119.0524492,30.3051732],[119.0503464,30.3053399],[119.0477607,30.3082206],[119.0458403,30.3091561],[119.0451,30.3122775],[119.0434585,30.3138427],[119.0405831,30.3140835],[119.0400896,30.3148152],[119.0362916,30.3136482],[119.0302835,30.3141299],[119.0286419,30.318631],[119.026861,30.3200017],[119.0262709,30.3303183],[119.0235994,30.3300683],[119.0217648,30.3308091],[119.0211103,30.3293089],[119.0194259,30.3334112],[119.0175054,30.3324019],[119.0170012,30.3310591],[119.0138361,30.3314851],[119.0125916,30.3324296],[119.0058217,30.3323],[119.0045557,30.3290867],[119.0031073,30.3291144],[118.9995239,30.3298368],[118.9974747,30.3311147],[118.9941595,30.3300683],[118.9902568,30.3331172],[118.9843637,30.3336158],[118.9826793,30.3349955],[118.9826256,30.3377087],[118.9840418,30.3390513],[118.9826471,30.3438384],[118.9839882,30.3486252],[118.9823681,30.3512361],[118.9780873,30.350875],[118.9770895,30.3496159],[118.9739567,30.3487178],[118.9725942,30.3497085],[118.9701051,30.3479956],[118.966645,30.3506945],[118.9656258,30.3533886],[118.9642418,30.3546755],[118.9619673,30.3543515],[118.9585662,30.3523795],[118.9582122,30.349315],[118.9552993,30.3488196],[118.9540011,30.3503103],[118.9505249,30.3612902],[118.9486634,30.3621558],[118.9463622,30.3593924],[118.9353651,30.3553745],[118.9341849,30.3528841],[118.9346999,30.3470883],[118.9319533,30.3472086],[118.9304191,30.345218],[118.9278314,30.3440785],[118.9213512,30.3443841],[118.9194844,30.341523],[118.9153753,30.3417267],[118.9138518,30.3406526],[118.9149998,30.3394026],[118.9168558,30.3394026],[118.9190445,30.3364858],[118.9187334,30.3358654],[118.9150105,30.3374766],[118.9128218,30.3356524],[118.9107458,30.3355922],[118.9100913,30.3364256],[118.9078919,30.3352126],[118.9062504,30.3356663],[118.9056603,30.3340551],[118.9008967,30.3310177],[118.8970129,30.3271469],[118.8957039,30.3237944],[118.8885907,30.3209513],[118.8853721,30.3185989],[118.8806192,30.3177376],[118.8777975,30.3184229],[118.875641,30.3171726],[118.8765959,30.3148479],[118.8759414,30.311986],[118.8788919,30.3044371],[118.877245,30.3020565],[118.8780899,30.298078],[118.8777573,30.2958825],[118.8753862,30.2950303],[118.8732834,30.2914081],[118.8734657,30.2903149],[118.8754828,30.2886844],[118.8728757,30.2856642],[118.8736159,30.2838669],[118.8753647,30.2835611],[118.8778968,30.2804852],[118.8781757,30.2762695],[118.8804502,30.2751576],[118.8810832,30.2729524],[118.8855786,30.2703765],[118.8873167,30.2680877],[118.8883252,30.2628799],[118.8902135,30.2601833],[118.8879711,30.2571993],[118.8882286,30.2564857],[118.8861794,30.255976],[118.8850636,30.25428],[118.8807614,30.2540298],[118.8772316,30.2522597],[118.8769956,30.2481818],[118.8795597,30.2465691],[118.878916,30.2440203],[118.8795275,30.2430749],[118.8792057,30.2399236],[118.8812656,30.2388762],[118.8831539,30.2392933],[118.8858629,30.2385703],[118.8896234,30.2343435],[118.8915385,30.2305059],[118.8923753,30.2307469],[118.8929627,30.2299428],[118.8947115,30.2309161],[118.8958863,30.2271479],[118.8997219,30.2270181],[118.899628,30.2236089],[118.9029539,30.2223111],[118.8998104,30.2209483],[118.8994885,30.217685],[118.9007009,30.2177406],[118.902042,30.2166651],[118.9069343,30.2166837],[118.9105392,30.2152837],[118.9174111,30.2161506],[118.9189077,30.2138189],[118.9181943,30.2104301],[118.923548,30.2093732],[118.9258868,30.2077599],[118.9273513,30.2079592],[118.9236928,30.2057246],[118.9224697,30.2039258],[118.9195836,30.2038795],[118.918382,30.2023032],[118.9134199,30.2018349],[118.9108236,30.2006851],[118.9076907,30.1980702],[118.9074011,30.1963176],[118.9052553,30.1956685],[118.9052982,30.1945743],[118.9025945,30.193072],[118.9018274,30.1892374],[118.9008511,30.1882822],[118.8956262,30.1870581],[118.8982976,30.1851477],[118.8952131,30.1826019],[118.8902403,30.1832186],[118.8749356,30.1761375],[118.8733102,30.1764389],[118.8711644,30.1754929],[118.8706494,30.1743799],[118.86477,30.1732761],[118.8582791,30.169937],[118.8563908,30.1701411],[118.8552535,30.1689353],[118.8527591,30.168439],[118.8516111,30.1689213],[118.8434786,30.1658233],[118.8420946,30.1630961],[118.8425452,30.1611388],[118.8416226,30.1600164],[118.8419015,30.1578642],[118.8410647,30.1564542],[118.8415153,30.1554708],[118.8427598,30.1552575],[118.848489,30.156213],[118.8505811,30.1542741],[118.8512403,30.1500767],[118.8549645,30.1499202],[118.8525653,30.1466603],[118.8518894,30.1438306],[118.8583535,30.1419332],[118.8586968,30.1400498],[118.8683635,30.1421466],[118.8748062,30.1352667],[118.8767374,30.1346079],[118.8778103,30.135443],[118.8792372,30.1391915],[118.8794088,30.1425502],[118.8842797,30.1484416],[118.8839545,30.1521612],[118.8871273,30.1520994],[118.8871093,30.1513219],[118.8907439,30.1478711],[118.8947779,30.1467113],[118.8932115,30.1420817],[118.8932651,30.1394188],[118.8915271,30.1359023],[118.8879544,30.1315041],[118.8826329,30.130539],[118.876791,30.1270175],[118.8702464,30.1314623],[118.8677144,30.1319912],[118.8645816,30.1347471],[118.8588524,30.1364915],[118.8548184,30.1328727],[118.8544858,30.1285208],[118.8525224,30.1258854],[118.8531983,30.1249018],[118.8508809,30.1223498],[118.8509131,30.1212084],[118.8605744,30.1241455],[118.8612181,30.1230968],[118.8604993,30.1192827],[118.858847,30.1177886],[118.8577956,30.1119139],[118.8618243,30.1030015],[118.861721,30.1008771],[118.8666871,30.1001357],[118.8677171,30.1032915],[118.8698736,30.1047302],[118.8753453,30.1045631],[118.8790682,30.1016023],[118.8785479,30.088732],[118.8775501,30.0859563],[118.8799212,30.0847959],[118.8847786,30.0783414],[118.8826221,30.0713595],[118.883864,30.0717332],[118.8863558,30.0701617],[118.8861734,30.0677476],[118.8871323,30.0662817],[118.8866709,30.059754],[118.8882266,30.0570564],[118.8869499,30.0518793],[118.8891493,30.0481414],[118.8856249,30.0440272],[118.8868587,30.0430056],[118.8861385,30.0391849],[118.8874394,30.0357228],[118.8895744,30.0350448],[118.8918919,30.0325555],[118.8986188,30.0301962],[118.8991016,30.0288772],[118.899107,30.0278973],[118.8967681,30.0270984],[118.8946545,30.0246183],[118.8946116,30.0211441],[118.8935495,30.019955],[118.8936568,30.0183943],[118.8913715,30.0171402],[118.890599,30.0155145],[118.886903,30.0141256],[118.8851756,30.0125649],[118.8864416,30.0100751],[118.8886732,30.0090531],[118.8894993,30.0059221],[118.8893491,30.0034786],[118.8881046,30.0027817],[118.8878417,30.0016157],[118.8859642,30.0007702],[118.8861144,29.9976296],[118.8939947,29.9873758],[118.8944024,29.9850805],[118.8915164,29.9794488],[118.8894564,29.9771812],[118.8897997,29.9750902],[118.8887698,29.974802],[118.887536,29.971893],[118.887772,29.9705919],[118.8868949,29.9691582],[118.8873563,29.96617],[118.8862512,29.9651151],[118.886734,29.9625544],[118.8881073,29.9616249],[118.888802,29.957686],[118.8856262,29.9554969],[118.8872248,29.9509699],[118.8887135,29.9492292],[118.8885847,29.945069],[118.8873348,29.9436606],[118.8874877,29.9379824],[118.8854438,29.939298],[118.8869861,29.9403555],[118.886042,29.9419825],[118.8828448,29.9421173],[118.8806239,29.9405275],[118.8799212,29.942029],[118.8776493,29.9434212],[118.8762439,29.9462381],[118.8676822,29.9504121],[118.8666952,29.9502726],[118.8654185,29.9476604],[118.8636911,29.9468888],[118.8614057,29.941696],[118.8590536,29.9399232],[118.8559744,29.9410296],[118.854129,29.9405833],[118.850964,29.9414293],[118.84796,29.9441998],[118.8467691,29.943642],[118.8459108,29.9404346],[118.8448969,29.9416664],[118.8442317,29.9412573],[118.8376066,29.9365297],[118.8357935,29.934131],[118.8396773,29.9242471],[118.8399563,29.9227129],[118.8387868,29.9209368],[118.838937,29.9198581],[118.8402352,29.9174218],[118.8401923,29.9142321],[118.8419733,29.9117956],[118.8393984,29.9081222],[118.840482,29.9041603],[118.8397202,29.9022816],[118.8400314,29.8986822],[118.8382396,29.8953617],[118.8339374,29.8930457],[118.8324032,29.8904506],[118.8298604,29.8892227],[118.828691,29.8871391],[118.825247,29.8853624],[118.8236377,29.8826275],[118.8207409,29.8808694],[118.8177127,29.8815229],[118.8144404,29.8776436],[118.8099557,29.8764343],[118.807928,29.8730665],[118.8048381,29.872713],[118.7978429,29.8636976],[118.7941414,29.862637],[118.7933046,29.8596316],[118.7913841,29.8597805],[118.788423,29.8584313],[118.7840778,29.8547327],[118.78146,29.8483214],[118.7793705,29.8460205],[118.7778336,29.8460647],[118.7758488,29.844613],[118.7721688,29.8448084],[118.7698299,29.8460368],[118.7680918,29.8493403],[118.766225,29.8490984],[118.7632102,29.8506152],[118.7628293,29.8518574],[118.7603402,29.8519412],[118.7572074,29.850015],[118.7538386,29.8499871],[118.7507916,29.8473629],[118.7477875,29.8468743],[118.7498796,29.8412954],[118.7487209,29.839341],[118.7496329,29.8343899],[118.7489891,29.8330869],[118.7533129,29.8326681],[118.7567997,29.8294757],[118.7552119,29.8264601],[118.752964,29.8271306],[118.7527979,29.8251477],[118.7567783,29.8238911],[118.756274,29.8227742],[118.7570036,29.822616],[118.753109,29.8206333],[118.7425411,29.8213501],[118.7414253,29.8199352],[118.7397838,29.8207916],[118.7327886,29.8153182],[118.7339044,29.8121625],[118.7337005,29.8102914],[118.7319625,29.807359],[118.7331963,29.8039051],[118.7325096,29.7972205],[118.7313402,29.7946508],[118.7321341,29.7921834],[118.7311471,29.7912896],[118.7320912,29.7900605],[118.7257934,29.7889525],[118.7264908,29.7884404],[118.7265122,29.7865968],[118.7325686,29.7872625],[118.7373001,29.7842549],[118.7425035,29.7768147],[118.7426216,29.7754458],[118.7411195,29.7735833],[118.7400574,29.7700445],[118.744306,29.7639443],[118.7445635,29.7609267],[118.743614,29.7520084],[118.7419134,29.7499638],[118.7415916,29.7471787],[118.7407494,29.7465965],[118.740693,29.7427143],[118.7388986,29.7404204],[118.7346178,29.7396705],[118.7319571,29.7372716],[118.729248,29.7332191],[118.7232882,29.7286494],[118.7195975,29.7268513],[118.7184655,29.7226539],[118.7186802,29.7179206],[118.714807,29.7132709],[118.7148821,29.7112581],[118.7133586,29.7100887],[118.7042445,29.7084579],[118.6960584,29.7093339],[118.6916703,29.7049913],[118.6885858,29.703738],[118.6875933,29.7024216],[118.6870676,29.6993346],[118.6877435,29.6967531],[118.6811024,29.6930904],[118.677476,29.6921677],[118.6773365,29.6848697],[118.6765212,29.6823438],[118.6698693,29.6777857],[118.6691612,29.6766391],[118.6687749,29.6711952],[118.6577993,29.6634016],[118.6554926,29.660064],[118.6501014,29.6549222],[118.6503911,29.6537288],[118.6472797,29.6511367],[118.6457133,29.6508384],[118.6460244,29.6488803],[118.6375594,29.6436214],[118.6364329,29.6453837],[118.6312723,29.6472952],[118.6308968,29.6498127],[118.6243576,29.6535656],[118.6158281,29.6569314],[118.6091923,29.6541297],[118.607862,29.6523209],[118.6054587,29.6524421],[118.6014247,29.6483302],[118.599692,29.6481111],[118.5969347,29.6458453],[118.5930723,29.6472812],[118.5884106,29.647174],[118.5806107,29.643295],[118.572092,29.6411969],[118.5693937,29.6412762],[118.5634553,29.6356951],[118.5629832,29.6322353],[118.5636216,29.6303935],[118.5628491,29.6292557],[118.5606068,29.6285656],[118.5558486,29.6239258],[118.5542607,29.621818],[118.5533273,29.6176955],[118.5472494,29.6170193],[118.5450661,29.6159514],[118.5433495,29.6120712],[118.5374876,29.6069912],[118.5365313,29.6023374],[118.5324222,29.5984194],[118.532449,29.5961385],[118.531242,29.5936989],[118.5279911,29.5923741],[118.5243473,29.5925117],[118.5233777,29.5911706],[118.5178846,29.5891648],[118.5150736,29.5893327],[118.510192,29.585806],[118.5082823,29.5856381],[118.5076654,29.5841966],[118.5058039,29.5838561],[118.5057503,29.5827924],[118.5040873,29.5815142],[118.4944474,29.578785],[118.4943938,29.5711336],[118.4924304,29.5664491],[118.4932136,29.5639202],[118.4885251,29.5531505],[118.4898555,29.5520772],[118.4930312,29.5442931],[118.4909767,29.5394534],[118.4908694,29.5346275],[118.4899789,29.53403],[118.4894411,29.5306263],[118.490632,29.5227426],[118.4896986,29.5212908],[118.4854339,29.5202312],[118.4829931,29.5180745],[118.4800105,29.5180045],[118.4785513,29.5171082],[118.4744422,29.5132336],[118.4736912,29.511581],[118.4676294,29.5111141],[118.4667604,29.5131122],[118.4640245,29.5151756],[118.4587406,29.5166647],[118.4569649,29.5153063],[118.453698,29.5158151],[118.4543471,29.5089013],[118.4492294,29.5106846],[118.446904,29.5146224],[118.4449084,29.5155467],[118.439839,29.5154557],[118.4366513,29.5137614],[118.4357106,29.5141218],[118.4351452,29.5147718],[118.4356534,29.5179399],[118.4325555,29.5169203],[118.433226,29.5165469],[118.4320539,29.5156996],[118.4313807,29.5117759],[118.43034,29.5113931],[118.4291062,29.5081064],[118.4266761,29.505604],[118.4267619,29.5043949],[118.4247832,29.5036182],[118.4203291,29.5051852],[118.4151526,29.5091125],[118.4134364,29.508391],[118.4135763,29.5096358],[118.4112133,29.5109059],[118.4101591,29.512611],[118.4065676,29.5132394],[118.4040651,29.5106321],[118.399677,29.5095957],[118.3957449,29.5106928],[118.3895007,29.5099552],[118.385134,29.5109916],[118.3834603,29.5104594],[118.3781013,29.5126675],[118.3760413,29.5088954],[118.376492,29.5063184],[118.3753252,29.5045559],[118.3724713,29.5037436],[118.3684051,29.4999898],[118.3639526,29.4928274],[118.3570889,29.4892576],[118.3563486,29.488165],[118.3566356,29.487635],[118.3601707,29.488144],[118.3607501,29.4866964],[118.3601814,29.4858279],[118.3582958,29.4867221],[118.3571801,29.4858909],[118.3564934,29.4847422],[118.3579203,29.4826968],[118.356885,29.4813193],[118.3561501,29.4811558],[118.3553089,29.4825638],[118.3526283,29.4811441],[118.3502787,29.4821622],[118.3480149,29.4817606],[118.3476394,29.4806398],[118.346191,29.4809667],[118.343423,29.478968],[118.3398887,29.4786938],[118.3396948,29.4774609]]]}}
