{"type":"Feature","id":"hong-kong","bbox":[113.8171111,22.1367222,114.5024444,22.5683333],"properties":{"id":"hong-kong","name":"香港","fullName":"香港特别行政区","nameEn":"Hong Kong","level":"province","parentId":"china","bounds":[[113.8171111,22.1367222],[114.5024444,22.5683333]],"center":[114.15977775,22.35252775],"centerMethod":"bounding-box midpoint; camera framing only","interiorPoint":[114.18577775,22.3492361],"boundaryRole":"administrative-extent","attribution":"© OpenStreetMap contributors","license":"ODbL-1.0","source":{"provider":"OpenStreetMap","osmType":"relation","osmId":913110,"url":"https://www.openstreetmap.org/relation/913110","retrievedAt":"2026-09-08T10:09:30.609214+00:00"},"geometryCounts":{"coordinates":1718,"components":13,"holes":22},"simplificationToleranceDegrees":0},"geometry":{"type":"MultiPolygon","coordinates":[[[[113.8171111,22.2170556],[113.8323889,22.1838611],[113.8332084,22.1833333],[113.8965556,22.1425278],[113.9223889,22.1367222],[113.9395556,22.1484722],[113.972125,22.1484722],[114.236,22.1484722],[114.2551667,22.1385556],[114.284,22.1484722],[114.30925,22.1484722],[114.5024444,22.1484722],[114.5024444,22.3651389],[114.4570861,22.463938],[114.4560363,22.4662238],[114.4548889,22.4687222],[114.4551389,22.5449722],[114.4339722,22.562],[114.3513102,22.5671837],[114.33619,22.5681316],[114.3329722,22.5683333],[114.3090833,22.5666667],[114.2760278,22.5655],[114.2486667,22.5557222],[114.2414556,22.5526169],[114.2370556,22.5507222],[114.2336389,22.5436667],[114.2263472,22.5436694],[114.2263581,22.5437042],[114.2263484,22.5437343],[114.2263285,22.5437697],[114.2261125,22.5440955],[114.2261113,22.5441153],[114.2261384,22.5441611],[114.2261347,22.5441708],[114.2261519,22.5441824],[114.2260869,22.5442817],[114.2260512,22.5443297],[114.2259081,22.5445444],[114.2258869,22.5445768],[114.2258682,22.5446043],[114.2256292,22.5449611],[114.2254528,22.545221],[114.2254319,22.5452644],[114.2254231,22.5453151],[114.2254353,22.5453734],[114.2254599,22.5454191],[114.22555,22.5455789],[114.2256258,22.5457472],[114.2256628,22.545938],[114.2256667,22.54595],[114.2256797,22.5459785],[114.2256867,22.5459944],[114.225732,22.5460079],[114.2257912,22.5460373],[114.2258104,22.5460597],[114.2259084,22.5461741],[114.2260874,22.5463741],[114.2261819,22.5464906],[114.2264263,22.5467887],[114.2266138,22.5470232],[114.2266414,22.5470741],[114.2268477,22.5476314],[114.2268999,22.5477724],[114.2269194,22.54785],[114.2269056,22.5480083],[114.2266177,22.5481511],[114.226487,22.5481994],[114.2262684,22.5483567],[114.226208,22.5483988],[114.2260835,22.5485002],[114.2259184,22.5487493],[114.2258058,22.5489544],[114.2257978,22.548969],[114.225764,22.5490021],[114.2257514,22.5490144],[114.2257329,22.5490333],[114.2255891,22.5492219],[114.2254771,22.5493754],[114.2253969,22.5494143],[114.2253162,22.5494844],[114.2252847,22.5495383],[114.2251948,22.5496541],[114.2251106,22.5497505],[114.2249849,22.5498628],[114.2246343,22.550143],[114.2245943,22.5501816],[114.2244934,22.5504307],[114.2244291,22.5506029],[114.224419,22.550618],[114.2243919,22.5506862],[114.2243545,22.550855],[114.2243412,22.5508833],[114.2243365,22.5508933],[114.2242778,22.5509468],[114.2242628,22.5509556],[114.2242504,22.5509629],[114.2240589,22.5509986],[114.2239349,22.5510042],[114.2239034,22.5510035],[114.223677,22.5509984],[114.2236633,22.5509965],[114.223389,22.5509583],[114.2233476,22.5509485],[114.2233079,22.5509447],[114.2232682,22.5509533],[114.2232122,22.5509811],[114.2230424,22.5510995],[114.2229974,22.5511231],[114.2229295,22.5511816],[114.2228649,22.5512206],[114.2227778,22.5512729],[114.2226028,22.5513466],[114.2225089,22.5513822],[114.2224231,22.5514104],[114.2222286,22.5514726],[114.2220751,22.5515197],[114.2219863,22.551559],[114.2219024,22.5515869],[114.2218112,22.5516101],[114.2217358,22.5516173],[114.2216608,22.5516184],[114.2215651,22.5516197],[114.2215239,22.5516241],[114.2213883,22.5516901],[114.2213023,22.5517545],[114.2212439,22.5518074],[114.2211638,22.5519012],[114.2211184,22.551962],[114.2210907,22.5520021],[114.2210642,22.552047],[114.2210106,22.552139],[114.2209613,22.5522065],[114.2209342,22.5522555],[114.2209207,22.5522917],[114.2209113,22.5523167],[114.2209093,22.5523282],[114.2208859,22.5524152],[114.2208473,22.552544],[114.2208467,22.5525521],[114.2208426,22.5526098],[114.220851,22.5526737],[114.2208527,22.5527251],[114.2208433,22.5530136],[114.2208493,22.5530648],[114.2208436,22.5530831],[114.2207787,22.5531763],[114.22068,22.5533258],[114.2205901,22.5534359],[114.2205328,22.5535296],[114.2204661,22.553624],[114.2204253,22.5536732],[114.220391,22.5536879],[114.2203672,22.5536903],[114.2203533,22.5536794],[114.2203213,22.5536708],[114.2203062,22.5536715],[114.2202799,22.5536683],[114.2202441,22.5536454],[114.2201764,22.5536099],[114.2201462,22.5535971],[114.2200993,22.5535927],[114.2200805,22.5535977],[114.2200174,22.5536266],[114.219988,22.5536553],[114.2199196,22.5536949],[114.2199038,22.5537054],[114.2197902,22.5537537],[114.2197566,22.553807],[114.2197359,22.5538609],[114.2197452,22.5539253],[114.2197409,22.5539522],[114.2197294,22.5539812],[114.219697,22.5540318],[114.2196577,22.5540601],[114.2196324,22.5540813],[114.2195662,22.5541309],[114.2195401,22.5541547],[114.2195226,22.554194],[114.2195092,22.5542306],[114.2194988,22.5542882],[114.2194636,22.5543563],[114.2194167,22.5544108],[114.2194175,22.554447],[114.2194287,22.5545062],[114.2194251,22.5545993],[114.2192906,22.5548133],[114.2192297,22.5548608],[114.2191602,22.5549066],[114.2190619,22.5549715],[114.2189617,22.5550972],[114.2189506,22.5551112],[114.2188983,22.555165],[114.218789,22.5552394],[114.218667,22.5553564],[114.2186478,22.5553952],[114.2184155,22.5556084],[114.2180814,22.5558992],[114.2179964,22.5559744],[114.2179897,22.5559998],[114.217971,22.5560103],[114.2179046,22.5560469],[114.217869,22.5560172],[114.2178617,22.5560141],[114.2178509,22.5560103],[114.2177955,22.5560073],[114.2177369,22.5559854],[114.2176779,22.5559775],[114.2176055,22.5559515],[114.2174798,22.5559216],[114.217377,22.5559104],[114.2173292,22.5558691],[114.2172843,22.5558252],[114.217236,22.5558252],[114.2170885,22.5558537],[114.2170523,22.55585],[114.2169889,22.5558085],[114.2169125,22.5557611],[114.21689,22.5557211],[114.2168875,22.5556733],[114.2169459,22.5555956],[114.2169445,22.5555287],[114.2169378,22.5554776],[114.2169264,22.5554307],[114.2169133,22.5553874],[114.2169117,22.5553847],[114.2168734,22.5553205],[114.2168465,22.5552891],[114.2168216,22.5552663],[114.2167836,22.555244],[114.2167278,22.5552158],[114.2165433,22.5551539],[114.2164279,22.555131],[114.2163686,22.555113],[114.2163241,22.5551019],[114.216245,22.5551022],[114.2162184,22.5551092],[114.2161844,22.5551358],[114.2161025,22.5552479],[114.2160572,22.5552889],[114.2159766,22.5553059],[114.2159305,22.5553131],[114.2158311,22.5553177],[114.2157848,22.5553232],[114.2157494,22.5553199],[114.2156716,22.5552906],[114.2155878,22.5552313],[114.2153634,22.5550455],[114.2153028,22.5550177],[114.2152222,22.5549983],[114.2151111,22.5549842],[114.214993,22.5549576],[114.2148422,22.5549053],[114.2148096,22.5549014],[114.2146651,22.5548913],[114.214614,22.5548966],[114.2145401,22.5548949],[114.2144735,22.5548989],[114.2144264,22.5548988],[114.2143208,22.5548929],[114.2142615,22.5548851],[114.2141321,22.5548663],[114.2140543,22.5548585],[114.2137919,22.554835],[114.2135458,22.5548045],[114.2133844,22.5548034],[114.2132857,22.5548285],[114.2132618,22.5548367],[114.2132103,22.5548688],[114.2131795,22.5548879],[114.2131456,22.5549083],[114.2131205,22.5549234],[114.2131008,22.5549315],[114.213089,22.5549364],[114.2130694,22.5549386],[114.2130583,22.5549399],[114.2129658,22.5549721],[114.2129286,22.5549752],[114.2128522,22.5549866],[114.2128448,22.5549877],[114.2127504,22.5550421],[114.2127421,22.5550495],[114.2126719,22.5551121],[114.2125475,22.555333],[114.2124637,22.555409],[114.2123826,22.5554629],[114.2122441,22.5555403],[114.2122188,22.5555637],[114.2121707,22.5555827],[114.2121625,22.5555852],[114.2121197,22.5555982],[114.2120465,22.5556209],[114.2120168,22.5556301],[114.212003,22.5556398],[114.2119937,22.5556463],[114.211936,22.5557069],[114.2119005,22.5557602],[114.2118824,22.55584],[114.2118666,22.5559308],[114.2118582,22.5559602],[114.2118166,22.5559915],[114.211803,22.5560018],[114.2117858,22.5560147],[114.2116634,22.5560794],[114.2116524,22.5560915],[114.211634,22.556235],[114.2116109,22.5562596],[114.2115433,22.5563216],[114.2115165,22.5563406],[114.2114928,22.5563559],[114.2114688,22.5563762],[114.2114237,22.5564048],[114.2113673,22.556438],[114.211292,22.5564822],[114.2112895,22.5564853],[114.2110328,22.5562178],[114.2108919,22.5561193],[114.2107122,22.5559274],[114.2106165,22.5558996],[114.2105325,22.5559181],[114.2104454,22.5559373],[114.2103482,22.5559838],[114.2103186,22.555998],[114.2101778,22.5560506],[114.210157,22.5560568],[114.2101289,22.556045],[114.2101295,22.5560611],[114.2101094,22.5561001],[114.2100645,22.5561261],[114.2099391,22.5561831],[114.2098922,22.5561738],[114.2095428,22.5563961],[114.2095193,22.5564048],[114.2092665,22.5564364],[114.208996,22.5565649],[114.2086396,22.5568804],[114.2084918,22.5569402],[114.207387,22.5566798],[114.2071509,22.556629],[114.2071563,22.5566104],[114.207155,22.5565881],[114.2071214,22.5565584],[114.2067361,22.556525],[114.2061692,22.5565157],[114.2060687,22.5565033],[114.2058582,22.556451],[114.2058367,22.5564457],[114.2058172,22.5564413],[114.2057689,22.5564345],[114.205673,22.5564327],[114.2055979,22.5564332],[114.2055754,22.5564334],[114.2053787,22.5563943],[114.2052788,22.5564011],[114.2051892,22.5564026],[114.2050716,22.5563577],[114.2049503,22.5563273],[114.2049401,22.5563206],[114.2048161,22.5563175],[114.2046974,22.556328],[114.2045934,22.5563299],[114.2044895,22.5563485],[114.2044205,22.5563522],[114.2043983,22.5563534],[114.204348,22.5563528],[114.2042207,22.556341],[114.2041368,22.5563113],[114.2040718,22.556294],[114.2039029,22.5562601],[114.2037729,22.5562308],[114.2037396,22.5562283],[114.2036486,22.5562215],[114.2035186,22.5562178],[114.2034859,22.5562176],[114.2033119,22.5562167],[114.2032879,22.5562153],[114.2031618,22.5561596],[114.2030989,22.5561657],[114.2029989,22.556136],[114.2028963,22.5561125],[114.2027917,22.5561274],[114.2026947,22.5561345],[114.2026448,22.5561299],[114.202622,22.5561311],[114.2026006,22.5561274],[114.2025248,22.5561187],[114.2024156,22.5561342],[114.2023619,22.5561398],[114.2022579,22.5561608],[114.2021848,22.5561695],[114.2021111,22.5561844],[114.2020572,22.5562054],[114.2020158,22.5562172],[114.2019622,22.5562128],[114.2019045,22.556196],[114.2017952,22.5561416],[114.2017188,22.5561342],[114.2016484,22.5561212],[114.2015854,22.5561082],[114.201546,22.5560884],[114.2015062,22.5561713],[114.2014988,22.5561814],[114.2014628,22.5562305],[114.2013877,22.5563011],[114.2013815,22.556307],[114.2013265,22.5563509],[114.2012615,22.5564135],[114.2012005,22.5564921],[114.2011596,22.5565621],[114.2011399,22.5566003],[114.2011227,22.5566339],[114.2010975,22.556707],[114.2010917,22.5567691],[114.2010875,22.5568629],[114.2010784,22.557021],[114.2010898,22.5571145],[114.2010932,22.5571776],[114.2010764,22.5572247],[114.2010638,22.557244],[114.2010348,22.5572885],[114.2009845,22.5573479],[114.2009811,22.5573703],[114.2009734,22.5573778],[114.2009155,22.5574346],[114.2008042,22.5574786],[114.2007244,22.5574928],[114.2006513,22.5575166],[114.2005956,22.5575176],[114.2005379,22.557512],[114.2004354,22.5574842],[114.2003401,22.557447],[114.2002161,22.5573863],[114.2000943,22.5573216],[114.2000283,22.5572724],[114.1999177,22.5572173],[114.1998491,22.5571669],[114.1996877,22.5570525],[114.1995931,22.556985],[114.1995372,22.5569326],[114.1995201,22.5568971],[114.1994062,22.5567768],[114.1993189,22.5567188],[114.1992183,22.5566742],[114.199117,22.5566488],[114.199009,22.5566303],[114.1986698,22.556661],[114.198628,22.5566651],[114.1985769,22.5566685],[114.1982233,22.5566917],[114.1981777,22.5566967],[114.1981385,22.556701],[114.1980515,22.5566952],[114.1980958,22.5567479],[114.1980582,22.5567609],[114.198008,22.5567089],[114.1980059,22.5566762],[114.1980033,22.5566358],[114.1978182,22.556572],[114.1977024,22.5565468],[114.1975754,22.556523],[114.1975524,22.5565187],[114.1974902,22.5565277],[114.1974742,22.5565328],[114.1974432,22.5565427],[114.1973766,22.5565719],[114.1972991,22.5566101],[114.1972149,22.5566621],[114.197146,22.5567111],[114.1970845,22.5567582],[114.1970791,22.5567615],[114.1970489,22.5567799],[114.1970151,22.5568005],[114.1970093,22.556804],[114.196945,22.5568346],[114.1968688,22.5568572],[114.1968629,22.5568582],[114.1968418,22.556862],[114.1967107,22.5568853],[114.1966201,22.5569032],[114.1964794,22.5569309],[114.1964627,22.5569348],[114.1963928,22.5569513],[114.1963041,22.5569722],[114.1962702,22.5569765],[114.1962467,22.5569795],[114.1961847,22.5569795],[114.1961541,22.5569727],[114.1961252,22.5569662],[114.1960976,22.55692],[114.1960919,22.5569104],[114.196091,22.5569061],[114.196082,22.5568625],[114.1960432,22.5568345],[114.1960575,22.5566973],[114.1960569,22.5566062],[114.1960565,22.5565478],[114.1960558,22.5564394],[114.1960475,22.5563709],[114.1960136,22.5562919],[114.1960153,22.5562042],[114.1960205,22.5561014],[114.1960338,22.5560722],[114.1960489,22.5560141],[114.196042,22.5559256],[114.1959643,22.555871],[114.1959413,22.5558208],[114.1959297,22.5557886],[114.195915,22.5557475],[114.1958677,22.5557222],[114.1958401,22.5557074],[114.1958218,22.5557052],[114.195773,22.5556993],[114.1956672,22.5556999],[114.1956533,22.5557015],[114.1955436,22.5557141],[114.195458,22.5557233],[114.19541,22.5557251],[114.1953821,22.5557261],[114.195317,22.5556914],[114.1953151,22.555614],[114.195274,22.5555686],[114.1952055,22.555507],[114.1950398,22.5553774],[114.1948743,22.5553652],[114.1948159,22.5553693],[114.1947802,22.5553779],[114.1947229,22.5553902],[114.1946655,22.5553697],[114.194621,22.5553588],[114.1945886,22.555353],[114.1945568,22.5553473],[114.1944718,22.5553442],[114.1944014,22.5553417],[114.1941912,22.5553341],[114.1941455,22.5553392],[114.193817,22.5553768],[114.1936438,22.5554045],[114.1934248,22.5554381],[114.1932371,22.5554563],[114.1931588,22.5554952],[114.192968,22.5555724],[114.192819,22.555636],[114.1926786,22.5557137],[114.1926308,22.5557447],[114.1925356,22.5557856],[114.1924255,22.5559023],[114.1923723,22.5559586],[114.1922922,22.5560198],[114.1922607,22.5560333],[114.1921883,22.55603],[114.1919584,22.5559715],[114.1917396,22.5558195],[114.191726,22.5558007],[114.1915671,22.555581],[114.1914701,22.5554698],[114.1913628,22.5554335],[114.1913076,22.5554148],[114.1911935,22.5553788],[114.1911404,22.5552957],[114.1911156,22.5552568],[114.1910705,22.5552144],[114.1910169,22.5551632],[114.1909066,22.555058],[114.1908552,22.554996],[114.1907975,22.5549242],[114.1907452,22.5548511],[114.1906741,22.5546792],[114.1906594,22.5546409],[114.1905959,22.5544751],[114.1905876,22.5544535],[114.1905618,22.5544146],[114.1905064,22.5543745],[114.1904448,22.5543681],[114.1904003,22.5543707],[114.1902093,22.5543684],[114.1901819,22.5543681],[114.1900445,22.5543489],[114.1899132,22.5543267],[114.1897151,22.5543013],[114.1896951,22.5542987],[114.1895811,22.5542776],[114.1894519,22.554247],[114.1893592,22.5542343],[114.1893062,22.5542083],[114.1892619,22.5542014],[114.1892349,22.5542122],[114.1892016,22.5542256],[114.1891848,22.5542345],[114.1890967,22.5542809],[114.1890757,22.5542955],[114.1890445,22.5543173],[114.1889622,22.5543749],[114.188849,22.5544779],[114.1887854,22.5545444],[114.188761,22.5545699],[114.1886839,22.5546882],[114.1885886,22.55481],[114.1885693,22.5548889],[114.1884861,22.5550697],[114.1884834,22.5551026],[114.1884747,22.555209],[114.1884567,22.5552615],[114.1883285,22.5554128],[114.1882548,22.5554889],[114.1881587,22.5555818],[114.1881218,22.5556237],[114.1880566,22.5556313],[114.1879436,22.5556425],[114.1878137,22.5556647],[114.1877907,22.5556661],[114.1877317,22.5556697],[114.1876439,22.5556629],[114.1875161,22.5556403],[114.1874984,22.5556363],[114.1874241,22.5556193],[114.1874073,22.5556125],[114.1873731,22.5555988],[114.1873411,22.5555756],[114.1873149,22.5555567],[114.1873095,22.5555512],[114.1872533,22.5554945],[114.1872444,22.5554862],[114.1872271,22.5554514],[114.1871872,22.555371],[114.1871335,22.5552851],[114.1870705,22.5551471],[114.1870477,22.5550969],[114.1870213,22.5550304],[114.186987,22.5549628],[114.1869124,22.554814],[114.1868705,22.5547421],[114.186824,22.5546877],[114.1868054,22.5546764],[114.1867773,22.5546646],[114.1867701,22.5546616],[114.1867059,22.5546448],[114.1866991,22.554643],[114.1866373,22.5546378],[114.1865801,22.5546514],[114.1865683,22.5546542],[114.1864519,22.5546664],[114.1863845,22.5546819],[114.1862549,22.5547116],[114.1862227,22.5547187],[114.1861352,22.5547378],[114.1860963,22.5547427],[114.1859794,22.5547742],[114.1859655,22.554778],[114.1859509,22.5547852],[114.1858743,22.5548059],[114.1858066,22.5548145],[114.1856289,22.5548756],[114.1856111,22.5548817],[114.1854908,22.5549266],[114.185331,22.5549954],[114.1853086,22.5550025],[114.1851882,22.5550404],[114.1850491,22.5550708],[114.1846734,22.5551242],[114.1846543,22.5551238],[114.1844152,22.5551812],[114.1843048,22.5552166],[114.184039,22.5552257],[114.1839096,22.5552272],[114.1838638,22.5552235],[114.1837657,22.5552163],[114.1837204,22.5552129],[114.1836758,22.5552122],[114.1836026,22.555211],[114.1835719,22.5552105],[114.1834863,22.5552169],[114.1833671,22.5552202],[114.1832841,22.5552203],[114.1831626,22.5552361],[114.1830627,22.5552375],[114.1828571,22.5552653],[114.1828308,22.5552689],[114.1827747,22.5552722],[114.1827232,22.5552695],[114.1826637,22.555292],[114.1825811,22.555341],[114.1824565,22.5553731],[114.1823962,22.5553787],[114.182331,22.5553926],[114.1821963,22.5554177],[114.182081,22.5554357],[114.1820658,22.555436],[114.1819874,22.5554377],[114.1818539,22.555445],[114.1817948,22.5554483],[114.1816596,22.5554369],[114.181565,22.5554083],[114.1814896,22.5553725],[114.1814741,22.5553677],[114.1814631,22.5553538],[114.1812502,22.5551613],[114.1812199,22.5551179],[114.1812389,22.5550653],[114.1811854,22.5549628],[114.181155,22.5546854],[114.1811493,22.5546411],[114.1811527,22.5546139],[114.1811729,22.5544543],[114.181179,22.554406],[114.1811743,22.5543402],[114.1811696,22.5542741],[114.1811586,22.5542424],[114.1811513,22.5542215],[114.1811119,22.5541653],[114.1810658,22.5541259],[114.1809778,22.5541154],[114.1807742,22.5542719],[114.180679,22.5543136],[114.180574,22.5543617],[114.1804777,22.5544249],[114.1804445,22.5544467],[114.1803996,22.5544886],[114.1803184,22.5545643],[114.180119,22.5546672],[114.1799947,22.5547314],[114.1798963,22.5547821],[114.1797758,22.5548347],[114.179443,22.5549702],[114.1784829,22.5553296],[114.1784115,22.5553563],[114.1782501,22.5554218],[114.1779459,22.5555531],[114.1778659,22.5555877],[114.1777438,22.5556404],[114.1776763,22.5556826],[114.1776902,22.555745],[114.1777073,22.5558223],[114.1777569,22.5559394],[114.1777746,22.5560138],[114.1777878,22.5560541],[114.177771,22.5561451],[114.1777713,22.5561593],[114.1777752,22.5563465],[114.177745,22.5564843],[114.1777413,22.5565011],[114.1776572,22.5568843],[114.1776476,22.5569282],[114.1776404,22.5570968],[114.177636,22.5571993],[114.1776299,22.5573429],[114.1776249,22.5574592],[114.1776177,22.5576295],[114.1776193,22.5576542],[114.1776412,22.5579909],[114.1776523,22.5581621],[114.1776475,22.5581864],[114.1776237,22.5583076],[114.1776199,22.5583524],[114.177607,22.5585055],[114.1775064,22.5588052],[114.1774926,22.5589009],[114.1774864,22.5589333],[114.1774781,22.5589763],[114.1774605,22.5590543],[114.1774595,22.5591033],[114.1774639,22.5591344],[114.177465,22.5591422],[114.1774397,22.5592098],[114.1774299,22.5592747],[114.1774224,22.5593225],[114.1774188,22.5593857],[114.1773959,22.559498],[114.1773525,22.5595881],[114.1772675,22.5596872],[114.1772589,22.5596972],[114.1770812,22.5597786],[114.1770558,22.5598099],[114.1770151,22.5598089],[114.1769718,22.5598112],[114.1769194,22.5598144],[114.176865,22.5598375],[114.1767547,22.5598762],[114.1766818,22.5598969],[114.1766037,22.5599169],[114.1765684,22.5599259],[114.1765218,22.5599509],[114.1764978,22.559969],[114.1764736,22.5600034],[114.1764565,22.5600081],[114.1763847,22.5599977],[114.1763653,22.5599935],[114.1763163,22.5599828],[114.1762009,22.5600435],[114.1760749,22.5600732],[114.1759723,22.5600493],[114.175842,22.5600943],[114.1757558,22.5600763],[114.1753869,22.5600262],[114.1752201,22.5600189],[114.1750264,22.5600071],[114.1749564,22.5600029],[114.1748445,22.5599933],[114.1747138,22.5599769],[114.1745943,22.5599469],[114.1745664,22.5599368],[114.1743582,22.5598615],[114.1742357,22.5598244],[114.1741256,22.5597911],[114.1740234,22.5597691],[114.1738486,22.5597314],[114.1738346,22.5597289],[114.1736723,22.5596998],[114.1734607,22.559662],[114.1732986,22.5596243],[114.1731874,22.5595968],[114.1731323,22.5595831],[114.1730816,22.5595914],[114.1729323,22.5596038],[114.1728935,22.5596163],[114.172876,22.5596219],[114.1727182,22.5596735],[114.1726072,22.5596728],[114.1724556,22.5596719],[114.1720582,22.5596524],[114.1720368,22.5596513],[114.1708505,22.5596386],[114.1705205,22.5597207],[114.1701868,22.5599122],[114.1698266,22.5602425],[114.1698128,22.5602551],[114.1697534,22.5603537],[114.1697461,22.5603657],[114.1696064,22.5605975],[114.1695289,22.5607378],[114.1695032,22.5607842],[114.1693646,22.5609396],[114.1693347,22.5609571],[114.1691926,22.5610405],[114.1691363,22.5610735],[114.1688523,22.5611956],[114.1687954,22.56122],[114.168751,22.561226],[114.1685896,22.5612477],[114.168559,22.5612518],[114.1683952,22.5612709],[114.1682147,22.5612786],[114.1678514,22.5612942],[114.1675469,22.5612613],[114.1674345,22.5612371],[114.1674076,22.5612313],[114.1672926,22.5611751],[114.167107,22.5610649],[114.1670492,22.5610306],[114.1668739,22.5608856],[114.1668383,22.5608561],[114.1664269,22.5604281],[114.1662036,22.5601491],[114.1660726,22.5599854],[114.1660365,22.5599402],[114.1656943,22.5596295],[114.1655376,22.5595143],[114.1651359,22.5592189],[114.1651005,22.5592085],[114.165031,22.559188],[114.1645222,22.5591215],[114.1639145,22.5591172],[114.1635425,22.5591599],[114.1635146,22.5591753],[114.1632225,22.5593364],[114.163208,22.5593733],[114.163074,22.5597156],[114.162845,22.5603003],[114.1626481,22.5607297],[114.1625124,22.5610325],[114.1624275,22.561192],[114.162354,22.5613302],[114.1621032,22.5615965],[114.1619324,22.5617346],[114.1618353,22.5618131],[114.1618061,22.561826],[114.1615632,22.5619337],[114.1614669,22.561963],[114.1612843,22.5619295],[114.1610345,22.56185],[114.1608464,22.5617309],[114.1607972,22.5617043],[114.1606788,22.5616403],[114.1605585,22.5615753],[114.1603314,22.5614147],[114.1602501,22.5613456],[114.1601893,22.5612751],[114.1600856,22.5611402],[114.1599458,22.5609128],[114.1598775,22.5608018],[114.1596631,22.5606114],[114.1594675,22.5604087],[114.1593106,22.5601854],[114.1593017,22.5601615],[114.1592126,22.5599212],[114.1591683,22.5598311],[114.1590768,22.5596451],[114.1589577,22.559509],[114.1586533,22.5592676],[114.1584226,22.5591054],[114.1582382,22.5587871],[114.1582238,22.5587623],[114.1579997,22.558218],[114.1577999,22.5577972],[114.1577171,22.5576228],[114.157453,22.557012],[114.1571784,22.5563987],[114.1571279,22.5562681],[114.157108,22.5562165],[114.1570245,22.5558603],[114.1569927,22.555658],[114.1569585,22.5554398],[114.1569326,22.5553723],[114.1567048,22.5550777],[114.156692,22.5550724],[114.1565802,22.5550257],[114.156503,22.5550064],[114.1564016,22.555002],[114.1563857,22.5550105],[114.1563592,22.5550247],[114.156183,22.5551193],[114.1560567,22.5551947],[114.1559099,22.5551947],[114.1558907,22.5551891],[114.1557766,22.5551558],[114.155643,22.5550864],[114.1554517,22.5549921],[114.1554344,22.5549802],[114.1552007,22.5548089],[114.1550987,22.5547161],[114.1550714,22.554678],[114.1548708,22.5543978],[114.1547922,22.5543669],[114.154686,22.5543702],[114.1545584,22.5544246],[114.1544211,22.554458],[114.1539534,22.5544596],[114.1537158,22.5544614],[114.1534509,22.5545172],[114.1532337,22.5545787],[114.1527807,22.5547486],[114.1525332,22.5548192],[114.1523573,22.5548438],[114.1522529,22.5548351],[114.152108,22.5547785],[114.1520076,22.5546801],[114.1519471,22.5545662],[114.1518648,22.554336],[114.1518764,22.5542392],[114.1518737,22.5542209],[114.151871,22.554202],[114.1518597,22.5541243],[114.1516871,22.5533183],[114.1516681,22.553218],[114.1516596,22.5531663],[114.1516281,22.5528632],[114.1516355,22.5527687],[114.1516366,22.5527043],[114.1516439,22.5525597],[114.1516798,22.552197],[114.1516899,22.5520828],[114.151688,22.5519348],[114.151674,22.5518807],[114.1516451,22.5517697],[114.1515735,22.551598],[114.1515277,22.551515],[114.1514784,22.5514256],[114.1513558,22.5512853],[114.1512221,22.551164],[114.1510738,22.5510602],[114.1509282,22.550991],[114.150893,22.5509743],[114.1507313,22.550926],[114.1504939,22.5508762],[114.1504376,22.5508646],[114.1503409,22.5508355],[114.1502029,22.5507839],[114.1500795,22.550712],[114.149972,22.5506204],[114.1498843,22.5505206],[114.1498122,22.5503995],[114.1497877,22.5503502],[114.149747,22.5501201],[114.1496956,22.5498879],[114.1496766,22.5497539],[114.149643,22.5494982],[114.1496002,22.5490503],[114.1495612,22.5486613],[114.1495683,22.5485615],[114.1495838,22.5484686],[114.149601,22.5484066],[114.1496257,22.5483414],[114.1496542,22.5482831],[114.1496995,22.5482109],[114.1497709,22.5481182],[114.1498579,22.5480356],[114.1499394,22.5479804],[114.1500898,22.5478824],[114.1502658,22.5478395],[114.1503969,22.5478314],[114.1504911,22.5478376],[114.1505961,22.5478589],[114.1506569,22.5478773],[114.1508831,22.5479492],[114.1509841,22.5479822],[114.1514244,22.548126],[114.1514613,22.548125],[114.1515886,22.5481109],[114.1516963,22.5480335],[114.1518325,22.5478482],[114.1519559,22.5475669],[114.1519618,22.5474479],[114.1519728,22.5472235],[114.1519461,22.5471171],[114.1519005,22.5469356],[114.1518429,22.5468236],[114.1517892,22.5467191],[114.1515517,22.5465087],[114.151411,22.5463761],[114.1513268,22.5463373],[114.1512692,22.5463107],[114.151125,22.5463078],[114.1509838,22.5463323],[114.1509536,22.5463313],[114.150806,22.5463265],[114.1506401,22.5462882],[114.1505418,22.5462385],[114.1505157,22.5462253],[114.1501941,22.5459649],[114.149914,22.5455221],[114.149841,22.5454428],[114.1489373,22.5444605],[114.1486953,22.5442074],[114.1485479,22.5438762],[114.148428,22.5435737],[114.1483899,22.5434851],[114.1483101,22.5432994],[114.1482728,22.5430234],[114.1483859,22.5427873],[114.1484975,22.5425644],[114.1485779,22.5424353],[114.1485943,22.542409],[114.1486241,22.5422681],[114.1486159,22.5421388],[114.1486135,22.5421001],[114.1485184,22.5419777],[114.1484519,22.541892],[114.1483338,22.5418264],[114.1483078,22.5418229],[114.1481124,22.5417965],[114.1480179,22.5417855],[114.1477276,22.5417516],[114.1475872,22.5416821],[114.147267,22.541542],[114.1467789,22.541494],[114.1467553,22.5414875],[114.1462661,22.541352],[114.146118,22.5413068],[114.1459193,22.5412462],[114.1455297,22.5411862],[114.1454245,22.54117],[114.1453352,22.5411693],[114.1447793,22.5411647],[114.1445932,22.5411632],[114.1445115,22.5411976],[114.1444921,22.5412057],[114.1444685,22.5412236],[114.1444062,22.5412708],[114.1443966,22.5412946],[114.1442909,22.5415581],[114.1442653,22.5416154],[114.1441177,22.5419461],[114.1440445,22.5420225],[114.1439657,22.5420459],[114.143932,22.5420528],[114.1431324,22.5420562],[114.1427367,22.5420499],[114.1426709,22.5420488],[114.1421896,22.5421176],[114.1418024,22.5423626],[114.1416843,22.5424623],[114.141474,22.5427321],[114.1413472,22.5428226],[114.1411825,22.5428783],[114.1409718,22.5428817],[114.1405144,22.5428785],[114.140133,22.5429196],[114.1398036,22.543011],[114.1391751,22.5432815],[114.1386407,22.5434863],[114.1383361,22.5435575],[114.1380475,22.5435797],[114.137528,22.5435188],[114.1373093,22.5434437],[114.1369886,22.5433213],[114.1360337,22.5428557],[114.1357718,22.5425119],[114.1349202,22.5418381],[114.13469,22.5417278],[114.1344427,22.5416094],[114.133985,22.5415093],[114.1336596,22.5414828],[114.1315169,22.5419424],[114.1312566,22.5419965],[114.1308037,22.541955],[114.1304805,22.5418716],[114.1303679,22.5418425],[114.1301585,22.5417147],[114.129451,22.5409443],[114.1289611,22.5402626],[114.1289152,22.5401987],[114.1283393,22.5397923],[114.1276091,22.5396482],[114.1273353,22.5396389],[114.127304,22.5396378],[114.1272774,22.5396391],[114.1270378,22.5396703],[114.1269505,22.5396967],[114.1265121,22.5398067],[114.1262942,22.5398253],[114.1259507,22.5398374],[114.1254478,22.5397873],[114.1250413,22.539633],[114.1235569,22.5387268],[114.1223203,22.5379359],[114.1221152,22.5377738],[114.1219559,22.5375842],[114.1214883,22.5369258],[114.1208808,22.5360459],[114.1204169,22.5353865],[114.120371,22.5353216],[114.1201884,22.5350637],[114.1199962,22.5349162],[114.1197332,22.5348139],[114.118782,22.5346601],[114.1186178,22.5346314],[114.1173828,22.5344481],[114.1170769,22.5343372],[114.1168122,22.5341998],[114.1164405,22.5338996],[114.1162879,22.5336474],[114.1161194,22.5333046],[114.1160694,22.5330456],[114.1160185,22.5322209],[114.1158961,22.5318017],[114.1157261,22.5314141],[114.1155671,22.5312479],[114.1152223,22.5309851],[114.1147774,22.5307107],[114.1132388,22.5299402],[114.1130823,22.5298618],[114.1128065,22.5297592],[114.1124985,22.5296533],[114.112203,22.5295796],[114.1118767,22.5295742],[114.1115261,22.5296048],[114.1110184,22.5297671],[114.1106983,22.5299108],[114.1105046,22.5299977],[114.1099773,22.5303117],[114.1095858,22.530595],[114.1092929,22.5309694],[114.1092268,22.5310922],[114.109084,22.5313573],[114.1086145,22.5325917],[114.108436,22.5329213],[114.1082035,22.5332211],[114.1079334,22.5334794],[114.1076283,22.5336896],[114.1072749,22.5338602],[114.1068733,22.5340329],[114.1054013,22.534666],[114.1050906,22.5347845],[114.1043374,22.5350375],[114.1041381,22.5350997],[114.1038969,22.5351532],[114.1036356,22.535177],[114.1032825,22.5351714],[114.1030943,22.5351511],[114.1027235,22.535106],[114.1002663,22.534616],[114.0999998,22.5345622],[114.0996246,22.5344865],[114.097889,22.5341356],[114.0972742,22.534121],[114.0966667,22.5341929],[114.0962413,22.5343366],[114.0957297,22.5345979],[114.0953406,22.5349288],[114.0942539,22.5360036],[114.0938169,22.5363469],[114.0933678,22.536614],[114.0927171,22.5368811],[114.0922052,22.5369893],[114.0917925,22.5370108],[114.0902533,22.5368417],[114.0896152,22.5367094],[114.0889963,22.5364705],[114.0884649,22.5361332],[114.0881333,22.5357862],[114.0876937,22.5353399],[114.0870129,22.5344071],[114.0863228,22.5334235],[114.0859424,22.5329485],[114.085246,22.5323726],[114.0845277,22.532095],[114.0830209,22.5316583],[114.0823923,22.5314987],[114.0809885,22.5311422],[114.0795624,22.5306965],[114.079277,22.5305229],[114.0789915,22.5303492],[114.078382,22.5300021],[114.0780946,22.529794],[114.0779302,22.5295845],[114.0776725,22.529118],[114.0775904,22.5289267],[114.0775151,22.5286835],[114.0768388,22.5264567],[114.0764446,22.5253273],[114.0756241,22.522677],[114.0754661,22.5222312],[114.0746205,22.5201714],[114.074443,22.5197746],[114.0742149,22.5194284],[114.0739075,22.5191556],[114.0727797,22.5184592],[114.0725554,22.5183579],[114.0715235,22.5180482],[114.070607,22.517785],[114.0692801,22.5174039],[114.0682796,22.5172324],[114.0676766,22.5171754],[114.0666597,22.5170793],[114.0656996,22.516973],[114.0654878,22.5169402],[114.0652651,22.5168964],[114.064786,22.5167723],[114.0644356,22.5166482],[114.0640719,22.5164748],[114.0638685,22.5163545],[114.0636651,22.5162342],[114.0625467,22.5154959],[114.0608331,22.5143646],[114.0595297,22.5133299],[114.0584621,22.5120214],[114.0580053,22.5112458],[114.0576548,22.5104648],[114.0573065,22.5093356],[114.0571529,22.5080854],[114.0570869,22.5068643],[114.0569643,22.5058723],[114.0568119,22.5054118],[114.0563791,22.5046529],[114.055634,22.5039374],[114.0548495,22.5034987],[114.0532161,22.5028074],[114.0526501,22.5026117],[114.051808,22.5024284],[114.0511124,22.5023406],[114.0504116,22.5023716],[114.0494791,22.5025036],[114.0490133,22.5026504],[114.0485289,22.5027996],[114.0478327,22.5031191],[114.0465514,22.5037299],[114.0453395,22.5040735],[114.0444246,22.5042205],[114.044136,22.5042668],[114.0436495,22.5043435],[114.0433311,22.5043945],[114.0431073,22.5044327],[114.0408354,22.5050651],[114.0372417,22.5056593],[114.0340851,22.5060628],[114.031935,22.5063089],[114.02667,22.5067174],[114.0254086,22.5067585],[114.0244719,22.5065864],[114.0204882,22.5038329],[114.0167327,22.5019953],[114.0134549,22.5008781],[114.0119473,22.5006432],[114.0111627,22.500729],[114.0098906,22.5011386],[114.0086078,22.5017861],[114.0075793,22.5024028],[114.0050738,22.5045985],[114.0043329,22.5055224],[114.0033995,22.5065099],[114.0025695,22.507246],[114.0017119,22.5079566],[114.0001192,22.5090181],[113.9995168,22.5093559],[113.9985121,22.5098573],[113.9980992,22.5099926],[113.9975706,22.5101079],[113.9971593,22.5101701],[113.9965466,22.5102088],[113.9959594,22.510229],[113.9952237,22.5101629],[113.9950556,22.5100639],[113.9927148,22.5081962],[113.9865927,22.5032962],[113.9478056,22.4723583],[113.8742315,22.4316398],[113.8691111,22.4288056],[113.8691111,22.4],[113.8691111,22.3333333],[113.8658702,22.32435],[113.8473889,22.2731111],[113.839,22.2677222],[113.8345592,22.2577066],[113.8263889,22.2392778],[113.8171111,22.2170556]]],[[[113.9402451,22.4947066],[113.9402962,22.4905313],[113.945042,22.4906111],[113.9451788,22.4906948],[113.9452165,22.4907174],[113.9453829,22.4908185],[113.9454857,22.4908815],[113.945591,22.4909452],[113.9459113,22.4911407],[113.9460077,22.4911994],[113.9463396,22.4914016],[113.9461591,22.5008083],[113.9463422,22.5008343],[113.9463019,22.5038877],[113.9458272,22.5038815],[113.9436563,22.5038527],[113.9431744,22.5038416],[113.9431232,22.5038408],[113.9431397,22.5033254],[113.9431777,22.5030227],[113.9432679,22.5027859],[113.9433344,22.5026499],[113.9434175,22.5025249],[113.9435077,22.5024174],[113.9436359,22.5022924],[113.944538,22.5014212],[113.9447621,22.5012247],[113.9450236,22.5010304],[113.9453066,22.500862],[113.9454281,22.5007725],[113.9455592,22.5006461],[113.9456371,22.5005268],[113.9457111,22.5004058],[113.9457529,22.5002461],[113.9457805,22.5000692],[113.9458441,22.4959395],[113.9458214,22.4955441],[113.945043,22.4955322],[113.9443971,22.4955222],[113.944295,22.4954515],[113.9441668,22.4953967],[113.9440892,22.495369],[113.9438894,22.4952976],[113.9436854,22.4952247],[113.9426683,22.4948614],[113.942382,22.4947591],[113.9423112,22.4947472],[113.941834,22.4947311],[113.9417379,22.4947278],[113.9407498,22.4947139],[113.9402451,22.4947066]]],[[[114.0659511,22.5229015],[114.0660066,22.5228775],[114.065993,22.5228456],[114.0659823,22.5228094],[114.0659798,22.522772],[114.0659854,22.5227348],[114.065999,22.5226994],[114.0660198,22.5226674],[114.0660473,22.5226399],[114.0660801,22.5226181],[114.0661169,22.5226027],[114.0667718,22.5224024],[114.0667836,22.5224355],[114.0675197,22.5222103],[114.0675301,22.522239],[114.0673224,22.5223027],[114.0673504,22.5223816],[114.0675304,22.5223264],[114.0675582,22.5224044],[114.0675028,22.5224214],[114.067529,22.5224952],[114.0678051,22.5224105],[114.0678619,22.5225681],[114.0675843,22.5226532],[114.0676858,22.5229368],[114.0677361,22.5229214],[114.0677451,22.5229467],[114.0679075,22.5228969],[114.0678957,22.5228635],[114.067915,22.5228575],[114.0679083,22.5228386],[114.0678525,22.5228558],[114.0678421,22.5228266],[114.0679012,22.5228085],[114.0679116,22.5228377],[114.0679569,22.5228238],[114.0679715,22.5228649],[114.0679233,22.5228801],[114.0680896,22.5233492],[114.068034,22.5233669],[114.0680629,22.5234483],[114.068122,22.5234302],[114.068097,22.5233599],[114.0681414,22.5233463],[114.0681561,22.5233875],[114.0681403,22.5233923],[114.0681556,22.5234356],[114.0681238,22.5234454],[114.0682003,22.5236587],[114.0676905,22.5238149],[114.0677466,22.5239727],[114.0680235,22.5238879],[114.0681326,22.5241956],[114.0677285,22.5243197],[114.0677242,22.5243076],[114.0676532,22.5243294],[114.0676386,22.5242883],[114.0676173,22.5242948],[114.0676362,22.5243479],[114.0672204,22.5244754],[114.0672127,22.524454],[114.0671283,22.5244798],[114.0671359,22.5245013],[114.066967,22.524553],[114.066956,22.5245222],[114.0668789,22.5245458],[114.0668899,22.5245767],[114.0668737,22.5245816],[114.0662516,22.523488],[114.0659511,22.5229015]],[[114.0664873,22.5228477],[114.0665051,22.5228979],[114.066537,22.5228881],[114.0665275,22.5228615],[114.0665529,22.5228537],[114.0665445,22.5228302],[114.0664873,22.5228477]],[[114.0665314,22.5232283],[114.0665445,22.5232652],[114.0665574,22.5232612],[114.0665443,22.5232244],[114.0665314,22.5232283]],[[114.066563,22.5227927],[114.0665727,22.5228201],[114.066641,22.5227992],[114.066648,22.5228189],[114.0666919,22.5228054],[114.0666745,22.5227566],[114.0666034,22.5227783],[114.0665955,22.522756],[114.0665692,22.5227641],[114.0665777,22.5227881],[114.066563,22.5227927]],[[114.0666117,22.5232037],[114.0666303,22.523256],[114.0666893,22.5232379],[114.0666817,22.5232165],[114.0666573,22.523224],[114.0666463,22.5231931],[114.0666117,22.5232037]],[[114.0666761,22.523783],[114.0666845,22.5238066],[114.0667085,22.5237993],[114.0667001,22.5237757],[114.0666761,22.523783]],[[114.0666994,22.5231768],[114.0667097,22.523206],[114.066778,22.5231851],[114.0667824,22.5231975],[114.0668263,22.5231841],[114.0668115,22.5231425],[114.0666994,22.5231768]],[[114.0670149,22.5237153],[114.0669729,22.5237282],[114.0669614,22.5236956],[114.0668035,22.523744],[114.0668325,22.5238255],[114.0668915,22.5238074],[114.0668666,22.523737],[114.0669119,22.5237231],[114.0669265,22.5237643],[114.0669098,22.5237694],[114.0669201,22.5237986],[114.0670323,22.5237642],[114.0670149,22.5237153]],[[114.0669059,22.5241405],[114.0669349,22.524222],[114.0669478,22.524218],[114.0669557,22.5242403],[114.0669793,22.5242331],[114.0669713,22.5242108],[114.0670286,22.5241933],[114.0670365,22.5242156],[114.0671352,22.5241853],[114.0671231,22.524151],[114.0671194,22.5241521],[114.0671121,22.5241315],[114.0671384,22.5241235],[114.06715,22.5241561],[114.0671693,22.5241501],[114.0671404,22.5240687],[114.0670282,22.524103],[114.067036,22.5241249],[114.0670056,22.5241342],[114.0669978,22.5241124],[114.0669059,22.5241405]],[[114.0669212,22.524084],[114.0669311,22.5241119],[114.0669579,22.5241037],[114.066948,22.5240758],[114.0669212,22.524084]],[[114.0670081,22.5226928],[114.0670461,22.5228],[114.0670554,22.52281],[114.0670695,22.522811],[114.0671184,22.522796],[114.0671147,22.5227857],[114.0670847,22.5227949],[114.0670445,22.5226817],[114.0670081,22.5226928]],[[114.0670149,22.5237153],[114.0670385,22.5237081],[114.0670345,22.523697],[114.067011,22.5237042],[114.0670149,22.5237153]],[[114.0671673,22.5227695],[114.0671704,22.5227781],[114.0672013,22.5227686],[114.0671983,22.5227601],[114.0671673,22.5227695]],[[114.0672149,22.5226542],[114.0672228,22.5226765],[114.0672579,22.5226657],[114.06725,22.5226434],[114.0672149,22.5226542]],[[114.0672314,22.5226948],[114.0672527,22.5227548],[114.0672859,22.5227446],[114.0672646,22.5226846],[114.0672314,22.5226948]],[[114.0672952,22.5229942],[114.0672992,22.5230054],[114.0674344,22.5229639],[114.0674305,22.5229528],[114.0672952,22.5229942]],[[114.0673013,22.5230285],[114.0673186,22.5230774],[114.0674308,22.523043],[114.0674204,22.5230139],[114.0673549,22.5230339],[114.0673479,22.5230142],[114.0673013,22.5230285]],[[114.0674344,22.5238935],[114.0674584,22.5239612],[114.0674949,22.52395],[114.0675016,22.5239689],[114.0674651,22.5239801],[114.0674904,22.5240512],[114.0675569,22.5240309],[114.0675009,22.5238731],[114.0674344,22.5238935]],[[114.067446,22.5229851],[114.0674527,22.523004],[114.0675081,22.522987],[114.0674895,22.5229347],[114.0674531,22.5229459],[114.0674649,22.5229793],[114.067446,22.5229851]],[[114.0674908,22.5235695],[114.0675082,22.5236184],[114.0676226,22.5235833],[114.0676123,22.5235541],[114.0675887,22.5235613],[114.0675741,22.5235202],[114.06763,22.5235031],[114.0676549,22.5235734],[114.0677103,22.5235564],[114.0676814,22.523475],[114.0675235,22.5235233],[114.0675351,22.5235559],[114.0674908,22.5235695]],[[114.0675541,22.5238587],[114.0676089,22.524013],[114.0676398,22.5240036],[114.0676146,22.5239326],[114.0676562,22.5239199],[114.0676619,22.5239359],[114.0676692,22.5239337],[114.0676613,22.5239114],[114.0676964,22.5239006],[114.0676684,22.5238217],[114.0676084,22.5238401],[114.0676237,22.5238832],[114.0675997,22.5238905],[114.067585,22.5238492],[114.0675541,22.5238587]],[[114.0676787,22.5239545],[114.0676912,22.5239897],[114.0677013,22.5239866],[114.0676889,22.5239514],[114.0676787,22.5239545]],[[114.0678266,22.5234485],[114.0678357,22.5234742],[114.0678698,22.5234637],[114.0678549,22.5234218],[114.0678384,22.5234268],[114.0678275,22.5234356],[114.0678266,22.5234485]]],[[[114.0678481,22.5224601],[114.0678832,22.5224493],[114.0678911,22.5224716],[114.067856,22.5224824],[114.0678481,22.5224601]]],[[[114.0678981,22.5224682],[114.0679387,22.5224557],[114.0679117,22.5223798],[114.0679436,22.52237],[114.0679953,22.5225158],[114.0679635,22.5225255],[114.0679519,22.5224928],[114.0679112,22.5225052],[114.0678981,22.5224682]]],[[[114.067908,22.5225249],[114.0679347,22.5225167],[114.0679441,22.5225429],[114.0679173,22.5225511],[114.067908,22.5225249]]],[[[114.0679962,22.5223539],[114.0680059,22.5223509],[114.0680162,22.5223801],[114.0680365,22.5223738],[114.068078,22.5224905],[114.0680479,22.5224997],[114.0679962,22.5223539]]],[[[114.068131,22.5221067],[114.0681691,22.522095],[114.0681742,22.5221091],[114.0681993,22.5221014],[114.0682044,22.522116],[114.0681412,22.5221354],[114.068131,22.5221067]]],[[[114.068414,22.5222234],[114.0684251,22.52222],[114.0684326,22.522241],[114.0684215,22.5222444],[114.068414,22.5222234]]],[[[114.0684355,22.5222492],[114.0685342,22.5222189],[114.0685239,22.5221897],[114.0686291,22.5221575],[114.0686371,22.5221798],[114.0686255,22.5221833],[114.0686465,22.5222425],[114.0686101,22.5222537],[114.0685919,22.5222026],[114.0685347,22.5222202],[114.0685431,22.5222438],[114.0685689,22.5222359],[114.0685787,22.5222633],[114.0685528,22.5222712],[114.0685489,22.5222601],[114.0684501,22.5222903],[114.0684355,22.5222492]]],[[[114.0686197,22.5226206],[114.068675,22.5226037],[114.0686646,22.5225745],[114.0686854,22.5225682],[114.0686963,22.522599],[114.0686756,22.5226054],[114.0686832,22.5226268],[114.0687386,22.5226099],[114.0687489,22.522639],[114.0686935,22.522656],[114.0686896,22.5226449],[114.0686343,22.5226618],[114.0686197,22.5226206]]],[[[114.0688695,22.5225117],[114.0689092,22.5224995],[114.0689382,22.522581],[114.0688985,22.5225932],[114.0688695,22.5225117]]],[[[114.0694516,22.5203149],[114.0694577,22.5202817],[114.0694639,22.5202143],[114.0694778,22.520148],[114.0694994,22.5200834],[114.0695283,22.5200213],[114.0695643,22.5199624],[114.0696068,22.5199076],[114.0696554,22.5198572],[114.0697095,22.519812],[114.0697686,22.5197724],[114.0698319,22.5197388],[114.0700314,22.5196739],[114.0701691,22.5196466],[114.0706144,22.5195655],[114.0707466,22.5195433],[114.0707671,22.5196722],[114.0705883,22.5196881],[114.0700107,22.5197714],[114.0698778,22.519824],[114.069824,22.5198525],[114.0697739,22.5198861],[114.069728,22.5199245],[114.0696868,22.5199672],[114.0696507,22.5200138],[114.0696202,22.5200637],[114.0695956,22.5201164],[114.0695773,22.5201713],[114.0695654,22.5202276],[114.0695602,22.5202848],[114.0695575,22.5203109],[114.0694516,22.5203149]]]]}}
