{"type":"Feature","id":"zhejiang","bbox":[117.99389648400002,27.160705566,122.51708984400001,31.19128418],"properties":{"id":"zhejiang","name":"浙江","fullName":"浙江省","nameEn":"Zhejiang","level":"province","scopeKind":"province","boundaryRole":"prefecture-union-display-outline","displayBoundaryOnly":true,"displayBoundaryRole":"prefecture-union-display-outline","boundaryQuality":"same-source-generalized-city-union-2020","boundaryYearRepresented":"2020","bounds":[[117.99389648400002,27.160705566],[122.51708984400001,31.19128418]],"center":[120.25549316400001,29.175994873],"centerMethod":"bounding-box midpoint; camera framing only","interiorPoint":[119.73483264044532,29.178009033000002],"license":"CC-BY-3.0-IGO","licenseUrl":"https://creativecommons.org/licenses/by/3.0/igo/","attribution":"geoBoundaries / HDX, China administrative boundaries (2020)","source":{"provider":"geoBoundaries gbHumanitarian / HDX","url":"https://github.com/wmgeolab/geoBoundaries/raw/9469f09/releaseData/gbHumanitarian/CHN/ADM2/geoBoundaries-CHN-ADM2.geojson","commit":"9469f09","sourceSha256":"12af10d8810b00d7258df7cc6cafa70023a3db41fc48e9f69846f6cfa543ac0b","metadataUrl":"https://www.geoboundaries.org/api/current/gbHumanitarian/CHN/ADM2/","cityCollectionPath":"./data/regions/zhejiang-cities.geojson","cityCollectionSha256":"96568111efa877fe28788dec625177946f4a79724c4523fc3e9bde709ddbafe0","citySourceFiles":[{"id":"bulk-99377448B62171560544069","cityId":"hangzhou","name":"杭州","path":"./data/regions/prefectures/bulk-99377448B62171560544069.geojson","sha256":"e21f9166ea2f2fffe7c8ae62a1cfc5c0c3c489bc469834dcfb80b581010df558"},{"id":"bulk-99377448B90432234832744","cityId":"ningbo","name":"宁波","path":"./data/regions/prefectures/bulk-99377448B90432234832744.geojson","sha256":"a6487e996d77265c837d18934015a70937e9d3395edd01535ae28b04fec71f2c"},{"id":"bulk-99377448B43290754724916","cityId":"wenzhou","name":"温州","path":"./data/regions/prefectures/bulk-99377448B43290754724916.geojson","sha256":"4ef75a355138dbc0675d3bbd37857198420acdfa5ffd26c40b43346fd383281b"},{"id":"bulk-99377448B74545092839940","cityId":"jiaxing","name":"嘉兴","path":"./data/regions/prefectures/bulk-99377448B74545092839940.geojson","sha256":"abb01f8a52518470003e75525c0cffe1cc05bcde0762efe1bc4c2f53a75f3ad8"},{"id":"bulk-99377448B80814313072010","cityId":"huzhou","name":"湖州","path":"./data/regions/prefectures/bulk-99377448B80814313072010.geojson","sha256":"16bdf1607aa5f8b1414fda443c2b6801b8aec76f2629da06ae6636552ae8d724"},{"id":"bulk-99377448B24434605169468","cityId":"shaoxing","name":"绍兴","path":"./data/regions/prefectures/bulk-99377448B24434605169468.geojson","sha256":"3674358f74009c3a426ab2846f1d8343132cc859f19b084914b5f39f5ae955d0"},{"id":"bulk-99377448B74997352647261","cityId":"jinhua","name":"金华","path":"./data/regions/prefectures/bulk-99377448B74997352647261.geojson","sha256":"4958029fc2134c305414cfdf147750f7f470fbae08aeef32291f24974d24d9c8"},{"id":"bulk-99377448B93552268743201","cityId":"quzhou","name":"衢州","path":"./data/regions/prefectures/bulk-99377448B93552268743201.geojson","sha256":"d66f379aef80f6a31c7f67e7501b7e76daf29f468caa22a87a131cfabf489166"},{"id":"bulk-99377448B27898185166352","cityId":"zhoushan","name":"舟山","path":"./data/regions/prefectures/bulk-99377448B27898185166352.geojson","sha256":"57047c591d85811d426c6706edad18ca4b64f63b7c9fe22c971655525ea6e999"},{"id":"bulk-99377448B96011767840326","cityId":"taizhou","name":"台州","path":"./data/regions/prefectures/bulk-99377448B96011767840326.geojson","sha256":"9bf68e920556f7a7684b5d618c742a03a92cee4bea4449119c88872d86769a2f"},{"id":"bulk-99377448B41834946891688","cityId":"lishui","name":"丽水","path":"./data/regions/prefectures/bulk-99377448B41834946891688.geojson","sha256":"5ec8612d7f084cab0b95ba05fdb84d3f66f9299f4bea6f48a831d34272f65833"}]},"geometryCounts":{"components":24,"holes":0,"coordinates":2114,"sourceCityComponents":33},"coverage":{"method":"Same-source polygon union; area ratios use Web Mercator projection and are not official land-area statistics.","cityUnionOutsideProvincePercent":0,"provinceNotCoveredByCityUnionPercent":0,"cityPairwiseOverlapProjectedArea":0.0,"provinceBoundarySource":"Union of the same 11 geoBoundaries / HDX 2020 city geometries","unassignedAreasPolicy":"No displayed province area outside the city union; preserve all source components and inland water layers.","displayOutline":"./data/regions/zhejiang-display.geojson"},"boundaryNotice":"仅用于浙江省沙盘展示的同源地级市并集，保留该来源全部岛屿和省内水系；海岸为2020年源数据概化，不代表当前精确岸线或完整行政海域。"},"geometry":{"type":"MultiPolygon","coordinates":[[[[120.46807861300002,27.161071777],[120.46667480500001,27.160888672],[120.46728515600002,27.160705566],[120.46807861300002,27.161071777]]],[[[121.17633056600002,28.390075684],[121.19128418000001,28.386474609],[121.19909668000001,28.38848877],[121.20611572300001,28.384887695],[121.19787597700001,28.376708984],[121.19891357400002,28.375305176],[121.20092773400002,28.374084473],[121.20928955100001,28.380310059],[121.222473145,28.374694824],[121.22308349600002,28.372924805],[121.22210693400001,28.371887207],[121.22088623000002,28.370727539],[121.21472168000001,28.36932373],[121.21252441400001,28.362915039],[121.21368408200001,28.360107422],[121.21612548800002,28.357727051],[121.22027587900001,28.357910156],[121.22509765600002,28.35369873],[121.23651123000002,28.354309082],[121.24389648400002,28.350891113],[121.25787353500002,28.350280762],[121.26287841800001,28.352905273],[121.27252197300001,28.361083984],[121.27612304700001,28.361083984],[121.27709960900002,28.357727051],[121.27429199200002,28.35369873],[121.25769043000001,28.341125488],[121.24432373000002,28.340087891],[121.24108886700002,28.338500977],[121.24871826200001,28.335876465],[121.26330566400001,28.326293945],[121.22888183600001,28.3203125],[121.22869873000002,28.319091797],[121.23089599600002,28.317504883],[121.23168945300002,28.303283691],[121.24127197300001,28.301513672],[121.24987793000001,28.29510498],[121.25347900400001,28.289916992],[121.25427246100001,28.281494141],[121.26147460900002,28.278076172],[121.26690673800002,28.280090332],[121.27111816400001,28.277893066],[121.26031494100002,28.269714355],[121.26007080100001,28.268676758],[121.25750732400002,28.259277344],[121.25750732400002,28.253295898],[121.26031494100002,28.249694824],[121.25872802700002,28.245483398],[121.26287841800001,28.239074707],[121.26647949200002,28.236328125],[121.26489257800002,28.234313965],[121.26531982400002,28.231323242],[121.27087402300002,28.226074219],[121.26867675800001,28.222290039],[121.26928710900002,28.219909668],[121.27288818400001,28.218505859],[121.27429199200002,28.213684082],[121.27728271500001,28.211730957],[121.27429199200002,28.206298828],[121.27447509800001,28.197509766],[121.27972412100002,28.19128418],[121.28289794900002,28.190490723],[121.296875,28.19152832],[121.29968261700002,28.190124512],[121.30212402300002,28.181091309],[121.30609130900001,28.17590332],[121.30810546900001,28.174072266],[121.31427002,28.168701172],[121.31829834000001,28.166687012],[121.32647705100001,28.167480469],[121.33068847700001,28.16607666],[121.33471679700001,28.161499023],[121.33612060500002,28.157287598],[121.33032226600001,28.150878906],[121.33807373000002,28.150085449],[121.34552002,28.151306152],[121.34667968700002,28.148925781],[121.34307861300002,28.144287109],[121.34448242200001,28.141479492],[121.34692382800002,28.140930176],[121.35290527300002,28.143676758],[121.35852050800001,28.139099121],[121.36230468700002,28.139709473],[121.36352539100001,28.141479492],[121.36871337900001,28.15447998],[121.37292480500001,28.156494141],[121.37567138700001,28.160888672],[121.38049316400001,28.173278809],[121.37829589800002,28.179870605],[121.36730957000002,28.179321289],[121.36468505900001,28.180908203],[121.36450195300002,28.185119629],[121.36407470700001,28.184875488],[121.36450195300002,28.186279297],[121.36431884800001,28.188720703],[121.36529541000002,28.189086914],[121.36968994100002,28.205871582],[121.36669921900001,28.207092285],[121.36407470700001,28.210510254],[121.36352539100001,28.214904785],[121.36987304700001,28.224121094],[121.37530517600001,28.221496582],[121.37731933600001,28.229492187],[121.38848877,28.230712891],[121.39752197300001,28.232727051],[121.40588378900001,28.230285645],[121.41052246100001,28.234313965],[121.41552734400001,28.242126465],[121.41967773400002,28.259094238],[121.41290283200001,28.271728516],[121.39648437500001,28.275878906],[121.40008544900002,28.287475586],[121.40527343700002,28.29107666],[121.40252685500002,28.293273926],[121.40148925800001,28.297119141],[121.40289306600002,28.301879883],[121.40649414100001,28.3046875],[121.41168212900001,28.305297852],[121.41851806600002,28.302307129],[121.42071533200001,28.304504395],[121.42510986300002,28.304870605],[121.43212890600002,28.298706055],[121.43389892600001,28.298095703],[121.44128418000001,28.312683105],[121.44989013700001,28.322875977],[121.45672607400002,28.322509766],[121.46447753900001,28.330078125],[121.48187255900001,28.336303711],[121.48590087900001,28.334289551],[121.49847412100002,28.335693359],[121.50988769500002,28.332519531],[121.52148437500001,28.332885742],[121.53710937500001,28.325317383],[121.54467773400002,28.323913574],[121.546691895,28.319519043],[121.54791259800001,28.313903809],[121.55108642600001,28.313110352],[121.55908203100002,28.317687988],[121.56549072300001,28.313293457],[121.57629394500002,28.31072998],[121.58209228500002,28.306884766],[121.59027099600002,28.295715332],[121.59527587900001,28.286071777],[121.59552002,28.278076172],[121.59088134800001,28.272521973],[121.59112548800002,28.268310547],[121.58850097700001,28.264892578],[121.58068847700001,28.260314941],[121.57952880900001,28.257324219],[121.58288574200002,28.254516602],[121.58288574200002,28.250488281],[121.58569335900002,28.248474121],[121.59613037100002,28.252075195],[121.60272216800001,28.253112793],[121.60552978500002,28.253479004],[121.60992431600002,28.261474609],[121.61328125000001,28.260314941],[121.61828613300001,28.276306152],[121.61853027300002,28.276489258],[121.62152099600002,28.286071777],[121.63427734400001,28.312072754],[121.63848877,28.336486816],[121.62731933600001,28.33807373],[121.62567138700001,28.336303711],[121.62188720700001,28.336120605],[121.62048339800002,28.33807373],[121.620910645,28.339111328],[121.61987304700001,28.339294434],[121.59350585900002,28.34552002],[121.58068847700001,28.352294922],[121.57452392600001,28.377502441],[121.57330322300001,28.400512695],[121.56549072300001,28.413879395],[121.55792236300002,28.436706543],[121.55767822300001,28.459472656],[121.55731201200001,28.471923828],[121.55670166000002,28.484313965],[121.57928466800001,28.486328125],[121.57708740200002,28.488708496],[121.56829834000001,28.489929199],[121.55908203100002,28.486877441],[121.54772949200002,28.490478516],[121.53790283200001,28.491088867],[121.54211425800001,28.496520996],[121.55590820300002,28.49230957],[121.56170654300001,28.492492676],[121.56768798800002,28.495300293],[121.56872558600001,28.497680664],[121.562316895,28.512329102],[121.55651855500001,28.517883301],[121.54931640600002,28.517089844],[121.52612304700001,28.524719238],[121.51812744100002,28.551879883],[121.50909423800002,28.588500977],[121.50329589800002,28.608703613],[121.49890136700002,28.624084473],[121.48529052700002,28.650085449],[121.45428466800001,28.672302246],[121.43170166000002,28.684509277],[121.44250488300001,28.68548584],[121.44372558600001,28.69152832],[121.44927978500002,28.690917969],[121.45690918000001,28.692687988],[121.46667480500001,28.691711426],[121.48492431600002,28.696716309],[121.49169921900001,28.696289062],[121.49450683600001,28.696899414],[121.49768066400001,28.695922852],[121.50848388700001,28.695129395],[121.51208496100001,28.6953125],[121.51409912100002,28.694702148],[121.51727294900002,28.694519043],[121.56091308600001,28.72052002],[121.59527587900001,28.718078613],[121.59729003900001,28.718505859],[121.60729980500001,28.721313477],[121.60888671900001,28.721313477],[121.62487793000001,28.725280762],[121.62750244100002,28.732727051],[121.62792968700002,28.733886719],[121.62652587900001,28.743713379],[121.62890625000001,28.763122559],[121.63452148400002,28.775085449],[121.63452148400002,28.77532959],[121.63488769500002,28.776489258],[121.64093017600001,28.781921387],[121.64611816400001,28.784484863],[121.64410400400001,28.786071777],[121.64508056600002,28.787719727],[121.65148925800001,28.788696289],[121.65612793000001,28.786499023],[121.66528320300002,28.788085937],[121.66571044900002,28.787902832],[121.66888427700002,28.789306641],[121.65032959000001,28.799316406],[121.65069580100001,28.800109863],[121.64392089800002,28.80090332],[121.64288330100001,28.802124023],[121.65112304700001,28.809326172],[121.65649414100001,28.8125],[121.65869140600002,28.816894531],[121.65832519500002,28.817504883],[121.65930175800001,28.818481445],[121.66467285200001,28.82989502],[121.62487793000001,28.83190918],[121.62371826200001,28.83807373],[121.62048339800002,28.855285645],[121.63171386700002,28.876098633],[121.60552978500002,28.885925293],[121.59332275400001,28.881713867],[121.57171630900001,28.885498047],[121.53527832000002,28.890075684],[121.50347900400001,28.898498535],[121.50830078100002,28.927307129],[121.50231933600001,28.933898926],[121.49768066400001,28.93170166],[121.495910645,28.934875488],[121.49731445300002,28.939086914],[121.49072265600002,28.946289062],[121.53228759800001,28.965087891],[121.53649902300002,28.959899902],[121.53771972700001,28.961120605],[121.54327392600001,28.962524414],[121.54547119100002,28.959472656],[121.55670166000002,28.965270996],[121.55908203100002,28.961914062],[121.55688476600001,28.9453125],[121.55871582000002,28.938720703],[121.56188964800002,28.936096191],[121.56988525400001,28.935913086],[121.57550048800002,28.934082031],[121.59191894500002,28.93548584],[121.59289550800001,28.935119629],[121.60211181600002,28.943481445],[121.60632324200002,28.942687988],[121.61071777300002,28.93951416],[121.61511230500001,28.936279297],[121.61730957000002,28.930114746],[121.62188720700001,28.92590332],[121.64147949200002,28.92388916],[121.64508056600002,28.917724609],[121.65289306600002,28.918273926],[121.66107177700002,28.915100098],[121.67572021500001,28.919677734],[121.679504395,28.917114258],[121.69030761700002,28.919494629],[121.69268798800002,28.917724609],[121.70147705100001,28.932128906],[121.68951416000002,28.946105957],[121.67352294900002,28.960510254],[121.66467285200001,28.974121094],[121.66552734400001,28.98651123],[121.66510009800001,28.986877441],[121.66448974600002,28.990478516],[121.66607666000002,28.992126465],[121.66607666000002,28.993103027],[121.67810058600001,28.997497559],[121.67767334000001,28.99987793],[121.68109130900001,29.00592041],[121.67852783200001,29.01171875],[121.68572998000002,29.014099121],[121.68847656200002,29.013671875],[121.68151855500001,29.022888184],[121.67968750000001,29.023071289],[121.67712402300002,29.026672363],[121.67767334000001,29.027709961],[121.67407226600001,29.032470703],[121.67132568400001,29.027893066],[121.66668701200001,29.026123047],[121.66192627,29.026916504],[121.65808105500001,29.030273437],[121.65612793000001,29.036315918],[121.65728759800001,29.044128418],[121.66088867200001,29.049499512],[121.65771484400001,29.053710937],[121.64251709000001,29.047912598],[121.63909912100002,29.045471191],[121.63171386700002,29.038513184],[121.61547851600001,29.028076172],[121.57928466800001,29.02532959],[121.54791259800001,29.028503418],[121.55029296900001,29.022705078],[121.55151367200001,29.022277832],[121.55847168000001,29.023925781],[121.56408691400001,29.022888184],[121.56750488300001,29.020507812],[121.56011962900001,29.015075684],[121.54949951200001,29.010070801],[121.51989746100001,28.991882324],[121.52288818400001,29.049072266],[121.53771972700001,29.048522949],[121.53851318400001,29.048522949],[121.53991699200002,29.050292969],[121.53948974600002,29.053710937],[121.53051757800002,29.05871582],[121.53491210900002,29.059875488],[121.54010009800001,29.05871582],[121.54388427700002,29.056091309],[121.54852294900002,29.056274414],[121.55511474600002,29.059082031],[121.56207275400001,29.059082031],[121.56909179700001,29.057128906],[121.56970214800002,29.063476562],[121.57452392600001,29.062683105],[121.578125,29.059082031],[121.58172607400002,29.059082031],[121.58270263700001,29.058105469],[121.57989502,29.051330566],[121.58050537100002,29.04888916],[121.60131835900002,29.048706055],[121.61688232400002,29.047302246],[121.61889648400002,29.085327148],[121.63031005900001,29.096496582],[121.62792968700002,29.098876953],[121.63171386700002,29.099487305],[121.58770752,29.099304199],[121.57171630900001,29.106323242],[121.56207275400001,29.111877441],[121.55810546900001,29.111694336],[121.55529785200001,29.115478516],[121.55352783200001,29.116516113],[121.54052734400001,29.11151123],[121.51971435500002,29.108703613],[121.51788330100001,29.108276367],[121.48468017600001,29.098327637],[121.46887207000002,29.10168457],[121.46667480500001,29.099914551],[121.45867919900002,29.097473145],[121.45690918000001,29.097900391],[121.45587158200001,29.104309082],[121.45251464800002,29.105102539],[121.44647216800001,29.105895996],[121.44628906200002,29.106323242],[121.44348144500002,29.106872559],[121.44409179700001,29.108886719],[121.44207763700001,29.111694336],[121.42547607400002,29.106506348],[121.42028808600001,29.101501465],[121.41632080100001,29.100280762],[121.41168212900001,29.101318359],[121.40588378900001,29.105712891],[121.39569091800001,29.108520508],[121.39990234400001,29.11151123],[121.41290283200001,29.110107422],[121.42010498000002,29.112121582],[121.42633056600002,29.111877441],[121.42810058600001,29.111694336],[121.43627929700001,29.114929199],[121.44348144500002,29.114929199],[121.44567871100001,29.114074707],[121.45251464800002,29.135070801],[121.45227050800001,29.135314941],[121.45129394500002,29.134887695],[121.44927978500002,29.136474609],[121.44689941400001,29.137695312],[121.44311523400002,29.136108398],[121.43872070300002,29.137084961],[121.43792724600002,29.139099121],[121.43847656200002,29.141113281],[121.43347168000001,29.143310547],[121.42327880900001,29.147705078],[121.42230224600002,29.146911621],[121.413879395,29.145690918],[121.41668701200001,29.153320312],[121.41650390600002,29.156494141],[121.41552734400001,29.157714844],[121.41369628900001,29.159729004],[121.413879395,29.160095215],[121.41333007800002,29.160888672],[121.41430664100001,29.160888672],[121.41912841800001,29.169128418],[121.42150878900001,29.168518066],[121.42248535200001,29.168273926],[121.42852783200001,29.169128418],[121.43212890600002,29.167480469],[121.44488525400001,29.166687012],[121.45587158200001,29.163696289],[121.46008300800001,29.158691406],[121.46929931600002,29.158325195],[121.47747802700002,29.197509766],[121.48187255900001,29.188903809],[121.47912597700001,29.195922852],[121.47967529300001,29.199707031],[121.48529052700002,29.19732666],[121.48852539100001,29.191894531],[121.48632812500001,29.185913086],[121.48712158200001,29.178527832],[121.49530029300001,29.162475586],[121.50811767600001,29.170715332],[121.51428222700001,29.172302246],[121.51470947300001,29.178527832],[121.51647949200002,29.180297852],[121.51049804700001,29.198913574],[121.53588867200001,29.247497559],[121.50170898400002,29.267089844],[121.49328613300001,29.266113281],[121.48413085900002,29.268493652],[121.47692871100001,29.266479492],[121.47192382800002,29.262329102],[121.45648193400001,29.256286621],[121.45648193400001,29.258911133],[121.45971679700001,29.262329102],[121.47827148400002,29.27130127],[121.48992919900002,29.272521973],[121.503723145,29.270874023],[121.51312255900001,29.272521973],[121.52252197300001,29.270507812],[121.52807617200001,29.271911621],[121.53448486300002,29.276489258],[121.55767822300001,29.267883301],[121.56109619100002,29.267883301],[121.56829834000001,29.27331543],[121.57147216800001,29.27331543],[121.57409668000001,29.270874023],[121.57531738300001,29.272094727],[121.58770752,29.285522461],[121.59130859400001,29.276306152],[121.59167480500001,29.278686523],[121.59613037100002,29.280700684],[121.60107421900001,29.260498047],[121.60272216800001,29.246887207],[121.60949707000002,29.231079102],[121.60949707000002,29.224487305],[121.61187744100002,29.221679687],[121.61669921900001,29.21887207],[121.61730957000002,29.217102051],[121.61352539100001,29.256530762],[121.61230468700002,29.27947998],[121.62371826200001,29.292907715],[121.62408447300001,29.293273926],[121.62371826200001,29.294677734],[121.62329101600001,29.296325684],[121.62707519500002,29.302124023],[121.63629150400001,29.304077148],[121.63891601600001,29.30291748],[121.64691162100002,29.307922363],[121.64947509800001,29.30267334],[121.66271972700001,29.319274902],[121.66888427700002,29.320922852],[121.67108154300001,29.319274902],[121.66333007800002,29.312927246],[121.66168212900001,29.309875488],[121.66308593700002,29.308898926],[121.66589355500001,29.309692383],[121.66668701200001,29.307678223],[121.66528320300002,29.303283691],[121.66949462900001,29.30090332],[121.65570068400001,29.286682129],[121.65692138700001,29.280273437],[121.65447998000002,29.266296387],[121.64831543000001,29.247680664],[121.64831543000001,29.23449707],[121.65112304700001,29.23248291],[121.64849853500002,29.229675293],[121.64868164100001,29.204711914],[121.65209960900002,29.193481445],[121.68347168000001,29.19128418],[121.70568847700001,29.192504883],[121.70892334000001,29.195129395],[121.71551513700001,29.206481934],[121.72052002,29.208312988],[121.73107910200001,29.215881348],[121.73950195300002,29.228515625],[121.73931884800001,29.232727051],[121.72967529300001,29.251281738],[121.72808837900001,29.259277344],[121.73150634800001,29.270690918],[121.71868896500001,29.270080566],[121.72009277300002,29.278503418],[121.72729492200001,29.280273437],[121.72448730500001,29.283874512],[121.72851562500001,29.288330078],[121.73529052700002,29.28527832],[121.74011230500001,29.287902832],[121.74212646500001,29.285095215],[121.73931884800001,29.27947998],[121.73968505900001,29.274475098],[121.73669433600001,29.27130127],[121.73431396500001,29.270874023],[121.73370361300002,29.254272461],[121.73687744100002,29.24432373],[121.74450683600001,29.231872559],[121.74371337900001,29.225097656],[121.73370361300002,29.211914062],[121.73168945300002,29.20111084],[121.73431396500001,29.196289062],[121.73889160200001,29.19128418],[121.75048828100002,29.20489502],[121.75048828100002,29.205078125],[121.75250244100002,29.207275391],[121.76287841800001,29.221679687],[121.76647949200002,29.239685059],[121.76251220700001,29.265686035],[121.75567627,29.286315918],[121.76232910200001,29.304870605],[121.76690673800002,29.315673828],[121.76647949200002,29.315917969],[121.76849365200002,29.320678711],[121.76788330100001,29.32989502],[121.76629638700001,29.330505371],[121.76788330100001,29.332092285],[121.76751709000001,29.336303711],[121.75909423800002,29.344482422],[121.75567627,29.367492676],[121.77111816400001,29.370483398],[121.77307128900001,29.371520996],[121.77368164100001,29.37109375],[121.78967285200001,29.374328613],[121.78790283200001,29.368286133],[121.78869628900001,29.368530273],[121.80847168000001,29.378479004],[121.80932617200001,29.376098633],[121.80749511700002,29.373901367],[121.79968261700002,29.364074707],[121.78930664100001,29.360473633],[121.78967285200001,29.358703613],[121.80047607400002,29.354675293],[121.80090332000002,29.350891113],[121.79809570300002,29.344116211],[121.79272460900002,29.340881348],[121.79589843700002,29.334899902],[121.79132080100001,29.330688477],[121.79168701200001,29.329528809],[121.79809570300002,29.329284668],[121.80328369100002,29.333129883],[121.81689453100002,29.338928223],[121.83068847700001,29.340698242],[121.83227539100001,29.337524414],[121.82910156200002,29.333679199],[121.82427978500002,29.332702637],[121.82287597700001,29.330322266],[121.83331298800002,29.327697754],[121.83587646500001,29.327087402],[121.83709716800001,29.325073242],[121.83447265600002,29.321716309],[121.82891845700001,29.322875977],[121.82031250000001,29.321289062],[121.82128906200002,29.315490723],[121.82031250000001,29.311096191],[121.81750488300001,29.309509277],[121.81030273400002,29.311096191],[121.80328369100002,29.30090332],[121.80511474600002,29.297119141],[121.81048584000001,29.29510498],[121.81732177700002,29.29888916],[121.82330322300001,29.299682617],[121.83752441400001,29.297912598],[121.83972168000001,29.296081543],[121.83489990200002,29.287902832],[121.82373046900001,29.280090332],[121.82171630900001,29.280517578],[121.81872558600001,29.273681641],[121.81829834000001,29.268920898],[121.81872558600001,29.25592041],[121.83111572300001,29.246276855],[121.83947753900001,29.242126465],[121.81927490200002,29.222473145],[121.81927490200002,29.221679687],[121.80688476600001,29.20111084],[121.80432128900001,29.196716309],[121.81311035200001,29.195922852],[121.81427002,29.192077637],[121.82550048800002,29.177490234],[121.84613037100002,29.161682129],[121.85632324200002,29.167297363],[121.86712646500001,29.169128418],[121.870910645,29.16809082],[121.87768554700001,29.174926758],[121.89129638700001,29.189086914],[121.91070556600002,29.214477539],[121.93188476600001,29.223327637],[121.94567871100001,29.219299316],[121.94647216800001,29.226501465],[121.94952392600001,29.22869873],[121.95288085900002,29.228515625],[121.95428466800001,29.239318848],[121.95788574200002,29.245117187],[121.95788574200002,29.250671387],[121.96008300800001,29.253112793],[121.96228027300002,29.252075195],[121.96612548800002,29.258117676],[121.96612548800002,29.258300781],[121.96649169900002,29.258728027],[121.97991943400001,29.280090332],[121.97570800800001,29.276916504],[121.96807861300002,29.276489258],[121.95788574200002,29.268127441],[121.95587158200001,29.267883301],[121.95190429700001,29.267089844],[121.93768310500002,29.271484375],[121.92431640600002,29.268676758],[121.91552734400001,29.290283203],[121.91009521500001,29.292114258],[121.90930175800001,29.298278809],[121.91088867200001,29.301513672],[121.90667724600002,29.311523437],[121.91528320300002,29.315307617],[121.91229248000002,29.316711426],[121.91827392600001,29.326721191],[121.92547607400002,29.331481934],[121.92907714800002,29.330688477],[121.93151855500001,29.332885742],[121.92828369100002,29.336730957],[121.92468261700002,29.337280273],[121.92150878900001,29.336120605],[121.91931152300002,29.340515137],[121.90649414100001,29.341674805],[121.90447998000002,29.374694824],[121.88928222700001,29.388122559],[121.88232421900001,29.399719238],[121.88848877,29.412902832],[121.89910888700001,29.420898437],[121.91888427700002,29.425292969],[121.93450927700002,29.423706055],[121.93792724600002,29.422302246],[121.94567871100001,29.424499512],[121.95672607400002,29.421508789],[121.96948242200001,29.446472168],[121.96929931600002,29.447692871],[121.96990966800001,29.447692871],[121.972473145,29.452697754],[121.95770263700001,29.460693359],[121.94592285200001,29.468078613],[121.93951416000002,29.484313965],[121.93389892600001,29.504882812],[121.91131591800001,29.51171875],[121.90332031200002,29.523498535],[121.91851806600002,29.527282715],[121.91870117200001,29.530517578],[121.91949462900001,29.532104492],[121.92272949200002,29.537719727],[121.92687988300001,29.541503906],[121.94232177700002,29.541503906],[121.94787597700001,29.539123535],[121.95068359400001,29.550720215],[121.95269775400001,29.553710937],[121.95111084000001,29.559692383],[121.95568847700001,29.55847168],[121.96148681600002,29.566894531],[121.97912597700001,29.58807373],[121.95007324200002,29.610107422],[121.94348144500002,29.63067627],[121.91430664100001,29.635070801],[121.91229248000002,29.63092041],[121.89587402300002,29.620910645],[121.88629150400001,29.620483398],[121.87969970700001,29.616271973],[121.87530517600001,29.615905762],[121.87030029300001,29.620117187],[121.86627197300001,29.619689941],[121.85748291000002,29.607299805],[121.85168457000002,29.605102539],[121.84667968700002,29.605529785],[121.83831787100002,29.609680176],[121.83612060500002,29.610900879],[121.83007812500001,29.61151123],[121.82269287100002,29.609680176],[121.81970214800002,29.602478027],[121.81567382800002,29.600280762],[121.81030273400002,29.600280762],[121.80090332000002,29.602722168],[121.796875,29.60168457],[121.79010009800001,29.593688965],[121.79028320300002,29.593078613],[121.78527832000002,29.587890625],[121.78247070300002,29.584716797],[121.78131103500002,29.583679199],[121.77471923800002,29.576721191],[121.76751709000001,29.565124512],[121.75408935500002,29.56072998],[121.74487304700001,29.55291748],[121.74432373000002,29.543701172],[121.75109863300001,29.541320801],[121.75567627,29.54107666],[121.75708007800002,29.541687012],[121.77227783200001,29.542114258],[121.78051757800002,29.545715332],[121.78851318400001,29.542480469],[121.80969238300001,29.547302246],[121.81848144500002,29.543701172],[121.83270263700001,29.54309082],[121.83532714800002,29.541687012],[121.83831787100002,29.533325195],[121.84387207000002,29.529907227],[121.85308837900001,29.527282715],[121.85729980500001,29.523681641],[121.85650634800001,29.520080566],[121.84808349600002,29.522521973],[121.84008789100001,29.524719238],[121.84051513700001,29.524291992],[121.828125,29.522888184],[121.81909179700001,29.509277344],[121.81811523400002,29.494506836],[121.81591796900001,29.488525391],[121.8125,29.482116699],[121.80609130900001,29.476501465],[121.77709960900002,29.465270996],[121.77532959000001,29.466125488],[121.77508544900002,29.465881348],[121.77471923800002,29.466491699],[121.76989746100001,29.468688965],[121.76330566400001,29.477478027],[121.76312255900001,29.478088379],[121.76110839800002,29.480102539],[121.76147460900002,29.482910156],[121.76049804700001,29.485900879],[121.75848388700001,29.491699219],[121.75830078100002,29.498901367],[121.76007080100001,29.507080078],[121.76831054700001,29.521911621],[121.76947021500001,29.527526855],[121.75970459000001,29.526672363],[121.75927734400001,29.525695801],[121.74951171900001,29.524291992],[121.74108886700002,29.519714355],[121.73590087900001,29.519897461],[121.73150634800001,29.524475098],[121.73370361300002,29.527099609],[121.72711181600002,29.528930664],[121.70788574200002,29.52911377],[121.69927978500002,29.519897461],[121.68707275400001,29.508300781],[121.66607666000002,29.499694824],[121.66607666000002,29.499328613],[121.65832519500002,29.493896484],[121.64892578100002,29.49432373],[121.63409423800002,29.489685059],[121.62347412100002,29.489929199],[121.60028076200001,29.480102539],[121.59570312500001,29.47668457],[121.59448242200001,29.475891113],[121.58929443400001,29.474487305],[121.57910156200002,29.474914551],[121.57470703100002,29.473327637],[121.55328369100002,29.455871582],[121.55212402300002,29.453491211],[121.55511474600002,29.4453125],[121.54730224600002,29.429870605],[121.54229736300002,29.426696777],[121.53869628900001,29.421691895],[121.52569580100001,29.413879395],[121.51269531200002,29.401916504],[121.50628662100002,29.399475098],[121.50170898400002,29.395507812],[121.49249267600001,29.387084961],[121.48767089800002,29.387878418],[121.48767089800002,29.373474121],[121.48168945300002,29.381286621],[121.48248291000002,29.389282227],[121.48089599600002,29.395507812],[121.47967529300001,29.395324707],[121.48071289100001,29.396484375],[121.480285645,29.397521973],[121.48107910200001,29.402526855],[121.48931884800001,29.412719727],[121.49371337900001,29.415527344],[121.49572753900001,29.415893555],[121.51367187500001,29.438720703],[121.51251220700001,29.443725586],[121.51428222700001,29.446105957],[121.51812744100002,29.444274902],[121.52069091800001,29.447509766],[121.52209472700001,29.452880859],[121.52728271500001,29.456115723],[121.52807617200001,29.457092285],[121.51867675800001,29.456298828],[121.51507568400001,29.453491211],[121.50628662100002,29.453674316],[121.50451660200001,29.455078125],[121.49792480500001,29.454528809],[121.49530029300001,29.466674805],[121.49432373000002,29.479919434],[121.49127197300001,29.475708008],[121.47589111300002,29.467895508],[121.47290039100001,29.463317871],[121.47467041000002,29.460510254],[121.47570800800001,29.459106445],[121.46429443400001,29.439880371],[121.46191406200002,29.430114746],[121.46307373000002,29.417480469],[121.44128418000001,29.41027832],[121.43688964800002,29.411682129],[121.43670654300001,29.41192627],[121.42150878900001,29.405273437],[121.42590332000002,29.440490723],[121.421691895,29.465515137],[121.42352294900002,29.479919434],[121.44232177700002,29.493530273],[121.44708252,29.507507324],[121.44628906200002,29.509887695],[121.445129395,29.512878418],[121.44708252,29.517089844],[121.45349121100001,29.522888184],[121.45452880900001,29.522094727],[121.46887207000002,29.533874512],[121.47967529300001,29.539306641],[121.48052978500002,29.540527344],[121.48211669900002,29.540527344],[121.49627685500002,29.547729492],[121.49908447300001,29.544494629],[121.50109863300001,29.54510498],[121.51171875000001,29.555114746],[121.51367187500001,29.553100586],[121.51348877,29.541687012],[121.51928710900002,29.525512695],[121.51989746100001,29.524291992],[121.52008056600002,29.520507812],[121.52789306600002,29.511901855],[121.52832031200002,29.512329102],[121.52947998000002,29.515075684],[121.53167724600002,29.51550293],[121.54248046900001,29.525512695],[121.54870605500001,29.534912109],[121.55151367200001,29.536071777],[121.55310058600001,29.53527832],[121.55810546900001,29.539916992],[121.56390380900001,29.539916992],[121.56408691400001,29.541503906],[121.56768798800002,29.545898437],[121.57312011700002,29.546508789],[121.58691406200002,29.540100098],[121.60192871100001,29.540283203],[121.60351562500001,29.540527344],[121.60791015600002,29.542480469],[121.61749267600001,29.546875],[121.62469482400002,29.545288086],[121.63012695300002,29.547729492],[121.63348388700001,29.546325684],[121.64093017600001,29.547485352],[121.63812255900001,29.553710937],[121.64147949200002,29.571472168],[121.64367675800001,29.571716309],[121.64611816400001,29.567077637],[121.64672851600001,29.5546875],[121.64849853500002,29.54888916],[121.64990234400001,29.549316406],[121.68090820300002,29.558105469],[121.69152832000002,29.573486328],[121.70050048800002,29.584472656],[121.70288085900002,29.585876465],[121.70251464800002,29.586486816],[121.69689941400001,29.589111328],[121.69628906200002,29.591125488],[121.69769287100002,29.593078613],[121.703125,29.593078613],[121.70971679700001,29.58972168],[121.72113037100002,29.596130371],[121.72967529300001,29.601074219],[121.73730468700002,29.605529785],[121.74468994100002,29.610900879],[121.74511718700002,29.613891602],[121.74908447300001,29.615722656],[121.75531005900001,29.622497559],[121.76171875000001,29.645080566],[121.78509521500001,29.660095215],[121.78991699200002,29.662475586],[121.79492187500001,29.666320801],[121.82067871100001,29.678100586],[121.82647705100001,29.690673828],[121.83032226600001,29.695495605],[121.82830810500002,29.696472168],[121.83190918000001,29.697509766],[121.84851074200002,29.718505859],[121.85809326200001,29.73651123],[121.86267089800002,29.745483398],[121.86871337900001,29.751525879],[121.86932373000002,29.753723145],[121.88110351600001,29.765075684],[121.88287353500002,29.765319824],[121.90332031200002,29.776916504],[121.91931152300002,29.780883789],[121.92547607400002,29.785888672],[121.94091796900001,29.787719727],[121.94689941400001,29.789672852],[121.95452880900001,29.793518066],[121.97772216800001,29.81048584],[122.00048828100002,29.819885254],[122.01348877,29.82232666],[122.01489257800002,29.822875977],[122.02288818400001,29.82611084],[122.04028320300002,29.83972168],[122.07312011700002,29.848693848],[122.07928466800001,29.855895996],[122.08551025400001,29.855529785],[122.09552002,29.860473633],[122.10211181600002,29.860290527],[122.11468505900001,29.870117187],[122.120910645,29.870727539],[122.12188720700001,29.872680664],[122.11871337900001,29.889282227],[122.07427978500002,29.88470459],[122.05767822300001,29.882873535],[122.05548095700001,29.882080078],[122.04791259800001,29.881713867],[122.04772949200002,29.881713867],[122.03192138700001,29.879882812],[122.02148437500001,29.87890625],[122.01867675800001,29.875488281],[122.01312255900001,29.872924805],[122.01049804700001,29.87512207],[122.00952148400002,29.877685547],[121.97552490200002,29.874511719],[121.92828369100002,29.889282227],[121.89971923800002,29.908508301],[121.88189697300001,29.91027832],[121.84368896500001,29.913085937],[121.83367919900002,29.919128418],[121.83190918000001,29.919921875],[121.83172607400002,29.920288086],[121.82189941400001,29.926086426],[121.79028320300002,29.945678711],[121.76287841800001,29.958312988],[121.74749755900001,29.960876465],[121.74548339800002,29.957885742],[121.74212646500001,29.956115723],[121.74151611300002,29.958679199],[121.74310302700002,29.961486816],[121.73492431600002,29.96270752],[121.72912597700001,29.958679199],[121.72308349600002,29.948730469],[121.71789550800001,29.952087402],[121.72369384800001,29.959472656],[121.72308349600002,29.964477539],[121.71972656200002,29.965087891],[121.70672607400002,29.959472656],[121.687316895,29.961303711],[121.67828369100002,29.962097168],[121.67309570300002,29.965270996],[121.66589355500001,29.978088379],[121.65850830100001,29.985473633],[121.64227294900002,30.00012207],[121.63427734400001,30.007324219],[121.62927246100001,30.010070801],[121.62512207000002,30.018310547],[121.60290527300002,30.034912109],[121.57849121100001,30.05090332],[121.56530761700002,30.059326172],[121.54931640600002,30.084472656],[121.53430175800001,30.116882324],[121.50469970700001,30.12890625],[121.48992919900002,30.163085937],[121.46270752,30.20111084],[121.43988037100002,30.231506348],[121.40332031200002,30.239501953],[121.378723145,30.240905762],[121.37628173800002,30.262878418],[121.34149169900002,30.284484863],[121.28112793000001,30.300109863],[121.23687744100002,30.306884766],[121.20068359400001,30.293884277],[121.16052246100001,30.289306641],[121.12670898400002,30.277893066],[121.10388183600001,30.259094238],[121.08850097700001,30.25592041],[121.07568359400001,30.250671387],[121.07330322300001,30.249084473],[121.07110595700001,30.248901367],[121.05249023400002,30.241088867],[121.00988769500002,30.209716797],[120.99029541000002,30.202087402],[120.98052978500002,30.198303223],[120.96612548800002,30.187072754],[120.96331787100002,30.185302734],[120.96270752,30.184692383],[120.96209716800001,30.184692383],[120.91888427700002,30.158691406],[120.89093017600001,30.148498535],[120.89068603500002,30.148498535],[120.86810302700002,30.140319824],[120.86047363300001,30.137512207],[120.86010742200001,30.133911133],[120.85809326200001,30.131286621],[120.85388183600001,30.131286621],[120.85168457000002,30.134277344],[120.82910156200002,30.125915527],[120.83172607400002,30.12310791],[120.82708740200002,30.121276855],[120.82409668000001,30.122314453],[120.82287597700001,30.123718262],[120.81628418000001,30.121276855],[120.76611328100002,30.113098145],[120.722473145,30.117675781],[120.72229003900001,30.117492676],[120.70709228500002,30.112487793],[120.69171142600001,30.112487793],[120.68432617200001,30.114685059],[120.66748046900001,30.122924805],[120.65948486300002,30.127929687],[120.65008544900002,30.127502441],[120.66107177700002,30.117126465],[120.66967773400002,30.11151123],[120.67633056600002,30.102294922],[120.68170166000002,30.097717285],[120.67828369100002,30.093688965],[120.66607666000002,30.100280762],[120.65808105500001,30.10168457],[120.65667724600002,30.101928711],[120.64410400400001,30.106506348],[120.63452148400002,30.104675293],[120.62908935500002,30.105285645],[120.61987304700001,30.110473633],[120.61151123000002,30.118896484],[120.60791015600002,30.119689941],[120.59692382800002,30.115112305],[120.59289550800001,30.115478516],[120.59387207000002,30.118286133],[120.60913085900002,30.126098633],[120.61529541000002,30.135498047],[120.61352539100001,30.140075684],[120.60809326200001,30.144714355],[120.59771728500002,30.149108887],[120.59112548800002,30.151916504],[120.58691406200002,30.155273437],[120.58392334000001,30.16192627],[120.58270263700001,30.164916992],[120.58172607400002,30.179504395],[120.57409668000001,30.196289062],[120.57330322300001,30.209899902],[120.56610107400002,30.241516113],[120.55889892600001,30.256286621],[120.55749511700002,30.282714844],[120.55548095700001,30.283691406],[120.54547119100002,30.288085937],[120.53869628900001,30.294311523],[120.52087402300002,30.302490234],[120.50488281200002,30.315490723],[120.49468994100002,30.319519043],[120.472473145,30.318908691],[120.46191406200002,30.316711426],[120.45788574200002,30.315124512],[120.43670654300001,30.298278809],[120.43212890600002,30.296875],[120.42547607400002,30.294128418],[120.42211914100001,30.289672852],[120.40728759800001,30.288879395],[120.40008544900002,30.284729004],[120.39910888700001,30.280090332],[120.40209960900002,30.268676758],[120.40112304700001,30.265930176],[120.39447021500001,30.261108398],[120.39251709000001,30.25592041],[120.39532470700001,30.245300293],[120.39288330100001,30.237487793],[120.38751220700001,30.229919434],[120.37792968700002,30.222900391],[120.36950683600001,30.221313477],[120.35168457000002,30.220275879],[120.33569335900002,30.219482422],[120.31689453100002,30.225280762],[120.30511474600002,30.230712891],[120.28808593700002,30.244873047],[120.28369140600002,30.257080078],[120.27770996100001,30.262512207],[120.25250244100002,30.257324219],[120.23107910200001,30.246520996],[120.21130371100001,30.236328125],[120.18432617200001,30.225280762],[120.18927002,30.239929199],[120.21490478500002,30.266906738],[120.24169921900001,30.278686523],[120.24768066400001,30.281494141],[120.26287841800001,30.283691406],[120.26287841800001,30.294677734],[120.28491210900002,30.296508789],[120.30432128900001,30.295898437],[120.31530761700002,30.290100098],[120.32171630900001,30.290710449],[120.33807373000002,30.301086426],[120.34808349600002,30.323913574],[120.37127685500002,30.34552002],[120.37188720700001,30.348083496],[120.37249755900001,30.349487305],[120.38531494100002,30.376281738],[120.39068603500002,30.381286621],[120.39849853500002,30.385314941],[120.40850830100001,30.387695312],[120.42968750000001,30.388671875],[120.44030761700002,30.390930176],[120.45831298800002,30.394287109],[120.49407959000001,30.396728516],[120.55731201200001,30.396118164],[120.58508300800001,30.398681641],[120.58789062500001,30.399108887],[120.62390136700002,30.399475098],[120.64831543000001,30.397521973],[120.67108154300001,30.393127441],[120.67828369100002,30.390319824],[120.69189453100002,30.389526367],[120.72113037100002,30.378112793],[120.72509765600002,30.375305176],[120.73571777300002,30.367919922],[120.74090576200001,30.356872559],[120.74932861300002,30.352294922],[120.75250244100002,30.347290039],[120.76031494100002,30.346130371],[120.77069091800001,30.348083496],[120.77630615200002,30.346923828],[120.78387451200001,30.340515137],[120.78607177700002,30.331726074],[120.78991699200002,30.332275391],[120.79791259800001,30.341674805],[120.80432128900001,30.345275879],[120.8125,30.34588623],[120.81652832000002,30.348083496],[120.83288574200002,30.346130371],[120.83410644500002,30.346923828],[120.83673095700001,30.348876953],[120.83868408200001,30.355285645],[120.84509277300002,30.356506348],[120.85571289100001,30.365112305],[120.86151123000002,30.367492676],[120.870910645,30.365112305],[120.87329101600001,30.363891602],[120.88409423800002,30.372924805],[120.88751220700001,30.374084473],[120.88952636700002,30.374084473],[120.89349365200002,30.406311035],[120.90667724600002,30.412475586],[120.90771484400001,30.414123535],[120.91052246100001,30.41607666],[120.91412353500002,30.417724609],[120.91851806600002,30.417724609],[120.93688964800002,30.426086426],[120.92407226600001,30.46270752],[120.92492675800001,30.485290527],[120.93988037100002,30.49987793],[120.94012451200001,30.50012207],[120.94030761700002,30.500305176],[120.95367431600002,30.51348877],[120.95367431600002,30.518310547],[120.96447753900001,30.526672363],[120.97009277300002,30.533874512],[120.98388671900001,30.544677734],[120.99291992200001,30.554077148],[121.00451660200001,30.562072754],[121.00512695300002,30.562316895],[121.01129150400001,30.56829834],[121.01672363300001,30.573486328],[121.03472900400001,30.577514648],[121.06207275400001,30.588928223],[121.06872558600001,30.590087891],[121.070129395,30.590087891],[121.07708740200002,30.58972168],[121.08129882800002,30.591308594],[121.08770752,30.590270996],[121.09448242200001,30.586303711],[121.09967041000002,30.586730957],[121.10491943400001,30.588928223],[121.11352539100001,30.588317871],[121.11608886700002,30.589294434],[121.128723145,30.597900391],[121.14532470700001,30.627319336],[121.16247558600001,30.632873535],[121.16571044900002,30.637512207],[121.17572021500001,30.644897461],[121.17633056600002,30.645080566],[121.22888183600001,30.673278809],[121.24847412100002,30.68572998],[121.26110839800002,30.69128418],[121.25891113300001,30.692504883],[121.23327636700002,30.718688965],[121.21667480500001,30.75592041],[121.19812011700002,30.786071777],[121.12487793000001,30.778320312],[121.10247802700002,30.786499023],[121.10729980500001,30.834289551],[121.07891845700001,30.845703125],[121.04412841800001,30.83972168],[121.03649902300002,30.836730957],[121.01049804700001,30.826721191],[120.98449707000002,30.822692871],[120.96472168000001,30.879699707],[120.97729492200001,30.938476562],[120.97210693400001,30.958679199],[120.96411132800002,30.989501953],[120.95031738300001,31.025512695],[120.90087890600002,31.024291992],[120.89270019500002,31.024108887],[120.86267089800002,31.014099121],[120.81671142600001,31.01348877],[120.77087402300002,31.003112793],[120.73449707000002,31.002685547],[120.70227050800001,30.991882324],[120.64172363300001,30.973083496],[120.64111328100002,30.968505859],[120.65032959000001,30.953918457],[120.66949462900001,30.933898926],[120.69128418000001,30.890686035],[120.68408203100002,30.877502441],[120.67749023400002,30.86907959],[120.63751220700001,30.854309082],[120.56689453100002,30.856079102],[120.53167724600002,30.836303711],[120.50549316400001,30.771118164],[120.46191406200002,30.760314941],[120.44189453100002,30.810913086],[120.42248535200001,30.865112305],[120.41650390600002,30.914672852],[120.35632324200002,30.909729004],[120.32928466800001,30.902893066],[120.32830810500002,30.903503418],[120.29492187500001,30.924499512],[120.27929687500001,30.921508789],[120.27252197300001,30.919128418],[120.26568603500002,30.916687012],[120.25488281200002,30.917724609],[120.24371337900001,30.915893555],[120.23248291000002,30.913879395],[120.21051025400001,30.911315918],[120.19488525400001,30.912719727],[120.18432617200001,30.915100098],[120.15069580100001,30.925292969],[120.12048339800002,30.938110352],[120.09191894500002,30.951477051],[120.08111572300001,30.959106445],[120.07507324200002,30.964111328],[120.06689453100002,30.967712402],[120.04327392600001,30.978515625],[120.01849365200002,30.993713379],[120.00909423800002,30.998901367],[119.98651123000002,31.00970459],[119.972473145,31.021118164],[119.95269775400001,31.044677734],[119.93487548800002,31.06072998],[119.92327880900001,31.073486328],[119.91430664100001,31.088928223],[119.90631103500002,31.112915039],[119.89868164100001,31.141479492],[119.89291468200001,31.153347035],[119.89288330100001,31.153320312],[119.89129638700001,31.156677246],[119.88031005900001,31.167480469],[119.85272216800001,31.174682617],[119.80609130900001,31.176330566],[119.76391601600001,31.181274414],[119.70208740200002,31.19128418],[119.64410400400001,31.178710937],[119.61212158200001,31.138305664],[119.60827636700002,31.12310791],[119.597473145,31.080505371],[119.59088134800001,31.047302246],[119.58227539100001,30.995300293],[119.55291748000002,30.958312988],[119.53710937500001,30.897888184],[119.53308105500001,30.867126465],[119.53228759800001,30.860900879],[119.53070068400001,30.8046875],[119.50012207000002,30.775878906],[119.44488525400001,30.754089355],[119.44952392600001,30.716308594],[119.4375,30.701904297],[119.41992187500001,30.644287109],[119.38787841800001,30.652099609],[119.35308837900001,30.684875488],[119.31628418000001,30.67767334],[119.312316895,30.628112793],[119.22668457000002,30.609130859],[119.21490478500002,30.606506348],[119.19128418000001,30.59387207],[119.26348877,30.520080566],[119.29968261700002,30.491699219],[119.31127929700001,30.448120117],[119.32830810500002,30.401123047],[119.34112548800002,30.365722656],[119.32550048800002,30.356872559],[119.29852294900002,30.36328125],[119.24890136700002,30.37310791],[119.21832275400001,30.331726074],[119.23071289100001,30.286071777],[119.12109375000001,30.297485352],[119.07672119100002,30.306884766],[119.02069091800001,30.295715332],[118.96728515600002,30.321716309],[118.92449951200001,30.349487305],[118.90789794900002,30.352478027],[118.84649658200001,30.328125],[118.84411621100001,30.30267334],[118.84210205100001,30.281311035],[118.86987304700001,30.228515625],[118.88409423800002,30.179321289],[118.83569335900002,30.167480469],[118.84472656200002,30.146484375],[118.85729980500001,30.116882324],[118.84887695300002,30.097106934],[118.855285645,30.075073242],[118.86187744100002,30.042480469],[118.86108398400002,30.015686035],[118.86108398400002,30.013305664],[118.86248779300001,29.982727051],[118.84710693400001,29.953491211],[118.81451416000002,29.94152832],[118.80908203100002,29.929321289],[118.80371093700002,29.903686523],[118.79229736300002,29.893920898],[118.75030517600001,29.871704102],[118.71649169900002,29.834716797],[118.72851562500001,29.817077637],[118.72991943400001,29.775878906],[118.69128418000001,29.698120117],[118.63110351600001,29.669128418],[118.57092285200001,29.662475586],[118.53631591800001,29.615722656],[118.50787353500002,29.580078125],[118.46771240200002,29.545715332],[118.40808105500001,29.514282227],[118.32373046900001,29.504516602],[118.31311035200001,29.492675781],[118.29589843700002,29.473327637],[118.26568603500002,29.449279785],[118.24328613300001,29.432128906],[118.19207763700001,29.418273926],[118.18872070300002,29.416320801],[118.19427490200002,29.407470703],[118.18292236300002,29.359924316],[118.16271972700001,29.319274902],[118.11407470700001,29.300109863],[118.05249023400002,29.296691895],[118.04309082000002,29.271484375],[118.05047607400002,29.236083984],[118.00488281200002,29.212280273],[117.99572753900001,29.17590332],[117.99389648400002,29.168273926],[118.00109863300001,29.128479004],[118.02893066400001,29.037475586],[118.07250976600001,29.014099121],[118.10827636700002,28.998291016],[118.12670898400002,28.990112305],[118.15588378900001,28.979309082],[118.16729736300002,28.955505371],[118.16687011700002,28.9375],[118.17468261700002,28.908508301],[118.20812988300001,28.923278809],[118.25848388700001,28.904907227],[118.25891113300001,28.899291992],[118.26251220700001,28.855529785],[118.30249023400002,28.848510742],[118.34808349600002,28.801696777],[118.35827636700002,28.771911621],[118.36547851600001,28.750488281],[118.37530517600001,28.707702637],[118.39208984400001,28.651123047],[118.39093017600001,28.625305176],[118.38891601600001,28.603088379],[118.39630127,28.545288086],[118.41290283200001,28.504882812],[118.41687011700002,28.495727539],[118.44409179700001,28.465270996],[118.43707275400001,28.420898437],[118.43609619100002,28.373474121],[118.44250488300001,28.352478027],[118.43487548800002,28.311889648],[118.39727783200001,28.283081055],[118.39392089800002,28.267700195],[118.39892578100002,28.264099121],[118.40130615200002,28.243286133],[118.43988037100002,28.239074707],[118.46990966800001,28.251281738],[118.52130127,28.274719238],[118.56091308600001,28.268493652],[118.55987548800002,28.246276855],[118.60449218700002,28.260070801],[118.62988281200002,28.26751709],[118.67211914100001,28.303100586],[118.67492675800001,28.301696777],[118.70367431600002,28.287475586],[118.71667480500001,28.25970459],[118.73229980500001,28.250488281],[118.74011230500001,28.24432373],[118.76007080100001,28.228088379],[118.75628662100002,28.220275879],[118.75750732400002,28.197692871],[118.74871826200001,28.169677734],[118.75311279300001,28.114685059],[118.71630859400001,28.09387207],[118.69848632800002,28.069274902],[118.70892334000001,28.012878418],[118.72912597700001,27.951477051],[118.76892089800002,27.903930664],[118.796691895,27.848083496],[118.80090332000002,27.838684082],[118.82391357400002,27.78527832],[118.85412597700001,27.700683594],[118.86230468700002,27.65612793],[118.87988281200002,27.613708496],[118.87652587900001,27.55291748],[118.85992431600002,27.539672852],[118.86071777300002,27.502929687],[118.86968994100002,27.492675781],[118.88568115200002,27.475097656],[118.89788818400001,27.463500977],[118.89770507800002,27.471496582],[118.95208740200002,27.47668457],[118.99328613300001,27.480895996],[119.03247070300002,27.473510742],[119.06329345700001,27.484680176],[119.11108398400002,27.474121094],[119.12792968700002,27.434082031],[119.13970947300001,27.408081055],[119.15850830100001,27.401489258],[119.20367431600002,27.405273437],[119.22113037100002,27.411315918],[119.23968505900001,27.417907715],[119.25091552700002,27.4296875],[119.27130127,27.439697266],[119.30151367200001,27.456298828],[119.31768798800002,27.477478027],[119.35107421900001,27.514526367],[119.39227294900002,27.519470215],[119.41412353500002,27.511474609],[119.42767334000001,27.515930176],[119.45391845700001,27.532714844],[119.47088623000002,27.57989502],[119.47448730500001,27.618286133],[119.49169921900001,27.648925781],[119.55767822300001,27.68371582],[119.60852050800001,27.666687012],[119.61712646500001,27.663879395],[119.61669921900001,27.638671875],[119.63049316400001,27.611694336],[119.63348388700001,27.571899414],[119.66931152300002,27.519714355],[119.68469238300001,27.490722656],[119.69812011700002,27.460083008],[119.70648193400001,27.421691895],[119.71630859400001,27.38671875],[119.72747802700002,27.362487793],[119.73889160200001,27.338317871],[119.75109863300001,27.296875],[119.77447509800001,27.298278809],[119.78808593700002,27.299316406],[119.79168701200001,27.306274414],[119.83447265600002,27.31628418],[119.85913085900002,27.307128906],[119.89849853500002,27.312927246],[119.91052246100001,27.330688477],[119.92431640600002,27.347473145],[119.93487548800002,27.360290527],[119.96789550800001,27.371887207],[119.98468017600001,27.357116699],[120.00689697300001,27.34552002],[120.02947998000002,27.348083496],[120.06170654300001,27.362487793],[120.07427978500002,27.384887695],[120.10052490200002,27.410522461],[120.11907959000001,27.423522949],[120.15850830100001,27.428283691],[120.20550537100002,27.409118652],[120.24688720700001,27.395690918],[120.27789306600002,27.398498535],[120.31311035200001,27.403686523],[120.32751464800002,27.394287109],[120.33270263700001,27.366882324],[120.328125,27.34387207],[120.37750244100002,27.289489746],[120.39929199200002,27.275085449],[120.39587402300002,27.233886719],[120.39550781200002,27.210693359],[120.40112304700001,27.189880371],[120.40350341800001,27.18572998],[120.41632080100001,27.175720215],[120.41748046900001,27.176086426],[120.42248535200001,27.182312012],[120.42108154300001,27.183105469],[120.41912841800001,27.192321777],[120.42132568400001,27.1953125],[120.42547607400002,27.1953125],[120.42968750000001,27.197692871],[120.43151855500001,27.208129883],[120.44451904300001,27.209106445],[120.44769287100002,27.218688965],[120.45092773400002,27.218688965],[120.45727539100001,27.216491699],[120.46228027300002,27.209289551],[120.46630859400001,27.20690918],[120.46850585900002,27.205688477],[120.46832275400001,27.194885254],[120.46630859400001,27.189880371],[120.45989990200002,27.190917969],[120.45867919900002,27.188293457],[120.46270752,27.181518555],[120.46350097700001,27.174682617],[120.47088623000002,27.165100098],[120.47308349600002,27.163879395],[120.48211669900002,27.169128418],[120.48968505900001,27.180114746],[120.49810791000002,27.187683105],[120.49731445300002,27.205505371],[120.51568603500002,27.223083496],[120.50952148400002,27.258483887],[120.53790283200001,27.288879395],[120.51452636700002,27.321105957],[120.51989746100001,27.328674316],[120.51007080100001,27.335876465],[120.50909423800002,27.338317871],[120.51348877,27.338317871],[120.52087402300002,27.335876465],[120.52569580100001,27.337097168],[120.53228759800001,27.346313477],[120.53070068400001,27.349914551],[120.53210449200002,27.358093262],[120.53509521500001,27.357910156],[120.53350830100001,27.377075195],[120.52832031200002,27.394897461],[120.53930664100001,27.401306152],[120.54327392600001,27.399902344],[120.54412841800001,27.401916504],[120.54492187500001,27.402282715],[120.54748535200001,27.403320312],[120.55267334000001,27.403320312],[120.56170654300001,27.399108887],[120.57550048800002,27.395874023],[120.58209228500002,27.386901855],[120.59112548800002,27.378295898],[120.59429931600002,27.381530762],[120.59912109400001,27.383117676],[120.60247802700002,27.388305664],[120.61029052700002,27.390075684],[120.61108398400002,27.381103516],[120.61370849600002,27.378723145],[120.62188720700001,27.376708984],[120.62109375000001,27.373718262],[120.61547851600001,27.36932373],[120.61511230500001,27.366088867],[120.62030029300001,27.362487793],[120.62170410200001,27.362304687],[120.62792968700002,27.37689209],[120.62731933600001,27.397888184],[120.63311767600001,27.421081543],[120.63928222700001,27.426696777],[120.63989257800002,27.428100586],[120.64288330100001,27.4296875],[120.64947509800001,27.43548584],[120.64990234400001,27.437683105],[120.64727783200001,27.443908691],[120.65710449200002,27.443481445],[120.66528320300002,27.456726074],[120.63708496100001,27.491271973],[120.62768554700001,27.482910156],[120.60650634800001,27.479492187],[120.59411621100001,27.506103516],[120.58508300800001,27.536315918],[120.58349609400001,27.558288574],[120.554504395,27.559875488],[120.53649902300002,27.56628418],[120.54071044900002,27.57208252],[120.56890869100002,27.582275391],[120.58050537100002,27.586120605],[120.59472656200002,27.585876465],[120.59429931600002,27.586914062],[120.59710693400001,27.594482422],[120.60449218700002,27.596313477],[120.61047363300001,27.601928711],[120.61791992200001,27.595275879],[120.62127685500002,27.594909668],[120.62768554700001,27.599487305],[120.63568115200002,27.599121094],[120.63848877,27.600708008],[120.63708496100001,27.604919434],[120.64007568400001,27.610473633],[120.64050293000001,27.614929199],[120.65209960900002,27.612487793],[120.65747070300002,27.614929199],[120.66168212900001,27.62890625],[120.65789794900002,27.635681152],[120.65832519500002,27.635681152],[120.65252685500002,27.641723633],[120.65808105500001,27.653076172],[120.65911865200002,27.65612793],[120.65789794900002,27.657104492],[120.65710449200002,27.659729004],[120.66229248000002,27.674072266],[120.66271972700001,27.676330566],[120.66131591800001,27.682128906],[120.64367675800001,27.708312988],[120.62609863300001,27.727294922],[120.60913085900002,27.76171875],[120.63952636700002,27.745300293],[120.66589355500001,27.729125977],[120.679504395,27.722106934],[120.68029785200001,27.722900391],[120.6875,27.720092773],[120.69689941400001,27.719482422],[120.70227050800001,27.720092773],[120.71008300800001,27.723327637],[120.72491455100001,27.736694336],[120.73211669900002,27.742675781],[120.73590087900001,27.748718262],[120.74047851600001,27.76348877],[120.74688720700001,27.774475098],[120.74969482400002,27.785888672],[120.75952148400002,27.796081543],[120.76428222700001,27.803894043],[120.77069091800001,27.813720703],[120.78729248000002,27.82611084],[120.80731201200001,27.847473145],[120.82952880900001,27.860473633],[120.83673095700001,27.862915039],[120.83752441400001,27.875305176],[120.84008789100001,27.896118164],[120.83728027300002,27.916503906],[120.81988525400001,27.938293457],[120.79248046900001,27.944274902],[120.77508544900002,27.948730469],[120.74249267600001,27.955322266],[120.73632812500001,27.960693359],[120.72930908200001,27.966674805],[120.72113037100002,27.977478027],[120.70788574200002,27.988708496],[120.70147705100001,27.992675781],[120.68188476600001,28.008300781],[120.69787597700001,28.016479492],[120.70007324200002,28.01751709],[120.69049072300001,28.018676758],[120.67352294900002,28.019897461],[120.66351318400001,28.025878906],[120.65588378900001,28.026489258],[120.65032959000001,28.024902344],[120.64312744100002,28.03692627],[120.65832519500002,28.040893555],[120.66668701200001,28.051086426],[120.67230224600002,28.048278809],[120.67968750000001,28.044311523],[120.68811035200001,28.045288086],[120.69372558600001,28.040710449],[120.73889160200001,28.03112793],[120.76428222700001,28.024291992],[120.77868652300002,28.018920898],[120.78790283200001,28.010498047],[120.79107666000002,28.00769043],[120.796691895,27.996520996],[120.80108642600001,27.993530273],[120.81872558600001,27.989074707],[120.82568359400001,27.989501953],[120.83728027300002,27.99407959],[120.85711669900002,27.99810791],[120.87969970700001,27.998474121],[120.90728759800001,27.992126465],[120.91607666000002,27.991088867],[120.92651367200001,27.989929199],[120.94592285200001,27.980102539],[120.94769287100002,27.98651123],[120.95507812500001,27.983886719],[120.95849609400001,27.985107422],[120.95452880900001,27.991088867],[120.96667480500001,28.00769043],[120.97552490200002,28.02331543],[120.97827148400002,28.026489258],[120.98010253900001,28.034912109],[120.98767089800002,28.063476562],[120.97869873000002,28.084472656],[120.99768066400001,28.129089355],[121.01251220700001,28.131103516],[121.02331543000001,28.145324707],[121.02648925800001,28.147277832],[121.03448486300002,28.142883301],[121.04290771500001,28.143493652],[121.04370117200001,28.143493652],[121.05047607400002,28.147888184],[121.05828857400002,28.15032959],[121.07769775400001,28.167724609],[121.08190918000001,28.168273926],[121.08691406200002,28.165527344],[121.08709716800001,28.165710449],[121.08807373000002,28.182922363],[121.09692382800002,28.187072754],[121.09649658200001,28.190307617],[121.10351562500001,28.199890137],[121.10247802700002,28.204528809],[121.10827636700002,28.208496094],[121.10992431600002,28.21472168],[121.11328125000001,28.226318359],[121.05133056600002,28.230102539],[121.02288818400001,28.269287109],[121.02667236300002,28.304077148],[121.04650878900001,28.30670166],[121.04608154300001,28.307678223],[121.04931640600002,28.31072998],[121.05828857400002,28.30871582],[121.05871582000002,28.308288574],[121.07507324200002,28.310302734],[121.09631347700001,28.330322266],[121.11328125000001,28.367126465],[121.13830566400001,28.389282227],[121.16967773400002,28.381896973],[121.17028808600001,28.38269043],[121.16888427700002,28.387329102],[121.16967773400002,28.386901855],[121.17132568400001,28.389282227],[121.17633056600002,28.390075684]]],[[[120.77807617200001,28.008483887],[120.77349853500002,28.013122559],[120.76531982400002,28.017272949],[120.75268554700001,28.018920898],[120.77050781200002,28.00567627],[120.78228759800001,27.999694824],[120.77807617200001,28.008483887]]],[[[121.14050293000001,28.020874023],[121.14031982400002,28.019897461],[121.15368652300002,28.027893066],[121.15307617200001,28.027893066],[121.14050293000001,28.020874023]]],[[[120.671691895,28.035095215],[120.68530273400002,28.03729248],[120.68591308600001,28.039672852],[120.66851806600002,28.040893555],[120.66888427700002,28.037109375],[120.671691895,28.035095215]]],[[[121.27832031200002,28.178100586],[121.28570556600002,28.183288574],[121.28350830100001,28.186096191],[121.27587890600002,28.1875],[121.27069091800001,28.192687988],[121.26708984400001,28.187927246],[121.23669433600001,28.207275391],[121.23132324200002,28.207702637],[121.22869873000002,28.190307617],[121.22229003900001,28.18170166],[121.21472168000001,28.170288086],[121.20672607400002,28.17388916],[121.20709228500002,28.172485352],[121.20550537100002,28.169677734],[121.20172119100002,28.16809082],[121.19567871100001,28.169494629],[121.18389892600001,28.155700684],[121.17889404300001,28.15447998],[121.17309570300002,28.149108887],[121.16949462900001,28.147705078],[121.16870117200001,28.146911621],[121.16192627,28.144104004],[121.15667724600002,28.137695312],[121.15228271500001,28.136291504],[121.14849853500002,28.138122559],[121.13867187500001,28.134277344],[121.13287353500002,28.131713867],[121.13830566400001,28.116271973],[121.13592529300001,28.111328125],[121.13812255900001,28.103271484],[121.13830566400001,28.102478027],[121.14172363300001,28.102294922],[121.14532470700001,28.099487305],[121.15032959000001,28.086486816],[121.15612793000001,28.082702637],[121.15771484400001,28.077697754],[121.15307617200001,28.06427002],[121.14587402300002,28.05871582],[121.14691162100002,28.05670166],[121.15350341800001,28.054870605],[121.15631103500002,28.051879883],[121.15191650400001,28.043884277],[121.15411377,28.040100098],[121.15789794900002,28.040710449],[121.16290283200001,28.045715332],[121.17669677700002,28.048706055],[121.18090820300002,28.045471191],[121.19891357400002,28.052307129],[121.20050048800002,28.05291748],[121.21868896500001,28.056274414],[121.22009277300002,28.05847168],[121.21789550800001,28.061279297],[121.21270752,28.059692383],[121.20947265600002,28.063476562],[121.21527099600002,28.063903809],[121.22009277300002,28.066101074],[121.22052002,28.069885254],[121.23468017600001,28.064697266],[121.24090576200001,28.066101074],[121.24108886700002,28.06048584],[121.24627685500002,28.056518555],[121.24829101600001,28.05670166],[121.25012207000002,28.057128906],[121.25091552700002,28.058898926],[121.24768066400001,28.069885254],[121.24572753900001,28.071289062],[121.23748779300001,28.071716309],[121.23168945300002,28.074707031],[121.23010253900001,28.078491211],[121.23309326200001,28.084106445],[121.23889160200001,28.082702637],[121.24127197300001,28.082885742],[121.24487304700001,28.087280273],[121.25311279300001,28.083129883],[121.25628662100002,28.083129883],[121.26007080100001,28.085693359],[121.26531982400002,28.086486816],[121.26788330100001,28.084106445],[121.27130127,28.096130371],[121.26171875000001,28.103271484],[121.25012207000002,28.120117187],[121.25012207000002,28.121887207],[121.25030517600001,28.137329102],[121.25549316400001,28.148681641],[121.25128173800002,28.153686523],[121.25872802700002,28.166320801],[121.26611328100002,28.172912598],[121.26867675800001,28.177124023],[121.27349853500002,28.180908203],[121.27832031200002,28.178100586]]],[[[121.20031738300001,28.18371582],[121.20007324200002,28.183288574],[121.20068359400001,28.181884766],[121.20031738300001,28.18371582]]],[[[121.230285645,28.342529297],[121.23608398400002,28.343505859],[121.23907470700001,28.346679687],[121.23828125000001,28.350708008],[121.22668457000002,28.346496582],[121.230285645,28.342529297]]],[[[121.61468505900001,28.526123047],[121.60827636700002,28.528930664],[121.60308837900001,28.521484375],[121.60272216800001,28.515319824],[121.60369873000002,28.510498047],[121.60772705100001,28.506713867],[121.60809326200001,28.507507324],[121.61468505900001,28.526123047]]],[[[121.57287597700001,29.049072266],[121.56927490200002,29.05090332],[121.56347656200002,29.051086426],[121.55950927700002,29.04888916],[121.56951904300001,29.049072266],[121.57287597700001,29.049072266]]],[[[121.53771972700001,29.116088867],[121.53692627,29.116699219],[121.53332519500002,29.115112305],[121.53771972700001,29.116088867]]],[[[121.86151123000002,29.159118652],[121.86749267600001,29.164916992],[121.86267089800002,29.165283203],[121.85668945300002,29.162475586],[121.85632324200002,29.16027832],[121.86151123000002,29.159118652]]],[[[121.80151367200001,29.190673828],[121.80047607400002,29.190917969],[121.79608154300001,29.183898926],[121.81848144500002,29.168884277],[121.83447265600002,29.160095215],[121.83587646500001,29.159912109],[121.83691406200002,29.160888672],[121.83569335900002,29.162902832],[121.82287597700001,29.173522949],[121.81372070300002,29.186279297],[121.80151367200001,29.190673828]]],[[[121.82110595700001,29.235290527],[121.82189941400001,29.235717773],[121.82531738300001,29.239685059],[121.82128906200002,29.245117187],[121.81848144500002,29.247070312],[121.82110595700001,29.235290527]]],[[[121.52111816400001,29.266906738],[121.51470947300001,29.268676758],[121.50567627,29.26751709],[121.54150390600002,29.262695312],[121.53308105500001,29.268493652],[121.52111816400001,29.266906738]]],[[[121.78027343700002,29.344116211],[121.78228759800001,29.341308594],[121.78247070300002,29.341918945],[121.78131103500002,29.347290039],[121.78027343700002,29.344116211]]],[[[122.00567627,29.81451416],[121.99707031200002,29.810302734],[122.02172851600001,29.816894531],[122.01971435500002,29.817687988],[122.00567627,29.81451416]]],[[[122.22589111300002,29.96307373],[122.22113037100002,29.964111328],[122.21972656200002,29.957885742],[122.22167968700002,29.953918457],[122.22210693400001,29.953674316],[122.25030517600001,29.945129395],[122.24768066400001,29.950500488],[122.24291992200001,29.954528809],[122.23608398400002,29.955688477],[122.22589111300002,29.96307373]]],[[[122.06567382800002,30.140686035],[122.05010986300002,30.136901855],[122.03027343700002,30.134277344],[122.01947021500001,30.133483887],[121.97332763700001,30.140930176],[121.96069335900002,30.155273437],[121.93707275400001,30.168884277],[121.93548584000001,30.163513184],[121.93652343700002,30.160888672],[121.93908691400001,30.161071777],[121.94207763700001,30.15447998],[121.95172119100002,30.15032959],[121.95269775400001,30.147277832],[121.94952392600001,30.142883301],[121.96392822300001,30.137878418],[121.97009277300002,30.126281738],[121.97570800800001,30.12310791],[121.97589111300002,30.121276855],[121.97668457000002,30.110473633],[121.98327636700002,30.104675293],[121.98669433600001,30.096130371],[121.98468017600001,30.092285156],[121.98907470700001,30.080688477],[121.98931884800001,30.07409668],[121.97967529300001,30.065917969],[121.98968505900001,30.048278809],[121.99072265600002,30.045898437],[121.99951171900001,30.043518066],[122.00628662100002,30.034484863],[122.01171875000001,30.033325195],[122.01489257800002,30.02947998],[122.01867675800001,30.021484375],[122.02008056600002,30.018493652],[122.02172851600001,30.002502441],[122.02252197300001,30.00012207],[122.02447509800001,29.993530273],[122.02612304700001,29.991271973],[122.02893066400001,29.990478516],[122.03332519500002,29.990905762],[122.05371093700002,30.00012207],[122.05487060500002,30.000488281],[122.06329345700001,30.007507324],[122.06652832000002,30.008483887],[122.07092285200001,30.006713867],[122.09869384800001,30.006896973],[122.10552978500002,30.003112793],[122.10772705100001,30.000488281],[122.14971923800002,29.99029541],[122.16589355500001,29.989685059],[122.17730712900001,29.98651123],[122.19207763700001,29.978881836],[122.20928955100001,29.977294922],[122.230285645,29.965881348],[122.24810791000002,29.959289551],[122.25292968700002,29.95489502],[122.25787353500002,29.950317383],[122.27008056600002,29.944519043],[122.29071044900002,29.943115234],[122.29711914100001,29.944885254],[122.30352783200001,29.953674316],[122.30230712900001,29.968322754],[122.30908203100002,29.986877441],[122.31329345700001,30.00012207],[122.312316895,30.009277344],[122.30548095700001,30.016723633],[122.29931640600002,30.02331543],[122.26391601600001,30.053283691],[122.23931884800001,30.062683105],[122.23132324200002,30.065917969],[122.21667480500001,30.077270508],[122.187316895,30.073913574],[122.17327880900001,30.081726074],[122.16149902300002,30.088317871],[122.15808105500001,30.095703125],[122.15490722700001,30.102722168],[122.14807128900001,30.103088379],[122.12829589800002,30.104492187],[122.10992431600002,30.111877441],[122.10028076200001,30.11907959],[122.09570312500001,30.132324219],[122.07727050800001,30.139709473],[122.06567382800002,30.140686035]]],[[[121.98608398400002,30.077270508],[121.98211669900002,30.08190918],[121.98132324200002,30.086486816],[121.97930908200001,30.085510254],[121.97552490200002,30.076477051],[121.97668457000002,30.073120117],[121.98071289100001,30.073303223],[121.98608398400002,30.077270508]]],[[[121.97509765600002,30.096679687],[121.96972656200002,30.097473145],[121.96771240200002,30.096923828],[121.96832275400001,30.09588623],[121.97088623000002,30.089111328],[121.97167968700002,30.08770752],[121.97692871100001,30.093322754],[121.97509765600002,30.096679687]]],[[[122.20452880900001,30.281311035],[122.20349121100001,30.285095215],[122.20709228500002,30.290710449],[122.22229003900001,30.293884277],[122.22448730500001,30.296325684],[122.21752929700001,30.307922363],[122.20367431600002,30.31652832],[122.19049072300001,30.322509766],[122.17669677700002,30.323913574],[122.17431640600002,30.32208252],[122.17510986300002,30.31652832],[122.17309570300002,30.3125],[122.16870117200001,30.309509277],[122.15692138700001,30.31048584],[122.15527343700002,30.312072754],[122.13909912100002,30.302124023],[122.12750244100002,30.303283691],[122.11187744100002,30.307678223],[122.09991455100001,30.30670166],[122.09130859400001,30.300292969],[122.09008789100001,30.29888916],[122.09350585900002,30.29309082],[122.08428955100001,30.29107666],[122.08227539100001,30.287719727],[122.08367919900002,30.28527832],[122.09570312500001,30.281921387],[122.10467529300001,30.283325195],[122.11987304700001,30.269104004],[122.12170410200001,30.268310547],[122.12908935500002,30.264526367],[122.14050293000001,30.250488281],[122.15509033200001,30.247680664],[122.16149902300002,30.248474121],[122.16931152300002,30.241088867],[122.18811035200001,30.242126465],[122.20068359400001,30.234680176],[122.20568847700001,30.237121582],[122.21130371100001,30.235107422],[122.21411132800002,30.233703613],[122.21447753900001,30.233703613],[122.20147705100001,30.278503418],[122.20507812500001,30.280883789],[122.20452880900001,30.281311035]]],[[[122.06811523400002,30.297485352],[122.06628418000001,30.296691895],[122.06628418000001,30.291870117],[122.06890869100002,30.295715332],[122.06811523400002,30.297485352]]],[[[122.48547363300001,30.708129883],[122.47412109400001,30.707885742],[122.46948242200001,30.710083008],[122.46649169900002,30.715087891],[122.46630859400001,30.715087891],[122.45367431600002,30.722717285],[122.453125,30.722473145],[122.45147705100001,30.724121094],[122.42828369100002,30.738098145],[122.42468261700002,30.738891602],[122.42248535200001,30.738525391],[122.421691895,30.73651123],[122.42590332000002,30.733093262],[122.42968750000001,30.730102539],[122.43530273400002,30.728881836],[122.42987060500002,30.703674316],[122.42468261700002,30.700927734],[122.42388916000002,30.699279785],[122.43188476600001,30.693725586],[122.43389892600001,30.69329834],[122.43548584000001,30.69152832],[122.44091796900001,30.687683105],[122.44647216800001,30.687927246],[122.44689941400001,30.688110352],[122.44848632800002,30.692687988],[122.45050048800002,30.691894531],[122.45129394500002,30.689697266],[122.46148681600002,30.693481445],[122.46191406200002,30.694091797],[122.47692871100001,30.698303223],[122.47991943400001,30.697509766],[122.48229980500001,30.693908691],[122.48712158200001,30.693481445],[122.49047851600001,30.694885254],[122.495910645,30.700500488],[122.49969482400002,30.700073242],[122.49548339800002,30.694702148],[122.49847412100002,30.69329834],[122.50250244100002,30.694519043],[122.50769043000001,30.699523926],[122.51428222700001,30.698486328],[122.51629638700001,30.697875977],[122.51708984400001,30.715270996],[122.51611328100002,30.715270996],[122.51409912100002,30.711303711],[122.51171875000001,30.710693359],[122.50732421900001,30.715270996],[122.49890136700002,30.715087891],[122.49768066400001,30.713317871],[122.48547363300001,30.708129883]]]]}}
